name,address,type,place,website_url,menu_url,description,gift_card_txt,gift_card_website,contact_website,contact_txt,searched,state,zipcode,store_type
Fashion Fun Pop,"560 Washington St, Whitman, MA 02382",Clothing store,Whitman,http://www.fashionfunpop.com/,,,"
        Gift Card
      ",http://www.fashionfunpop.com/collections/gift-card,http://www.fashionfunpop.com/pages/contact-us,Contact Us,1,MA,02382,clothing_store
Calico,"173 Union St, New Bedford, MA 02740",Women's clothing store,New Bedford,https://www.shopcalico.com/,,"Womenswear boutique featuring a stylish inventory of casualwear, including jeans, shoes & jewelry.","
       The Perfect Gift  ðŸ‘‡
     ",https://www.shopcalico.com/products/shopcalico-com-online-gift-card,https://www.shopcalico.com/pages/contact-us,Contact Us,1,MA,02740,clothing_store
Nature's Closet,"61 Spring St, Williamstown, MA 01267",Clothing store,Williamstown,http://www.naturescloset.net/,,,Gift Cards,http://naturescloset.net/gift-cards/,http://naturescloset.net/contact/,Connect,1,MA,01267,clothing_store
Helena's,"397 Massachusetts Ave, Arlington, MA 02474",Clothing store,Arlington,https://ilovehelenas.com/,,Chic boutique catering to women wanting stylish wear that can be worn every day & anywhere.,,https://ilovehelenas.com/designers2.html,https://ilovehelenas.com/contact.html,,1,MA,02474,clothing_store
Creative Connections,"56 Main St #1242, Ashburnham, MA 01430",Gift shop,Ashburnham,http://www.ccgiftgallery.com/,,,Gift Certificates,http://www.ccgiftgallery.com/giftcertificates.php,http://www.ccgiftgallery.com/contact-us/,Contact Us,1,MA,01430,clothing_store
Cathy Cross,"151 Main St, Northampton, MA 01060",Women's clothing store,Northampton,http://www.cathycrossfashion.com/,,,Gift Cards,http://www.cathycrossfashion.com/gift-cards/,http://www.cathycrossfashion.com/contact-us/,Contact Us,1,MA,01060,clothing_store
Phoenix Trading Company,"92 Blandin Ave Unit J2, Framingham, MA 01702",Plus size clothing store,Framingham,http://www.phoenixtradingcompany.com/,,,Gift Certificates,http://www.phoenixtradingcompany.com/giftcertificates.php,http://www.phoenixtradingcompany.com/contact-us/,Contact Us,1,MA,01702,clothing_store
This Beautiful Dust,"159 Main St, Groton, MA 01450",Boutique,Groton,http://saltandlight.cafe/,,,"
        Buy A Gift Card
      ",https://www.toasttab.com/salt-light-cafe-bistro/giftcards,,,1,MA,01450,clothing_store
Dandelions LLC,"531 Summer St, Barre, MA 01005",Gift shop,Barre,http://www.dandelionsonline.com/,,,Gift Cards,http://www.dandelionsonline.com/collections/gift-cards,http://www.dandelionsonline.com/pages/978-257-8064,Contact Us,1,MA,01005,clothing_store
Railriders Sportswear,"70 Trapelo Rd, Belmont, MA 02478",Sportswear store,Belmont,https://www.railriders.com/,,,Gift Cards,https://www.railriders.com/men-outdoor-clothing-gift-cards-c-104_107.html,https://www.railriders.com/mailto:info@railriders.com,contact us,1,MA,02478,clothing_store
Too Tempted,"444 Common St, Belmont, MA 02478",Women's clothing store,Belmont,http://www.shoptootempted.com/,,,GIFT CARDS,http://www.shoptootempted.com/products/gift-card,,,1,MA,02478,clothing_store
Altiplano,"42 Elliot St, Brattleboro, VT 05301",Boutique,Brattleboro,http://www.altiplano.com/,,"Flagship store selling Guatemalan-inspired jewelry, accessories & decor by Shari Zarin.",Gift Certificates,http://www.altiplano.com/giftcertificates.php,https://altiplano.com/contact-1/,contact,1,VT,05301,clothing_store
Green Mountain Diapers,"74 Cotton Mill Hill A220, Brattleboro, VT 05301",Baby store,Brattleboro,http://www.greenmountaindiapers.com/,,,"
          Gift Cards",http://www.greenmountaindiapers.com/pages/gift-certificate,http://www.greenmountaindiapers.com/pages/contact-us,"
          Contact Us",1,VT,05301,clothing_store
Beaux Biens Beverly,"269 Cabot St, Beverly, MA 01915",Clothing store,Beverly,http://beauxbiens.com/,,,Gift Card,http://beauxbiens.com/products/beaux-biens-gift-card,http://beauxbiens.com/pages/contact-us,Contact Us,1,MA,01915,clothing_store
Breakmark,"7 Ferguson Rd, Wilmington, MA 01887",Clothing store,Wilmington,https://www.breakmark.com/,,,Gift Cards,https://www.breakmark.com/giftcertificates.php,https://breakmark.com/contact-us/,"
Contact Us
",1,MA,01887,clothing_store
Banana Republic Factory Store,"50 Water St, Lee, MA 01238",Clothing store,Lee,http://www.bananarepublic.gap.com/,,,Check Gift Card Balances,"http://www.bananarepublic.gap.com/customerService/info.do?cid=61830&mlink=5001,9222156,quickgift&clink=9222156",,,1,MA,01238,clothing_store
Sassy You Boutique,"369 W Main St, Northborough, MA 01532",Clothing store,Northborough,http://sassyyou.com/,,,Sassy Gift Card,http://sassyyou.com/products/gift-card,http://sassyyou.com/pages/contact-us,Contact Us,1,MA,01532,clothing_store
No Rest For Bridget Boston,"220 Newbury St, Boston, MA 02116",Women's clothing store,Boston,http://www.norestforbridget.com/,,"Boutique selling trendy, casual & fun styles of women's clothing, shoes, jewelry & accessories.","
Gift Cards
",http://www.norestforbridget.com/collections/gift-cards,http://www.norestforbridget.com/pages/contact-us,"
Contact Us
",1,MA,02116,clothing_store
Dress Boston,"70 Charles St, Boston, MA 02114",Women's clothing store,Boston,http://www.dressboston.com/,,"Chic, high-end women's boutique focusing on wardrobe essentials plus home decor & furniture.",Gift Cards,http://www.dressboston.com/products/gift-card,https://dressboston.com/pages/contact-us,VENDOR INQUIRIES,1,MA,02114,clothing_store
SAULT New England,"577 Tremont St, Boston, MA 02118",Men's clothing store,Boston,http://www.saultne.com/,,"Hip boutique offering classic & vintage apparel, accessories, grooming products & gifts for men.","




Gift Card's 


",http://www.saultne.com/collections/sault-new-england-gift-card,http://www.saultne.com/pages/contact,Contact Us,1,MA,02118,clothing_store
Stellar Apparel  Screen Printing Embroidery Promotional Items,"14 Newton St, Southborough, MA 01772",Clothing store,Southborough,http://www.stellarapparel.com/,,,Gift Certificates,"http://www.stellarapparel.com/store/stellar-apparel-gift-certificate,category.asp",http://www.stellarapparel.com/custom-screenprinting-contactus.asp,Contact Us,1,MA,01772,clothing_store
Pure Hockey,"739 Donald Lynch Blvd, Marlborough, MA 01752",Sporting goods store,Marlborough,https://www.purehockey.com/,,"Specialist retailer offering hockey gear & apparel, including inline & ice skates, sticks & pads.",Gift Certificates,https://www.purehockey.com/giftcards.aspx,https://www.purehockey.com/support.aspx,Contact Us,1,MA,01752,clothing_store
Sundance Clothing,"497 Main St, Chatham, MA 02633",Women's clothing store,Chatham,http://www.sundanceclothing.com/,,,"
                    Gift Cards
                  ",http://www.sundanceclothing.com/collections/gift-cards,,,1,MA,02633,clothing_store
Merry Go Rounds,"285 Washington St, North Easton, MA 02356",Children's clothing store,North Easton,http://www.shopmerrygorounds.com/,,,purchase a gift card,http://www.shopmerrygorounds.com/collections/gifts,http://www.shopmerrygorounds.com/pages/contact,Contact,1,MA,02356,clothing_store
Fringe Boutique,"193 Rockland St, Hanover, MA 02339",Women's clothing store,Hanover,https://fringeclothingboutique.com/,,,"



  

  #ProductImage-14345109471294 {
    max-width: 335px;
    max-height: 199.79978925184403px;
  }
  #ProductImageWrapper-14345109471294 {
    max-width: 335px;
  }











Gift Card

        
          From $25.00
        
      
",https://fringeclothingboutique.com/products/gift-card,https://fringeclothingboutique.com/pages/contact-us,"
            Contact Us
          ",1,MA,02339,clothing_store
Rainbow Connection,"128 Main St, Monson, MA 01057",Clothing store,Monson,http://www.rainbowconnection.com/,,,GIFT CERTIFICATES,http://www.rainbowconnection.com/cart.php?m=gift_certificates,https://www.rainbowconnection.com/Contact-Us-5.html,Contact Us,1,MA,01057,clothing_store
Tiny Hanger,"314 Harvard St, Brookline, MA 02446",Children's clothing store,Brookline,http://www.tinyhanger.com/,,Stylish children's clothing boutique carrying handmade pieces from local designers & creative gifts.,"

",https://www.tinyhanger.com/50-gift-card.html,https://www.tinyhanger.com/service/,Locations & Contact,1,MA,02446,clothing_store
Wild Goose Chase,"1355 Beacon St, Brookline, MA 02446",Clothing store,Brookline,http://www.wildgoosechasegifts.com/,,,Gift Cards,https://www.wildgoosechasegifts.com/gift-cards.htm,http://www.wildgoosechasegifts.com/contact.htm, CONTACT US,1,MA,02446,clothing_store
Baseballism Boston,"71 Lansdowne St, Boston, MA 02215",Clothing store,Boston,https://www.baseballism.com/,,,"
                            Gift Cards
                          ",https://www.baseballism.com/collections/gift-cards,https://www.baseballism.com/pages/contact-us,Contact,1,MA,02215,clothing_store
Queenia,"100 Cambridgeside Pl, Cambridge, MA 02141",Clothing store,Cambridge,http://queenia.net/,,,"
            Gift Cards
          ",http://queenia.net/gift-cards,http://queenia.net/contact-3,"
            Contact
          ",1,MA,02141,clothing_store
Marine Layer,"37 Brattle St, Cambridge, MA 02138",Clothing store,Cambridge,http://www.marinelayer.com/,,,Gift Cards!,http://www.marinelayer.com/products/marine-layer-e-gift-card,http://www.marinelayer.com/pages/contact-us,Contact Us,1,MA,02138,clothing_store
The Stone Flower,"100 Cambridgeside Pl 1 - 31, Cambridge, MA 02141",Jewelry store,Cambridge,http://www.thestoneflower.com/,,"This pink-themed boutique is filled with jewelry, accessories, handbags & trendy, casual dresses.",Gift Card,http://www.thestoneflower.com/products/gift-card,http://www.thestoneflower.com/pages/contact,Contact Us,1,MA,02141,clothing_store
the clothesVine,"134 W High St, Carlisle, PA 17013",Women's clothing store,Carlisle,http://www.theclothesvine.com/,,,"
                    Gift Cards
                ",http://www.theclothesvine.com/collections/gift-cards,http://www.theclothesvine.com/pages/contact,"
            Visit Us
        ",1,PA,17013,clothing_store
Safety Smart Gear,"240 Sturbridge Rd, Charlton, MA 01507",Protective clothing supplier,Charlton,https://safetysmartgear.com/,,,Gift Certificates,https://www.safetysmartgear.com/giftcertificates.php,https://safetysmartgear.com/contact/,,1,MA,01507,clothing_store
Hot Costumes,"175 Main St, Webster, MA 01570",Costume store,Webster,http://hotcostumes.com/,,,Gift Certificates,http://hotcostumes.com/giftcertificates.php,http://hotcostumes.com/colored-contacts/,Colored Contacts,1,MA,01570,clothing_store
Bella of Cape Cod,"585 Main St, Chatham, MA 02633",Fashion accessories store,Chatham,http://www.bellaofcapecod.com/,,,Gift Cards,https://www.bellaofcapecod.com/category_s/115.htm,http://www.bellaofcapecod.com/#column-3,"
                        Contact Us
                        
",1,MA,02633,clothing_store
Orvis,"1017 Galleria Blvd, Roseville, CA 95678",Clothing store,Roseville,http://www.orvis.com/,,,"
Shop Gifts & Gift Cards
                        ",https://m.orvis.com/subject/gifts,http://www.orvis.com/#,Contact Orvis,1,CA,95678,clothing_store
Garnet Hill Outlet Store,"231 Main St, Franconia, NH 03580",Women's clothing store,Franconia,https://www.garnethill.com/,,,Gift Cards,https://garnethill.cashstar.com/store/recipient?locale=en-us,https://www.garnethill.com/GarnetHill/US/Global/contactus/landing-path, Contact Us,1,NH,03580,clothing_store
Jane Chalfant Inc,"123 N High St, West Chester, PA 19380",Boutique,West Chester,http://www.janechalfant.com/,,,Gift Certificates,https://janechalfant.com/?product=gift-cards,https://janechalfant.com/?page_id=168,Contact Us,1,PA,19380,clothing_store
Nochi,"29 Main St, Vineyard Haven, MA 02568",Clothing store,Vineyard Haven,http://www.nochimv.com/,,,GIFT CERTIFICATES,https://www.nochimv.com/gift-card,https://www.nochimv.com/contact,CONTACT,1,MA,02568,clothing_store
The Black Dog General StoreCLOSED,"11 Main St, Edgartown, MA 02539",Clothing store,Edgartown,https://www.theblackdog.com/,,"Retailer selling casualwear, accessories & gifts with its signature dog logo for men, women & kids.",Gift Card Balance,https://www.theblackdog.com/pages/gift-card-balance,https://www.theblackdog.com/pages/contact-us,Contact Us,1,MA,02539,clothing_store
Healing Hands Bodywork & Massage,"Beach Rd, Edgartown, MA 02539",Clothing store,Edgartown,http://www.healinghandsmv.com/,,,"

			Promotions & Gift Certificates
		
",http://www.healinghandsmv.com/promotions--gift-certificates.html,,"
				BOOK / CONTACT
			",1,MA,02539,clothing_store
Sawyer Brook Distinctive Fabrics,"1031 Boston Post Rd E #101, Marlborough, MA 01752",Fabric store,Marlborough,http://www.sawyerbrook.com/,,,Gift Cards,https://www.sawyerbrook.com/product/preset-gift-cards/,http://www.sawyerbrook.com/contact-us/,"#mpcth_icon_column_fuqkI .mpc-vc-icon-column-icon i {color:#b163a3;}#mpcth_page_wrap #mpcth_icon_column_fuqkI:hover .mpc-vc-icon-column-icon .mpc-vc-icon-column-arrow {border-top-color:#b163a3;}#mpcth_page_wrap #mpcth_icon_column_fuqkI:hover .mpc-vc-icon-column-icon {background:#b163a3;}Sewist Support ServicesWill it match? Will it drape right? Will this fabric work with this pattern?
Call us and we'll help you get your project off to a great start! Â»",1,MA,01752,clothing_store
Cattivo,"344 Gannett Rd, Scituate, MA 02066",Clothing store,Scituate,https://shopcattivo.com/,,,Gift Cards,https://shopcattivo.com/products/gift-card,https://shopcattivo.com/pages/contact,Contact Us,1,MA,02066,clothing_store
Pretty Little Things,"812 Chief Justice Cushing Hwy, Cohasset, MA 02025",Boutique,Cohasset,https://www.prettylittlethings02066.com/,,,"
				Egift Cards
			",https://www.prettylittlethings02066.com/egift-cards.html,,,1,MA,02025,clothing_store
Chel Bella,"66 South St, Hingham, MA 02043",Women's clothing store,Hingham,http://www.chelbella.com/,,,"
                    Gift Card
                ",http://www.chelbella.com/products/gift-card-1,http://www.chelbella.com/pages/contact-us,"
            Contact Us
        ",1,MA,02043,clothing_store
Equipe Sport Mtn Riders,"21 S Access Rd, West Dover, VT 05356",Sportswear store,West Dover,http://www.equipesport.com/,,,Gift Cards,http://www.equipesport.com/collections/equipe-sport,,,1,VT,05356,clothing_store
Giblees Menswear & Tuxedos,"85 Andover St, Danvers, MA 01923",Clothing store,Danvers,http://www.giblees.com/,,"Menswear resource carrying casual shirts & jeans as well as suits, sport coats & tuxedo rentals.","
        Gift Cards
      ",http://www.giblees.com/collections/gift-card,,,1,MA,01923,clothing_store
Mass Vintage,"45 Boltwood Walk, Amherst, MA 01002",Vintage clothing store,Amherst,http://massvintage.com/,,,"
Gift Cards
",http://massvintage.com/products/massvintage-gift-card,,,1,MA,01002,clothing_store
Ted's Shoe & Sport,"115 Main St, Keene, NH 03431",Shoe store,Keene,http://www.tedsports.com/,,Local sporting goods retailer since 2000 selling brand-name athletic & specialty footwear & apparel.,Gift Card,https://www.tedsports.com/product-category/mwb_wgm_giftcard/,,Contact,1,NH,03431,clothing_store
Summer Shop,"16R Telegraph Rd, Dennis Port, MA 02639",Boutique,Dennis Port,http://bit.ly/,,,Gift Cards,https://www.dennisportgeneralstore.com/category_s/2001.htm,http://bit.ly/Articles.asp?ID=257,Contact Us,1,MA,02639,clothing_store
Littlenecks,"620 Main St, Dennis, MA 02638",Clothing store,Dennis,http://www.littleneckscapecod.com/,,,"
              Gift Certificates
            ",https://squareup.com/gift/SR7KWMNKAEZZ8/order,http://www.littleneckscapecod.com/contact,"
                Contact
              ",1,MA,02638,clothing_store
Annie's Unique Boutique,"1049 County St, Somerset, MA 02726",Women's clothing store,Somerset,https://anniesuniqueboutique.com/,,,Buy Annie's EGift Card,https://squareup.com/gift/VJW1BABAMB61C/order,https://www.anniesuniqueboutique.com/contact,About Us,1,MA,02726,clothing_store
Sick Boy Motorcycles,"11 Pine Knolls Dr, Dayville, CT 06241",Clothing store,Dayville,https://www.sickboy.com/,,,"
GIFT CARDS
",https://www.sickboy.com/hats-accessories-clothing-apparel-gear/gift-cards.html,https://www.sickboy.com/contact/,Contact Us,1,CT,06241,clothing_store
De Grandpre Jewelers Inc,"54 Cottage St, Easthampton, MA 01027",Jewelry store,Easthampton,http://degrandprejewelers.com/,,,"
Gift Cards
",http://degrandprejewelers.com/products/gift-card,,,1,MA,01027,clothing_store
Chatham T Company,"583 Main St, Chatham, MA 02633",Clothing store,Chatham,https://www.chathamtco.com/,,,"
            Click here
          ",https://www.chathamtco.com/products/gift-card,https://www.chathamtco.com/pages/contact-us,"
              Contact 
            ",1,MA,02633,clothing_store
LaBelle's General Store,"662 Main St, Dennis Port, MA 02639",Clothing store,Dennis Port,http://www.dennisportgeneralstore.com/,,,Gift Cards,https://www.dennisportgeneralstore.com/category_s/2001.htm,http://www.dennisportgeneralstore.com/Articles.asp?ID=257,Contact Us,1,MA,02639,clothing_store
Blouse House,"23 Commercial Way, Hanson, MA 02341",Clothing store,Hanson,https://www.blousehouse.com/,,,Gift Cards,https://www.blousehouse.com/products/gift-card,https://www.blousehouse.com/pages/contact-us,Contact us,1,MA,02341,clothing_store
AdamVintage,"145 Shaker Rd #2786, East Longmeadow, MA 01028",Gift shop,East Longmeadow,https://www.adamvintage.com/,,,Official Gift Certificate,https://www.adamvintage.com/digital-gift-cards.html,https://www.adamvintage.com/contact-adamvintage.html,"

			Contact
		
",1,MA,01028,clothing_store
Marketplace at The Sweater Venture,"700 Columbia Turnpike # 2, East Greenbush, NY 12061",Clothing store,East Greenbush,http://sweaterventure.com/,,,"

",https://www.sweaterventure.com/gift-card-web.html,,,1,NY,12061,clothing_store
fashion lounge clothing boutique,"427 Winthrop St, Taunton, MA 02780",Boutique,Taunton,http://www.fashionloungeusa.com/,,,"

",//cdn.shopify.com/s/files/1/1294/8307/products/e38bd83af578077b65a31424bd24d085.png?v=1464558300,,,1,MA,02780,clothing_store
Q Teens,"1017 Central St, Leominster, MA 01453",Clothing store,Leominster,http://www.shopqteens.com/,,,"

",https://www.ecistores.com/Gift-Card-C-1173/,http://www.shopqteens.com/help.php?section=contactus&mode=update," 
contact


",1,MA,01453,clothing_store
TERRAZZA,"Franklin Village Plaza, 4005, 210 Franklin Village Drive, Franklin, MA 02038",Gift shop,Franklin,http://www.terrazzagifts.com/,,,Gift Cards,http://www.terrazzagifts.com/products/terrazza-gift-certificate,http://www.terrazzagifts.com/pages/contact-us,Contact Us,1,MA,02038,clothing_store
Lisa Scala Handmade Jewelry,"28 W Main St, Georgetown, MA 01833",Jewelry designer,Georgetown,https://thechicpeek.com/,,,Gift Card,https://thechicpeek.com/dream/sale/gift-card/,https://thechicpeek.com/fashion-jewelry-collection/,Contact Us,1,MA,01833,clothing_store
Scrub Wear House,"2275 Northampton St, Holyoke, MA 01040",Uniform store,Holyoke,https://scrubwearhouse.net/,,,"




gift cards


",http://webstore.scrubwearhouse.net/ProductPage?brand=GCD&group=none&dept=all&show=all&brandname=SWH+Gift+Cards,https://scrubwearhouse.net/Home/Contact/EN,Contact Us,1,MA,01040,clothing_store
Boho Pretty,"203 S Main St, Goshen, IN 46526",Women's clothing store,Goshen,http://www.bohopretty.com/,,,Gift Cards,http://www.bohopretty.com/products/gift-card,http://www.bohopretty.com/pages/contact-us,Contact Us,1,IN,46526,clothing_store
SLIP77,"19 Circuit Ave, Oak Bluffs, MA 02557",Clothing store,Oak Bluffs,http://www.slip77.com/,,,"
                    Gift Card
                  ",http://www.slip77.com/collections/gift-card,,,1,MA,02557,clothing_store
The Treasure Chest Company,"369 W Main St, Northborough, MA 01532",Boutique,Northborough,http://www.sassyyou.com/,,,Sassy Gift Card,http://www.sassyyou.com/products/gift-card,http://www.sassyyou.com/pages/contact-us,Contact Us,1,MA,01532,clothing_store
Good Charma,"25 Railroad St, Great Barrington, MA 01230",Jewelry designer,Great Barrington,http://www.goodcharma.com/,,,Gift Card,http://www.goodcharma.com/collections/e-gift-card,http://www.goodcharma.com/pages/contact-us,"

",1,MA,01230,clothing_store
Uncommon Threads,"60 Island St, Lawrence, MA 01840",Clothing store,Lawrence,https://uncommonthreads.org/,,,purchase a gift certificate to Uncommon Closet,https://squareup.com/gift/Y09FN7F9FFC4P/order,https://uncommonthreads.org/contact/,Contact,1,MA,01840,clothing_store
NANTUCKET KIDS,"94 Derby St #247, Hingham, MA 02043",Children's clothing store,Hingham,https://www.nantucketkids.com/,,,Gift Cards,https://www.nantucketkids.com/collections/gift-cards,https://www.nantucketkids.com/pages/contact-us,Contact Us,1,MA,02043,clothing_store
The Hempest,"36 John F. Kennedy St, Cambridge, MA 02138",Clothing store,Cambridge,http://www.hempest.com/,,"Snug shop featuring a range of hemp-based products, including apparel, body care & accessories.",Gift Certificates,http://www.hempest.com/giftcertificates.php,https://www.hempest.com/contact-us/,Contact Us,1,MA,02138,clothing_store
MBTAgifts,"1735 Massachusetts Ave, Cambridge, MA 02138",Gift shop,Cambridge,http://www.mbtagifts.com/,,,Gift Cards,http://www.mbtagifts.com/products/gift-card,http://www.mbtagifts.com/pages/contact-us,Contact Us,1,MA,02138,clothing_store
Fisherman's Daughter,"521 Main St, Chatham, MA 02633",Clothing store,Chatham,http://fishermansdaughtermarket.com/,,,"



          +
        


Gift Card






from
$10.00


",http://fishermansdaughtermarket.com/products/gift-card-1,,,1,MA,02633,clothing_store
MOCEAN Cape Cod,"1150 Queen Anne Rd, Harwich, MA 02645",Outdoor clothing and equipment shop,Harwich,http://www.capecodbeachchair.com/,,,,http://www.capecodbeachchair.com/products/gift-card,http://www.capecodbeachchair.com/pages/contact-us,Contact Us,1,MA,02645,clothing_store
The Color Mint,"25 Railroad Square #205, Haverhill, MA 01832",Clothing store,Haverhill,https://www.shopthecolormint.com/,,,"
                    Gift Card
                  ",https://www.shopthecolormint.com/products/gift-card,https://www.shopthecolormint.com/pages/contact,Contact,1,MA,01832,clothing_store
I Love Boston Sports,"250 Granite St, Braintree, MA 02184",Sportswear store,Braintree,http://www.ilovebostonsports.com/,,,"
						Gift Certificates
					",http://www.ilovebostonsports.com/giftcertificates.php,https://www.ilovebostonsports.com/pages/Contact-Us.html,Contact Us,1,MA,02184,clothing_store
Portobello Road,"55 Boylston St, Chestnut Hill, MA 02467",Women's clothing store,Chestnut Hill,http://www.portobelloroadusa.com/,,"Trendy womenâ€™s boutique earns buzz for its range of stylish designer fashions, accessories & gifts.","
        Gift Card
      ",http://www.portobelloroadusa.com/gift-card/gift-card,http://www.portobelloroadusa.com/contact,Contact,1,MA,02467,clothing_store
Kleen 'n Hard Sports,"70 James St #111c , Left Rear Side, James St, Worcester, MA 01603",Sporting goods store,Worcester,http://www.kleennhardsports.com/,,,"
            Gift Cards
          ",http://www.kleennhardsports.com/collections/gift-cards,,,1,MA,01603,clothing_store
Tip Toes,"60 E 8th St, Holland, MI 49423",Children's clothing store,Holland,http://www.shoptiptoes.com/,,,Gift cards,https://www.shoptiptoes.com/gift-cards/,,,1,MI,49423,clothing_store
Cacique,"50 Holyoke St, Holyoke, MA 01040",Lingerie store,Holyoke,https://cacique.lanebryant.com/,,,Gift Cards,https://cacique.lanebryant.com/lanebryant/account/giftcard-landing-page.jsp,,,1,MA,01040,clothing_store
Holyoke Sporting Goods Co,"1584 Dwight St # 1, Holyoke, MA 01040",Sporting goods store,Holyoke,http://hsgsports.com/,,,Gift Cards Now Available On-Line,http://www.hsgsports.com/2020/03/26/gift-cards-now-available-on-line/,http://www.hsgsports.com/contact-us/,Contact Us,1,MA,01040,clothing_store
K&B Sportswear,"154 Main St, Northborough, MA 01532",Swimwear store,Northborough,https://www.kbswimandsports.com/,,,Gift Certificate,https://www.kbswimandsports.com/?post_type=product&p=57768,https://www.kbswimandsports.com/location-contact/,Contact,1,MA,01532,clothing_store
Luxe Leisure,"553 E Broadway, South Boston, MA 02127",Clothing store,South Boston,http://luxe-leisure.com/,,,Gift Cards,http://luxe-leisure.com/products/gift-card,http://luxe-leisure.com/pages/contact-us,Contact Us,1,MA,02127,clothing_store
Alice Walk,"423 W Broadway Suite 403, Boston, MA 02127",Women's clothing store,Boston,http://alicewalk.com/,,,Gift Card,http://alicewalk.com/products/physical-gift-card,http://alicewalk.com/pages/contact-us,Contact,1,MA,02127,clothing_store
alice  olivia,"166 Newbury St, Boston, MA 02116",Clothing store,Boston,https://www.aliceandolivia.com/,,,E-Gift Cards,https://www.aliceandolivia.com/e-gift-cards/,https://www.aliceandolivia.com/contact-us/,Contact Us,1,MA,02116,clothing_store
Betsy Frost Design,"4 Market St, Ipswich, MA 01938",Gift shop,Ipswich,http://www.betsyfrostdesign.com/,,,DIGITAL GIFT CARDS,http://www.betsyfrostdesign.com/gift-certificates,http://www.betsyfrostdesign.com/contact-us,CONTACT,1,MA,01938,clothing_store
Nicole Taylor Boutique,"325 N Queen St b01, Lancaster, PA 17603",Women's clothing store,Lancaster,https://nicoletaylorboutique.com/,,,GIFT CARDS,https://nicoletaylorboutique.com/products/gift-card,https://nicoletaylorboutique.com/pages/contact-us,Contact Us - Store Hours - Location,1,PA,17603,clothing_store
Albany Fashions Indian Clothing Store Albany New York Visit by Appointment only,"26 Cortland Dr, Albany, NY 12211",Clothing store,Albany,http://www.albanyfashions.com/,,,Gift Certificates,http://www.albanyfashions.com/giftcertificates.php,,,1,NY,12211,clothing_store
Hope & Henry,"75 Middlesex Turnpike #2061, Burlington, MA 01803",Children's clothing store,Burlington,https://hopeandhenry.com/,,,"

",https://hopeandhenry.com/products/giftwizard-giftcard,https://hopeandhenry.com/pages/contact-us,Contact Us,1,MA,01803,clothing_store
Crafty Yankee,"1838 Massachusetts Ave, Lexington, MA 02420",Gift shop,Lexington,http://www.craftyyankee.com/,,,,https://www.shopcraftyyankee.com/collections/gift-card/products/gift-cards,http://visitor.r20.constantcontact.com/d.jsp?llr=hcpepxn6&p=oi&m=1011178683463&sit=tjqfnzc4&f=9b837e0e-8134-4077-b1a7-f519aa822e34,,1,MA,02420,clothing_store
Olives & Grace,"623 Tremont St, Boston, MA 02118",Gift shop,Boston,http://www.olivesandgrace.com/,,"Bright nook offering small-batch locavore food products & bespoke gift items, plus tastings.",Gift Card,http://www.olivesandgrace.com/collections/gift-card,http://www.olivesandgrace.com/pages/contact,About,1,MA,02118,clothing_store
The Flower Child,"131 Essex St store 4, Salem, MA 01970",Clothing store,Salem,http://www.theflowerchild.com/,,,"
          Gift Cards
          
        ",http://www.theflowerchild.com/collections/gift-card,http://www.theflowerchild.com/pages/contact-us,"
          Contact us
          
        ",1,MA,01970,clothing_store
Chart Mugs,"12 Schooner Ridge, Marblehead, MA 01945",Boutique,Marblehead,https://chartmugs.com/,,, Gift Card,https://chartmugs.com/charts/?fwp_category=gift-card&fwp_sort=distance,https://chartmugs.com/about/#contact,Custom,1,MA,01945,clothing_store
Mahri,"156 Washington St, Marblehead, MA 01945",Jeweler,Marblehead,http://www.mahrifashion.com/,,,"
                GIFT CARD
            ",http://www.mahrifashion.com/products/mahri-gift-card,http://www.mahrifashion.com/pages/c-o-n-t-a-c-t,c o n t a c t,1,MA,01945,clothing_store
Scrubs With Style,"247B W Main St, Northborough, MA 01532",Uniform store,Northborough,http://www.scrubswithstyle.com/,,,Gift Card,https://scrubswithstyle.com/gift-card/,https://scrubswithstyle.com/contact/,Contact,1,MA,01532,clothing_store
Heart & Sole Boutique,"354 Hanover St, Boston, MA 02113",Boutique,Boston,http://www.heartandsoleboston.com/,,,GIFT CARDS,https://www.heartandsoleboston.com/copy-of-our-story,https://www.heartandsoleboston.com/contact,CONTACT,1,MA,02113,clothing_store
FabVilla,"Commons, 11 Central Square, Mashpee, MA 02649",Gift shop,Mashpee,https://www.fabvilla.net/,,,Gift Card,https://www.fabvilla.net/details.cfm/Bridge?prodid=156880,https://www.fabvilla.net/info.cfm,"
ContactCustomer Service
",1,MA,02649,clothing_store
The Lili Pad,"30 North Street, Commons At, Mashpee, MA 02649",Gift shop,Mashpee,http://thelilipad.com/,,,Gift Card,http://thelilipad.com/details.cfm/Bridge?prodid=156880,http://thelilipad.com/info.cfm,"
ContactCustomer Service
",1,MA,02649,clothing_store
Oliver's Wands and Wizarding Wares,"60 Main St, Maynard, MA 01754",Gift shop,Maynard,http://www.oliverswands.com/,,,"
GIFT CARDS
",http://www.oliverswands.com/collections/gift-cards,http://www.oliverswands.com/pages/contact-us,"
CONTACT US
",1,MA,01754,clothing_store
Peach,"204 2nd Ave, Waltham, MA 02451",Women's clothing store,Waltham,http://www.discoverpeach.com/,,,Gift Card,http://www.discoverpeach.com/t/categories/e-gift-card,,Contact Us,1,MA,02451,clothing_store
Be Charmed,"70 North St, Medfield, MA 02052",Gift shop,Medfield,http://becharmedgifts.com/,,,Gift Cards,https://www.becharmedgifts.com/gift-cards/,https://www.becharmedgifts.com/service/contact-us/,Contact Us,1,MA,02052,clothing_store
Butterfly Tree,"505 Main St, Medfield, MA 02052",Gift shop,Medfield,http://www.thebutterflytreestore.com/,,,Gift Cards,http://www.thebutterflytreestore.com/products/gift-cards,http://www.thebutterflytreestore.com/pages/contact,Contact,1,MA,02052,clothing_store
Isabel Harvey,"41 Central St, Wellesley, MA 02482",Boutique,Wellesley,https://isabelharvey.com/,,,"
          GIFT CARDS
        ",https://isabelharvey.com/products/gift-card,https://isabelharvey.com/pages/contact-us,contact us,1,MA,02482,clothing_store
4GoodVibes,"483 Somerville Ave, Somerville, MA 02143, 392 Main St, Medford, MA 02155",Gift shop,Medford,http://www.4goodvibes.bigcartel.com/,,,"



On sale



Gift Certificate 
$10.00



",http://www.4goodvibes.bigcartel.com/product/gift-certificate,http://www.4goodvibes.bigcartel.com/contact,Contact,1,MA,02155,clothing_store
North Shore Bridal,"647 Main St, Melrose, MA 02176",Bridal shop,Melrose,http://www.fashionsbytamara.com/,,,"
eGift Cards Now Available!
",https://squareup.com/gift/BZ06AT0XGFFPE/order,http://www.fashionsbytamara.com/contact-me.html,"
						Contact Me!
					",1,MA,02176,clothing_store
Grey Tree Boutique,"1725 Mendon Rd Suite 104, Cumberland, RI 02864",Gift shop,Cumberland,http://www.shopgreytree.com/,,,"
            Giftcards
          ",http://www.shopgreytree.com/collections/giftcard,,,1,RI,02864,clothing_store
With Heart & Soul,"3751 Mendon Rd, Cumberland, RI 02864",Clothing store,Cumberland,http://www.withheartandsoul.com/,,"High-end women's boutique since 1999 carrying fashionable clothing, designer jewelry & home decor.",Gift Card,https://withheartandsoul.com/product-category/gift-card/,https://withheartandsoul.com/contact/,CONTACT & DIRECTIONS,1,RI,02864,clothing_store
Nauti Pearl,"274 Cabot St, Beverly, MA 01915",Jewelry store,Beverly,https://nautipearl.com/,,,"

",https://nautipearl.com/products/sale-gift-cards,,,1,MA,01915,clothing_store
Icing by Claire's,"1 Mall Rd, Salem, NH 03079",Fashion accessories store,Salem,http://www.icing.com/,,,  Gift Cards,https://www.icing.com/us/giftcards.html,https://www.icing.com/us/customer-service-contact/,  Contact Us,1,NH,03079,clothing_store
FRENCH  ITALIAN,"129 Washington St, Marblehead, MA 01945",Clothing store,Marblehead,http://www.frenchitalian.com/,,,Gift Cards,http://www.frenchitalian.com/products/gift-card,http://www.frenchitalian.com/mailto:shop@frenchitalian.com,,1,MA,01945,clothing_store
Tesoro Boston,"149 S Main St h, Middleton, MA 01949",Jeweler,Middleton,http://tesoroboston.com/,,,,https://www.tesoroboston.com/Tesoro-Boston-Gift-Certificate-p/gft.htm,http://tesoroboston.com/mailto:info@tesoroboston.com?Subject=Contact%20Us,Contact Us,1,MA,01949,clothing_store
Crossroads Trading,"1959 W San Carlos St, San Jose, CA 95128",Used clothing store,San Jose,http://www.crossroadstrading.com/,,"Consignment store with new & used clothing, shoes & accessories, including brand-name items.",Order A Gift Card,http://www.crossroadstrading.com/gift-card,http://visitor.r20.constantcontact.com/d.jsp?llr=7ghs7nbab&p=oi&m=1101051534556&sit=ad9jnowab&f=1f80dbe7-b9d1-4b95-af71-d7a154890c2b,Join Our Newsletter,1,CA,95128,clothing_store
Loup,"426 Warren St, Hudson, NY 12534",Clothing store,Hudson,http://www.louponline.com/,,,Gift Certificates,http://www.louponline.com/products/gift-certificate,http://www.louponline.com/pages/contact,Contact,1,NY,12534,clothing_store
Orvis Sandanona Shooting Grounds,"3047 Sharon Turnpike, Millbrook, NY 12545",Clothing store,Millbrook,https://www.orvis.com/,,,Gift Card,https://www.orvis.com/store/../giftcard,https://www.orvis.com/s/orvis-contact-orvis-by-phone-or-mail/1472,888-235-9763888-235-9763,1,NY,12545,clothing_store
Steiner's Sports,"301 Warren St, Hudson, NY 12534",Clothing store,Hudson,http://steinersskibike.com/,,,Gift Cards,https://www.steinersskibike.com/product-list/gift-cards-1221/,,,1,NY,12534,clothing_store
Nantucket Looms,"51 Main St, Nantucket, MA 02554",Clothing store,Nantucket,http://www.nantucketlooms.com/,,,Gift Cards,https://www.nantucketlooms.com/collections/gift-cards,http://www.nantucketlooms.com/pages/contact-us,Have questions about a product or need assistance with an order? Please email us: info@nantucketlooms.com,1,MA,02554,clothing_store
Pinwheels,"32 Centre St, Nantucket, MA 02554",Children's clothing store,Nantucket,https://www.shoptiques.com/,,,Gift Cards,https://www.shoptiques.com/gift-cards,https://www.shoptiques.com/contact,Contact Us,1,MA,02554,clothing_store
Abigail Fox Designs Nantucket,"45 Straight Wharf, Nantucket, MA 02554",Clothing store,Nantucket,http://www.abigailfoxstore.com/,,,Gift Certificates,http://www.abigailfoxstore.com/collections/gift-certificates,,,1,MA,02554,clothing_store
LuxCouture,"9 Lincoln St, Newton Highlands, MA 02461",Women's clothing store,Newton Highlands,https://www.luxcouture.com/,,,"



  

  #ProductImage-13994120642665 {
    max-width: 335px;
    max-height: 144.83823529411765px;
  }
  #ProductImageWrapper-13994120642665 {
    max-width: 335px;
  }














Holiday Gift Card
LuxCouture

        
        
        
          From $100.00
        
      
",https://www.luxcouture.com/products/holiday-gift-card,https://www.luxcouture.com/pages/contact,"
            Contact
          ",1,MA,02461,clothing_store
Beach Road Designs,"Forest St, Needham, MA 02492",Boutique,Needham,https://www.beachsheets.com/,,,Gift Cards,https://www.beachsheets.com/products/gift-card,https://www.beachsheets.com/pages/contact-us,CONTACT,1,MA,02492,clothing_store
Pink Domino,"1280 Centre St, Newton, MA 02459",Clothing store,Newton,http://www.pinkdomino.com/,,"Standby known for fancy occasion dresses for preteens & teenagers, including custom options.",Gift Cards,https://swipeit.com/product/529/pink-domino,https://www.pinkdomino.com/contact,Store Hours / Contact Us,1,MA,02459,clothing_store
Meraki welivelikethis,"29 State St, Newburyport, MA 01950",Women's clothing store,Newburyport,http://www.merakiwelivelikethis.com/,,,"
              Gift Card
            ",http://www.merakiwelivelikethis.com/?category=Gift+Card,http://www.merakiwelivelikethis.com/get-in-touch,"
        
        Contact Us
      ",1,MA,01950,clothing_store
Ganesh Imports,"33 State St, Newburyport, MA 01950",Gift shop,Newburyport,http://www.ganeshimports.com/,,,"
            Gift Cards
        ",http://www.ganeshimports.com/products/gift-card,,,1,MA,01950,clothing_store
Pretty Poppy,"43 Pleasant St, Newburyport, MA 01950",Jewelry store,Newburyport,http://www.prettypoppystore.com/,,,Gift Cards,http://www.prettypoppystore.com/collections/gift-cards,http://www.prettypoppystore.com/pages/contact,Contact,1,MA,01950,clothing_store
Pam Older Designs,"42 Merrimac St, Newburyport, MA 01950",Jewelry designer,Newburyport,http://www.pamolderdesigns.com/,,,Gift Certificates,http://www.pamolderdesigns.com/giftcertificates.php,https://www.pamolderdesigns.com/contact-us-1/,Contact Us!,1,MA,01950,clothing_store
Alan Bilzerian,"1217 Centre St, Newton, MA 02459",Women's clothing store,Newton,http://www.alanbilzerian.com/,,,Gift Certificates,http://www.alanbilzerian.com/giftcertificates.php,https://www.alanbilzerian.com/contact-us/,Contact Us,1,MA,02459,clothing_store
Pageo Jewelers  Newton,"843 Beacon St, Newton, MA 02459",Jeweler,Newton,http://www.pageo.com/,,"Long-standing jewelry shop featuring both traditional & modern designs, plus repairs & cleaning.","
            GIFT CARD
          ",http://www.pageo.com/gift-card,http://www.pageo.com/contact,"
            CONTACT
          ",1,MA,02459,clothing_store
Legit Activewear,"33 Boylston St #3335, Chestnut Hill, MA 02467",Sportswear store,Chestnut Hill,http://www.legitactivewear.com/,,,Buy Now,http://www.legitactivewear.com/products/gift-card,http://www.legitactivewear.com/pages/contact-us,"
Need help? Contact Us

",1,MA,02467,clothing_store
be jeweled,"26 Centre St, New Bedford, MA 02740",Jewelry store,New Bedford,http://www.shopbejeweledonline.com/,,,gift cards,https://www.shopbejeweledonline.com/gift-card/gift-card,http://www.shopbejeweledonline.com/contact,Contact,1,MA,02740,clothing_store
beryl,"40 Main St, Northampton, MA 01060",Jewelry store,Northampton,http://www.shopberyl.com/,,,Gift Cards,http://www.shopberyl.com/gift-cards.html,https://www.shopberyl.com/contact/,Contact,1,MA,01060,clothing_store
Kestrel,"22 Masonic St, Northampton, MA 01060",Gift shop,Northampton,https://www.kestrelshop.com/,,,Gift Cards,https://www.kestrelshop.com/pages/gift-cards,https://www.kestrelshop.com/pages/contact-us,Contact Us,1,MA,01060,clothing_store
Silverscape Designs,"1 King St, Northampton, MA 01060",Jeweler,Northampton,http://www.silverscapedesigns.com/,,Upscale boutique selling artisan jewelry & home decor in an old Art Deco bank building.,Gift Cards,http://www.silverscapedesigns.com/pages/gift-cards,http://www.silverscapedesigns.com/pages/contact-us,Contact Us,1,MA,01060,clothing_store
Julia's Alterations Bridal Seamstress,"265 Main St C, Northborough, MA 01532",Clothing alteration service,Northborough,http://juliaalterations.com/,,,Gift Certificate,https://www.juliaalterations.com/giftcertificate.htm,https://www.juliaalterations.com/contact-us,Contact Us,1,MA,01532,clothing_store
Amy's Cottage,"39 Spring St, Williamstown, MA 01267",Boutique,Williamstown,http://amyscottage.com/,,,"

Share
Share on Facebook
",//www.facebook.com/sharer.php?u=https://amyscottage.com/products/amys-cottage-gift-card,,,1,MA,01267,clothing_store
Darby Scott Inc,"47 High St, North Andover, MA 01845",Fashion accessories store,North Andover,https://www.darbyscott.com/,,,Gift Cards,https://www.darbyscott.com/products/e-gift-card,https://www.darbyscott.com/pages/contact,CONTACT US,1,MA,01845,clothing_store
Rose & Dove Specialty Gift Shop,"565 Chickering Rd, North Andover, MA 01845",Gift shop,North Andover,http://www.roseanddove.com/,,,"
          BUY NOW
        ",http://www.roseanddove.com/collections/gift-cards,,,1,MA,01845,clothing_store
Retail Therapy LLC,"24 Wilson Way, Westwood, MA 02090",Women's clothing store,Westwood,http://www.frugalfannies.com/,,,GIFT CARDS,https://frugal-fannies-fashion-warehouse.myshopify.com/,http://www.frugalfannies.com/contact-us,Contact Us,1,MA,02090,clothing_store
Alexander's Uniforms,"500 Boston Providence Hwy, Norwood, MA 02062",Uniform store,Norwood,http://www.alexandersuniforms.com/,,"Store selling uniforms for healthcare professionals, including scrubs, lab coats & footwear.",Gift Cards,http://www.alexandersuniforms.com/giftcards,https://alexandersuniforms.com/contacts/,Contact Us,1,MA,02062,clothing_store
Murray's Fabrics & Sewing Machines,"11 S Orleans Rd, Orleans, MA 02653",Fabric store,Orleans,http://murraysfabrics.com/,,,Gift Cards,https://www.murraysfabrics.com/gift-cards.htm,http://murraysfabrics.com/contact-us.htm,CONTACT US,1,MA,02653,clothing_store
Maggie Mae Designs,"929B Main St, South Harwich, MA 02661",Hat shop,South Harwich,http://www.maggiemae.com/,,,"Gift
										Certificates",http://www.maggiemae.com/hatgiftcertificate.htm,http://www.maggiemae.com/mailto:sally@maggiemae.com,"Contact
								Sally",1,MA,02661,clothing_store
Hiltons Princeton,"221 Witherspoon St, Princeton, NJ 08542",Clothing store,Princeton,http://www.hiltonsprinceton.com/,,"Upscale store selling designer & made-to-measure menswear, plus women's fashion & wedding attire.","
        Gift Cards
      ",http://www.hiltonsprinceton.com/gift-card,http://www.hiltonsprinceton.com/contact,"
            Location
          ",1,NJ,08542,clothing_store
D Flax,"214 Commercial St, Provincetown, MA 02657",Clothing store,Provincetown,http://www.dflax.com/,,,GIFT CERTIFICATE,http://www.dflax.com/GIFT-CERTIFICATE_c_115.html,http://www.dflax.com/crm.asp?action=contactus,Contact Us,1,MA,02657,clothing_store
MATE Provincetown Inc,"349 Commercial St, Provincetown, MA 02657",Clothing store,Provincetown,https://www.mateprovincetowninc.com/,,,GIFT CARDS,https://squareup.com/gift/23B587F6BRGBV/order,https://www.mateprovincetowninc.com,CONTACT,1,MA,02657,clothing_store
Adam's Nest,"379a Commercial St, Provincetown, MA 02657",Clothing store,Provincetown,http://adamsnest.com/,,,"
                    Gift Cards
                  ",http://adamsnest.com/products/adams-nest-gift-card,,,1,MA,02657,clothing_store
Seaplane Shirts,"347 Commercial St, Provincetown, MA 02657",Clothing store,Provincetown,http://seaplaneshirts.com/,,,"
                            gift cards
                        ",http://seaplaneshirts.com/products/gift-card,http://seaplaneshirts.com/pages/contact,"
                            contact us
                        ",1,MA,02657,clothing_store
The Cue,"12 Ericsson St 3rd floor, Boston, MA 02122",Clothing store,Boston,http://www.shopthecue.com/,,,"
                    GIFTCARD
                  ",http://www.shopthecue.com/collections/giftcard,http://www.shopthecue.com/pages/contact-us,"
              CONTACT US / EVENTS
            ",1,MA,02122,clothing_store
PSL Boutique,"1061 N Main St, Randolph, MA 02368",Boutique,Randolph,http://www.pslboutique.com/,,,"
            Gift Card
          ",http://www.pslboutique.com/products/gift-card,http://www.pslboutique.com/pages/contact-us,"
            Contact Us
          ",1,MA,02368,clothing_store
Woburn Scout Shop,"Tower Office Park, #2R, Woburn, MA 01801",Uniform store,Woburn,http://www.scoutshop.org/,,,"
                    Gifts                ",http://www.scoutshop.org/gifts-gift-cards,,,1,MA,01801,clothing_store
Outdoor Voices,"31 Northern Ave, Boston, MA 02210",Sportswear store,Boston,http://www.outdoorvoices.com/,,,Gift Cards,https://www.outdoorvoices.com/products/gift-certificate?variant=12584624881742,http://www.outdoorvoices.com/pages/contact-us,Help,1,MA,02210,clothing_store
Mountain Hardwear Employee Store,"1414 Harbour Way S #1010, Richmond, CA 94804",Sporting goods store,Richmond,https://www.mountainhardwear.com/,,,Gift Cards,https://www.mountainhardwear.com/giftcards,,,1,CA,94804,clothing_store
Mod&Soul,"323 W Broad St, Richmond, VA 23220",Women's clothing store,Richmond,http://www.modandsoul.com/,,"Bohemian women's boutique offering a selection of trendy dresses, tops, accessories & gifts.",GIFT CARDS,http://www.modandsoul.com/products/gift-card,,,1,VA,23220,clothing_store
Salty Boutique,"749 Park Ave, Rochester, NY 14607",Women's clothing store,Rochester,http://www.sheissalty.com/,,,"




Gift Cards

",https://squareup.com/gift/4YDKXH7EC38WR/order,http://www.sheissalty.com/pages/contact-us,"
              CONTACT
              
            ",1,NY,14607,clothing_store
The Op Shop,"89 Charlotte St, Rochester, NY 14607",Vintage clothing store,Rochester,https://www.theopshoproc.com/,,,"

",https://www.instagram.com/p/B_N438-B6FP/,https://www.theopshoproc.com/contact,"
Contact
",1,NY,14607,clothing_store
Rockland Athletic Supplies,"320 Union St, Rockland, MA 02370",Sporting goods store,Rockland,https://rocklandathletics.com/,,,â€¢ GIFT CERTIFICATES,https://rocklandathletics.com/sales-special-deals/flyers-and-gift-certificates.html,https://rocklandathletics.com/mailto:sales@rocklandathletics.com,Contact Us,1,MA,02370,clothing_store
Coast & Country,"37 Bearskin Neck, Rockport, MA 01966",Women's clothing store,Rockport,http://www.coastandcountry.shop/,,,"
            Gift Cards
          ",http://www.coastandcountry.shop/products/gift-card,,,1,MA,01966,clothing_store
Nature's Body Art & Soulstice Shop,"1 Tuna Wharf, Rockport, MA 01966",Clothing store,Rockport,http://www.soulsticeshop.com/,,,Gift Certificates,http://www.soulsticeshop.com/collections/web-gift-certificates,,,1,MA,01966,clothing_store
Francie's Boutique,"14 Dock Square, Rockport, MA 01966",Boutique,Rockport,http://www.franciesboutique.com/,,,"







",http://www.franciesboutique.com/shop/gift-card,http://www.franciesboutique.com/contact,"
            Contact
          ",1,MA,01966,clothing_store
Sweats of Rockport,"52 Bearskin Neck, Rockport, MA 01966",Sporting goods store,Rockport,http://www.rockportusa.com/,,,,https://capeannchamber.com/cape-ann-gift-certificates/,http://www.rockportusa.com/contact,Contact,1,MA,01966,clothing_store
Seaside Allure,"9 Pleasant St, Marblehead, MA 01945",Clothing store,Marblehead,https://www.seasideallure.com/,,,"
            Gift Card
          ",https://www.seasideallure.com/products/gift-card,,,1,MA,01945,clothing_store
Luxa Jewelry,"4 Elm St # B, Ipswich, MA 01938",Jewelry store,Ipswich,http://www.luxajewelry.com/,,,Gift Cards,http://www.luxajewelry.com/collections/gift-card,http://www.luxajewelry.com/pages/contac,Contact,1,MA,01938,clothing_store
Mabel & Lou Boutique,"31 Central Square #6, Keene, NH 03431",Women's clothing store,Keene,http://www.shopmabelandlou.com/,,,"
            Gift Card
        ",http://www.shopmabelandlou.com/products/gift-card,http://www.shopmabelandlou.com/pages/contact,"
            Contact Us
        ",1,NH,03431,clothing_store
Painted Daisies,"679 Old King's Hwy, East Sandwich, MA 02537",Gift shop,East Sandwich,http://www.painteddaisies.com/,,,GIFT CERTIFICATES,https://www.painteddaisies.com/gift-certificates,,,1,MA,02537,clothing_store
Guertin Robert E,"8 Merchants Rd, Sandwich, MA 02563",Jeweler,Sandwich,http://robertguertinjeweler.com/,,,Gift Cards,https://www.robertguertinjeweler.com/guertin-jewelry-gift-card/,https://www.robertguertinjeweler.com/contact-us/,Hours,1,MA,02563,clothing_store
Impact Everything,"297 Thayer St 2nd floor, Providence, RI 02906",Clothing store,Providence,http://www.impacteverything.org/,,,Gift Cards,https://impacteverything.org/gift-cards-gift-with-purpose/,http://impacteverything.org/free-contact-less-pickup/,"

FREE Contact-less Pick Up

",1,RI,02906,clothing_store
B R A E V A L,"503 Bantam Rd, Litchfield, CT 06759",Sportswear store,Litchfield,http://braeval.net/,,,Gift Certificate,http://braeval.net/giftcertificates.php,https://www.braeval.net/contact/,Contact,1,CT,06759,clothing_store
Nelle and Lizzy,"2 Shaker Rd, Shirley, MA 01464",Jewelry designer,Shirley,http://www.nelleandlizzy.com/,,,Gift Certificate,https://www.nelleandlizzy.com/cgi-nelleandlizzy/sb/order.cgi?storeid=*1eda6194410ae8476cf02457639f04a99e&cert=gift,https://www.nelleandlizzy.com/contact-us.html,Contact Us,1,MA,01464,clothing_store
Sachs Jewelers,"180 Boston Turnpike, Route 9 East, Shrewsbury, MA 01545",Jeweler,Shrewsbury,http://www.sachsjewelers.com/,,,E-Gift Cards,https://www.sachsjewelers.com/gift-card.html,https://www.sachsjewelers.com/contact-us.html,Contact,1,MA,01545,clothing_store
c2 by Janeware Micro,"86 Joy St, Somerville, MA 02143",Clothing store,Somerville,http://www.buyc2.com/,,,Gift Cards,https://www.westhillshop.com/product-list/gift-cards-1221/,,,1,MA,02143,clothing_store
SwapIt,"363 Main St, Medford, MA 02155",Clothing store,Medford,https://www.swapit.cool/,,,gift card,https://clients.mindbodyonline.com/classic/ws?studioid=686970&stype=42,,,1,MA,02155,clothing_store
Cormier Jewelers,"42 Central St, Southbridge, MA 01550",Jeweler,Southbridge,http://www.cormiers.com/,,,"""Buy Online, get Extra In-Store"" Gift Certificates (click here)!",http://www.cormiers.com/store/#!/~/category/id=47591121,,,1,MA,01550,clothing_store
Lotus & Compass Boutique,"264 Exchange St, Chicopee, MA 01013",Clothing store,Chicopee,http://www.lotusandcompass.com/,,,"
Purchase Gift Certificate
",http://www.lotusandcompass.com/products/give-the-gift-of-a-shopping-spree,http://www.lotusandcompass.com/pages/contact-us,Contact Us,1,MA,01013,clothing_store
Mutability in Motion Gift Shop,"36 Main St, Stockbridge, MA 01262",Gift shop,Stockbridge,http://www.mutabilityinmotion.com/,,,EMAILING,http://www.mutabilityinmotion.com/mailto:info@mutabilityinmotion.com?subject=Gift Certificate Request,https://www.mutabilityinmotion.com/contact,CONTACT,1,MA,01262,clothing_store
Sadie Green's Curiosity Shop,"283 Main St, Sturbridge, MA 01566",Gift shop,Sturbridge,http://www.sadiegreens.com/,,,Gift Cards,http://www.sadiegreens.com/product-category/gift-cards/,http://www.sadiegreens.com/contact-us/,Contact Us,1,MA,01566,clothing_store
The Jewelry Exchange in Sudbury  Jewelry Store  Engagement Ring Specials,"440 Boston Post Rd, Sudbury, MA 01776",Jewelry store,Sudbury,https://www.jewelryexchange.com/,,"Diamond specialist & fine-jewelry retailer, offering finished work, loose stones & custom designs.",Gift Cards,https://www.jewelryexchange.com/Gift cards-sp,https://www.jewelryexchange.com/customer testimonials-sp,"
                                                    I recently purchased a diamond pendant for my wife from your website. I had never bought anything like this online before and was hesitant to do so.  I was quickly reassured when a member of your staff contacted me and asked security questions to confirm it was me who placed the order.
                                                ",1,MA,01776,clothing_store
Apple Annie Fabrics,"566 Wilbur Ave # 6, Swansea, MA 02777",Fabric store,Swansea,https://www.appleanniefabrics.com/,,,Gift Certificates,http://www.appleanniefabrics.com/giftcert,http://visitor.r20.constantcontact.com/d.jsp?llr=896c6pcab&p=oi&m=1102192932699,Join Our Mailing List,1,MA,02777,clothing_store
Rainy Day,"66 Main St, Vineyard Haven, MA 02568",Gift shop,Vineyard Haven,http://rainydaymv.com/,,,"


              Purchase a Gift Card!
            
",https://rainydaymv.com/collections/gift-cards,http://rainydaymv.com/pages/a-walking-guide,Find Us!,1,MA,02568,clothing_store
Cinder  Salt,"520 Main St, Middletown, CT 06457",Clothing store,Middletown,http://www.cinderandsalt.com/,,,"
                    Gift Cards
                  ",http://www.cinderandsalt.com/products/gift-card,http://www.cinderandsalt.com/pages/contact-us,Contact Us,1,CT,06457,clothing_store
TimScapes,"208 Commercial St, Provincetown, MA 02657",Clothing store,Provincetown,http://www.tim-scapes.com/,,,"
          GIFT CARD

          
        ",http://www.tim-scapes.com/products/gift-card,,,1,MA,02657,clothing_store
Helltown Provincetown,"14 Johnson St, Provincetown, MA 02657",Gift shop,Provincetown,http://helltownprovincetown.com/,,,Gift Cards,https://www.helltownprovincetown.com/gift-cards,https://www.helltownprovincetown.com,Contact,1,MA,02657,clothing_store
Atlantic Accents,"307 Commercial St # 4, Provincetown, MA 02657",Gift shop,Provincetown,http://www.atlanticaccents.com/,,,Gift Certificates,https://www.atlanticaccents.com/gift-certificates-c-49.html,https://www.atlanticaccents.com/contact_us.html,Contact Us,1,MA,02657,clothing_store
Gift Barn,"4180A State Highway, North Eastham, MA 02651",Gift shop,North Eastham,http://www.capecodgiftbarn.com/,,,Gift Cards,https://capecodgiftbarn.com/gift-cards/,,,1,MA,02651,clothing_store
Wright's Gift Shop,"84 Inman Rd, Harrisville, RI 02830",Gift shop,Harrisville,http://www.wrightsfarmstore.com/,,,Gift Cards,https://wrightsfarmstore.com/gift-cards/,,,1,RI,02830,clothing_store
Old School Tees,"180 Elm St UNIT 5, Waltham, MA 02453",Clothing store,Waltham,https://www.oldschooltees.com/,,,Gift Cards,https://www.oldschooltees.com/gift-cards/,https://www.oldschooltees.com/contact-us/, Contact Us,1,MA,02453,clothing_store
Harry's Army Surplus,"2050 N Telegraph Rd, Dearborn, MI 48128",Clothing store,Dearborn,https://www.harrysarmysurplus.net/,,"A wide variety of military apparel, boots, hats & gear displayed in a spacious, organized setting.",Gift Cards,https://www.harrysarmysurplus.net/giftcard,https://www.harrysarmysurplus.net/contact-harrys-army-surplus.html,Contact,1,MI,48128,clothing_store
Patagonia,"525 Alma St, Palo Alto, CA 94301",Clothing store,Palo Alto,https://www.patagonia.com/,,,Gift Cards,https://www.patagonia.com/giftcards/,,,1,CA,94301,clothing_store
UNIFORMS FOR AMERICA,"25 Main St, Watertown, MA 02472",Uniform store,Watertown,http://www.uniformsforamerica.com/,,"Store stocking a wide range of scrubs, work & school uniforms for adults.","

",https://www.uniformsforamerica.com/shop/gift_certificate.php,http://www.uniformsforamerica.com/content/contactus.php,Contact Us,1,MA,02472,clothing_store
Anderson's Jewelers,"21 Grove St, Wellesley, MA 02482",Jeweler,Wellesley,http://www.andersonsjewelers.com/,,,GIFTCARDS,http://www.andersonsjewelers.com/shop,http://www.andersonsjewelers.com/contact-us,CONTACT US,1,MA,02482,clothing_store
Moby's Cargo,"3199 State Hwy 6 Alt, Wellfleet, MA 02667",Gift shop,Wellfleet,http://www.mobyscargo.com/,,,Gift Cards,http://www.mobyscargo.com/product/gift-card/,https://mobys.com/contact/,Directions,1,MA,02667,clothing_store
Nazir's Fine Jewelers & Gifts,"133 Main St, Wenham, MA 01984",Jeweler,Wenham,http://nazirsfinejewelry.com/,,,Gift Certificates,http://www.nazirsfinejewelry.com/gift/gift-certificates/,http://www.nazirsfinejewelry.com/contact-us/,Contact us,1,MA,01984,clothing_store
Brass,"40 Charles St, Boston, MA 02114",Women's clothing store,Boston,http://www.brassclothing.com/,,,Gift Cards,http://www.brassclothing.com/products/gift-card,http://www.brassclothing.com/pages/contact-us,Contact Us,1,MA,02114,clothing_store
Icing,"700 Union St, Westborough, MA 01581",Jeweler,Westborough,https://www.icing.com/,,,  Gift Cards,https://www.icing.com/us/giftcards.html,https://www.icing.com/us/customer-service-contact/,  Contact Us,1,MA,01581,clothing_store
Westfield Sunrise,"One Sunrise Mall, Massapequa, NY 11758",Clothing store,Massapequa,https://www.westfield.com/,,"Large mall featuring over 100 stores & services, including a variety of fast-food choices.","
            Gift Cards
          ",https://www.westfield.com/westfield-gift-cards,https://www.westfield.com/sunrise/center-info/contact-us,"
                    Contact Us
                  ",1,NY,11758,clothing_store
Palmer & Purchase,"130 Main St, Westhampton Beach, NY 11978",Women's clothing store,Westhampton Beach,http://www.palmerandpurchase.com/,,,"
                          LEARN ABOUT /BUY GIFT CARDS
                        ",http://www.palmerandpurchase.com/products/gift-card,http://www.palmerandpurchase.com/pages/contact-us,Contact Us,1,NY,11978,clothing_store
SHOEINN,"123 Main St, Westhampton Beach, NY 11978",Shoe store,Westhampton Beach,https://www.shoeinn.com/,,,Gift Cards,https://www.shoeinn.com/products/gift-card,https://www.shoeinn.com/pages/contact-us,Contact Us,1,NY,11978,clothing_store
Notown Goods,"23 Village Inn Rd unit b, Westminster, MA 01473",Gift shop,Westminster,http://www.notowngoods.com/,,,"
            Gift Card
          ",http://www.notowngoods.com/products/gift-card-1,,,1,MA,01473,clothing_store
Bite Me Bait,"337 Thames St #1, Newport, RI 02840",Clothing store,Newport,https://www.bitemelivebait.com/,,,Gift Certificates,https://www.bitemelivebait.com/giftCert_sendvia.asp,https://www.bitemelivebait.com/mailto:jeffmarlowe@cox.net?subject=Contact Us,email us,1,RI,02840,clothing_store
Jenny Boston Boutique,"230 Needham St, Newton Upper Falls, MA 02464",Clothing store,Newton Upper Falls,http://www.jennyboston.com/,,,Gift Cards,http://jennyboston.com/collections/gift-cards,http://jennyboston.com/pages/contact,Contact Us,1,MA,02464,clothing_store
Ruggers Rugby Supply Inc,"121 Union St, West Springfield, MA 01089",Sporting goods store,West Springfield,http://www.ruggers.com/,,,"
          Gift Cards",http://www.ruggers.com/collections/gift-cards,http://www.ruggers.com/pages/contact-us,Contact Us,1,MA,01089,clothing_store
Concrete  Water,"485 Driggs Ave, Brooklyn, NY 11211",Clothing store,Brooklyn,http://concreteandwater.com/,,"Cool boutique showcasing casual-chic designer men & women's apparel, plus housewares.","

",http://concreteandwater.com/products/c-w-gift-certificate,,,1,NY,11211,clothing_store
SWORDSSMITH,"98 S 4th St, Brooklyn, NY 11249",Clothing store,Brooklyn,https://swords-smith.com/,,"Airy, modern space presenting fashion-forward styles for men & women from independent designers.",Gift Cards,https://swords-smith.com/products/gift-cards,https://swords-smith.com/pages/contact,Contact,1,NY,11249,clothing_store
Amarcord Vintage Fashion,"223 Bedford Ave, Brooklyn, NY 11211",Vintage clothing store,Brooklyn,http://www.amarcordvintagefashion.com/,,Compact boutique specializing in vintage European designer apparel & accessories in mod surrounds.,"

",http://www.amarcordvintagefashion.com/collections/frontpage/products/gift-card,http://www.amarcordvintagefashion.com/pages/contact-us,CONTACT,1,NY,11211,clothing_store
Friends NYC,"56 Bogart St, Brooklyn, NY 11206",Clothing store,Brooklyn,https://friendsnyc.com/,,"Urban shop with new, gently used & vintage women's clothing, shoes & accessories, plus unique gifts.",Gift Card,https://friendsnyc.com/products/friends-nyc-gift-card,https://friendsnyc.com/pages/contact-us,Contact,1,NY,11206,clothing_store
Best Dressed,"489 E Broadway, Boston, MA 02127",Women's clothing store,Boston,http://www.rentbestdressed.com/,,,"
            Gift Cards
          ",http://www.rentbestdressed.com/gift-cards,http://www.rentbestdressed.com/find-us,"
            Find Us
          ",1,MA,02127,clothing_store
JackRabbit  Lexington,"1728 Massachusetts Ave, Lexington, MA 02421",Clothing store,Lexington,http://www.jackrabbit.com/,,,"

Gift
CARDS

",https://www.jackrabbit.com/gift-card.html/,,,1,MA,02421,clothing_store
Worcester Wares,"105 Commercial St, Worcester, MA 01608",Gift shop,Worcester,http://www.worcesterwares.com/,,,"#mask-comp-j64s83hvimg-svg * {fill: #fff; stroke: #fff; stroke-width: 0;}








",https://www.worcesterwares.com/product-page/gift-card,https://www.worcesterwares.com/contact,Contact,1,MA,01608,clothing_store
lilylimes,"7227 N High St Space 94A, Columbus, OH 43235",Baby clothing store,Columbus,http://www.lilylimes.com/,,,Gift Cards,https://lilylimes.com/product-category/gift-cards/,https://lilylimes.com/contact/,Contact Us,1,OH,43235,clothing_store
Coach,"1 Outlet Blvd, Wrentham, MA 02093",Fashion accessories store,Wrentham,http://www.coach.com/,,"Fashionable American leather-goods brand known for its signature handbags, plus shoes & accessories.",Gift Cards,https://www.coach.com/shop/gift-cards,https://www.coach.com/emailus?ctid=contact-us&hp=testA_img_coach_services_contact,"

",1,MA,02093,clothing_store
Cape Cod Jewelers,"366 Main St, Hyannis, MA 02601",Jewelry store,Hyannis,http://www.capecodjewelers.com/,,"Full-service outfit specializing in nautical-themed jewelry, bridal rings & locally sourced designs.","
                    Gift Certificate
                ",http://www.capecodjewelers.com/collections/gift-card,http://www.capecodjewelers.com/,Contact,1,MA,02601,clothing_store
