name,address,type,place,description,website_url,menu_url,gift_card_website,contact_website,gift_card_txt,contact_txt,state,zipcode,store_type
Sorelle,"1400 Bedford St, Abington, MA 02351",Grill,Abington,"Modern takes on Italian dishes, plus brick-oven pizza, featured in a sunny space with a patio.",http://www.sorelleabington.com/,http://www.sorelleabington.com/menu/,http://www.sorelleabington.com/gift-cards-1,,"
                Gift Cards
              ",,MA,02351,restaurant
Mia Regazza,"268 Washington St, Abington, MA 02351",Italian,Abington,"Buzzy restaurant with a fireplace & patio dishing up Italian-American eats, from lasagna to risotto.",http://www.miaregazza.com/,http://www.miaregazza.com/menu.pdf,http://miaregazza.com/gift-certificates/,http://miaregazza.com/contact/,GIFT CERTIFICATES,CONTACT US,MA,02351,restaurant
Yaz's Table,"1209 Bedford St, Abington, MA 02351",Breakfast,Abington,,https://www.yazstable.com/,https://sites.google.com/yazstable.com/yazstable/home,https://www.yazstable.com/retail-gift-cards,https://www.yazstable.com/contact," RETAIL & GIFT CARDS

"," CONTACT

",MA,02351,restaurant
Abington Ale House & Grill,"1235 Bedford St #1273, Abington, MA 02351",American,Abington,"Bar & eatery with a vintage feel offering casual grill eats, including sandwiches, steak & pasta.",https://abingtonalehouse.com/,http://www.abingtonalehouse.com/media/site_assets/ab69522094557e7b8f21980f1a3811af/assets/alehouse_catering_me_vheYQkn.pdf,https://swipeit.com/product/1793/barrett-restaurant-group,https://abingtonalehouse.com/Contact/,Gift Cards Available!,Contact,MA,02351,restaurant
D'Ann's Sports & Entertainment Restaurant,"340 Centre Ave, Abington, MA 02351",American,Abington,"Enduring, family-owned bar/restaurant with Italian & American food, plus lots of TVs for sports.",http://www.dannsabington.com/,http://www.dannsabington.com/menus/breakfast/,http://www.dannsabington.com/about/gift_cards,https://visitor.r20.constantcontact.com/d.jsp?llr=exxrsr8ab&p=oi&m=1129092538084&sit=ok7ydd7lb&f=2e9c7995-1051-48b5-9692-3c418910690a,Gift Cards  , Join the Email Club,MA,02351,restaurant
Blackbird Cafe,"342 Great Rd, Acton, MA 01720",Breakfast,Acton,,https://www.myblackbirdcafe.com/,,https://www.toasttab.com/blackbird-cafee-inc/giftcards,,Gift Cards ,,MA,01720,restaurant
Captain's Place,"162 S Main St, Acushnet, MA 02743",Seafood,Acushnet,,http://www.menujoy.com/,,http://www.menujoy.com/discounts.htm,,,,MA,02743,restaurant
The Pasta House,"100 Alden Rd #4721, Fairhaven, MA 02719",Italian,Fairhaven,"Chic, contemporary restaurant with inviting booth seating offering modern Italian eats & seafood.",http://www.thepastahouse.net/,https://thepastahouse.net/menus/,https://www.toasttab.com/the-pasta-house/giftcards,https://thepastahouse.net/contacts/,Purchase Gift Cards         ,Contact Us,MA,02719,restaurant
Grazie,"26 Marshall St, North Adams, MA 01247",Italian,North Adams,"Relaxed, wood-clad outpost serving traditional Italian fare alongside a full bar with cocktails.",http://www.graziena.com/,http://www.graziena.com/our-menu/,http://www.graziena.com/store/gift-cards,http://www.graziena.com/contact/,Gift Cards ,Contact,MA,01247,restaurant
Boston Seafood Restaurant,"160 American Legion Dr, North Adams, MA 01247",Seafood,North Adams,"Chowder, fried fish & regional seafood classics in a laid-back standby with all-you-can-eat nights.",http://www.bostonseafoods.net/,,http://bostonseafoods.net/gift-cards/,http://bostonseafoods.net/contact-us/,Gift Cards,Contact Us,MA,01247,restaurant
Pizza Works,"315 Ashland St, North Adams, MA 01247",Pizza,North Adams,,http://eatpizzaworks.com/,http://eatpizzaworks.com/Menus,http://eatpizzaworks.com/Gift,http://eatpizzaworks.com/Contact,Gift Certificate ,Contact Us ,MA,01247,restaurant
Crepes Tea House,"261 Union St, West Springfield, MA 01089",Eastern European,West Springfield,"Cheerful spot for 3 meals of crepes, potato pancakes & other Eastern Europe comfort fare, plus tea.",http://www.crepesteahouse.com/,http://places.singleplatform.com/crepes-tea-house-3/menu?ref=google,https://crepesteahouse.com/purchase-gift-card/,https://crepesteahouse.com/contact-us/,Click here to purchase gift card!,Contact Us,MA,01089,restaurant
Partners Restaurant & Catering,"485 Springfield St, Feeding Hills, MA 01030",American,Feeding Hills,,http://www.partnersrestaurant.com/,http://places.singleplatform.com/partners-restaurant/menu?ref=google,http://www.partnersrestaurant.com/GiftBaskets/BasketDetails.aspx?BasketID=1,http://www.partnersrestaurant.com/Catering,Gift Certificates,Menus + Contact,MA,01030,restaurant
bNapoli Italian,"185 Elm St, West Springfield, MA 01089",Italian,West Springfield,"Warm, airy eatery serving Italian seafood & meat plates plus pastas, pizza & over 100 wines.",http://bnapoliitalian.com/,http://bnapoliitalian.com/menu/,https://bnapoliitalian.com/purchase-a-gift-card/,,Gift Cards,,MA,01089,restaurant
Rouge Restaurant,"3 Center St, West Stockbridge, MA 01266",Restaurant,West Stockbridge,"Popular bistro bringing together classic French dishes, a global tapas menu & a bustling bar scene.",http://www.rougerestaurant.com/,http://www.rougerestaurant.com/menu,https://www.rougerestaurant.com/giftcards,,GIFT CARDS,,MA,01266,restaurant
Barrington Brewery & Restaurant,"420 Stockbridge Rd, Great Barrington, MA 01230",Brewpub,Great Barrington,"Cheery, rustic hangout pairs its solar-brewed beer with carefully sourced American comfort grub.",http://www.barringtonbrewery.net/,http://www.barringtonbrewery.net/,http://www.barringtonbrewery.net/gift-certificates,http://www.barringtonbrewery.net/contact,Gift Certificates,Info,MA,01230,restaurant
STEAM Noodle Cafe,"Barrington House, 284 Main Street Store #9, Great Barrington, MA 01230",Noodle Shop,Great Barrington,,http://steam.restaurant/,,https://www.google.com/url?q=https%3A%2F%2Fsquareup.com%2Fgift%2F3GC0MG9SH6PFF%2Forder&sa=D&sntz=1&usg=AFQjCNHtHgswvfEqDm6FcpJ4dudDId6-VA,,Gift Cards available online,,MA,01230,restaurant
Ristorante Molise,"1 Market St, San Francisco, CA 94105",Italian,San Francisco,"Upscale New American eatery with an extensive wine list, banquette seating & Embarcadero views.",http://www.onemarket.com/,http://places.singleplatform.com/one-market-restaurant/menu?ref=google,https://onemarket.com/giftcards/,https://onemarket.com/contact/,Gift Cards,Contact,CA,94105,restaurant
Route 110 Roast Beef & Seafood,"66 1/2 Haverhill Rd, Amesbury, MA 01913",Seafood,Amesbury,,http://rt110roastbeef.com/,https://rt110roastbeef.com/Menus,http://rt110roastbeef.com/Gift,http://rt110roastbeef.com/Contact,Gift Certificate ,Contact Us ,MA,01913,restaurant
Sylvan Street Grille,"12 Sylvan St, Peabody, MA 01960",Grill,Peabody,All-American neighborhood joint with seasonal beers & comfort fare served in tavern digs with TVs.,http://www.sylvanstreetgrille.com/,http://places.singleplatform.com/sylvan-street-grille-0/menu?ref=google,https://www.sylvanstreetgrille.com/gift-cards/,https://www.sylvanstreetgrille.com/contact/,Gift Cards,Contact,MA,01960,restaurant
Johnny's Tavern,"30 Boltwood Walk, Amherst, MA 01002",Grill,Amherst,"Casual mainstay with a dark, warm atmosphere preparing a select, thoughtfully sourced American menu.",http://www.johnnystavernamherst.com/,http://www.johnnystavernamherst.com/our_menu.html,https://www.beanrg.com/shop,http://www.johnnystavernamherst.com/contact,"
              Gift Cards
            ","
            Contact
          ",MA,01002,restaurant
Judie's Restaurant,"51 N Pleasant St, Amherst, MA 01002",American,Amherst,Casual spot with bright decor & an extensive American menu featuring signature popovers.,http://www.judiesrestaurant.com/,,https://judiesrestaurant.com/gift-cards/,https://judiesrestaurant.com/contact/,GIFT CARDS,CONTACT,MA,01002,restaurant
LaRosa's,"7 Barnard St, Andover, MA 01810",Italian,Andover,"Charming cafe with handcrafted sandwiches, pasta dishes, sweets & Italian coffee in a cozy setting.",http://www.larosasofandover.com/,,http://www.larosasofandover.com/gift-cards/,,GIFT CARDS,,MA,01810,restaurant
BuenoMalo,"93 Main St, Andover, MA 01810",Mexican,Andover,,http://www.buenomalo.com/,,https://images.squarespace-cdn.com/content/v1/5e11339af51cd16ca72cd679/1586898266219-ZQBNGARUWHPRFHGMDP6T/ke17ZwdGBToddI8pDm48kBTJSJ0lHcbvkIQLmv-CRPhZw-zPPgdn4jUwVcJE1ZvWQUxwkmyExglNqGp0IvTJZUJFbgE-7XRK3dMEBRBhUpzFgb-s_HeG9upKbAkUrgwYeUl2JW455XWbjieGYyFULHlDgd218IbMN4kcoJOtSBk/image-asset.jpeg,http://www.buenomalo.com/#contact,"

","

Contact
",MA,01810,restaurant
Salvatore's Restaurant,"700 Welch Rd #110, Palo Alto, CA 94304",Italian,Palo Alto,Stylish Italian restaurant using garden-sourced ingredients with al fresco tables & private dining.,https://www.vinaenoteca.com/,https://www.vinaenoteca.com/menus/,https://squareup.com/gift/DJZG7JBGM73DX/order,https://www.vinaenoteca.com/contact/,Gift Cards,Contact,CA,94304,restaurant
The Aquinnah Shop Restaurant,"27 Aquinnah Cir, Aquinnah, MA 02535",Seafood,Aquinnah,,http://www.theaquinnahshop.com/,https://www.theaquinnahshop.com/,http://www.theaquinnahshop.com/#egift-card-section,,"
                        eGift Card
                      ",,MA,02535,restaurant
Scutra,"92 Summer St, Arlington, MA 02474",Modern European,Arlington,Upscale eatery & bar with an eclectic European menu featuring daily specials & a global wine list.,http://www.scutra.com/,http://www.scutra.com/menu-marquee,http://www.scutra.com/gift-certificates,,Gift Cards,,MA,02474,restaurant
Tango Restaurant,"464 Massachusetts Ave, Arlington, MA 02474",Restaurant,Arlington,Carnivores gather for jumbo portions of grilled meat & more at this sprawling Argentinean eatery.,http://tangoarlington.com/,,https://www.toasttab.com/tangotogo/giftcards,http://tangoarlington.com/contact-us,"
                Gift Cards
              ",Info & Reservations,MA,02474,restaurant
Acitron Cocina Mexicana,"473 Massachusetts Ave, Arlington, MA 02474",Mexican,Arlington,Candlelit eatery offers creative takes on familiar Mexican dishes & house margaritas in a warm room.,http://www.acitronrestaurant.com/,http://www.acitronrestaurant.com/dinner-menu/,http://www.acitronrestaurant.com/#gift-card-section,,"
                        Gift Card
                      ",,MA,02474,restaurant
Tryst,"689 Massachusetts Ave, Arlington, MA 02476",New American,Arlington,"Its name is the menu theme at this bistro offering New American plates, sleek digs & a popular bar.",http://www.trystrestaurant.com/,,https://www.trystrestaurant.com/gift-card,,Gift Card,,MA,02476,restaurant
Sugo Cucina Italiana,"162 Massachusetts Ave, Arlington, MA 02474",Italian,Arlington,,http://sugomia.com/,http://sugomia.com/dinner-menu/,http://sugomia.com/2015/12/01/christmas-at-sugo/,http://sugomia.com/find-us/,Gift Certificates,"Map, Hours, Reservations and Info",MA,02474,restaurant
The Tavern on Central,"3 Central St, Ashburnham, MA 01430",Pub,Ashburnham,,http://www.thetavernoncentral.com/,http://www.thetavernoncentral.com/Pages/Menu.aspx?DeptID=0,https://www.toasttab.com/tavern-on-central-mcnallys-north-tavern-on-central/giftcards ,,Gift Cards,,MA,01430,restaurant
The 1761 Old Mill,"69 State Rd E, Westminster, MA 01473",American,Westminster,"Venerable, family-run place serving American fare in a rustic mill dating from 1761.",http://www.1761oldmill.com/,http://www.1761oldmill.com/,http://www.1761oldmill.com/gift-cards.html,http://www.1761oldmill.com/contact.html,Gift Cards,Contact,MA,01473,restaurant
Blueprint,"10 Village Square, Westminster, MA 01473",Grill,Westminster,,http://blueprintamerican.com/,http://www.blueprintamerican.com/Pages/Menu.aspx?DeptID=0,https://www.toasttab.com/blueprint/giftcards,,Gift Cards,,MA,01473,restaurant
Parker's Maple Barn,"1316 Brookline Rd, Mason, NH 03048",Breakfast,Mason,"Rustic restaurant for New England-style breakfast & lunch, plus a maple sugar–focused gift shop.",http://www.parkersmaplebarn.com/,http://places.singleplatform.com/parkers-maple-barn/menu?ref=google,https://parkersmaplebarn.com/index.php?cPath=25&osCsid=ifj8imhe717tckkh2mdboo1363,http://www.parkersmaplebarn.com/contact.php,Gift Cards,Home,NH,03048,restaurant
Townsend Pizza,"330 Townsend St, San Francisco, CA 94107",Pizza,San Francisco,,https://www.slicesusa.com/,http://places.singleplatform.com/slices-59/menu?ref=google,https://www.slicesusa.com/gift-cards/,,Gift Cards,,CA,94107,restaurant
Chrysanthi's Restaurant,"204 Rte 13, Brookline, NH 03033",Greek,Brookline,"Cozy kitchen with a country feel & booth seating featuring Greek, Italian & American cuisines.",http://www.chrysanthisrestaurant.com/,http://places.singleplatform.com/chrysanthis-restaurant/menu?ref=google,https://chrysanthisrestaurant.com/gift-cards/,http://www.chrysanthisrestaurant.com/#footer,Gift Cards,Contact Us,NH,03033,restaurant
Mexico City Taqueria,"1 W Union St, Ashland, MA 01721",Mexican,Ashland,"Convivial, family-owned restaurant supplying familiar Mexican specialties, plus beer & margaritas.",http://www.mexicocitytaqueria.com/,http://www.mexicocitytaqueria.com/menu.html,https://swipeit.com/product/2028/mexico-city-taqueria,https://www.mexicocitytaqueria.com/contact-reservations,Order Gift Cards,Contact Us,MA,01721,restaurant
Doragon Ramen,"1 W Union St, Ashland, MA 01721",Restaurant,Ashland,,https://www.doragonramen.com/,https://www.doragonramen.com/menus,https://swipeit.com/product/1677/noodle-city,https://www.doragonramen.com/contact-us,GIFT CARDS,CONTACT US,MA,01721,restaurant
Pizza Bella,"1 W Union St, Ashland, MA 01721",Pizza,Ashland,,http://www.ashlandpizzabella.net/,http://ashlandpizzabella.net/Menus,http://www.ashlandpizzabella.net/Gift,http://www.ashlandpizzabella.net/Contact,Gift Certificate ,Contact Us ,MA,01721,restaurant
Asia Gourmet,"144 Market Dr, Athol, MA 01331",Restaurant,Athol,,https://www.asiagourmetathol.com/,,https://www.asiagourmetathol.com/gift-cards/,,Gift Cards,,MA,01331,restaurant
Colonel Blackinton Inn,"203 N Main St, Attleboro, MA 02703",American,Attleboro,,http://colblackintoninn.com/,,https://ao4.availabilityonline.com/gift_certificate.php?un=blackinton,http://colblackintoninn.com/contact.html, Gift Certificates,Contact,MA,02703,restaurant
Mediterranean Grill & Pizzeria,"595 Washington St, Attleboro, MA 02703",Pizza,Attleboro,Greek standards share the menu with American comfort food & pizzas at this casual eatery with a bar.,https://www.mediterraneangrillpizzeria.com/,https://www.mediterraneangrillpizzeria.com/menus,https://www.toasttab.com/ilovemed/giftcards,https://www.mediterraneangrillpizzeria.com/contact-us-reservation,e-Gift Cards,Contact Us & Reservation,MA,02703,restaurant
Miller's Roast Beef  South Attleboro,"734 Newport Ave, Attleboro, MA 02703",Sandwich,Attleboro,,http://www.millersroastbeef.com/,http://places.singleplatform.com/millers-roast-beef-0/menu?ref=google,https://millersroastbeef.com/gift-cards/,https://millersroastbeef.com/contact-us/,Gift Cards,Contact Us,MA,02703,restaurant
Arooga's,"228 Washington St, Attleboro, MA 02703",Restaurant,Attleboro,"Sports bar & grill featuring a variety of classic bar eats, free WiFi, trivia games & more.",http://aroogas.com/,,https://aroogas.myguestaccount.com/guest/egift,https://aroogas.com/faq-contact-us/,E-Gift Cards,FAQ/Contact Us,MA,02703,restaurant
Major League Roast Beef & Wings,"503 Washington St, Auburn, MA 01501",American,Auburn,Informal sports bar with counter service and a varied menu of American pub grub & sandwiches.,https://www.majorleagueroastbeef.com/,,https://majorleagueroastbeef.com/gift-cards/,https://majorleagueroastbeef.com?storeUrl=https://majorleaguerb-auburn.foodtecsolutions.com/contact,Gift Cards,Contact,MA,01501,restaurant
The Brook Kitchen & Tap,"200 S Franklin St, Holbrook, MA 02343",Grill,Holbrook,,http://www.brookkitchenandtap.com/,,https://swipeit.com/product/1023/the-brook-kitchen-and-tap,http://www.brookkitchenandtap.com/#section-five,Gift Cards,Contact Us,MA,02343,restaurant
Lucias Tavola,"31 Main St, Ayer, MA 01432",Italian,Ayer,"Charming trattoria offering a big menu creative Italian eats in a relaxed, pared-down setting.",http://www.luciastavola.com/,http://places.singleplatform.com/lucias-tavola-0/menu?ref=google,https://swipeit.com/product/936/lucias-tavola,http://www.luciastavola.com/Pages/ContactUs.aspx,Gift Cards,Contact Us,MA,01432,restaurant
Markohs,"43 Main St, Ayer, MA 01432",Restaurant,Ayer,,http://www.markohsonmain.com/,,https://swipeit.com/product/937/markohs-on-main,http://www.markohsonmain.com/Pages/ContactUs.aspx,Gift Cards,Contact Us,MA,01432,restaurant
Lazy Mary's,"30 Littleton Rd, Ayer, MA 01432",Pizza,Ayer,"Brick-oven pizzeria, deli, bakery & convenience market inside a quaint white cottage.",http://www.lazymarys.com/,http://www.lazymarys.com/images/Lazy_Mary_Menu.pdf,http://swipeit.com/product/380/lazy-marys-pizzeria-market-deli--bakery,,ORDER GIFT CARDS ONLINE HERE!,,MA,01432,restaurant
Bar 25,"25 Main St, Ayer, MA 01432",Restaurant,Ayer,,http://bar-25.com/,https://bar-25.com/,https://squareup.com/gift/D4QX9WCX1FYZR/order,,"
              Gift Cards
            ",,MA,01432,restaurant
J & M Diner,"50 Worcester Rd, Framingham, MA 01702",Diner,Framingham,Cheery diner with retro flair whipping up breakfast plates from speciality omelets to French toast.,http://jmdiner.com/,,http://jmdiner.com/gift-cards,http://jmdiner.com/contact-us,Gift Cards,Contact Us,MA,01702,restaurant
Tap City Grille,"586 Main St, Hyannis, MA 02601",Grill,Hyannis,"Relaxed tavern offering elevated American pub grub, wood-fired pizza & lots of craft beer.",http://www.tapcitygrille.com/,http://www.tapcitygrille.com/food-menu/,https://swipeit.com/product/1020/tap-city-grille,http://www.tapcitygrille.com/contact-us,Gift Cards,Contact Us,MA,02601,restaurant
Mattakeese Wharf Restaurant,"273 Millway, Barnstable, MA 02630",Seafood,Barnstable,"The harbor view draws fans to this enduring eatery, serving seafood classics in a casual setting.",http://www.mattakeese.com/,http://www.mattakeese.com/menus.html,http://www.mattakeese.com/gift-cards.html,,Gift Cards,,MA,02630,restaurant
Brazilian Grill,"680 Main St, Hyannis, MA 02601",Brazilian,Hyannis,"All-you-can-eat churrascaria serves slow-cooked meats carved tableside, with a salad bar & buffet.",http://www.braziliangrillrestaurants.com/,https://braziliangrillrestaurants.com/locations/hyannis/,https://braziliangrillrestaurants.com/gift-cards/,https://braziliangrillrestaurants.com/contact/,Gift Cards,Contact Us,MA,02601,restaurant
The Naked Oyster Bistro & Raw Bar,"410 Main St, Hyannis, MA 02601",Seafood,Hyannis,"Oysters from the bistro's own farm, creative seafood dishes & big wine list star in a modern space.",http://nakedoyster.com/,http://places.singleplatform.com/naked-oyster-bistro--raw-bar/menu?ref=google,https://www.nakedoyster.com/product/gift-card/,https://www.nakedoyster.com/contact-us/,shop,contact us,MA,02601,restaurant
Dolphin Restaurant,"3250 Main St, Barnstable, MA 02630",Seafood,Barnstable,"Enduring hangout features American & seafood standards, plus a full bar, in cozy unassuming digs.",http://thedolphincapecod.com/,http://thedolphincapecod.com/menus/dinner-menu/,http://thedolphincapecod.com/gift-cards/,,Gift Cards,,MA,02630,restaurant
Roadhouse Cafe,"488 South St, Hyannis, MA 02601",Seafood,Hyannis,"Italian-inspired steak & seafood in the elegant dining rooms, nautical-themed lounge or piano bar.",https://www.roadhousecafe.com/,https://www.roadhousecafe.com/menu/,https://www.comminternet.com/websites/capecodrestaurants.com/gift_certificates/purchase.php?customer=1586&domain=capecodrestaurants.com,https://www.roadhousecafe.com/contact/,Gift Cards,Visit,MA,02601,restaurant
Carter & Stevens Farm,"500 West St, Barre, MA 01005",Farm,Barre,,http://www.carterandstevensfarm.com/,,https://squareup.com/gift/ET1H0WKYXYWPF/order,http://www.carterandstevensfarm.com/mailto:shayna@stonecow.com?subject=Farm Question,Carter & Stevens eGift Card,Contact Us,MA,01005,restaurant
Black & White Grille,"206 N Spencer Rd, Spencer, MA 01562",American,Spencer,,http://www.blackandwhitegrille.com/,,https://swipeit.com/product/586/black-and-white-grille,,Order a gift card,,MA,01562,restaurant
Chez Nous Bistro,"150 Main St, Lee, MA 01238",Bistro,Lee,"Charming bistro pairs French country classics with a big wine list in a cozy, romantic setting.",http://cheznousbistro.com/,https://cheznousbistro.com/menus/dinner-menu,http://cheznousbistro.com/gift-certificates/,https://cheznousbistro.com/location-directions,Learn more...,Contact Us,MA,01238,restaurant
Nudel Restaurant,"37 Church St, Lenox, MA 01240",American,Lenox,"Cozy, casual place serving a seasonally inspired New American menu that changes nightly.",http://nudelrestaurant.com/,http://places.singleplatform.com/nudel/menu?ref=google,https://nudelrestaurant.com/gift-certificates/,http://nudelrestaurant.com/#,Gift Certificates, Navigation • Contact info ,MA,01240,restaurant
Wyndhurst,"55 Lee Rd, Lenox, MA 01240",American,Lenox,,http://www.cranwell.com/,,https://miravalstore.myshopify.com/,http://www.cranwell.com/mailto:reservations@miravalresorts.com,Giftcards,Contact Us,MA,01240,restaurant
Bistro at Blantyre,"16 Blantyre Rd, Lenox, MA 01240",Restaurant,Lenox,,http://www.blantyre.com/,,https://blantyre.com/spa/gift/,https://blantyre.com/about-blantyre/media-contact/,Gift Certificates,Press Center,MA,01240,restaurant
Red Heat Tavern,"152 Great Rd, Bedford, MA 01730",American,Bedford,,http://www.redheattavern.com/,http://places.singleplatform.com/red-heat-tavern-0/menu?ref=google,https://redheattavern.securetree.com,https://redheattavern.com/find-us/find-us/,Gift Cards,Contact,MA,01730,restaurant
The Bancroft,"15 3rd Ave, Burlington, MA 01803",Steak,Burlington,City-chic steakhouse in dramatic space with farm-fresh offerings & huge bar pouring craft cocktails.,http://www.the-bancroft.com/,https://www.the-bancroft.com/#menus,http://www.the-bancroft.com/#giftcard,http://www.the-bancroft.com/#contact,Buy a Gift Card,Contact,MA,01803,restaurant
Grumpy's Restaurant,"190 Pulaski Blvd, Bellingham, MA 02019",Bistro,Bellingham,,http://www.bellinghamgrumpys.com/,,http://swipeit.com/product/395/grumpys-restaurant--pub,https://www.facebook.com/visitgrumpys,Gift Cards,,MA,02019,restaurant
Vicki Lee's,"105 Trapelo Rd, Belmont, MA 02478",Restaurant,Belmont,"Window-filled cafe & bakery with an assortment of baked goods, classic lunch fare & weekend brunch.",http://www.vickilees.com/,http://vickilees.com/catering-menu/,https://www.toasttab.com/vicki-lee-s/giftcards,,"
        Gift Cards
      ",,MA,02478,restaurant
Fiorella's Express,"263 Belmont St, Belmont, MA 02478",Italian,Belmont,"Casual counter serve with Neapolitan-style pizza, sandwiches & updated Italian-American standards.",http://www.fiorellasexpress.com/,http://www.fiorellasexpress.com/menu/,http://www.fiorellasexpress.com/gift-cards/,http://www.fiorellasexpress.com/contact/,Gift Cards,Contact,MA,02478,restaurant
Little Pecan Bistro,"296 Washington St, Brighton, MA 02135",Restaurant,Brighton,,http://www.littlepecanbistro.com/,,https://www.toasttab.com/little-pecan-bistro/giftcards,http://www.littlepecanbistro.com/#footer,Buy a Giftcard,Contact Us,MA,02135,restaurant
Ritcey East,"208 Waverley Ave, Watertown, MA 02472",American,Watertown,,http://www.ritceyeast.com/,,https://www.toasttab.com/ritcey-east/giftcards,http://www.ritceyeast.com/welcome,Buy e-gift cards,"
                  Contact
                ",MA,02472,restaurant
Theo's Pizza,"389 Trapelo Rd, Belmont, MA 02478",Takeout Restaurant,Belmont,,http://theospizzabelmont.com/,http://theospizzabelmont.com/Menus,http://theospizzabelmont.com/Gift,http://theospizzabelmont.com/Contact,Gift Certificate ,Contact Us ,MA,02478,restaurant
Dough Licious Pizza,"539 Berkley St, Berkley, MA 02779",Pizza Delivery,Berkley,,http://www.doughliciouspizzabk.com/,http://doughliciouspizzabk.com/menu/,http://doughliciouspizzabk.com/wp-content/uploads/2015/01/gift_black.png,http://doughliciouspizzabk.com/contact-us/,Gift Cards Available ,CONTACT US,MA,02779,restaurant
Frates Drive In,"1423 Somerset Ave, Taunton, MA 02780",Seafood,Taunton,,http://www.fratesdrive-in.com/,,https://swipeit.com/product/486/frates-drive-in,http://www.fratesdrive-in.com/contact.html,,,MA,02780,restaurant
Rail Trail Flatbread Co,"33 Main St, Hudson, MA 01749",Pizza,Hudson,"Laid-back tavern offering an upscale pub menu alongside craft beers, wine & cocktails.",http://www.railtrailflatbread.com/,http://www.railtrailflatbread.com/menu,http://www.railtrailflatbread.com/gift-card-purchases,http://www.railtrailflatbread.com/contact,"
            GIFT CARDS
          ","
            contact
          ",MA,01749,restaurant
The Farm Table at Kringle Candle,"219 South St, Bernardston, MA 01337",Fine Dining,Bernardston,"Upscale, seasonal local eats served in homey, comfortable dining rooms with fireplaces.",http://www.kringlefarmtable.com/,http://www.kringlefarmtable.com/menu/,https://www.kringlecandle.com/products/farm-table-gift-card,http://www.kringlefarmtable.com/contact,Gift Cards,Contact ,MA,01337,restaurant
Five Eyed Fox,"37 3rd St, Turners Falls, MA 01376",Restaurant,Turners Falls,,http://www.fiveeyedfox.com/,http://www.fiveeyedfox.com/food-menu/,https://www.instagram.com/p/B-7_nTshXbz/,http://www.fiveeyedfox.com/contact,"

",Contact,MA,01376,restaurant
Hope & Olive,"44 Hope St, Greenfield, MA 01301",American,Greenfield,"Imaginative, globally inspired seasonal fare & creative cocktails in warm, relaxed surrounds.",http://www.hopeandolive.com/,http://www.hopeandolive.com/dinner,https://www.toasttab.com/hope-olive/giftcards,https://hopeandolive.com/find-us,GIFTS,FIND US,MA,01301,restaurant
The People's Pint,"24 Federal St, Greenfield, MA 01301",Gastropub,Greenfield,"Family-friendly brewpub serving housemade drafts, sodas & traditional pub fare with a funky vibe.",http://www.thepeoplespint.com/,http://www.thepeoplespint.com/dinnermenu/,https://thepeoplespint.com/product/10-gift-card/,https://thepeoplespint.com/contact-us/,Gift Cards,Contact Us,MA,01301,restaurant
Antonio's Pizza & Grinders,"201 S Main St, Salinas, CA 93901",Pizza,Salinas,Upscale menu of Italian favorites served in a splashy setting with a fire-lit outdoor plaza.,http://www.201complex.com/,http://www.201complex.com/brunch,https://201complex.cardfoundry.com/,,,,CA,93901,restaurant
Organic Garden Cafe,"294 Cabot St, Beverly, MA 01915",Organic,Beverly,"Restaurant offering an array of vegan, health-minded entrees, salads, wraps & snacks.",https://www.organicgardencafe.com/,https://www.toasttab.com/organic-garden-cafe,https://www.e-junkie.com/marketplace/127434,https://www.organicgardencafe.com/contact,Buy Gift Cards,Contact,MA,01915,restaurant
Beverly Depot Restaurant,"10 Park St, Beverly, MA 01915",Steak,Beverly,"Rustic mainstay offers an array of seafood, steaks & a salad bar in a historic 1890s train station.",http://www.beverlydepot.com/,,http://www5.myicard.net/,http://www.beverlydepot.com/contact.html,Check Gift Card Balance,,MA,01915,restaurant
Depot Diner,"23 Enon St, Beverly, MA 01915",Diner,Beverly,Bustling daytime diner serving an extensive menu of breakfast & lunch classics in a homey space.,http://www.depot-diner.com/,http://www.depot-diner.com/.menu/.,http://depot-diner.com/product/gift-certificate/,http://www.depot-diner.com/tel:9789226200,"
 Gift Certificate
",978-922-6200,MA,01915,restaurant
Ellis Square Social,"252 Cabot St, Beverly, MA 01915",Restaurant,Beverly,,https://www.ellissquaresocial.com/,https://www.ellissquaresocial.com/food-drink/,https://www.ellissquaresocial.com/gift-cards,https://www.ellissquaresocial.com/contact-us,"
              Gift Cards
            ","
            Contact Us
          ",MA,01915,restaurant
Mangia Mangia Italian Kitchen,"430 Boston Rd, Billerica, MA 01821",Italian,Billerica,"Pizza, subs, salads, pasta & Italian mains such as veal parmigiana in comfy checked-tablecloth digs.",http://www.mangia.info/,http://www.mangia.info/dinner.html,https://www.toasttab.com/mangia-mangia-italian-kitchen/giftcards,http://www.mangia.info/contact.html,Purchase Card,Contact,MA,01821,restaurant
Newtowne Grille,"838 Boston Rd, Billerica, MA 01821",American,Billerica,"Classic neighborhood joint offering American grub, craft beer & happy hour, plus a late-night menu.",http://www.newtownegrille.com/,,http://www.newtownegrille.com/contact.html,http://www.newtownegrille.com/contact.html,,CONTACT,MA,01821,restaurant
Ricks Bar & Grill,"297 Cass Ave, Woonsocket, RI 02895",Grill,Woonsocket,,http://ricksbarandgrill.com/,http://ricksbarandgrill.com/,http://ricksbarandgrill.com/Gift,http://ricksbarandgrill.com/Contact,Gift Certificate ,Contact Us ,RI,02895,restaurant
Kay's Restaurant,"1013 Cass Ave, Woonsocket, RI 02895",Restaurant,Woonsocket,"Hearty American sandwiches, including lobster rolls, in a casual space with booths & a bar.",http://www.kaysrestaurant.com/,http://places.singleplatform.com/kays-restaurant-6/menu?ref=google,http://www.kaysrestaurant.com/gift-cards.html,http://www.kaysrestaurant.com/contact-us.html,GIFT CARDS,CONTACT US,RI,02895,restaurant
Sunrise Pizza & Grille,"180 Social St, Woonsocket, RI 02895",Pizza,Woonsocket,"Late-night counter serve featuring classic pies, American fare & ice cream in a no-frills setting.",http://www.sunrisepizzaandcreamery.com/,http://www.sunrisepizzaandcreamery.com/,http://www.sunrisepizzaandcreamery.com/GiftCertificate.aspx,http://www.sunrisepizzaandcreamery.com/ContactUs.aspx,Gift Certificate,"
        
        
        Contact Us
      
",RI,02895,restaurant
New York Lunch,"10 Pinelawn Rd, Melville, NY 11747",Restaurant,Melville,Prime meats plus sushi & seafood in a wood-accented space with a power-lunch vibe & bar scene.,https://blackstonesteakhouse.com/,https://blackstonesteakhouse.com/menus/,https://blackstonesteakhouse.com/gift-cards/,https://blackstonesteakhouse.com/contact/,Gift Cards,Contact / Careers,NY,11747,restaurant
Trolley Stop Pizzeria,"18 Prescott St # A, Lancaster, MA 01523",Pizza,Lancaster,,http://trolleystoppizza.com/,http://www.trolleystoppizza.com/Menus,http://trolleystoppizza.com/Gift,http://trolleystoppizza.com/Contact,Gift Certificate ,Contact Us ,MA,01523,restaurant
Fish Restaurant & Wine Bar,"29 S Bolton St, Marlborough, MA 01752",Seafood,Marlborough,"Seafood spot offering a raw bar & platters of fish, oysters & lobster, plus live jazz on Saturdays.",http://www.eatatfish.com/,http://eatatfish.com/menu/,https://eatatfish.com/gift-cards/,https://eatatfish.com/contact-us/,Gift Card,Contact Us,MA,01752,restaurant
Koy,"16 North St, Boston, MA 02109",Korean,Boston,Violet walls & Asian Pop Art set the stage for Korean-fusion fare & drinks like soju sangria.,http://www.koyboston.com/,https://koyboston.getbento.com/menus/,http://www.koyboston.com/store/gift-cards/,http://www.koyboston.com/contact/,Gift Cards,Contact,MA,02109,restaurant
Mistral,"223 Columbus Ave, Boston, MA 02116",Mediterranean,Boston,Elegant bistro crafting acclaimed French-Mediterranean cuisine in refined surroundings.,http://www.mistralbistro.com/,http://mistralbistro.com/menus/dinner/,https://mistralbistro.com/gift-cards/,https://mistralbistro.com/contact/,Gift Cards,Contact,MA,02116,restaurant
O Ya,"9 East St, Boston, MA 02111",Authentic Japanese,Boston,"Acclaimed, inventive sushi, Japanese small plates & tasting menus crafted in elegant surrounds.",http://o-ya.restaurant/,,http://o-ya.restaurant/gift-cards,http://o-ya.restaurant/contacto-mexico/,Gift Cards,Contáctanos,MA,02111,restaurant
Sorellina,"1 Huntington Ave, Boston, MA 02116",Italian,Boston,"Sophisticated, modern takes on Italian-Mediterranean cuisine amid warm, contemporary decor.",http://sorellinaboston.com/,http://places.singleplatform.com/sorellina/menu?ref=google,https://sorellinaboston.com/gift-cards/,https://sorellinaboston.com/contact/,Gift Cards,Contact,MA,02116,restaurant
SRV,"569 Columbus Ave, Boston, MA 02118",Italian,Boston,Housemade pastas & other small plates are served at this casual-chic wine bar with a rear patio.,http://www.srvboston.com/,,https://onelink.quickgifts.com/merchant/srv-boston/,http://www.srvboston.com/location.htm,Purchase SRV Gift Card,"569Columbus Ave, South EndBoston",MA,02118,restaurant
Lobster Trap Restaurant,"290 Shore Rd, Bourne, MA 02532",Seafood,Bourne,"Classic New England seafood shack, market & bar in a rustic riverfront building with patio seating.",http://www.lobstertrap.net/,http://lobstertrap.net/menu,http://www.lobstertrap.net/gift-cards,http://www.lobstertrap.net/contact,gift cards,CONTACT,MA,02532,restaurant
Lindsey's Family Restaurant,"3138 Cranberry Hwy, East Wareham, MA 02538",Familyfriendly,East Wareham,Old-school seafood eatery known for lobster bisque & other hearty New England staples.,http://www.lindseysrestaurant.com/,https://www.lindseysrestaurant.com/menu/,https://www.lindseysrestaurant.com/gift-cards/,https://www.lindseysrestaurant.com/contact-us/,GIFT CARDS,CONTACT US,MA,02538,restaurant
Buzzards Bay House of Pizza,"270 Main St, Buzzards Bay, MA 02532",Pizza,Buzzards Bay,"This long-standing pizza joint features Greek specialties, beer & wine, plus flatscreen TVs.",http://www.buzzardsbayhouseofpizza.com/,http://places.singleplatform.com/buzzards-bay-house-of-pizza/menu?ref=google,https://buzzardsbayhouseofpizza.com/gift-cards/,https://buzzardsbayhouseofpizza.com?storeUrl=https://buzzardsbay.buzzardsbayhouseofpizza.com/contact,Gift Cards,Contact,MA,02532,restaurant
Fishermen's View Seafood Market & Restaurant,"20 Freezer Rd, Sandwich, MA 02563",Seafood,Sandwich,"Smart, family-owned place on the water with locally sourced seafood plates & a seasonal outdoor bar.",http://fishermensview.com/,,http://fishermensview.com/e-gift-cards-1,,E - GIFT CARDS,,MA,02563,restaurant
Ella's,"3136 Cranberry Hwy, East Wareham, MA 02538",Italian,East Wareham,European-inspired seasonal cuisine & wines offered in a homey space with an open kitchen.,http://www.ellaswoodoven.com/,,https://www.ellaswoodoven.com/gift-card,https://www.ellaswoodoven.com/contact-us,GIFT CARD,CONTACT US,MA,02538,restaurant
Adelita,"1200 Main St, Concord, MA 01742",Restaurant,Concord,"Mexican food from all-natural ingredients & meats sourced from a sibling farm, plus margaritas.",http://www.adelitaconcord.com/,https://www.adelitaconcord.com/menu/,https://woodshilltable.com/giftcards,,Giftcards,,MA,01742,restaurant
The Spot,"19 W Main St, Georgetown, MA 01833",Restaurant,Georgetown,"Low-key eatery with a menu ranging from burgers & BBQ to sushi, plus trivia & a kids-eat-free deal.",https://georgetownspot.com/,http://georgetownspot.com/#menu,https://serenitee.myguestaccount.com/login/web_card_sale/selectcards.srv,https://georgetownspot.com/#location,"Serenitee Gift Card
",Contact,MA,01833,restaurant
The Loft Restaurant & Pub,"1140 Osgood St, North Andover, MA 01845",Steak,North Andover,"American comfort food, seafood, steaks & chops served for lunch & dinner in a converted barn.",http://www.loftsteakandchophouse.com/,http://www.loftsteakandchophouse.com/dinner,https://www.loftsteakandchophouse.com/giftcards,https://www.loftsteakandchophouse.com/contact,GIFT CARDS,CONTACT,MA,01845,restaurant
Joseph's Trattoria Bakery cafe,"145 Oxford Ave, Haverhill, MA 01835",Italian,Haverhill,"This intimate kitchen offers elevated Italian dishes, cocktails & baked goods in warm environs.",http://www.josephstrattoria.com/,http://josephstrattoria.com/index.php?link=pasta,http://www.josephstrattoria.com/gift-cards.html,http://www.josephstrattoria.com/contact.html,Gift Cards,Contact,MA,01835,restaurant
Boylston House of Pizza,"81 Shrewsbury St, Boylston, MA 01505",Pizza,Boylston,,https://boylstonhousepizza.com/,https://boylstonhousepizza.com/Menus,https://boylstonhousepizza.com/Gift,https://boylstonhousepizza.com/Contact,Gift Certificate ,Contact Us ,MA,01505,restaurant
Ross Tavern at Wachusett Country Club,"187 Prospect St, West Boylston, MA 01583",Grill,West Boylston,,https://www.wachusettcc.com/,,https://clients.uschedule.com/wachusettcc/product,https://www.wachusettcc.com/contact-us,Swing 365 Indoor Golf Gift Certificates,Mail,MA,01583,restaurant
Willy's Steakhouse Grill & Sushi Bar,"2 Grafton St, Shrewsbury, MA 01545",Steak,Shrewsbury,Elegant eatery with white tablecloths & wood paneling plates steakhouse standards & inventive sushi.,http://www.willyssteakhouse.com/,http://www.willyssteakhouse.com/willys-steakhouse-menu-wine-list.php,https://www.willyssteakhouse.com/steakhouse-gift-cards.php,https://www.willyssteakhouse.com/willys-steakhouse-directions.php,Gift Cards,Contact / Directions,MA,01545,restaurant
Amici Trattoria,"582 Main St, Shrewsbury, MA 01545",Italian,Shrewsbury,Cozy Italian-American restaurant & pizzeria with a full bar & extensive gluten-free menu.,http://www.amicitrattoria.com/,http://www.amicitrattoria.com/pdfdoc/AmiciBreakfastTrifold.pdf,https://www.willyssteakhouse.com/steakhouse-gift-cards.php,http://www.amicitrattoria.com/contact-us.php,Gift Certificates,Contact Us,MA,01545,restaurant
Romaine's,"299 W Main St, Northborough, MA 01532",American,Northborough,Carefully sourced modern American fare paired with craft cocktails & an extensive wine list.,http://www.romainesrestaurant.com/,http://www.romainesrestaurant.com/downloads/2014/06-30-14/romaines_dinner-menu.pdf,https://squareup.com/store/romaines-wood-grill-and-bar,http://www.romainesrestaurant.com/contact-us,Gift Cards,Contact,MA,01532,restaurant
Tennessees Real BBQ Braintree,"173 Pearl St, Braintree, MA 02184",Barbecue,Braintree,"Ribs, pulled pork & other BBQ favorites are served on disposable tableware at this spartan spot.",http://tennesseesbbq.com/,,http://tennesseesbbq.com/gift-cards,,Gift Cards,,MA,02184,restaurant
Ocean Terrace,"355 Santana Row, San Jose, CA 95128",Fine Dining,San Jose,"Contemporary, dark cocktail lounge offering a happy hour menu, wines by the glass & balcony seating.",http://www.hotelvalencia-santanarow.com/,,https://www.hotelvalencia-santanarow.com/gift-certificates.htm,https://www.hotelvalencia-santanarow.com/contact-us.htm,Gift Cards,Contact Us,CA,95128,restaurant
Guapo's Tortilla Shack  Brewster,"239 Underpass Rd, Brewster, MA 02631",Mexican,Brewster,Baja-Mexican beach shack offering fish tacos & burritos for takeaway or dining at outdoor tables.,http://www.guaposcapecod.com/,http://places.singleplatform.com/el-guapos-3/menu?ref=google,https://www.guaposcapecod.com/gift-cards/,https://www.guaposcapecod.com/contact-us/,Gift Cards,Contact Us,MA,02631,restaurant
Linx Tavern at Ocean Edge Resort and Golf Club,"832 Villages Dr, Brewster, MA 02631",Restaurant,Brewster,Live music & 2 patios give this golf club restaurant a chill vibe for lunchtime relaxing.,http://oceanedge.com/,http://places.singleplatform.com/linx-tavern/menu?ref=google,https://www.oceanedge.com/gift-cards,https://www.oceanedge.com/weddings/request-for-proposal,Gift Cards,"


Contact Our Wedding Team											
																									

",MA,02631,restaurant
Chillingsworth Restaurant,"2449 Main St, Brewster, MA 02631",French,Brewster,High-end spot with classic French cuisine offering fixed-price meals in a historic setting.,http://www.chillingsworth.com/,http://places.singleplatform.com/chillingsworth/menu?ref=google,https://chillingsworth.popmenu.com/pages/gift-certificates,http://www.chillingsworth.com/contact-us,Gifts ,Contact ,MA,02631,restaurant
Shark Bah,"50 Endicott Ln, Brewster, MA 02631",Restaurant,Brewster,,https://www.oceanedge.com/,,https://www.oceanedge.com/gift-cards,https://www.oceanedge.com/weddings/request-for-proposal,Gift Cards,"


Contact Our Wedding Team											
																									

",MA,02631,restaurant
Beacon Room,"23 West Rd, Orleans, MA 02653",Restaurant,Orleans,Italian-inspired fare (with a focus on fresh local seafood) in a classy-casual atmosphere.,http://www.beaconroom.com/,http://www.beaconroom.com/,https://beaconroom.com/product/gift-certificates/,,Gift Certificates,,MA,02653,restaurant
College Pizza,"750 Bedford St, Bridgewater, MA 02324",Pizza,Bridgewater,,https://collegepizzaonline.com/,https://collegepizzaonline.com/Menus,https://collegepizzaonline.com/Gift,https://collegepizzaonline.com/Contact,Gift Certificate ,Contact Us ,MA,02324,restaurant
Chessmen's Pizza Bridgewater,"16 Central Square, Bridgewater, MA 02324",Pizza,Bridgewater,,https://chessmenpizzeria.com/,https://chessmenpizzeria.com/Menus,https://chessmenpizzeria.com/Gift,https://chessmenpizzeria.com/Contact,Gift Certificate ,Contact Us ,MA,02324,restaurant
Johnny Macaroni's,"1300 Plymouth St, East Bridgewater, MA 02333",Familyfriendly,East Bridgewater,"Modest destination serving pasta, lasagna, antipasto, seafood & other Italian standards.",http://www.johnnymacaronis.com/,https://johnnymacaronis.com/take-out-menu/,https://johnnymacaronis.com/products/johnny-macaronis-gift-cards/,https://johnnymacaronis.com/contact-johnny/,ON-LINE GIFT CARD PURCHASE BONUS & GO FUND ME BONUS,Contact  ,MA,02333,restaurant
Cedar Street Grille,"12 Cedar St, Sturbridge, MA 01566",American,Sturbridge,"Eclectic small plate recipes & a hefty martini & dessert menu amongst traditional, but homey decor.",http://www.cedarstreetgrille.com/,http://www.cedarstreetgrille.com/menu,http://table3restaurantgroup.com/gift-cards,http://www.cedarstreetgrille.com/contact,Gift Cards,Contact,MA,01566,restaurant
Homefield Kitchen & Brewery,"3 Arnold Rd, Sturbridge, MA 01518",Takeout Restaurant,Sturbridge,Quaint stone-lined haunt with exposed beams for snacks & beers made from area-sourced ingredients.,http://homefieldbrewing.biz/,http://homefieldbrewing.biz/,https://squareup.com/gift/DGCHDMMY3YA96/order,http://homefieldbrewing.biz/contact/,Online gift cards!,contact,MA,01518,restaurant
The Whistling Swan,"502 Main St, Fiskdale, MA 01518",American,Fiskdale,Intimate & rustic American bistro offering refined entrees such as bouillabaisse plus live music.,http://www.theducksturbridge.com/,,https://table3restaurantgroup.com/gift-cards,https://theducksturbridge.com/contact/,Gift Cards,Contact,MA,01518,restaurant
Corfinio,"285 Washington St, North Easton, MA 02356",Italian,North Easton,,http://corfinioeaston.com/,https://www.toasttab.com/corfinio/v3#!/order,https://www.toasttab.com/corfinio/giftcards,,Gift Cards,,MA,02356,restaurant
The Farmer's Daughter,"122 Main St, North Easton, MA 02356",Brunch,North Easton,Rustic-chic spot for elevated American breakfast & lunch fare made with locally sourced ingredients.,http://www.thefarmersdaughtereaston.com/,,https://www.toasttab.com/taste-hospitality-group/giftcards,http://www.thefarmersdaughtereaston.com/tel:508-297-0287,Gift Cards, 508-297-0287,MA,02356,restaurant
308 Lakeside,"308 E Main St, East Brookfield, MA 01515",American,East Brookfield,"Overlooking Lake Lashaway, this casual restaurant offers diverse American fare & a waterside deck.",http://308lakeside.com/,http://308lakeside.com/menu/,http://308lakeside.com/product/gift-certificate/,https://308lakeside.com/contact/,Purchase a Gift Certificate!,Contact,MA,01515,restaurant
Ye Olde Tavern,"5183 Main St, Manchester Center, VT 05255",Restaurant,Manchester Center,"Quaint, circa-1790 inn serving hearty New England & Continental dishes & classic cocktails.",http://yeoldetavern.net/,https://www.yeoldetavern.net/menus/,http://yeoldetavern.net/gift-cards,,Gift Cards,,VT,05255,restaurant
Uncle Sam's Pizza,"400 E Main St, East Brookfield, MA 01515",Pizza,East Brookfield,,http://www.unclesamspizzas.com/,https://unclesams-ebrookfield.foodtecsolutions.com/menu,https://unclesamspizzas.com/uncle-sams-gift-cards/,https://unclesamspizzas.com?storeUrl=https://eastbrookfield.unclesamspizzas.com/contact,Gift Cards,Contact,MA,01515,restaurant
La Morra,"48 Boylston St, Brookline, MA 02445",Italian,Brookline,"Busy, cozy restaurant serving homemade pasta & Tuscan-style wood-grilled entrees in a compact space.",http://www.lamorra.com/,http://places.singleplatform.com/la-morra/menu?ref=google,http://www.lamorra.com/giftcertificates,http://www.lamorra.com/contact,"
Gift Certificates
","
Contact Us
",MA,02445,restaurant
Burro Bar Brookline,"1665 Beacon St, Brookline, MA 02445",Mexican,Brookline,Cheery Mexican eatery emphasizing creatively stuffed tacos & a large tequila selection.,http://burrobarbrookline.com/,http://burrobarbrookline.com/,https://swipeit.com/product/1085/burro-bar/in/Restaurant-Gift-Cards,http://burrobarbrookline.com/contact/,Gift Cards,Contact,MA,02445,restaurant
Orinoco Brookline Village,"22 Harvard St, Brookline, MA 02445",Latin American,Brookline,"No-reservations Venezuelan eatery known for smoky arepas, served in a cozy, Latin-accented space.",http://orinocokitchen.com/,https://www.orinocokitchen.com/menus,https://www.orinocokitchen.com/orinoco-gift-cards,https://www.orinocokitchen.com/orinoco-contact,Gift Cards,Contact,MA,02445,restaurant
Stoked Wood Fired Pizza Co,"1632 Beacon St, Brookline, MA 02446",Pizza,Brookline,"A food truck spawns a finer-than-most pizza joint with creative pies, draft cocktails & craft suds.",http://www.stokedpizzaco.com/,http://www.stokedpizzaco.com/restaurant-menu,https://www.toasttab.com/stoked-pizza/giftcards,,"Click here for a restaurant gift card




",,MA,02446,restaurant
Bottega Fiorentina,"313B Harvard St, Brookline, MA 02446",Italian,Brookline,"Snug, informal corner shop offering Florentine pastas & sandwiches & imported Italian groceries.",https://eatbottega.com/,https://eatbottega.com/menu-1,https://eatbottega.com/gift-card,https://eatbottega.com/tel:6172322661,GIFT CARD,617.232.2661,MA,02446,restaurant
black & blue steak and crab Burlington Ma,"400 District Ave, Burlington, MA 01803",Restaurant,Burlington,,http://www.blackandbluesteakandcrab.com/,http://blackandbluesteakandcrab.com/burlington-ma/menu/,https://blackandbluesteakandcrab-rochester.cardfoundry.com,https://blackandbluesteakandcrab.com/burlington-ma/contact/,GIFT CARDS,Contact,MA,01803,restaurant
Jack's Coal Fired Pizza,"2 Wall St, Burlington, MA 01803",Pizza,Burlington,"Contemporary, red-hued Italian eatery offering coal-fired pies, salads, pastas, craft beer & wine.",http://www.jackscfp.com/,http://jackscfp.com/food-drink/,https://jackscfp.com/product/gift-card/,https://jackscfp.com/contact-us/,Gift Cards,Contact Us,MA,01803,restaurant
Temazcal Burlington,"2 Wall St, Burlington, MA 01803",Restaurant,Burlington,Elegantly chic restaurant offering elevated Mexican cuisine along with margaritas & 250+ tequilas.,https://temazcalcantina.com/,,https://www.temazcalcantina.com/gift-cards/,https://www.temazcalcantina.com/contact/,Gift Cards,Contact,MA,01803,restaurant
Little Donkey,"505 Massachusetts Ave, Cambridge, MA 02139",Restaurant,Cambridge,"Chef-driven spot with cool vibe serving international small plates, plus craft brews & cocktails.",http://www.littledonkeybos.com/,http://www.littledonkeybos.com/menu/,https://swipeit.com/product/966/little-donkey,http://www.littledonkeybos.com/contact-events,"
        GIFT CARDS
      ","
            CONTACT & EVENTS
          ",MA,02139,restaurant
Craigie On Main,"853 Main St, Cambridge, MA 02139",French,Cambridge,"High-end restaurant with innovative, French-inspired locavore fare & seasonal tasting menus.",http://www.craigieonmain.com/,,https://www.toasttab.com/craigie-on-main-craigie-on-main/giftcards,,Gift Cards,,MA,02139,restaurant
Area Four,"500 Technology Square, Cambridge, MA 02139",Pizza,Cambridge,"Trendy cafe & bakery offering gourmet pizzas made from dough fermented for 30 hours, plus espresso.",http://www.areafour.com/,http://places.singleplatform.com/area-four/menu?ref=google,http://www.areafour.com/store/gift-cards/,http://www.areafour.com/contact/,Gift Cards,Contact,MA,02139,restaurant
The Mad Monkfish,"524 Massachusetts Ave, Cambridge, MA 02139",Sushi,Cambridge,"Creatively named sushi, including rolls inspired by fairy tales, & Pan-Asian plates in simple digs.",http://www.themadmonkfish.com/,http://www.themadmonkfish.com/,http://www.themadmonkfish.com/store/gift-cards/,http://www.themadmonkfish.com/contact/,Gift Cards,Contact,MA,02139,restaurant
Loyal Nine,"660 Cambridge St, Cambridge, MA 02141",American,Cambridge,The Colonial era is the inspiration behind this eatery serving American fare & unique cocktails.,http://www.loyalninecambridge.com/,https://www.loyalninecambridge.com/menu,https://app.upserve.com/s/loyal-nine-cambridge,http://www.loyalninecambridge.com/contact,Buy Gift Card,Contact us,MA,02141,restaurant
Grendel's Den Restaurant & Bar,"89 Winthrop St, Cambridge, MA 02138",American,Cambridge,"Staple pub that's popular with students for beer selection, happy-hour bar bites & a patio.",https://www.grendelsden.com/,https://www.grendelsden.com/,https://www.toasttab.com/grendels-den-restaurant-bar/giftcards,,Gift Cards,,MA,02138,restaurant
Waterfall Bar & Grille,"643 Washington St, Canton, MA 02021",American,Canton,,http://www.waterfallbargrille.com/,,https://www.toasttab.com/waterfall-bar-grill/giftcards,,ONLINE GIFT CARDS,,MA,02021,restaurant
Roxanne's Taqueria Mexican Street Food,"95 Sharon St, Stoughton, MA 02072",Mexican,Stoughton,,http://roxannestaqueria.com/,http://roxannestaqueria.com/ordernow,http://roxannestaqueria.com/store/gift-cards/,http://roxannestaqueria.com/contact/,Gift Cards,Contact,MA,02072,restaurant
Saltbox Kitchen,"84 Commonwealth Ave, Concord, MA 01742",New American,Concord,"Bright, barnlike spot serving globally inspired fare made with ingredients from Saltbox Farm.",http://www.saltboxkitchen.com/,,https://www.toasttab.com/saltbox-kitchen-concord/giftcards,http://www.saltboxkitchen.com/#saltbox-kitchen-contact-section,Purchase Gift Gards,"
                        Contact
                      ",MA,01742,restaurant
80 Thoreau,"80 Thoreau St, Concord, MA 01742",American,Concord,"Classy, rustic-chic eatery featuring creative, farm-to-fork New American fare, wines galore & a bar.",http://www.80thoreau.com/,,http://www.80thoreau.com/store/gift-cards/,http://www.80thoreau.com/#contact,Gift Cards,Contact,MA,01742,restaurant
Leena's Kitchen,"63 Long Pond Rd, Plymouth, MA 02360",Italian,Plymouth,Modern Italian eatery with farm-to-table fare & cocktails in sleek quarters & a bar area with TVs.,https://www.leenaskitchen.com/,,https://swipeit.com/product/971/leenas-kitchen,https://www.leenaskitchen.com/contact/,Gift Cards,Contact,MA,02360,restaurant
Chatham Wine Bar,"359 Main St #2, Chatham, MA 02633",American,Chatham,Fine wines & elevated takes on steak & seafood dishes served in a refined setting with a patio.,https://www.chathamwinebar.com/,https://cuveechatham.com/wp-content/uploads/fine-dining-menu.pdf,https://cuveechatham.com/gift-certificates,,Gift Certificates,,MA,02633,restaurant
Chatham Filling Station,"75 Old Harbor Rd, Chatham, MA 02633",Diner,Chatham,,https://chathamfillingstation.com/,https://chathamfillingstation.com/breakfast,https://www.toasttab.com/chatham-filling-station/giftcards,,Purchase Gift Cards ,,MA,02633,restaurant
Princeton Station,"147 Princeton St, North Chelmsford, MA 01863",American,North Chelmsford,"Old-school American spot serving shrimp cocktail, chicken piccata & prime rib in a plush setting.",http://www.princetonstation.com/,http://www.princetonstation.com/menu.html,https://swipeit.com/product/2006/princeton-station,,"
										Gift Cards
									",,MA,01863,restaurant
Highlands Pizza,"1290 Westford St, Lowell, MA 01851",Pizza,Lowell,,http://www.highlandpizza.com/,http://www.highlandpizza.com/Menus,http://www.highlandpizza.com/Gift,http://www.highlandpizza.com/Contact,Gift Certificate ,Contact Us ,MA,01851,restaurant
Chelsea Station Restaurant Bar & Lounge,"105 Everett Ave, Chelsea, MA 02150",Gastropub,Chelsea,"New American pub in a historic firehouse with area-sourced plates, weekend brunch & craft cocktails.",http://thechelseastation.com/,http://thechelseastation.com/dinner-menu/,http://thechelseastation.com/gift-certificates/,http://thechelseastation.com/contact-us/,Gift Certificates,Contact Us,MA,02150,restaurant
Newbridge Cafe,"650 Washington Ave, Chelsea, MA 02150",American,Chelsea,Longtime eatery doling out steak tips & other meat-focused American plates amid old-school decor.,http://www.newbridgecafe.com/,http://www.newbridgecafe.com/menu.html,http://newbridgecafe.com/gift-certificates/,http://newbridgecafe.com/contact-us/,Gift Certificates,Contact,MA,02150,restaurant
Curly's Restaurant,"150 Broadway, Chelsea, MA 02150",Salvadoran,Chelsea,Mom-&-pop establishment providing traditional Salvadoran dishes & cocktails in a lively atmosphere.,http://curlyschelsea.com/,http://www.curlyschelsea.com/,http://curlyschelsea.com/Gift,http://curlyschelsea.com/Contact,Gift Certificate ,Contact Us ,MA,02150,restaurant
HighBrow wood fired kitchen  bar,"12 Crafts Ave #1, Northampton, MA 01060",Restaurant,Northampton,"Longtime parlor featuring wood fired pizzas & typical Italian fare, plus craft brews & sangria.",http://www.highbrowrestaurant.com/,http://highbrowrestaurant.com/,https://www.toasttab.com/highbrow/giftcards,http://www.highbrowrestaurant.com/contact," eGift Card

"," Contact

",MA,01060,restaurant
The Alvah Stone,"440 Greenfield Rd, Montague, MA 01351",American,Montague,,http://www.thealvahstone.com/,https://www.thealvahstone.com/,http://www.thealvahstone.com/gift-cards,http://www.thealvahstone.com/contact,"
            Gift Cards
          ","
            Hours & Contact
          ",MA,01351,restaurant
Munich Haus Restaurant,"13 Center St, Chicopee, MA 01013",German,Chicopee,"Pork schnitzels, sausages & imported beers in a rustic, German-style room & beer garden with music.",http://www.munichhaus.com/,,http://munichhaus.com/gift-cards/,https://visitor.r20.constantcontact.com/d.jsp?llr=szbk9wyab&p=oi&m=1126047221554&sit=xc8chl5kb&f=49d928dd-a672-4d6e-86df-26f9d748a525,Gift Cards,"
Newsletter
",MA,01013,restaurant
Masse's American Bistro,"1329 Memorial Dr, Chicopee, MA 01020",Grill,Chicopee,"Comfortable seafood spot offering oysters, lobster & fish 'n' chips, plus craft beer & cocktails.",http://massesseafood.com/,http://places.singleplatform.com/masses-american-bistro/menu?ref=google,https://massesamericanbistro.com/gift-cards/,https://massesamericanbistro.com/contact/,Gift Cards,Contact,MA,01020,restaurant
Boston Bay Pizza,"515 Montgomery St, Chicopee, MA 01020",Pizza,Chicopee,,http://www.bostonbaypizza.com/,http://www.bostonbaypizza.com/Menus,http://www.bostonbaypizza.com/Gift,http://www.bostonbaypizza.com/Contact,Gift Certificate ,Contact Us ,MA,01020,restaurant
Holyoke Hummus Company,"285 High St, Holyoke, MA 01040",Restaurant,Holyoke,,http://www.holyokehummuscompany.com/,http://www.holyokehummuscompany.com/cafe-menu,https://squareup.com/gift/7AAEMC84C01YF/order,http://www.holyokehummuscompany.com/contact,Order Gift Card,Contact,MA,01040,restaurant
Alchemy Bistro & Bar,"71 Main St, Edgartown, MA 02539",American,Edgartown,"Creative New American fare served on outdoor porch or airy dining room, plus a hopping bar upstairs.",http://alchemyedgartown.com/,https://www.alchemyedgartown.com/menu/,https://swipeit.com/product/1792/alchemy,,Gift Cards,,MA,02539,restaurant
Waterside Market,"82 Main St, Vineyard Haven, MA 02568",Restaurant,Vineyard Haven,"Year-round market & cafe offering all-day breakfast, salads, lobster rolls & other sandwiches.",http://watersidemarket.com/,http://places.singleplatform.com/waterside-market/menu?ref=google,https://squareup.com/gift/XNFBW2W26JT3B/order,https://www.watersidemarket.com/contact-us,"Gift Cards




",Contact Us,MA,02568,restaurant
The Barn Bowl & Bistro,"13 Uncas Ave, Oak Bluffs, MA 02557",Familyfriendly,Oak Bluffs,"Buzzy, open bar/eatery with burgers, pizza & other bites, plus games, TVs & a 10-lane bowling alley.",http://www.thebarnmv.com/,https://thebarnmv.com/about-bistro/,https://www.toasttab.com/thebarn/giftcards,http://www.thebarnmv.com/contact,"
              Gift Certificates
            ","
                Contact
              ",MA,02557,restaurant
Mezcal Cantina,"20 Central St, Leominster, MA 01453",Mexican,Leominster,"Trendy spot offering upscale Southwestern & Mexican fare, margaritas & a long list of tequilas.",http://www.mezcalcantina.com/,http://www.mezcalcantina.com/mezcal-leominster-menu/,https://www.nichehospitality.com/gift-cards/,http://www.mezcalcantina.com/contact-us,"
        Gift Cards
      ","
            Contact Us
          ",MA,01453,restaurant
Evviva Trattoria,"142 Apex Dr, Marlborough, MA 01752",Italian,Marlborough,"Family-friendly restaurant offering Italian appetizers, entrees & pizza in a festive atmosphere.",https://evvivatrattoria.com/,https://www.evvivatrattoria.com/,https://110grill.cardfoundry.com/giftcards.php,https://evvivatrattoria.com/contact/, Purchase Gift Cards ,Contact,MA,01752,restaurant
The Corner Stop Eatery,"235 Hull St, Cohasset, MA 02025",New American,Cohasset,"Upscale-casual American cuisine joins wine & craft cocktails in a quaint, modern space with a bar.",http://www.cornerstopeatery.com/,http://places.singleplatform.com/the-cornerstop-eatery-and-bar/menu?ref=google,http://www.cornerstopeatery.com/gift-certificates/,,Gift Certificates,,MA,02025,restaurant
Atlantica on Cohasset Harbor,"44 Border St, Cohasset, MA 02025",Seafood,Cohasset,"A seafood-centric, upscale American menu, plus sweeping harbor views, at the Cohasset Harbor Resort.",http://www.atlanticacohasset.com/,https://atlanticacohasset.org/menu,https://www.instagram.com/p/B99eU8fpWEO/,http://www.atlanticacohasset.com/contact,"

","
            Contact
          ",MA,02025,restaurant
Stars On Hingham Harbor,"3 Otis St, Hingham, MA 02043",American,Hingham,"Lively waterfront staple offers comfort eats, an extensive microbrew selection & regular live music.",http://www.starshingham.com/,http://www.starshingham.com/menus/lunch-dinner/,https://shop.eatwellinc.com/products/stars-gift-card/,http://www.starshingham.com/contact,Gift Cards,Contact,MA,02043,restaurant
The Parrot,"1 Hull Shore Dr, Hull, MA 02045",Restaurant,Hull,,http://www.theparrothull.com/,https://www.theparrothull.com/menu/,https://swipeit.com/product/2015/the-parrot,http://www.theparrothull.com/contact/,Buy Your Gift Cards Here,Contact,MA,02045,restaurant
Caffe Tosca,"15 North St, Hingham, MA 02043",Italian,Hingham,Contemporary Italian fixture serves a range of familiar dishes in a cozy setting with patio seating.,http://www.caffetoscahingham.com/,http://www.caffetoscahingham.com/,http://www.caffetoscahingham.com/#section-6938,,Gift Cards,,MA,02043,restaurant
Spice Root,"23 Spring St, Williamstown, MA 01267",Indian,Williamstown,"Fresh-baked bread, tandoori dishes & more in open dining room, plus student specials & lunch buffet.",http://www.spiceroot.com/,https://www.spiceroot.com/menus.htm,http://www.spiceroot.com/../Mumbai%20Times%20NEW%202/ws_online_ordering.htm,http://www.spiceroot.com/contact.htm,"
												We Have Gift Certificates For 
												Sale","
",MA,01267,restaurant
Eastside Grill,"19 Strong Ave, Northampton, MA 01060",American,Northampton,"Steaks, seafood & American eats served in the comfy dining room, clubby bar or on the outdoor patio.",http://eastsidegrill.com/,http://places.singleplatform.com/eastside-grill-11/menu?ref=google,http://eastsidegrill.com/gift-certificates,http://eastsidegrill.com/contact,"
                Gift Cards
              ","
                Contact
              ",MA,01060,restaurant
Verrill Farm,"11 Wheeler Rd, Concord, MA 01742",Farm,Concord,,https://verrillfarm.com/,,https://verrillfarm.com/product/verrill-farm-gift-cards/,https://verrillfarm.com/about/contact-us/,Gift Cards,Contact Us,MA,01742,restaurant
Haute Coffee,"12 Walden St, Concord, MA 01742",Cafe,Concord,"Urban nook offering seasonal, select sandwiches & soups, plus baked goods & premium, organic coffee.",http://myhautecoffee.com/,,https://squareup.com/gift/1W8W668W7KHY3/order,,Gift Cards,,MA,01742,restaurant
Sylvester's,"111 Pleasant St, Northampton, MA 01060",Restaurant,Northampton,"Homey favorite for local-farm-sourced brunches, plus a counter-serve cafe & in-house bakery.",http://www.sylvestersrestaurant.com/,http://sylvestersrestaurant.com/brunch,http://sylvestersrestaurant.com#giftcards,http://sylvestersrestaurant.com#contactus,Gift Cards,Contact Us,MA,01060,restaurant
India House,"45 State St, Northampton, MA 01060",Indian,Northampton,North Indian dishes at this refined family-run mainstay outfitted with ornate furniture from India.,http://www.indiahousenorthampton.com/,http://www.indiahousenorthampton.com/menu.html,http://www.indiahousenorthampton.com/gift-cards.html,http://www.indiahousenorthampton.com/contact.html,"
				Gift Cards
			","
				Contact
			",MA,01060,restaurant
Mama Iguana's,"271 Main St, Northampton, MA 01060",Mexican,Northampton,Familiar Mexican fare & a big tequila menu are highlighted at this casual joint with colorful decor.,http://www.spoletorestaurants.com/,http://places.singleplatform.com/mama-iguanas-2/menu?ref=google,http://swipeit.com/product/401/spoleto-group,,Order Gift Cards Online Here,,MA,01060,restaurant
Ozzie's Steak & Eggs,"26 Maple St, Hinsdale, MA 01235",American,Hinsdale,,http://www.ozziessteakandeggs.com/,http://ozziessteakandeggs.com/dinner.html,http://www.ozziessteakandeggs.com/gc.html,http://www.ozziessteakandeggs.com/contact.html,Gift Cards,Contact Us,MA,01235,restaurant
Patrick's Pub,"26 Bank Row, Pittsfield, MA 01201",Restaurant,Pittsfield,"Irish-style bar offering hearty American pub eats & brews on tap in a cozy, wood-&-brick setting.",http://patrickspubpittsfield.com/,http://places.singleplatform.com/patricks-pub-17/menu?ref=google,http://patrickspubpittsfield.com/gift-cards/,http://patrickspubpittsfield.com/contact-us/,Gift Cards,Contact Us,MA,01201,restaurant
Century House Restaurant,"235 Andover St, Peabody, MA 01960",American,Peabody,Historic American eatery with a homey setup plus an on-site tavern & shop with prepared food & wine.,http://www.centuryhousepeabody.com/,https://centuryhousepeabody.com/menu/,https://centuryhousepeabody.com/gift-card-order-form/,https://centuryhousepeabody.com/contact/,Gift Cards,Contact,MA,01960,restaurant
Sea Lion Sushi,"100 Independence Way STE B10, Danvers, MA 01923",Japanese,Danvers,,http://sealionsushi.net/,,http://sealionsushi.net/Gift,http://sealionsushi.net/Contact,Gift Certificate ,Contact Us ,MA,01923,restaurant
Fay's Restaurant,"613 Dartmouth St, South Dartmouth, MA 02748",Italian,South Dartmouth,"Convivial standby for pizza, sandwiches & Italian classics in casual quarters lined with old photos.",http://www.faysrestaurant.com/,http://www.faysrestaurant.com/menu/,https://www.toasttab.com/fays/giftcards,,Gift Cards,,MA,02748,restaurant
Tia Maria's European Cafe,"42 N Water St, New Bedford, MA 02740",European,New Bedford,"Family-owned breakfast & lunch spot with dinner some nights plus beer, wine & espresso drinks.",http://www.tiamariaseuropeancafe.com/,http://www.tiamariaseuropeancafe.com/menu.html,https://www.toasttab.com/tia-marias-european-cafe/giftcards,http://www.tiamariaseuropeancafe.com/contact.html,Purchase Online Gift Cards,Contact,MA,02740,restaurant
The Black Whale Kitchen and Bar,"106 MacArthur Dr, New Bedford, MA 02740",Seafood,New Bedford,Contemporary bar & eatery serving innovative seafood dishes & raw shellfish amid harbor views.,http://theblackwhale.com/,https://theblackwhale.com/menu/,https://swipeit.com/product/1802/the-black-whale,https://theblackwhale.com/contact-us/,Gift Cards,Contact Us,MA,02740,restaurant
Oscar's,"380 Washington St, Dedham, MA 02026",Gastropub,Dedham,"Convivial bar & grill offering modern pub fare, New England craft brews on tap, wine & cocktails.",http://www.oscarsdedham.com/,http://www.oscarsdedham.com/food.html,https://www.toasttab.com/oscar-s/giftcards,http://www.oscarsdedham.com/find-us.html,Purchase Oscar's Gift Card,Find Us,MA,02026,restaurant
Sofia Italian Steakhouse,"1430 VFW Pkwy, West Roxbury, MA 02132",Steak,West Roxbury,Prime cuts are featured at this Italian eatery with fireplace-equipped lounge & clubby dining room.,http://www.sofiaboston.com/,http://www.sofiaboston.com/#dinner-section,https://www.itson.me/widget/74-2062-sofia,,"
              Gift Cards
            ",,MA,02132,restaurant
Wild Roots,"11 Bridge St, Sunderland, MA 01375",Sandwich,Sunderland,,http://wildrootseatery.com/,http://wildrootseatery.com/#menu,https://squareup.com/gift/FH62WAFNCQGCQ/order,http://wildrootseatery.com/contact,eGift Cards,Contact,MA,01375,restaurant
Bueno Y Sano South Deerfield,"2 Elm St, South Deerfield, MA 01373",Mexican,South Deerfield,,http://buenoysano.com/,http://buenoysano.com/locations-menus/,https://buenoysano.com/shop-bueno/#!/Gift-Card/p/75309006/category=0,https://buenoysano.com/contact/,,CONTACT,MA,01373,restaurant
Tito's taqueria,"145 Federal St, Greenfield, MA 01301",Restaurant,Greenfield,,https://titostaqueria.com/,https://titostaqueria.com/greenfield-1,https://titostaqueria.com/titos-gift-certificates,https://titostaqueria.com/contact-1,"
            Store
          ","
              Contact
            ",MA,01301,restaurant
The Oyster Company,"202 Depot St, Dennis Port, MA 02639",Seafood,Dennis Port,Stylish but comfy locals' go-to pairs its signature dish & other seafood fare with house martinis.,http://theoystercompany.com/,http://places.singleplatform.com/oyster-company-raw-bar--grill/menu?ref=google,https://theoystercompany.com/contact-us/,https://theoystercompany.com/contact-us/,"

",Contact Us,MA,02639,restaurant
Chapin's Bayside,"85 Taunton Ave, Dennis, MA 02638",Seafood,Dennis,"Casual restaurant serving coastal classics, pastas & grilled steaks, plus a patio & raw bar.",http://www.chapinsbayside.com/,https://www.chapinsbayside.com/Menu/MenuType/ViewType/ItemTypeID/10/Northside-Favorites-Cape-Cod-Best-Restaurant-Menu,https://chapinsrestaurant.com/,http://chapinsbayside.com/contact/,Gift Certificates,Contact Us,MA,02638,restaurant
Sea Dog Brew Pub,"23 Whites Path, South Yarmouth, MA 02664",American,South Yarmouth,"Longtime haunt for American pub classics plus pizza, tacos & draft beer in a low-key space with TVs.",http://www.seadogcapecod.com/,https://www.seadogcapecod.com/lunch-dinner-menu,http://www.seadogcapecod.com/store/gift-cards/,http://www.seadogcapecod.com/contact/,Gift Cards,Contact,MA,02664,restaurant
Ocean House Beach Bar,"Three Seasons Resort, 421 Old Wharf Rd, Dennis Port, MA 02639",Bar,Dennis Port,Outdoor bar serving specialty cocktails & light fare in a beachfront setup at Three Seasons Resort.,http://threeseasonsresort.com/,,http://www.capecodgiftcertificate.com/merchant.php?id=109899224100002,http://threeseasonsresort.com/contact-us/, / Gift Cards,Contact,MA,02639,restaurant
Liberty and Union Alehouse,"16 Trescott St, Taunton, MA 02780",Restaurant,Taunton,"Warm, brick-clad eatery serving down-home comfort cooking alongside wine, beer & mixed cocktails.",http://www.libertyandunionalehouse.com/,https://www.libertyandunionalehouse.com/menus,https://www.toasttab.com/liberty-and-union-alehouse/giftcards,http://www.libertyandunionalehouse.com/contact,Gift Cards,Join Our Team ,MA,02780,restaurant
Samuel Slater's Restaurant,"200 Gore Rd, Webster, MA 01570",American,Webster,,http://www.samuelslaters.com/,http://places.singleplatform.com/samuel-slaters-restaurant/menu?ref=google,https://rhpindian18.wpengine.com/gift-cards/,,Gift Cards ,,MA,01570,restaurant
Bistro Eighty Ates,"172 Gore Rd, Webster, MA 01570",Bistro,Webster,,http://eightyates.com/,,http://eightyates.com/gift-cards.html,http://eightyates.com/contact-us.html,Gift Cards,Contact Us,MA,01570,restaurant
Juniper,"13 Central St, Wellesley, MA 02482",Mediterranean,Wellesley,Eastern Mediterranean dishes with exotic spices in cork-floored digs with flea-market–sourced decor.,http://www.juniperwellesley.com/,http://places.singleplatform.com/juniper-33/menu?ref=google,http://www.juniperwellesley.com/#gift-cards,,Gift Cards,,MA,02482,restaurant
Bocado Tapas Wine Bar,"45 Church St, Wellesley, MA 02482",Tapas Bar,Wellesley,,http://www.bocadotapasbar.com/,https://www.bocadotapasbar.com/wellesley-menu,https://www.nichehospitality.com/gift-cards/,http://www.bocadotapasbar.com/contact-us,"
        Gift Cards
      ","
            Contact Us
          ",MA,02482,restaurant
The Cottage Wellesley,"190 Linden St, Wellesley, MA 02482",American,Wellesley,"Californian cuisine offered in a relaxed, Cape Cod-style dining room with a bar & Sunday brunch.",http://www.cottagewellesley.com/,http://www.cottagewellesley.com/,https://www.toasttab.com/cottagewellesley/giftcards,http://www.cottagewellesley.com/contact,BUY A GIFT CARD,"
            Contact
          ",MA,02482,restaurant
Cappella Restaurant,"45 Chapel St, Needham, MA 02492",Italian,Needham,,https://cappellarestaurant.com/,http://places.singleplatform.com/cappella/menu?ref=google,https://www.toasttab.com/cappella-restaurant/giftcards,https://cappellarestaurant.com/contact-cappella-needham-italian-cuisine/,Gift Cards,Location | Hours,MA,02492,restaurant
The James,"1027 Great Plain Ave, Needham, MA 02492",Restaurant,Needham,"Cozy, casual stone-clad stop serving hearty pub grub plates plus beer, wine & cocktails.",https://www.thejamespub.com/,,https://www.thejamespub.com/gift-cards,https://www.thejamespub.com/findus,"
            Gift Cards
          ","
            Find us
          ",MA,02492,restaurant
Grazie Italian Restaurant,"80 Meadow Creek Dr, Dracut, MA 01826",Italian,Dracut,,https://www.grazie.restaurant/,https://grazie.restaurant/admin/pdf_upload/MENU_Dinner.pdf,https://www.grazie.restaurant/giftcards.php,https://visitor.r20.constantcontact.com/manage/optin?v=001kFGr00cMd_HTM8M6kPRz2Hzu9CiEs_a_q2sPRDnX8R0t_7N1kSWK1rrSP6JxsRUResWhf1cjTVwx3szA-gQS0ImrlzF3InZu8YTUYmiUkjc%3D,Gift Cards,eList,MA,01826,restaurant
Dracut House of Pizza & Seafood,"1067 Lakeview Ave, Dracut, MA 01826",Restaurant,Dracut,"Everyday pies, pastas & subs, plus fried seafood plates, whipped up in easygoing surrounds.",https://www.dracuthop.com/,https://order.labrador.ai/store/dracut-house-of-pizza-seafood-dracut,https://www.dracuthop.com/store/gift-cards/,https://www.dracuthop.com/contact/,Gift Cards ,Contact ,MA,01826,restaurant
The Tavern  Lenzi's Restaurant,"810 MERRIMACK AVE, MA-110, Dracut, MA 01826",American,Dracut,,http://www.thetavernatlenzis.com/,https://lenzistavernandrestaurant.com/menu.php,http://www.thetavernatlenzis.com/gift-card.php,http://www.thetavernatlenzis.com/contact.php,GIFT CARDS,CONTACT US,MA,01826,restaurant
Suppa's Pizza & Subs,"94 University Ave, Lowell, MA 01854",Pizza,Lowell,"New York–style pizzas, calzones & hot subs turned out in no-frills, compact quarters with booths.",http://www.suppaspizza.com/,http://toasttab.com/suppas-pizza-subs/v3,https://www.toasttab.com/suppas-pizza-subs/giftcards,http://www.suppaspizza.com/tel:+19789703961,TAKE OUT,Contact Us,MA,01854,restaurant
The Farmhouse Cafe,"320 Vintage Point Ln, Wendell, NC 27591",Cafe,Wendell,,http://www.farmhousecafewendell.com/,,https://www.instagram.com/p/B9r-k9SHoio/,http://www.farmhousecafewendell.com/contactus,"

","
            Contact Us
          ",NC,27591,restaurant
Mr Mac's Macaroni & Cheese Tyngsboro,"440 Middlesex Rd, Tyngsborough, MA 01879",American,Tyngsborough,,http://mr-macs.com/,https://mr-macs.alohaorderonline.com/,http://mr-macs.com/gift-cards-and-rewards,https://visitor.r20.constantcontact.com/manage/optin?v=001l2jBILRzRVgbxDn5sJH8bg86vCAy45IzIF1YkpIIZQ1nzvLv8kiwQ7JY6g0FUllvs9CUQD6o9-R5I07BtOC22khgbowMLaEZV4sxFhmf6kSTAYd_m4hW3X_1mKLce26kSNKOfRyjn2uYDZCmDYi2Eujc7cznha8C4Mlyf1qI-p4%3D%22,Gift Cards & Rewards,Sign Up,MA,01879,restaurant
Mariano's,"105 Main St, Pepperell, MA 01463",Italian,Pepperell,,http://marianositalian.com/,http://places.singleplatform.com/marianos-ristorante/menu?ref=google,http://onelink.quickgifts.com/merchant/marianos-ristorante-ma/,http://marianositalian.com/contact,"  

Click Here to Buy Gift Cards
"," Contact

",MA,01463,restaurant
The Oysterman,"3807, 30 Railroad Ave, Duxbury, MA 02332",Gastropub,Duxbury,"Polished surf 'n' turf hangout with raw bar, comfort food & large beer selection.",http://www.anchorandoysterman.com/,,http://www.anchorandoysterman.com/store/gift-cards/,http://www.anchorandoysterman.com/contact/,Gift Cards,Contact,MA,02332,restaurant
The Sun Tavern,"500 Congress St, Duxbury, MA 02332",American,Duxbury,Colonial-era farmhouse that's now a spacious dining destination for classic American recipes.,http://www.suntavernrestaurant.com/,http://places.singleplatform.com/the-sun-tavern/menu?ref=google,https://www.suntavernrestaurant.com/gift-cards/,https://www.suntavernrestaurant.com/contact/,Gift Cards,Contact/Directions,MA,02332,restaurant
The Raw Bar at Island Creek Oyster Farm,"403-7 Washington St, Duxbury, MA 02332",Seafood,Duxbury,,http://rawbar.islandcreekoysters.com/,,https://shop.islandcreekoysters.com/products/gift-card,http://rawbar.islandcreekoysters.com/contact/,Gift Cards,Contact,MA,02332,restaurant
Carmela's Restaurant,"138 Main St, Kingston, MA 02364",Italian,Kingston,"Casual restaurant & lounge providing classic American & Italian-American fare, plus a full bar.",http://carmelas.net/,https://carmelas.net/menu/,https://carmelas.net/product/gift-card/,,Gift Cards,,MA,02364,restaurant
Solstice,"63 Summer St, Kingston, MA 02364",American,Kingston,"Gourmet New American cuisine, wine & cocktails served in a renovated 19th-century railway station.",http://www.restaurantsolstice.com/,,https://solstice-restaurant.myshopify.com/products/gift-card,,purchasing a gift cards online,,MA,02364,restaurant
Fazio's Ristorante & Pizzeria,"162 Shaker Rd, East Longmeadow, MA 01028",Italian,East Longmeadow,,http://www.faziosvilla.com/,http://www.faziosvilla.com/menus/cateringmenu/,https://faziosvilla.com/gift-cards/,https://faziosvilla.com/contact/,GIFT CARDS,CONTACT,MA,01028,restaurant
The Pizza Shoppe,"134 Shaker Rd, East Longmeadow, MA 01028",Pizza,East Longmeadow,Casual tavern & Italian eatery in operation since 1955 known for wings & sweet pizza dough.,http://www.pizza-shoppe.com/,http://www.pizza-shoppe.com/menu/,https://www.pizza-shoppe.com/gift-cards/,http://www.pizza-shoppe.com/contact/,Gift Cards,"134 Shaker Road • 
East Longmeadow, MA",MA,01028,restaurant
Friendly Fisherman Restaurant and Fish Market,"4680 US-6, Eastham, MA 02642",Seafood,Eastham,"Down-to-earth seafood stop with picnic tables for New England standards, plus fish-focused market.",http://www.friendlyfishermaneastham.com/,http://friendlyfishermaneastham.com/our-menu/,http://www.friendlyfishermaneastham.com/gift-certificates/,https://friendlyfishermaneastham.com/contact/,,Contact,MA,02642,restaurant
Chocolate Cafe,"855 El Camino Real, Palo Alto, CA 94301",Cafe,Palo Alto,Rustic eatery offers a locally sourced Californian menu & fresh bread from the bakery next door.,http://www.mayfieldbakery.com/,,https://www.toasttab.com/mayfield-bakery-cafe/giftcards,http://www.mayfieldbakery.com/contact,Gift Certificates,Contact,CA,94301,restaurant
Van Rensselaer's Restaurant and Raw Bar,"1019 US-6, South Wellfleet, MA 02663",Seafood,South Wellfleet,"Family-run stalwart with local seafood-obsessed menu, microbrews, popular salad bar & kids' meals.",http://vanrensselaers.com/,http://vanrensselaers.com/menus.php,https://swipeit.com/product/1848/van-rensselaers-restaurant--raw-bar,http://vanrensselaers.com/contact,,Contact,MA,02663,restaurant
Lost Dog Pub Orleans,"63 MA-6A, Orleans, MA 02653",Pub,Orleans,,http://www.lostdogpubs.com/,,http://www.lostdogpubs.com/collections/all/products/gift-certificate,http://www.lostdogpubs.com/pages/contact,"

",CONTACT,MA,02653,restaurant
Mac's Shack,"91 Commercial St, Wellfleet, MA 02667",Seafood,Wellfleet,Rustic-chic dining room pairs updated seafood classics & sushi with creative cocktails & wine.,http://macsseafood.com/,http://places.singleplatform.com/macs-shack/menu?ref=integration,https://www.macsseafood.com/basket/product_detail/325,https://www.macsseafood.com/contact-us/customer-service/,Gift Cards,FAQ Shipping,MA,02667,restaurant
Glendale Grill,"65 Glendale St, Easthampton, MA 01027",American,Easthampton,,http://glendalegrill65.com/,https://www.glendalegrill65.com/menu/,http://glendalegrill65.com/gift-cards/,http://glendalegrill65.com/contact/,Gift Cards,Contact,MA,01027,restaurant
Maguire's Bar & Grill,"503 Foundry St, North Easton, MA 02356",Restaurant,North Easton,"Irish tavern offering a traditional pub menu & beer on tap in convivial, wood-paneled surrounds.",http://www.maguiresbarandgrill.com/,,https://maguiresbarandgrill.cardfoundry.com/giftcards.php,,"  

Gift Cards
",,MA,02356,restaurant
La Cucina Ristorante Easton,"140 Main St, North Easton, MA 02356",Italian,North Easton,,http://lacucinasulmare.com/,,http://lacucinasulmare.com/giftcertificates,http://lacucinasulmare.com/contact-us,"
                Gift Certificates
              ","
                Contact Us
              ",MA,02356,restaurant
Chesca's Restaurant,"38 N Water St, Edgartown, MA 02539",Restaurant,Edgartown,Italian-American dishes star at this upscale bistro serving pre-dinner drinks on its quaint porch.,http://www.chescasmv.com/,http://www.chescasmv.com/updates-1/,http://www.chescasmv.com/gift,http://www.chescasmv.com/findus,Gift Certificates,Contact,MA,02539,restaurant
19 Raw Oyster Bar,"19 Church St, Edgartown, MA 02539",Restaurant,Edgartown,A menu featuring seafood towers & contemporary bistro fare in a renovated home with patio seating.,http://19rawoysterbar.com/,,https://www.instagram.com/p/B-FUuqeD5SP/,http://19rawoysterbar.com/#contact-section,"

","
                        Contact
                      ",MA,02539,restaurant
The Dunes,"31 Dunes Rd, Edgartown, MA 02539",New American,Edgartown,"Family-friendly eatery features upscale New American cooking, plus an outdoor deck with ocean views.",https://www.winnetu.com/,https://www.winnetu.com/wp-content/uploads/2020/02/Sample-Dunes-Dinner-Menu-Season-2020.pdf,https://www.winnetu.com/marthas-vineyard-restaurants/gift-certificates/,https://www.winnetu.com/about-us/contact-us/,Gift Certificates,Contact Us,MA,02539,restaurant
Scottish Bakehouse,"977 State Rd, Vineyard Haven, MA 02568",Bakery,Vineyard Haven,"Locally run bakery serving light fare, sweets & gluten-free snacks in cozy digs with outside tables.",http://scottishbakehousemv.com/,http://scottishbakehousemv.com/wp-content/uploads/2017/04/SBH-Sweet-Treats-Spring-2017.pdf,http://vow.custcon.com/sco/vow_default.asp,,GiftCard Balance,,MA,02568,restaurant
CK Pearl,"112 Main St, Essex, MA 01929",Seafood,Essex,Unfussy seafood plates served in comfortable surrounds with a full bar & riverside deck seating.,http://www.ckpearl.com/,,https://www.toasttab.com/ck-pearl-112-main-st/giftcards,http://www.ckpearl.com/contact,Buy E-Gift Cards Here,"
            Contact
          ",MA,01929,restaurant
Woodman's of Essex,"119 Main St, Essex, MA 01929",Seafood,Essex,"Crowds line up at this 1914 seafood specialist with a no-frills, counter-serve setup & big portions.",http://www.woodmans.com/,http://www.woodmans.com/restaurants/menus/,https://www.woodmans.com/product-category/online-gift-certificates/,https://www.woodmans.com/contact-us/directions/,Online Gift Certificates,Directions,MA,01929,restaurant
Mile Marker One Restaurant & Bar,"75 Essex Ave, Gloucester, MA 01930",Grill,Gloucester,"Waterfront resort bar & grill with a variety of dining options, from seafood dishes to a pool bar.",http://www.milemarkerone.com/,https://capeannmarina.com/dining/menus/,https://capeannmarina.com/gift-card/,https://capeannmarina.com/contact-us/,Purchase Gift Cards,Contact Us,MA,01930,restaurant
Nana's Pizza,"416 Main St, Everett, MA 02149",Restaurant,Everett,"Casual counter-serve cafe dispatching pizza, subs, beer & wine, plus gluten-free options.",http://www.nanaseverett.com/,,http://www.nanaseverett.com/#wp_foodtec_page_widget-7,https://nanaseverett.com?storeUrl=https://mainstreet.nanaseverett.com/contact,Gift Cards,Contact,MA,02149,restaurant
The Square Deli,"421 Broadway, Everett, MA 02149",Sandwich,Everett,"Casual hangout with an extensive menu of dinner plates, sandwiches & wraps, pastas & much more.",http://squaredeli.com/,http://squaredeli.com/Menus,http://squaredeli.com/Gift,http://squaredeli.com/Contact,Gift Certificate ,Contact Us ,MA,02149,restaurant
Izzys,"72 Spring St, New Bedford, MA 02740",Restaurant,New Bedford,,https://www.izzyspizza.com/,,https://www.izzyspizza.com/gift-cards/,https://www.izzyspizza.com/company/contact-us/,Gift Cards,Contact Us,MA,02740,restaurant
The Cove Restaurant & Marina,"392 Davol St, Fall River, MA 02720",Seafood,Fall River,"Airy, elegant waterfront restaurant serving American & Portuguese seafood dishes & craft cocktails.",http://www.cove392.com/,http://places.singleplatform.com/the-cove-restaurant--marina/menu?ref=google,https://www.toasttab.com/the-cove-restaurant-marina/giftcards,http://www.cove392.com/contact/,Buy Your Gift Cards Now,Contact,MA,02720,restaurant
The Tipsy Toboggan,"75 Ferry St, Fall River, MA 02721",American,Fall River,"Homey tavern offers a familiar menu of pub classics & drinks in a lodge-like, bi-level setting.",http://www.thetipsytoboggan.com/,,https://swipeit.com/product/1903/tipsy-toboggan,https://www.thetipsytoboggan.com/contact,GIFT CARDS,CONTACT,MA,02721,restaurant
Number One Chinese Restaurant,"1111 Story Rd #1011, San Jose, CA 95122",Chinese,San Jose,,http://goldenchick.com/,,http://goldenchick.com/locations/locations/,http://goldenchick.com/connect/contact/,,Connect,CA,95122,restaurant
The Galley Grille,"66 State Rd #1, Westport, MA 02790",American,Westport,,https://www.galleygrille.com/,https://www.galleygrille.com/menu,https://shop.lafrancehospitality.com/products/lafrance-hospitality-gift-card,https://www.galleygrille.com/contact/,Gift Cards,Contact,MA,02790,restaurant
Water Street Kitchen,"56 Water St, Woods Hole, MA 02543",Restaurant,Woods Hole,,https://waterstreetkitchen.com/,,https://waterstreetkitchen.com/gift,,"
                gift cards
              ",,MA,02543,restaurant
Chapoquoit Grill,"410 W Falmouth Hwy, Falmouth, MA 02540",American,Falmouth,Wood-fired pizzas & Mediterranean staples are served up at this easygoing neighborhood restaurant.,http://chapoquoitgrillwestfalmouth.com/,http://chapoquoitgrillwestfalmouth.com/,http://chapoquoitgrillwestfalmouth.com/gift-card,,"
            Gift Card
          ",,MA,02540,restaurant
Brew City Grill & Brew House,"104 Shrewsbury St, Worcester, MA 01604",American,Worcester,"Bar/eatery with industrial vibe, build-your-own burgers, cocktails & changing menu of 155+ beers.",http://www.brew-city.com/,http://www.brew-city.com/images/Brew_City_Dinner_Menu.pdf,https://brew-city.com/gift-cards/,https://brew-city.com/contact-3/,Gift Cards,Contact,MA,01604,restaurant
Gibbet Hill Grill,"61 Lowell Rd, Groton, MA 01450",Restaurant,Groton,Elegant spot in a converted barn grows the produce featured in its menu of refined New England eats.,http://www.gibbethillgrill.com/,http://www.gibbethillgrill.com/,http://www.gibbethillgrill.com/#giftcard,http://www.gibbethillgrill.com/#contact,Buy a Gift Card,Contact,MA,01450,restaurant
Tavolino,"274 Patriot Pl, Foxborough, MA 02035",Italian,Foxborough,Contemporary pizzeria serves up inventive thin-crust pies & specialty cocktails in a stylish venue.,http://foxborough.tavolinorestaurant.us/,http://foxborough.tavolinorestaurant.us/menu/,http://tavolinofoxborough.securetree.com/,http://foxborough.tavolinorestaurant.us/contact,"
Gift Cards
","
Contact/Direction
",MA,02035,restaurant
Skipjack's,"226 Patriot Pl, Foxborough, MA 02035",Seafood,Foxborough,Classic seafood dishes are the draw at this spacious contemporary standby with a relaxed atmosphere.,http://www.skipjacks.com/,http://www.skipjacks.com/#menu,http://www.skipjacks.com/#gift-cards,http://www.skipjacks.com/contact,"
Gift Cards
","
Contact
",MA,02035,restaurant
Lafayette House,"109 Washington St, Foxborough, MA 02035",American,Foxborough,"This American mainstay founded in 1784 offers steak, seafood & pub grub in cozy surrounds.",http://www.lafayettehouse.com/,http://lafayettehouse.com/wp-content/uploads/2016/01/MENUS-PUB-2014-REVISED-AUGUST.pdf,http://lafayettehouse.com/gift-certificates/,http://lafayettehouse.com/contact-us/,Gift Certificates,Contact,MA,02035,restaurant
Scorpion Bar Patriot Place,"253 Patriot Pl, Foxborough, MA 02035",Mexican,Foxborough,"Clever Mexican fare, cocktails & scorpion bowls served in a large space with dramatic, modern decor.",http://www.scorpionpatriotplace.com/,http://scorpionpatriotplace.com/menu/,http://bneg.com/giftcard/,,GIFT CARDS,,MA,02035,restaurant
Aladdin's Pizza,"4171 N Main St #3, Fall River, MA 02720",Pizza,Fall River,,http://aladdinpizzafallriver.com/,http://aladdinpizzafallriver.com/Menus,http://aladdinpizzafallriver.com/Gift,http://aladdinpizzafallriver.com/Contact,Gift Certificate ,Contact Us ,MA,02720,restaurant
The Back Nine Club,"17 Heritage Hill Dr, Lakeville, MA 02347",Restaurant,Lakeville,"Casual bar/restaurant in a golf-course clubhouse, offering hearty American fare with a global touch.",http://thebacknineclub.com/,https://www.thebacknineclub.com/the-pub/,https://swipeit.com/product/235/the-back-nine-pub,https://www.thebacknineclub.com/contact/,Gift Cards Available!,Contact,MA,02347,restaurant
Bradford Tavern,"87 Haverhill St, Rowley, MA 01969",Restaurant,Rowley,American fare & creative cocktails served in a charming house with rustic beams & modern decor.,http://www.bradfordtavern.com/,http://www.bradfordtavern.com/wp-content/uploads/2015/01/BRADFORD-FUNCTION-MENU-2015-jan.pdf,http://www.bradfordtavern.com/gift-cards,http://www.bradfordtavern.com/contact,"
            Gift Cards
          ","
            Contact
          ",MA,01969,restaurant
Village Square Restaurant,"103 N Loudoun St, Winchester, VA 22601",Breakfast,Winchester,"New American dining with a full bar in the rustic, intimate environs of a historic building.",http://www.villagesquarerestaurant.com/,http://www.villagesquarerestaurant.com/dinner/,https://www.villagesquarerestaurant.com/gift-certificates/,,Gift Certificates,,VA,22601,restaurant
Cape Ann Lanes,"53 Gloucester Ave, Gloucester, MA 01930",Restaurant,Gloucester,,http://www.capeannlanes.com/,,https://www.capeannlanes.com/giftcards,,,,MA,01930,restaurant
Tonno Wakefield,"175 North Ave, Wakefield, MA 01880",Restaurant,Wakefield,,http://tonnorestaurant.com/,https://www.tonnorestaurant.com/tonno-wakefield#Menu,https://www.toasttab.com/tonno/giftcards,," Buy an e-Gift Card

",,MA,01880,restaurant
Pie in the Sky Bakery & Cafe,"10 Water St, Woods Hole, MA 02543",Restaurant,Woods Hole,"Open 364 days a year, the local option for homemade pies & baked goods within a coffeehouse setting.",http://www.piecoffee.com/,https://piecoffee.com/menu,https://piecoffee.com/shop/gift-cards,https://piecoffee.com/contact,Gift Cards,Contact,MA,02543,restaurant
Flying Bridge Restaurant,"220 Scranton Ave, Falmouth, MA 02540",Seafood,Falmouth,The harbor views are the draw at this massive American eatery/lounge with a focus on fish fare.,http://www.flyingbridgerestaurant.com/,,http://www.shopcapeonline.com/coonamessettinnflyingbridgegiftcard.aspx,https://flyingbridgerestaurant.com/contact/,"

			GIFT CARD 
",CONTACT,MA,02540,restaurant
Grafton Grill,"10 Bridge St, North Grafton, MA 01536",American,North Grafton,,http://graftongrill.com/,https://www.toasttab.com/grafton-grill/v3,https://www.graftongrill.com/gift-cards,https://www.graftongrill.com/contact,GIFT CARDS,CONTACT,MA,01536,restaurant
Post Office Pub Restaurant,"1 Ray St, North Grafton, MA 01536",American,North Grafton,Old-timey American restaurant & bar decorated with U.S. Postal Service memorabilia.,http://www.postofficepub.com/,https://postofficepub.com/food/,https://swipeit.com/product/1419/post-office-pub,http://postofficepub.com/find-us/,Gift Cards,Find Us,MA,01536,restaurant
New House Of Fancy Pizza,"3 Main St, South Grafton, MA 01560",Pizza,South Grafton,,https://fancyhousepizza.com/,https://fancyhousepizza.com/Menus,https://fancyhousepizza.com/Gift,https://fancyhousepizza.com/Contact,Gift Certificate ,Contact Us ,MA,01560,restaurant
Red Rock Grill and Bar,"66 W Main St, Upton, MA 01568",Grill,Upton,Chefs use ingredients sourced from backyard garden at this rustic-chic spot with adjoining cafe.,http://www.redrockgrillandbar.com/,https://redrockgrillandbar.com/index.php/menu,https://squareup.com/store/red-rock-grill-and-bar,,"Order Red Rock Gift Certificates,Brownies, or Merch Online

",,MA,01568,restaurant
118 Main Street Kitchen & Spirits,"118 Main St, Upton, MA 01568",Restaurant,Upton,,https://www.118mainstreetkitchenandspirits.com/,https://www.118mainstreetkitchenandspirits.com/menus,https://www.toasttab.com/118-main-street-kitchen-and-spirits/giftcards,https://www.118mainstreetkitchenandspirits.com/contact,Giftcards,Contact/Directions,MA,01568,restaurant
Reunion Tap & Table,"198 Worcester St, North Grafton, MA 01536",New American,North Grafton,,http://www.reuniontap.com/,http://places.singleplatform.com/reunion-tap--table/menu?ref=google,https://reuniontap.com/gift-cards/,https://reuniontap.com/contact/,Gift Cards,Contact,MA,01536,restaurant
Family Pizza South Hadley,"334 Newton St, South Hadley, MA 01075",Pizza,South Hadley,"Casual Italian eatery serving pizza, pasta, calzones, pasta, wings & classic entrees.",http://www.familypizzash.com/,http://www.familypizzash.com/id8.html,http://www.familypizzash.com/Gift,http://www.familypizzash.com/Contact,Gift Certificate ,Contact Us ,MA,01075,restaurant
Nadim's Mediterranean Restaurant & Grill,"1390 Main St, Springfield, MA 01103",Mediterranean,Springfield,"Traditional Mediterranean & Lebanese dishes & a full bar offered in a warm, refined atmosphere.",http://www.nadims.com/,http://www.nadims.com/menu,http://www.nadims.com/gift-card,http://www.nadims.com/contact-us,Gift Card,Contact Us ,MA,01103,restaurant
Berkshire Food Coop,"34 Bridge St, Great Barrington, MA 01230",Cafe,Great Barrington,,https://berkshire.coop/,https://berkshire.coop/cafe,https://berkshire.coop/giftcards,https://berkshire.coop/contact,"
                  Gift Cards
                ","
                Contact
              ",MA,01230,restaurant
Cantina 229,"229 Hartsville-New Marlborough Rd, New Marlborough, MA 01230",American,New Marlborough,"A charming, rustic destination for daily changing menus of inventive New American cuisine.",http://cantina229.com/,,https://squareup.com/gift/2KVHN1BJ8KRB4/order,,Order Gift Card,,MA,01230,restaurant
Groton Station House Restaurant,"20 Station Ave, Groton, MA 01450",Fine Dining,Groton,,https://www.grotonstationhouse.com/,https://grotonstationhouse.com/menu/,https://www.toasttab.com/grotonstationhouse/giftcards,https://grotonstationhouse.com/contact/,Buy Online Gift Card,Contact,MA,01450,restaurant
Bailey's Bar & Grille,"18 Main St, Townsend, MA 01469",Grill,Townsend,"Bright eatery with big windows & patio seating offering American fare, trivia night & music.",http://baileysbarandgrille.com/,http://baileysbarandgrille.com/menu/2640759,https://onelink.quickgifts.com/merchant/baileys-bar-and-grille/,http://baileysbarandgrille.com/contact,"  

Buy Gift Cards Online
"," Contact

",MA,01469,restaurant
The Peddler's Daughter Irish Restaurant & Pub,"45 Wingate St, Haverhill, MA 01832",Restaurant,Haverhill,"Upbeat Irish go-to with live music dispenses draft beer & a vast menu of Irish cuisine, plus patio.",http://www.thepeddlersdaughter.com/,http://www.thepeddlersdaughter.com/,https://onelink.quickgifts.com/merchant/the-peddlers-daughter/,http://www.thepeddlersdaughter.com/contact/,Gift Cards,Contact,MA,01832,restaurant
Olivia's,"142 Essex St, Haverhill, MA 01832",Italian,Haverhill,"In warm, brick-walled surrounds, this Italian trattoria serves meats, pastas & antipasti.",http://www.oliviashaverhill.com/,http://places.singleplatform.com/olivias-4/menu?ref=google,https://www.egiftcardexpress.com/live/5/,http://www.oliviashaverhill.com/contact.html,Gift Cards,Contact,MA,01832,restaurant
The Quarters,"8 Railroad St, Hadley, MA 01035",Restaurant,Hadley,"Burgers, bar bites & cocktails are dispensed in a retro-chic space with 20+ vintage arcade games.",http://hadleyquarters.com/,,https://www.giftfly.com/shop/the-quarters,,Gift Cards,,MA,01035,restaurant
Kaiju,"30 Boltwood Walk, Amherst, MA 01002",Ramen,Amherst,,http://kaiju-amherst.com/,http://kaiju-amherst.com/menu,https://www.giftfly.com/shop/kaiju,,Gift Cards,,MA,01002,restaurant
Caminito Steakhouse,"7 Old S St, Northampton, MA 01060",Steak,Northampton,Homey indoor/outdoor setting for hardwood-fired steaks paired with Argentinean wines & live music.,https://caminitosteakhouse.com/,http://www.caminitosteakhouse.com/,https://caminitosteakhouse.com/gift,,"
            Gift Cards
          ",,MA,01060,restaurant
BR's Cafe,"550 Monponsett St, Halifax, MA 02338",Breakfast,Halifax,,http://www.brscafe.com/,http://www.brscafe.com/Pages/Menu.aspx?DeptID=39604,http://app.yiftee.com/gifts/egift_and_gift_cards/monponsett-inn-halifax,http://www.brscafe.com/Pages/ContactUs.aspx,Gift Cards,Contact Us,MA,02338,restaurant
Santoro's Pizza & Subs,"284 Plymouth St, Halifax, MA 02338",Pizza,Halifax,,https://santorohalifax.com/,https://santorohalifax.com/Menus,https://santorohalifax.com/Gift,https://santorohalifax.com/Contact,Gift Certificate ,Contact Us ,MA,02338,restaurant
Spiro's II Pizza & Grill,"1064 Main St, Hanson, MA 02341",Pizza,Hanson,,https://spiro2pizzagrill.com/,https://spiro2pizzagrill.com/Menus,https://spiro2pizzagrill.com/Gift,https://spiro2pizzagrill.com/Contact,Gift Certificate ,Contact Us ,MA,02341,restaurant
A3 PizzaPastaParm,"65 Summer St, Kingston, MA 02364",Italian,Kingston,,http://a3pizza.com/,,https://www.toasttab.com/a3-pizza/giftcards,https://a3pizza.com/contact-us/,Buy Gift Card,Contact Us,MA,02364,restaurant
15 Walnut Tavern,"15 Walnut Rd, South Hamilton, MA 01982",American,South Hamilton,"Relaxed institution for signature cocktails & eclectic eats, such as sushi, burgers, BBQ & more.",http://www.15walnut.com/,https://www.15walnut.com/menus/take-out-menu,https://serenitee.myguestaccount.com/login/web_card_sale/selectcards.srv,http://www.15walnut.com/contact-us,"Serenitee Gift Card
",Contact Us,MA,01982,restaurant
Bonefish Harry's,"218 Cabot St, Beverly, MA 01915",Seafood,Beverly,,https://www.bonefishharrys.com/,,https://www.bonefishharrys.com/gift-cards,https://www.bonefishharrys.com/contact,GIFT CARDS,CONTACT,MA,01915,restaurant
Atomic Cafe,"268 Cabot St, Beverly, MA 01915",Restaurant,Beverly,"Hot & iced coffee beverages are the specialty at this hip spot, also offering smoothies & food.",http://www.atomicafe.com/,,http://www.atomicafe.com/shop/gift-cards,,"
        Gift Cards
      ",,MA,01915,restaurant
Rice Fruit Farm,"757 Main St, Wilbraham, MA 01095",Bakery,Wilbraham,,http://www.ricesfruitfarm.com/,http://www.ricesfruitfarm.com/,https://www.toasttab.com/rice-fruit-farm-757-main-st-wilbraham-ma-01095/giftcards,https://ricesfruitfarm.com/contact-us/,Gift Cards,Contact Us,MA,01095,restaurant
Port Smitt's,"370 Pecks Rd, Pittsfield, MA 01201",Familyfriendly,Pittsfield,,http://portsmittsrestaurant.com/,http://portsmittsrestaurant.com/menu.htm,https://portsmittsrestaurant.com/gift-cards/,https://portsmittsrestaurant.com/contact-us/,Gift Cards,Contact Us,MA,01201,restaurant
Gino's Pizza and Grill,"1206 North St, Pittsfield, MA 01201",Pizza,Pittsfield,,http://ginospizzangrill.com/,http://ginospizzangrill.com/Menus,http://ginospizzangrill.com/Gift,http://ginospizzangrill.com/Contact,Gift Certificate ,Contact Us ,MA,01201,restaurant
Waubeeka Golf Links,"8518, 137 New Ashford Rd, Williamstown, MA 01267",Restaurant,Williamstown,,https://www.waubeeka.com/,http://waubeeka.com/,https://secure.east.prophetservices.com/WaubeekaWebstoreV3?,https://www.waubeeka.com/waubeeka-home,Get Your Waubeeka Gift Card Today!,CONTACT,MA,01267,restaurant
Alumni Sports Cafe,"95 Washington St, Pembroke, MA 02359",Pizza,Pembroke,"Relaxed neighborhood tavern with a sports theme & menu of pub grub, pizza & cocktails.",http://www.alumnisportscafe.com/,,http://alumnisportscafe.com/shop/,http://alumnisportscafe.com/contact-us/,Gift Cards,Contact Us,MA,02359,restaurant
Trattoria San Pietro,"376 Washington St # 1, Norwell, MA 02061",Restaurant,Norwell,"Upscale yet casual trattoria with a spacious dining room serving Italian classics, plus a full bar.",http://www.trattoriasanpietro.com/,,https://my-site-104172.square.site/s/order#6,http://www.trattoriasanpietro.com/#reservations,Gift Cards,Contact & Reservations,MA,02061,restaurant
435 Bar & Grille,"435 Lancaster St, Leominster, MA 01453",Grill,Leominster,Modern spins on global comfort bites served in a restored mill with sports on TV & live music.,http://www.435barandgrille.com/,,https://435barandgrille.localgiftcards.com,https://www.435barandgrille.com/contact,GIFT CARDS,CONTACT,MA,01453,restaurant
Waypoint,"1030 Massachusetts Ave, Cambridge, MA 02138",Seafood,Cambridge,"Creative seafood & raw-bar selections, plus pizzas & pastas, in hip space with large absinthe menu.",http://www.waypointharvard.com/,,https://waypoint.cardfoundry.com/giftcards.php,http://www.waypointharvard.com/#contact,"
        Gift Cards
      ",Hours & Location,MA,02138,restaurant
Grafton Street Pub & Grill,"1230 Massachusetts Ave, Cambridge, MA 02138",Grill,Cambridge,"Stylish yet relaxed gastropub serving upscale comfort food, cocktails & a robust craft brew list.",http://www.graftonstreetcambridge.com/,http://graftonstreetcambridge.com/menus/,http://swipeit.com/product/194/harvard-square-dining,https://graftonstreetcambridge.com/contact/,Gift Card,Contact,MA,02138,restaurant
Alden & Harlow,"40 Brattle St, Cambridge, MA 02138",New American,Cambridge,Subterranean restaurant serving creative New American fare & cocktails on tap in rustic-chic digs.,http://aldenharlow.com/,,https://alden.cardfoundry.com/giftcards.php,,"
              Gift Cards
            ",,MA,02138,restaurant
Stage Stop Candy,"411 Main St, Dennis Port, MA 02639",Candy store,Dennis Port,,http://www.stagestopcandy.com/,,https://www.stagestopcandy.com/store/account/voucher,https://www.stagestopcandy.com/store/information/contact,Gift Certificates,,MA,02639,restaurant
The Grill Next Door,"653 Broadway, Haverhill, MA 01832",Grill,Haverhill,"Casual bar & grill specializing in burgers & other comfort fare, with 30+ craft microbrews on tap.",http://www.thegrillnextdoor.net/,http://thegrillnextdoor.net/menu.html,http://www.thegrillnextdoor.net/giftcards.html,https://g.page/grillnextdoor?share,Gift Cards,  Find us here,MA,01832,restaurant
The Chicken Connection,"242 Broadway, Haverhill, MA 01832",Chicken,Haverhill,"Barbecue joint serving fried & rotisserie chicken, pot pies, ribs & pulled pork in homey environs.",http://www.thechickenconnection.com/,https://www.thechickenconnection.com/menu,https://www.thechickenconnection.com/gift-cards,https://www.thechickenconnection.com/contact-directions,Gift Cards,Directions,MA,01832,restaurant
One Eleven Chop House,"111 Shrewsbury St, Worcester, MA 01604",Steak,Worcester,"Celebrated steakhouse classics & super-sized wine list in a posh, white-tablecloth setting.",http://www.111chophouse.com/,http://www.111chophouse.com/menus/dinner-menu/,http://www.worcesterrestaurantgroup.com/gift-cards/,https://www.111chophouse.com/contact/,GIFT CARDS,CONTACT,MA,01604,restaurant
Via Italian Table,"89 Shrewsbury St, Worcester, MA 01604",Italian,Worcester,"Sophisticated Italian comfort fare in chic, romantic surrounds, plus year-round patio dining.",http://www.viaitaliantable.com/,https://www.viaitaliantable.com/menus,http://www.worcesterrestaurantgroup.com/gift-cards/,https://www.viaitaliantable.com/contact/,GIFT CARDS,CONTACT,MA,01604,restaurant
The Greenhouse At La Cucina De Hampden House,"1 Allen St, Hampden, MA 01036",Italian,Hampden,,http://www.lacucinahampden.com/,,http://www.lacucinahampden.com/gift-card,http://www.lacucinahampden.com/contact,Buy Now,Contact Us ,MA,01036,restaurant
glass - wine bar kitchen,"119 Falls Ave, Hawley, PA 18428",Restaurant,Hawley,,https://ledgeshotel.com/,http://places.singleplatform.com/glass-132/menu?ref=google,https://ledgeshotel.com/gift-certificates,https://ledgeshotel.com/contact-us/,Buy Gift Certificates,Contact Us,PA,18428,restaurant
Roy Moore Lobster Co,"39 Bearskin Neck, Rockport, MA 01966",Seafood,Rockport,"No-frills seafood eatery & market with outdoor waterfront seating only, plus a BYOB policy.",http://www.rockportusa.com/,,https://capeannchamber.com/cape-ann-gift-certificates/,http://www.rockportusa.com/contact,,Contact,MA,01966,restaurant
Peregrine,"170 Charles St, Boston, MA 02114",Restaurant,Boston,,https://www.peregrineboston.com/,,https://www.peregrineboston.com/store/,https://www.peregrineboston.com/contact/,Shop -- Gift Cards etc.,Contact,MA,02114,restaurant
Trident Galley & Raw Bar,"23 Shipyard Dr, Hingham, MA 02043",Seafood,Hingham,"Warm, rustic restaurant serving seafood, chops & raw bar staples alongside beer, wine & cocktails.",http://www.tridentrawbar.com/,https://www.tridentrawbar.com/menu,https://swipeit.com/product/1098/trident-galley--raw-bar,,Gift Cards,,MA,02043,restaurant
Boathouse Bistro & Pizzeria,"19 Shipyard Dr, Hingham, MA 02043",Italian,Hingham,"A menu featuring Italian & American pizza, bar fare, & cocktails with patio seating near the water.",http://www.boathousebistrohingham.com/,,https://www.toasttab.com/boathouse-bistro-hingham/giftcards,http://www.boathousebistrohingham.com/new-page,"



","
                Contact
              ",MA,02043,restaurant
Lido Juice,"60 South St, Hingham, MA 02043",Juice,Hingham,,http://www.lidojuice.com/,http://www.lidojuice.com/menu,http://www.lidojuice.com/#lido-gift-cards-section,http://www.lidojuice.com/#contact-section,"
                        Gift Cards
                      ","
                        Contact
                      ",MA,02043,restaurant
Taqueria,"94 Derby St, Hingham, MA 02043",Mexican,Hingham,,https://www.wholefoodsmarket.com/,https://www.wholefoodsmarket.com/taqueria/menu,https://wholefoods.buyatab.com/custom/wholefoods/,,Gift Cards,,MA,02043,restaurant
deadhorse hill,"281 Main St, Worcester, MA 01608",American,Worcester,A former hilltop hotel houses a rustic-chic New American dining room with daytime cafe & coffee bar.,http://www.deadhorsehill.com/,,https://www.toasttab.com/dead-horse-hill/giftcards,http://www.deadhorsehill.com/contact/,gift cards,contact,MA,01608,restaurant
The Fix Burger Bar,"108 Grove St, Worcester, MA 01605",Hamburger,Worcester,"Modern setting for custom burgers served with craft beers, unique cocktails & spiked milkshakes.",http://www.thefixburgerbar.com/,http://www.thefixburgerbar.com/the-fix-burger-bar-menu/,https://www.nichehospitality.com/gift-cards/,http://www.thefixburgerbar.com/contact-us,"
        Gift Cards
      ","
            Contact Us
          ",MA,01605,restaurant
Antonio's Pizza By The Slice Kitchen & Bar  Worcester,"268 Chandler St, Worcester, MA 01602",Pizza,Worcester,,http://antoniospizza.com/,https://antoniospizza.com/wp-content/uploads/sites/4/2019/02/Antonios-Worcester-Dine-In-Menu-020119.pdf,https://antonios-amherst.foodtecsolutions.com:9443/giftcard/purchase,http://antoniospizza.com/#,Purchase,Contact,MA,01602,restaurant
Nuovo,"92 Shrewsbury St, Worcester, MA 01604",Italian,Worcester,"Upscale, family-friendly spot for Italian-style surf 'n' turf, plus a full bar.",http://www.nuovoworcester.com/,http://www.nuovoworcester.com/menu/0/menus.aspx,https://swipeit.com/product/1556/nuovo-restaurant,http://www.nuovoworcester.com/Pages/ContactUs.aspx,Gift Cards,Contact Us,MA,01604,restaurant
Heritage of Sherborn,"33 N Main St, Sherborn, MA 01770",American,Sherborn,Modern-rustic pub housed in historic former inn serving elevated farm-to-table fare & cider drinks.,http://www.heritageofsherborn.com/,https://www.heritageofsherborn.com/dine-with-us/pub/,https://www.heritageofsherborn.com/gift-certificates-to-heritage-cwp/,http://www.heritageofsherborn.com/contact,Gifts,CONTACT US,MA,01770,restaurant
Rustic Pizza,"295 Main St, Los Altos, CA 94022",Pizza,Los Altos,"Classic, convivial spot with a modern-rustic bar & patio for raw oysters & casual seafood dishes.",http://rustichouselosaltos.com/,http://offers.rustichouselosaltos.com/,http://rustichouselosaltos.com/gift-cards,http://maps.google.com/maps?f=q&source=s_q&hl=en&geocode=&q=Rustic+House+Oyster+Bar+%26+Grill%2c+295+Main+Street+%2c+Los+Altos%2c+CA+94022&z=17,Gift Cards ,"  Los Altos,  CA ",CA,94022,restaurant
Dino's Pizza,"615 Homestead Ave, Holyoke, MA 01040",Pizza Delivery,Holyoke,,http://dinospizzama.com/,http://dinospizzama.com/Menus,http://dinospizzama.com/Gift,http://dinospizzama.com/Contact,Gift Certificate ,Contact Us ,MA,01040,restaurant
Mendon DriveIn Snack Bar,"MA-16, Mendon, MA 01756",Snack bar,Mendon,,https://www.mendondrivein.com/,,https://mendon.phantomgourmet.com/,https://www.mendondrivein.com/contact,Gift Cards,"35 Milford St, Mendon MA 01756",MA,01756,restaurant
PiNZ  Milford,"110 S Main St, Milford, MA 01757",Restaurant,Milford,"Spacious complex offering bowling by the hour, billiards, a game arcade & laser tag.",http://www.pinzbowl.com/,,http://www.pinzbowl.com/store,http://www.pinzbowl.com/contact,Gift Cards,Contact Us ,MA,01757,restaurant
Arturo's Ristorante,"54 E Main St, Westborough, MA 01581",Italian,Westborough,"Casual eatery serves classic Italian dishes, including pizza, & wines from an open kitchen.",http://www.arturosristorante.com/,https://www.arturosristorante.com/,https://swipeit.com/product/932/arturos-ristorante,http://www.arturosristorante.com/contact/,Gift Cards,Contact,MA,01581,restaurant
Civic Kitchen & Drink,"121 W Main St, Westborough, MA 01581",Restaurant,Westborough,Farmhouse-style gathering place with a patio for pub fare with local ingredients & craft draft beer.,https://www.civickitchenanddrink.com/,,https://civickitchenanddrink.instagift.com/,https://www.civickitchenanddrink.com/contact-apply-online,Gift Cards ,Contact ,MA,01581,restaurant
Mountain Barn Restaurant,"174 Worcester Rd, Princeton, MA 01541",Familyfriendly,Princeton,,http://www.mountainbarn.com/,,http://www.mountainbarn.com/giftcards.html,http://www.mountainbarn.com/contact-1.html,"





GIFT CARDS


",contact,MA,01541,restaurant
Black Diamond Restaurant,"41 Mile Hill Rd, Westminster, MA 01473",Restaurant,Westminster,,https://www.wachusett.com/,https://www.wachusett.com/WachusettASPX/media/WachusettMedia/PDFs/Black-Diamond-Menu.pdf,https://www.wachusett.com/Tickets-Passes/Ways-to-Save/Gift-Cards.aspx,https://www.wachusett.com/Contact-Us.aspx,Gift (COW) Cards,Contact,MA,01473,restaurant
Less Than Greater Than,"28 Main St, Hudson, MA 01749",Bar,Hudson,,http://www.lessthangreaterthan.com/,,https://www.toasttab.com/lessthangreaterthan/giftcards,,Purchase Gift Cards,,MA,01749,restaurant
CJ 's Gourmet Pizza & Grill,"29 Hudson Rd, Sudbury, MA 01776",Pizza,Sudbury,,https://cjspizzagrill.com/,https://slicelife.com/restaurants/ma/sudbury/01776/c-j-s-gourmet-pizza-grill/menu,https://cjspizzagrill.com/gift-cards/,,Gift Cards,,MA,01776,restaurant
The Market Restaurant,"8 Hayward St, Ipswich, MA 01938",Seafood,Ipswich,,http://www.ipswichfishmarket.com/,https://www.ipswichfishmarket.com/CafeMenu.pdf,http://www.ipswichfishmarket.com/more.aspx#certificates,http://www.ipswichfishmarket.com/contact.aspx,GIFT CERTIFICATES,CONTACT,MA,01938,restaurant
Alden Park,"160 Colony Pl, Plymouth, MA 02360",American,Plymouth,"Snazzy, laid-back New American spot with patio & fire pit, a lengthy drink menu & Sunday brunch.",https://www.aldenparkrestaurant.com/,https://www.aldenparkrestaurant.com/menus,https://www.aldenparkrestaurant.com/gift-cards,https://www.aldenparkrestaurant.com/contact,Gift Cards,Contact ,MA,02360,restaurant
The Studio Kitchen,"101 Kingston Collection Way, Kingston, MA 02364",Restaurant,Kingston,,http://www.thestudio.kitchen/,,https://red.vendini.com/ticket-software.html?id=1317&t=giftcard,https://www.thestudio.kitchen/contact,Gift Cards,Contact,MA,02364,restaurant
Boston Tavern,"58 E Grove St, Middleborough, MA 02346",American,Middleborough,American grub & beer offered in a family-friendly restaurant with historical decor & live music.,https://www.bostontavernmiddleboro.com/,,https://bostontavernmiddleboro.com/product/cards/,https://www.bostontavernmiddleboro.com/contact/,Gift Cards,CONTACT,MA,02346,restaurant
Lorenzo's Italian Restaurant,"500 W Grove St, Middleborough, MA 02346",Italian,Middleborough,"Old-school spot serving hearty portions of pasta, pizza & other Italian classics since 1950.",http://www.lorenzos.net/,,https://lorenzos.net/gift-cards/,https://lorenzos.net/contact/,Gift Cards,Contact,MA,02346,restaurant
Fisher's Pub,"360 Wareham St #3222, Middleborough, MA 02346",Grill,Middleborough,,http://fisherspub.com/,,https://swipeit.com/product/1118/fishers-pub,http://fisherspub.com/contact,"
GIFT CARDS
","
CONTACT
",MA,02346,restaurant
Maddi's Cookery & TapHouse,"64 Water St, Worcester, MA 01604",Grill,Worcester,,http://www.maddiscookery.com/,http://maddiscookery.com/food/,https://www.toasttab.com/maddis-cookery-and-taphouse/giftcards,https://maddiscookery.com/contact/,"
",CONTACT,MA,01604,restaurant
Chocolate Springs Cafe,"55 Pittsfield Rd, Lenox, MA 01240",Chocolate shop,Lenox,,http://www.chocolatesprings.com/,http://places.singleplatform.com/chocolate-springs-desserts-and-caf/menu?ref=google,https://chocolatesprings.com/product/e-gift-card/,https://chocolatesprings.com/contact-us/,e-Gift Cards,Contact Us,MA,01240,restaurant
Roots Natural Foods Market Kitchen  Organic Juice Bar,"100 Crawford St, Leominster, MA 01453",Health food store,Leominster,,http://www.rootsnaturalfoods.com/,,http://www.rootsnaturalfoods.com/store/gift-cards/,http://www.rootsnaturalfoods.com/contact/,Gift Cards,Contact Us,MA,01453,restaurant
Sean Patrick's Restaurant,"494 Electric Ave, Lunenburg, MA 01462",Restaurant,Lunenburg,,http://www.seanpatricksrestaurant.com/,http://www.seanpatricksrestaurant.com/catering.html,http://www.seanpatricksrestaurant.com/gift_cards.html,http://www.seanpatricksrestaurant.com/contact.html,GIFT CARDS,CONTACT,MA,01462,restaurant
Tito's Taqueria,"972 Putney Rd, Brattleboro, VT 05301",Mexican,Brattleboro,,http://www.titostaqueria.com/,https://titosvt.com/menu-feed/,http://www.titostaqueria.com/titos-gift-certificates,http://www.titostaqueria.com/contact-1,"
            Store
          ","
              Contact
            ",VT,05301,restaurant
Forge & Vine,"128R Main St, Groton, MA 01450",Restaurant,Groton,,http://www.forgeandvine.com/,,http://www.forgeandvine.com/#giftcard,,Gift Cards,,MA,01450,restaurant
GoBerry,"28 Amity St #1e, Amherst, MA 01002",FroYo,Amherst,,http://www.go-berry.com/,,https://squareup.com/gift/32X3GJNPGQ4C8/order,http://www.go-berry.com/contact-us.html,"
                				Gift Cards
                			","
                				Contact Us
                			",MA,01002,restaurant
The Upper Crust Pizzeria,"41 Waltham St, Lexington, MA 02421",Pizza,Lexington,Family-friendly pizzeria serving inventive pies & oven-roasted sandwiches in a simple setting.,https://theuppercrustpizzeria.com/,https://theuppercrustpizzeria.com/,https://theuppercrustpizzeria.com/upper-crust-gift-cards/,https://theuppercrustpizzeria.com/contact/,Gift Cards,Contact,MA,02421,restaurant
Whetstone Station Restaurant and Brewery,"36 Bridge St, Brattleboro, VT 05301",Brewery,Brattleboro,"Riverside eatery featuring craft drafts, creative pub grub & year-round deck seating.",https://www.whetstonestation.com/,https://www.whetstonestation.com/food-menu,https://whetstonestation.cardfoundry.com/,,Gift Cards,,VT,05301,restaurant
Hungry Ghost Bread,"62 State St, Northampton, MA 01060",Bakery,Northampton,"Casual bakeshop with a rotating selection of pastries & wood-fired breads, plus take-out pizzas.",http://www.hungryghostbread.com/,,https://squareup.com/gift/3G2PJTQTWDRQH/order,http://hungryghostbread.com/contact-us/,"
 ",Contact Us ,MA,01060,restaurant
The Bistro - Eat Drink Connect(r),"387 Winter St, Waltham, MA 02451",American,Waltham,"Casual Marriott Hotel eatery featuring breakfast & lunch American eats, cocktails & espresso drinks.",http://www.marriott.com/,,https://gifts.marriott.com,http://www.marriott.com/tel:+1 781-419-0900, Gift Cards ,  +1 781-419-0900  ,MA,02451,restaurant
The Federal,"74 Tower Rd, Waltham, MA 02451",Restaurant,Waltham,,http://www.the-federalrestaurant.com/,https://www.toasttab.com/the-federal/v3#!/,https://www.toasttab.com/the-federal/giftcards,,Buy Gift Cards,,MA,02451,restaurant
Balani Waltham,"469 Moody St, Waltham, MA 02453",Restaurant,Waltham,,http://balaniwaltham.com/,http://balaniwaltham.com/wp-content/uploads/2020/03/Balani-Takeout-Delivery-Menu.pdf,http://balaniwaltham.com/#gift-cards,,Gift Cards,,MA,02453,restaurant
Star Pizza,"707 Main St, West Springfield, MA 01089",Pizza,West Springfield,,http://www.gostarpizza.com/,http://www.gostarpizza.com/Menus,http://www.gostarpizza.com/Gift,http://www.gostarpizza.com/Contact,Gift Certificate ,Contact Us ,MA,01089,restaurant
Wild Olive Pizzeria Artisan Sandwiches & Pizza,"699 Sumner Ave, Springfield, MA 01108",Pizza,Springfield,,http://www.wildolivepizzaspringfield.com/,http://www.wildolivepizzaspringfield.com/Menus,http://www.wildolivepizzaspringfield.com/Gift,http://www.wildolivepizzaspringfield.com/Contact,Gift Certificate ,Contact Us ,MA,01108,restaurant
Warp and Weft,"197 Market St, Lowell, MA 01852",Restaurant,Lowell,"Pub plates served in a convivial, brick-lined space with craft beer on tap & a lineup of live music.",https://www.warplowell.com/,https://www.warplowell.com/menu,https://www.warplowell.com/gift-card,https://www.warplowell.com/home,Gift Card,Contact Us,MA,01852,restaurant
Skewer's Wood Grill,"1060 Main St, Tewksbury, MA 01876",Mediterranean,Tewksbury,"Family-style Mediterranean joint serving gyros, skewers & burgers in bright, informal surrounds.",http://www.skewerswoodgrill.com/,http://www.skewerswoodgrill.com/Menus,http://www.skewerswoodgrill.com/Gift,http://www.skewerswoodgrill.com/Contact,Gift Certificate ,Contact Us ,MA,01876,restaurant
Wilbraham Seafoods,"2341 Boston Rd, Wilbraham, MA 01095",Restaurant,Wilbraham,,http://www.wilbrahamseafoods.com/,,http://www.wilbrahamseafoods.com/order-gift-certificates,http://www.wilbrahamseafoods.com/reach-us-today," Gift Certificates

"," Contact Us and Location

",MA,01095,restaurant
Whatley inn,"193 Chestnut Plain Rd, Whately, MA 01093",Restaurant,Whately,,http://whatelyinn.com/,,https://whatelyinn.com/gift-cards/,,Gift Cards,,MA,01093,restaurant
The Blue Ox,"191 Oxford St, Lynn, MA 01901",Restaurant,Lynn,"Contemporary bistro features local, seasonal dishes & craft cocktails in a candlelit romantic venue.",http://www.theblueoxlynn.com/,https://theblueoxlynn.com/menus/dinner_menu.pdf,http://www.theblueoxlynn.com/#giftcards,http://www.theblueoxlynn.com/#contactus,Gift Cards,Contact Us,MA,01901,restaurant
Nightshade Noodle Bar,"73 Exchange St, Lynn, MA 01901",Restaurant,Lynn,,http://nightshadenoodlebar.com/,https://nightshadenoodlebar.com/menu,https://squareup.com/gift/QANR38YT3N7W2/order,,gift cards,,MA,01901,restaurant
Pamino's Pizza & Roast Beef,"566 Walnut St, Lynn, MA 01905",Pizza,Lynn,,http://paminospizza.com/,http://paminospizza.com/Menus,http://paminospizza.com/Gift,http://paminospizza.com/Contact,Gift Certificate ,Contact Us ,MA,01905,restaurant
Flax Pond,"19399 Stevens Creek Blvd #5, Cupertino, CA 95014",Restaurant,Cupertino,,https://pacificcatch.com/,https://pacificcatch.com/menu/,https://pacificcatch.securetree.com/,https://pacificcatch.com/contact-us/,Gift Cards,Contact Us,CA,95014,restaurant
Exchange Street Bistro,"67 Exchange St, Malden, MA 02148",Bistro,Malden,Multiple martinis anchor the menu at this contemporary bistro also serving eclectic entrees & tapas.,http://www.exchangestreetbistro.com/,,http://www.exchangestreetbistro.com/gift-cards.html,http://www.exchangestreetbistro.com/contact.html,Gift Cards,Contact,MA,02148,restaurant
Dockside Restaurant in Malden,"229 Centre St, Malden, MA 02148",American,Malden,"Sprawling sports bar with high-back booths, many TVs, a game room & family-friendly American fare.",http://www.docksiderestaurants.com/,http://www.docksiderestaurants.com/pdfs/threelocationsmenu.pdf,http://www.docksiderestaurants.com/misc/gift-cards/,https://www.docksiderestaurants.com/contact-us/,,Contact,MA,02148,restaurant
Real Italian Gusto,"24 High St, Medford, MA 02155",Italian,Medford,Elevated storefront eatery with old-world flair making Neapolitan pizza & other Italian specialties.,http://www.realitaliangusto.com/,http://www.realitaliangusto.com/menu,https://www.realitaliangusto.com/gift-cards,,GIFT CARDS,,MA,02155,restaurant
The Landing Restaurant,"81 Front St, Marblehead, MA 01945",Pub,Marblehead,,http://www.thelandingrestaurant.com/,,https://www.toasttab.com/the-landing-restaurant/giftcards,http://www.thelandingrestaurant.com/contact/,Gift Cards,Contact,MA,01945,restaurant
Po'boys and Pies,"101 Lafayette St, Salem, MA 01970",Southern,Salem,,http://www.poboysandpies.com/,http://places.singleplatform.com/poboys-and-pies/menu?ref=google,https://www.toasttab.com/po-boys-and-pies/giftcards,,BUY A GIFTCARD,,MA,01970,restaurant
Brew Fish Bar & Eatery,"210 Spring St, Marion, MA 02738",Gastropub,Marion,"Comfy, family-owned seafood fixture with locally sourced regional eats & craft beers in chill digs.",http://www.brewfish.net/,http://www.brewfish.net/function-menu/,http://www.brewfish.net/store/gift-cards/,http://www.brewfish.net/contact/,Buy Gift Cards,Contact,MA,02738,restaurant
The Atlantic Bistro,"167 Spring St #1568, Marion, MA 02738",Bistro,Marion,,https://www.theatlanticbistro.com/,,https://theatlanticbistro.com/gift-cards/,https://theatlanticbistro.com/contact-us/,Gift Cards,Contact Us,MA,02738,restaurant
Kate's Simple Eats,"148 Front St, Marion, MA 02738",Restaurant,Marion,,http://www.katessimpleeats.com/,https://768d6636-4b6f-4597-a8c1-f1a650a7d60f.filesusr.com/ugd/d21c23_2612393ff8b14673a3e7524cd36a6bdf.pdf,https://squareup.com/gift/8Q18TMXJBGC5T/order,https://www.katessimpleeats.com/contact-us,Click to Order Gift Cards!,Contact Us,MA,02738,restaurant
Thairiffic,"128 Main St, Marlborough, MA 01752",Restaurant,Marlborough,"Mellow, family-run eatery serving classic Thai & Asian noodle dishes, including vegetarian items.",http://www.thairifficma.com/,http://www.thairifficma.com/menu/,https://thairifficma.com/product/thairiffic-gift-card/,,Gift Card,,MA,01752,restaurant
Wildwood Steakhouse,"189 Boston Post Rd E, Marlborough, MA 01752",Steak,Marlborough,"Relaxed steakhouse featuring select meats & seafood mains, plus a full bar with a notable wine list.",http://www.wildwoodsteakhouse.com/,http://places.singleplatform.com/wildwood-steakhouse/menu?ref=google,https://wildwoodsteakhouse.com/gift-cards/,,Gift Cards,,MA,01752,restaurant
Stephen Anthony's Restaurant,"999 Boston Post Rd E, Marlborough, MA 01752",Restaurant,Marlborough,"Housemade sausages are a draw at this stalwart eatery with huge comfort food menu, plus market.",http://www.stephenanthonys.com/,,https://www.stephenanthonys.com/gift-cards,https://www.stephenanthonys.com/contact,Gift Cards,Contact,MA,01752,restaurant
KKatie's Burger Bar Marshfield,"1899 Ocean St, Marshfield, MA 02050",Hamburger,Marshfield,,http://www.kkaties.com/,http://places.singleplatform.com/kkaties-burger-bar/menu?ref=google,http://www.kkaties.com/shop.html,http://www.kkaties.com/connect.html,GIFT CARDS,CONTACT,MA,02050,restaurant
Station Eight,"1899 Ocean St, Marshfield, MA 02050",Restaurant,Marshfield,,https://www.stationeight-marshfield.com/,http://places.singleplatform.com/station-eight/menu?ref=google,https://www.stationeight-marshfield.com/gift-cards,https://www.stationeight-marshfield.com/contact-us,Gift Cards ,Contact Us ,MA,02050,restaurant
Mae's Sandwich Shop,"563 Ocean St, Marshfield, MA 02050",Sandwich,Marshfield,,http://www.maesmarshfield.com/,https://www.maesmarshfield.com/menu,https://www.toasttab.com/maes/giftcards,,"
              GIFT CARDS
            ",,MA,02050,restaurant
Trevi Cafe and Wine Bar,"25 Market St, Mashpee, MA 02649",Mediterranean,Mashpee,Mediterranean fare at this classy yet low-key eatery with wine bar & famous Roman fountain replica.,http://www.trevicafe.com/,,https://swipeit.com/product/985/trevi-cafe--wine-bar/in/Consumer-Gift-Cards,http://www.trevicafe.com/contact,"
        GIFT CARDS
      ","
            CONTACT
          ",MA,02649,restaurant
Wicked Fire Kissed Pizza,"35 South St, Mashpee, MA 02649",Pizza,Mashpee,,https://www.wickedrestaurant.com/,,https://www.wickedrestaurant.com/gift-cards,https://www.wickedrestaurant.com/contact,Gift Cards ,Contact Us ,MA,02649,restaurant
Too's Tavern,"315 Cotuit Rd #2, Sandwich, MA 02563",Sports bar,Sandwich,,http://www.marshlandrestaurant.com/,,https://www.toasttab.com/marshland-restaurant/giftcards,,Gift Cards,,MA,02563,restaurant
Eriksons Ice Cream,"12 Great Rd, Maynard, MA 01754",Ice Cream,Maynard,"Time-tested, window-serve stand doling out homemade ice cream in lots of rotating, seasonal flavors.",https://www.eriksonicecream.com/,,https://www.eriksonicecream.com/#purchase-gift-cards-section,,"
                        Purchase Gift Cards
                      ",,MA,01754,restaurant
Avenue Restaurant,"445 Main St, Medfield, MA 02052",American,Medfield,"Modern, casual bistro offering seasonal American eats, including wood-roasted flatbreads & meats.",https://www.avenuemedfield.com/,https://www.avenuemedfield.com/menu-1/,https://swipeit.com/product/1183/avenue,https://www.avenuemedfield.com/contact,"
        Gift Cards
      ","
        Hours + Contact
      ",MA,02052,restaurant
Sethji's Southern Indian,"26 Park St, Medfield, MA 02052",Restaurant,Medfield,,http://sethjis.com/,https://sethjis.com/,https://squareup.com/gift/GZ080JFGPR6Z0/order,https://www.sethjis.com/contact,Buy Gift Cards,Contact Us/ Catering,MA,02052,restaurant
Jasper Hill Restaurant and Live Music Venue,"270 Exchange Street, MA-115, Millis, MA 02054",Restaurant,Millis,,https://www.jasperhillmillis.com/,https://www.jasperhillmillis.com/menus,https://www.jasperhillmillis.com/gift-card,https://www.jasperhillmillis.com/contact,,CONTACT,MA,02054,restaurant
Organic Buzz Cafe,"65 Holbrook St, Norfolk, MA 02056",Restaurant,Norfolk,,http://www.organicbuzzcafe.com/,https://squareup.com/store/organicbuzz/,https://squareup.com/gift/ESPNRZV9364ME/order,https://www.organicbuzzcafe.com/contact/,eGift Cards,Contact,MA,02056,restaurant
Carroll's,"21 Main St, Medford, MA 02155",American,Medford,"A wide range of American, Italian & seafood dishes are offered at this refined, modern bar & grill.",http://www.carrollsmedford.com/,http://places.singleplatform.com/carrolls/menu?ref=google,https://carrolls.alohaenterprise.com:4430/efMemberLinkGiftCards.do,http://www.carrolls02155.com/contact-us/,Check Balance,Contact Us,MA,02155,restaurant
Annie's Pizzeria,"213 Middlesex Ave, Medford, MA 02155",Pizza,Medford,,https://anniespizzeria.com/,https://www.ediningexpress.com/live20/234/490/,https://anniespizzeria.com/Gift,https://anniespizzeria.com/Contact,Gift Certificate ,Contact Us ,MA,02155,restaurant
Daddy Jones Bar,"525 Medford St, Somerville, MA 02145",Greek,Somerville,"This stylish grill with an old-school vibe offers classic cocktails & light, Greek small plates.",http://www.daddyjonesbar.com/,,http://www.daddyjonesbar.com/store/gift-cards,http://www.daddyjonesbar.com/catering/,Purchase Gift Card,Order Contactless Pick Up,MA,02145,restaurant
Muffin House Cafe,"116 Main St #1, Medway, MA 02053",Coffee shop,Medway,,http://www.muffinhousecafe.com/,http://www.muffinhousecafe.com/,https://muffinhousecafe.cardfoundry.com/giftcards.php,,Gift Cards,,MA,02053,restaurant
Table Top Pizza,"804 Pond St, Franklin, MA 02038",Pizza,Franklin,,http://www.tabletoppizza.com/,http://www.tabletoppizza.com/Menus,http://www.tabletoppizza.com/Gift,http://www.tabletoppizza.com/Contact,Gift Certificate ,Contact Us ,MA,02038,restaurant
La Qchara,"506 Franklin St, Melrose, MA 02176",South American,Melrose,"Vibrant storefront cafe for all-day Latin eats, from empanadas to carne asada, plus coffee & juices.",http://laqchara.com/,,https://www.toasttab.com/la-qchara/giftcards ,,Order Gift Cards,,MA,02176,restaurant
Liberty Bell,"886 Main St, Melrose, MA 02176",American,Melrose,Casual mainstay (since 1976) known for its roast beef & fresh seafood & other hearty American eats.,http://www.libertybellmelrose.com/,,https://libertybellmelrose.com/gift-cards/,https://libertybellmelrose.com?storeUrl=https://main.libertybellmelrose.com/contact,Gift Cards,Contact,MA,02176,restaurant
Rising Eagle Publick House,"505 Main St, Melrose, MA 02176",American,Melrose,,https://www.risingeaglepublickhouse.com/,,https://www.risingeaglepublickhouse.com/#new-page-2-section,https://www.risingeaglepublickhouse.com/#contact-section,"
                        GIFT CARDS
                      ","
                        Contact
                      ",MA,02176,restaurant
Niko's Pizza and Chicken,"294 N Main St, North Uxbridge, MA 01538",Pizza,North Uxbridge,,http://nikoschicken.com/,http://nikoschicken.com/Menus,http://nikoschicken.com/Gift,http://nikoschicken.com/Contact,Gift Certificate ,Contact Us ,MA,01538,restaurant
Lobster Anywhere,"12 Oakland St, Amesbury, MA 01913",Seafood,Amesbury,,https://lobsteranywhere.com/,,https://lobsteranywhere.com/product-category/gift-certificates/,https://lobsteranywhere.com/contact/,Gift Certificates,Contact Us,MA,01913,restaurant
Pica's Pub and Grill,"10 Ayers Village Rd, Methuen, MA 01844",Grill,Methuen,,https://www.picaspub.com/,https://www.picaspub.com/menu,https://www.toasttab.com/picas-pub-grill-methuen-10-ayers-village-rd/giftcards,https://www.picaspub.com/contact,E-Gift Cards ,Contact,MA,01844,restaurant
NEW ENGLAND FARMS S MIDD,"447 Wareham St, Middleborough, MA 02346",Gas station,Middleborough,,https://www.exxon.com/,,https://www.exxon.com/en/gas-gift-cards,https://www.exxon.com/en/contact-us,Prepaid cards and gift cards,Contact us,MA,02346,restaurant
Shell,"11211 205th St W, Lakeville, MN 55044",Restaurant,Lakeville,Traditional chophouse menu & specialty cocktails presented in a sophisticated setting with a patio.,http://www.porterhousesteakandseafood.com/,http://www.porterhousesteakandseafood.com/,https://easysecurecheckout.com/porterhouse/giftcards.cfm,https://www.porterhousesteakandseafood.com/contact,Order a Gift Card today,CONTACT,MN,55044,restaurant
Powder Ridge Mountain Park & Resort,"99 Powder Hill Rd, Middlefield, CT 06455",Restaurant,Middlefield,,http://powderridgepark.com/,,https://powderridgepark.com/gift-cards/,https://powderridgepark.com/about-us/contact-us/,Gift Cards,Contact Us,CT,06455,restaurant
Teresa's Italian Eatery,"149 S Main St, Middleton, MA 01949",Italian,Middleton,"Classy but casual choice for pasta, grilled items & thin-crust pies, with a martini bar & a bakery.",http://www.teresasitalianeatery.com/,,https://swipeit.com/product/580/teresaa-restaurants,http://www.teresasitalianeatery.com/#,GIFT CARDS,	Contact,MA,01949,restaurant
Roast House Pub & Restaurant,"3 Farm St, Blackstone, MA 01504",American,Blackstone,,http://theroasthouse.com/,http://theroasthouse.com/menu-3,https://www.toasttab.com/roast-house-pub-restaurant-pawtucket/giftcards,http://theroasthouse.com/contact.html,"

","
				Contact
			",MA,01504,restaurant
The Vanilla Bean Cafe,"450 Deerfield Rd, Pomfret Center, CT 06259",American,Pomfret Center,"Charming, chill haunt for locavore American staples, plus live music & open-mike nights, since 1989.",http://www.thevanillabeancafe.com/,http://www.thevanillabeancafe.com/breakfast/,http://www.thevanillabeancafe.com/store/,,Buy a Gift Card,,CT,06259,restaurant
Nosh & Grog,"21 North St, Medfield, MA 02052",New American,Medfield,Cool spot for New American menu in a hip dining room or craft beers around a big U-shaped bar.,http://noshandgrog.com/,https://eat.9fold.me/index.html#/11022,http://noshandgrog.com/gift-cards/,http://noshandgrog.com/directions-contact/,Gift Cards,Directions / Contact,MA,02052,restaurant
Millis Clicquot Coffee Bar,"1060 Main St, Millis, MA 02054",Coffee shop,Millis,,http://www.millisclicquot.com/,https://static1.squarespace.com/static/5c52623dcef372a746ebdece/t/5de47541d6b49b1a7a1b4489/1575253313680/MillisClicquot_draft.pdf,http://www.millisclicquot.com/gift-certificates,,"
            Gift Certificates
          ",,MA,02054,restaurant
Wright's Farm,"84 Inman Rd, Burrillville, RI 02830",American,Burrillville,"Vast, no-frills dining rooms & banquet hall for family-style meals with popular baked chicken.",http://www.wrightsfarm.com/,http://places.singleplatform.com/wrights-farm-restaurant/menu?ref=google,http://www.wrightsfarm.com/restaurant/wright-s-farm-gift-certificates/,http://www.wrightsfarm.com/reservations-directions/,Gift Certificates,Directions,RI,02830,restaurant
Wise Guys Deli  Smithfield,"1201 Douglas Pike, Smithfield, RI 02917",Fast Food,Smithfield,,http://wiseguyssmithfield.com/,http://wiseguyssmithfield.com/Menus,http://wiseguyssmithfield.com/Gift,http://wiseguyssmithfield.com/Contact,Gift Certificate ,Contact Us ,RI,02917,restaurant
Yellow Door Taqueria,"2297 Dorchester Ave, Boston, MA 02124",Tacos,Boston,"Vintage-chic space for tacos, ceviche & other Cali-Mex fare, plus creative cocktails.",https://www.yellowdoortaqueria.com/,,https://www.yellowdoortaqueria.com/giftcards,https://www.yellowdoortaqueria.com/home,GIFT CARDS,CONTACT,MA,02124,restaurant
Lower Mills Tavern,"2269 Dorchester Ave, Boston, MA 02124",Gastropub,Boston,Creative spins on American pub plates in a comfy spot with whiskey & frequent live music.,http://www.lowermillstavern.com/,https://www.lowermillstavern.com/menus,https://www.lowermillstavern.com/giftcards,https://www.lowermillstavern.com/home,GIFT CARDS,CONTACT,MA,02124,restaurant
The Bowery Bar,"2261 Dorchester Ave, Boston, MA 02124",Restaurant,Boston,,http://www.bowery-bar.com/,http://www.bowery-bar.com/,http://www.bowery-bar.com/store/gift-cards/,,Gift Cards,,MA,02124,restaurant
The Tavern at Granite Links,"100 Quarry Hill Dr, Quincy, MA 02169",American,Quincy,Dining room in golf club offering American plates & skyline views from floor-to-ceiling windows.,http://www.granitelinksgolfclub.com/,,https://www.granitelinks.com/about/forms/gift-card-requests,https://www.granitelinks.com/about/directions,Gift Cards,Contact & Directions,MA,02169,restaurant
Village Pizza,"121 Main St, Monson, MA 01057",Pizza,Monson,,http://villagepizzamonson.net/,http://villagepizzamonson.net/Menus,http://villagepizzamonson.net/Gift,http://villagepizzamonson.net/Contact,Gift Certificate ,Contact Us ,MA,01057,restaurant
Shanti Restaurant  Roslindale,"4197 Washington St, Roslindale, MA 02131",Indian,Roslindale,Classic Indian favorites & a buffet are offered at this casual restaurant with an old-world vibe.,http://www.shantiboston.com/,https://www.shantiboston.com/menus,https://www.shantiboston.com/gift-cards,https://www.shantiboston.com/contact,GIFT CARDS,CONTACT,MA,02131,restaurant
Mt Washington Tavern,"5700 Newbury St., Baltimore, MD 21209",American,Baltimore,"Roomy restaurant, since 1979, with a Chesapeake Bay theme, offering American fare & a raw bar.",http://mtwashingtontavern.com/,https://www.mtwashingtontavern.com/mt-washington-dinner/,https://www.mtwashingtontavern.com/shop/,https://www.mtwashingtontavern.com/contact-mt-washington-tavern/,Gift Cards,Find Us,MD,21209,restaurant
Mount Washington Cruises,"211 Lakeside Ave, Laconia, NH 03246",Boat tour agency,Laconia,,http://www.cruisenh.com/,,http://www.cruisenh.com/products/mount-washington-cruises-gift-certificate,http://www.cruisenh.com/pages/contact-us,Gift Cards,Contact,NH,03246,restaurant
Odyssey Grill & Pizza,"63 Main St, Winthrop, MA 02152",Pizza Delivery,Winthrop,,https://odysseygrill.ordersnapp.com/,,https://odysseygrill.ordersnapp.com/my-gift-cards,,"
              My Gift Cards
            ",,MA,02152,restaurant
Anthony's Pier 4 Fish Market,"153 Humphrey St, Swampscott, MA 01907",Seafood,Swampscott,,http://pier4.com/,,http://pier4.com/gift-card/,http://pier4.com/contact/,Gift Card,Contact,MA,01907,restaurant
The Proprietors bar & table,"9 India St, Nantucket, MA 02554",American,Nantucket,"Relaxed restaurant & bar serving locally sourced, globally influenced fare in a contemporary space.",http://www.proprietorsnantucket.com/,,https://www.proprietorsnantucket.com/#location,https://www.proprietorsnantucket.com/#location,GIFT CARDS,FIND US,MA,02554,restaurant
The Nautilus,"12 Cambridge St, Nantucket, MA 02554",Tapas,Nantucket,"Rustic-modern hot spot featuring global, seafood-centric small plates & inventive craft cocktails.",http://www.nautilusnantucket.com/,http://nautilusnantucket.com/wp-content/uploads/2014/03/New-Cocktail-Website.pdf,http://www.nautilusnantucket.com/store/gift-cards/,http://www.nautilusnantucket.com/contact/,Gift Cards,Contact,MA,02554,restaurant
Cru,"1 Straight Wharf, Nantucket, MA 02554",Seafood,Nantucket,"Stylish hot spot, right on the water, offers expansive raw bar options & cooked seafood fare.",http://www.crunantucket.com/,,https://www.toasttab.com/cru-oyster-bar/giftcards,http://www.crunantucket.com/cru-nantucket-contact.html,"

","
				Contact
			",MA,02554,restaurant
The Boarding House,"12 Federal St, Nantucket, MA 02554",Seafood,Nantucket,"Locally focused spot with patio & chic bar offering New American fare, many wines & weekend brunch.",http://www.boardinghousenantucket.com/,,http://boardinghousenantucket.com/gift-cards/,,Gift Cards,,MA,02554,restaurant
Dune,"20 Broad St, Nantucket, MA 02554",American,Nantucket,"Upscale eatery for refined New American fare & craft cocktails in modern surrounds, plus a patio.",http://www.dunenantucket.com/,,https://dunenantucket.com/gift-cards/,https://dunenantucket.com/contact-us/,Gift Cards,Contact,MA,02554,restaurant
Sea Grille,"45 Sparks Ave, Nantucket, MA 02554",Restaurant,Nantucket,An eclectic menu of inventive seafood & meat dishes lures locals to this welcoming institution.,http://www.theseagrille.com/,,http://www.theseagrille.com/gift-cards/,http://www.theseagrille.com/contact/,Gift Cards,Contact,MA,02554,restaurant
Mel's Commonwealth Cafe,"310 Commonwealth Rd, Wayland, MA 01778",Brunch,Wayland,Long-standing institution with cheery black & white checkered decor offering daytime diner classics.,http://www.melscommonwealthcafe.com/,,https://swipeit.com/product/1387/mels-commonwealth-cafe,http://www.melscommonwealthcafe.com/contact-us,Gift Cards,Contact Us,MA,01778,restaurant
Three Squares Craft Kitchen & Cocktails,"669 Highland Ave, Needham, MA 02494",American,Needham,"Relaxed restaurant & bar offering modern comfort fare morning til night, plus live music shows.",http://www.threesquaresneedham.com/,http://threesquaresneedham.com/dinner-menu/,http://threesquaresneedham.com/gift-cards/,http://threesquaresneedham.com/contact-us/,GIFT CARDS,CONTACT US,MA,02494,restaurant
Ray's New Garden,"40 Chestnut Pl, Needham, MA 02492",Chinese,Needham,"Casual restaurant & bar with several flat-screen TVs serving Hunan, Sichuan & Mandarin dishes.",https://www.raysnewgarden.com/,https://www.raysnewgarden.com/menus,https://www.toasttab.com/rays-new-garden/giftcards,https://www.raysnewgarden.com/mailto:raysnewgarden@gmail.com?subject=Information Request,Buy Gift Card,Contact Us >,MA,02492,restaurant
Gari Japanese Fusion Bistro,"1019 Great Plain Ave, Needham, MA 02492",Japanese,Needham,"Modern Japanese & Asian fusion fare & sushi, plus a full bar, in stylish strip-mall digs.",http://www.garifusion.com/,https://ordering.chownow.com/search/locationPicker?company_id=2343,https://swipeit.com/product/737/gari-japanese-fusion-bistro/in/Restaurant-Gift-Cards,,,,MA,02492,restaurant
Cook Needham,"109 Chapel St, Needham, MA 02492",New American,Needham,"Friendly spot for inventive New American comfort food, wood-fired pizzas & cocktails.",http://cookneedham.com/,https://www.toasttab.com/locations/a67c06df-a282-43ed-9127-7c9f43e71dca#!/,http://www.cookneedham.com/gift-cards/,http://www.cookneedham.com/contact/,Gift Cards,Contact,MA,02492,restaurant
The Biltmore Bar & Grille,"1205 Chestnut St, Newton, MA 02464",Grill,Newton,"A former speakeasy, this restaurant & bar boasts a menu of locally-sourced, elevated comfort food.",https://thebiltmoregrill.com/,https://thebiltmoregrill.com/menu/,https://www.toasttab.com/the-biltmore-bar-grille/giftcards,https://thebiltmoregrill.com/contact/,Gift Cards,Contact,MA,02464,restaurant
The W Bar  Grill,"137 New Ashford Rd, Williamstown, MA 01267",Grill,Williamstown,,http://www.waubeeka.com/,,https://secure.east.prophetservices.com/WaubeekaWebstoreV3?,https://www.waubeeka.com/waubeeka-home,Get Your Waubeeka Gift Card Today!,CONTACT,MA,01267,restaurant
Berkshires Shirakaba,"20 Mallery Rd, New Ashford, MA 01237",Bed & breakfast,New Ashford,,https://www.berkshires-shirakaba.com/,,https://www.berkshires-shirakaba.com/reservations/gift-certificate/,https://www.berkshires-shirakaba.com/contact/,Gift Certificates,Contact Us,MA,01237,restaurant
People's Pressed Inc,"141 Union St, New Bedford, MA 02740",Juice,New Bedford,,http://www.peoplespressed.com/,https://static1.squarespace.com/static/57ae58a037c58135e958ceb4/t/5b5877f30e2e729c5cf019c8/1532524532722/Menu_Summer_2018.pdf,https://www.peoplespressed.com/shop/giftcards,http://www.peoplespressed.com/where-to-find-us,Shop Giftcards,"
            Visit Us
          ",MA,02740,restaurant
Figtree Kitchen Newburyport,"3 Liberty St, Newburyport, MA 01950",Bakery,Newburyport,,http://www.figtreekitchen.com/,,https://squareup.com/gift/515N73ME1VKNW/order,https://www.figtreekitchen.com/where-to-find-us,BUY eGIFT CARDS,WHERE TO FIND US,MA,01950,restaurant
Stone Crust Pizza,"8 Pleasant St, Newburyport, MA 01950",Pizza,Newburyport,,http://stonecrustpizza.com/,http://stonecrustpizza.com/menu.pdf,http://stonecrustpizza.com/giftcards.jsp,https://stonecrustartisanpizza.foodtecsolutions.com/contact,Gift Cards,Contact us,MA,01950,restaurant
Mad Martha's Cafe,"51 Northern Blvd, Newbury, MA 01951",Restaurant,Newbury,"Funky, homey nook across from the beach offering classic American breakfast & lunch meals.",https://madmarthasislandcafe.com/,,https://madmarthasislandcafe.com/product/mad-marthas-gift-card/,https://madmarthasislandcafe.com/contact-us/,Gift Cards,Contact Us,MA,01951,restaurant
The Tannery Marketplace,"75 Water St, Newburyport, MA 01950",Market,Newburyport,,http://www.tannerymarketplace.com/,,http://www.tannerymarketplace.com/tannery-gift-certificates,http://www.tannerymarketplace.com/contact,"
                Gift Certificates
              ","
                  Contact Us
                ",MA,01950,restaurant
Plum Island Grille,"2 Plum Island Turnpike #2035, Newbury, MA 01951",Seafood,Newbury,Hopping year-round spot for upscale seafood in a casual summer-shack atmosphere.,http://www.plumislandgrille.com/,https://www.plumislandgrille.com/online-ordering-for-pick-up/,https://www.plumislandgrille.com/shop/,https://www.plumislandgrille.com/contact/,Shop ( Gift Cards & Apparel ),"Contact, Directions & Hours",MA,01951,restaurant
Comedor,"105 Union St, Newton Centre, MA 02459",Chilean,Newton Centre,Chilean small plates served in a compact space with a view of the open kitchen from the chef's bar.,http://comedornewton.com/,http://comedornewton.com/menu/,http://www.toasttab.com/comedornewton/giftcards,https://comedornewton.com/contact/,Buy a gift card or give to our Staff Support Fund,Contact,MA,02459,restaurant
The Local Newton,"1391 Washington St, West Newton, MA 02465",American,West Newton,Laid-back New American gastropub featuring locally-sourced small plates & entrees plus local brews.,http://www.liveeatlocal.com/,http://www.liveeatlocal.com/newton,http://liveeatlocal.com/gift-cards/,http://liveeatlocal.com/contact/,Gift Cards,Contact,MA,02465,restaurant
Moldova Restaurant,"344 Watertown St, Newton, MA 02458",Eastern European,Newton,"Classic dishes from the Eastern European nation of Moldova served in colorful, contemporary digs.",http://www.tastemoldova.com/,http://www.tastemoldova.com/menu,https://www.toasttab.com/moldova/giftcards,https://www.tastemoldova.com/contact-us,BUY GIFT CARD,CONTACT,MA,02458,restaurant
Ellana's Kitchen & More,"19 Pelham St, Newton, MA 02459",Venezuelan,Newton,,https://www.ellanaskitchen.com/,https://www.ellanaskitchen.com/menu,https://squareup.com/gift/BPT6FKFB4KFX4/order,https://www.ellanaskitchen.com/contactus,"
              e-Gift cards
            ","
                Contact Us
              ",MA,02459,restaurant
Brewer's Coalition,"344 Walnut St, Newtonville, MA 02460",American,Newtonville,Relaxed hangout featuring craft beers & elevated bar food in a pub–like ambiance with flat–screens.,http://johnbrewerstavern.com/,,https://securerpower.com/giftcards/johnbrewer/,https://www.johnbrewerstavern.com/brewers-coalition/brewers-coalition-contact/,Gift Cards,Contact,MA,02460,restaurant
The Square Kitchen & Bar,"1 Pond St, Sharon, MA 02067",Grill,Sharon,,https://www.thesquaresharon.com/,https://www.thesquaresharon.com/menu,https://www.thesquaresharon.com/gift-cards,,"
Gift Cards
",,MA,02067,restaurant
The Airport Rooms at Tourists,"779 State Rd, North Adams, MA 01247",Bar,North Adams,,http://www.touristswelcome.com/,,https://www.shoptouristswelcome.com/products/tourists-gift-card,https://www.elks.org/lodges/ContactUs.cfm?LodgeNumber=0487,,,MA,01247,restaurant
Tennessee's Real BBQ Real Fast,"260 Andover St, Peabody, MA 01960",Barbecue,Peabody,"Casual, counter-service barbecue restaurant offering large portions of smoked meats.",http://www.tennesseesbbq.com/,,http://www.tennesseesbbq.com/gift-cards,,Gift Cards,,MA,01960,restaurant
Trattoria Amalfi,"385 S Broadway, Salem, NH 03079",Italian,Salem,"Traditional Italian dining in a mural-filled backdrop with cozy booths & leafy, rustic accents.",http://www.tamalfi.com/,,http://www.tamalfi.com/gift-cards.html,http://www.tamalfi.com/contact.html,Gift Cards,Contact,NH,03079,restaurant
Fitzy's Pub,"1 Man-Mar Dr, Plainville, MA 02762",Familyfriendly,Plainville,,http://fitzyspub.com/,,http://fitzyspub.com/contact.html,http://fitzyspub.com/contact.html,"
Purchase Gift Cards
","
Purchase Gift Cards
",MA,02762,restaurant
Gillette Restaurant Equipment,"229 N Main St, North Brookfield, MA 01535",Restaurant supply store,North Brookfield,,http://gilletteequipment.com/,,http://gilletteequipment.com/giftcertificates.php,http://gilletteequipment.com/Contact,Gift Certificates,Contact Us,MA,01535,restaurant
Horseshoe Grille,"226 Main St, North Reading, MA 01864",Barbecue,North Reading,"Folksy fixture with outdoor seating offering slow-smoked barbecue & Southern fare, plus beer & wine.",http://www.horseshoegrille.com/,http://www.horseshoegrille.com/menu/main-menu/,https://www.horseshoegrille.com/gift-cards/,https://www.horseshoegrille.com/contact-us/,Gift Cards,Contact Us,MA,01864,restaurant
Kitty's Restaurant & Lounge,"123 Main St, North Reading, MA 01864",Italian,North Reading,"Old-school, informal Italian-American bar & eatery with hefty portions & Keno games for 65+ years.",http://kittysrestaurant.com/,http://kittysrestaurant.com/menu.html,https://www.egiftcardexpress.com/live/14/,http://kittysrestaurant.com/contact.html,,,MA,01864,restaurant
Red Heat Tavern of Wilmington,"300 Lowell St, Wilmington, MA 01887",Grill,Wilmington,Casual hangout with sports & draft beers serving elevated pub grub & charcoal-cooked BBQ.,http://redheattavern.com/,http://places.singleplatform.com/red-heat-tavern/menu?ref=google,https://redheattavern.securetree.com,https://redheattavern.com/find-us/find-us/,Gift Cards,Contact,MA,01887,restaurant
Steakloft,"27 Coogan Blvd #24, Mystic, CT 06355",Steak,Mystic,"Family-friendly steakhouse (since 1973) for chops, ribs, roast, a salad bar & more, plus live music.",http://steakloftct.com/,http://steakloftct.com/menus/dinner-menu/,http://steakloftct.com/gift-cards/,http://steakloftct.com/contact-us/,Gift Cards,Contact Us,CT,06355,restaurant
Pickle Haus Deli,"276 W Main St, Northborough, MA 01532",Caterer,Northborough,,https://picklehausdeli.com/,http://www.picklehausdeli.com/menu,https://squareup.com/gift/153HM7M0WXAC8/order,https://picklehausdeli.com/tel:5083936760, eGift Card,(508) 393-6760,MA,01532,restaurant
Chop Kabob,"290 Turnpike Rd, Westborough, MA 01581",Persian,Westborough,,http://www.chopkabob.com/,https://www.chopkabob.com/menus,https://www.chopkabob.com/product/gift-card/,https://www.chopkabob.com/contact-us/,"

Buy a Gift Card

",Contact Us,MA,01581,restaurant
Athens Pizza & Grill,"292 Main St, Northborough, MA 01532",Pizza,Northborough,,http://www.athenspizzadeli.com/,http://www.athenspizzadeli.com/,http://www.athenspizzadeli.com/Gift,http://www.athenspizzadeli.com/Contact,Gift Certificate ,Contact Us ,MA,01532,restaurant
Home Plate,"184 W Main St, Norton, MA 02766",Restaurant,Norton,,http://homeplate.us.com/,http://www.homeplate.us.com/menu.html,https://swipeit.com/product/979/home-plate,http://homeplate.us.com/contact.html,Gift Cards,Contact,MA,02766,restaurant
Lunch Box Deli,"859 Boston Providence Hwy, Norwood, MA 02062",Sandwich,Norwood,,http://lunchboxnorwood.com/,,https://www.toasttab.com/lunchboxdeli/giftcards,https://www.lunchboxnorwood.com/contact-us,Buy E-Gift Card!,Contact Us >,MA,02062,restaurant
Jo Mama's,"125 MA-6A, Orleans, MA 02653",Coffee shop,Orleans,,http://www.jomamascapecod.com/,http://www.jomamascapecod.com/images/orleans%20menu.pdf,http://www.jomamascapecod.com/gift-cards/,http://www.jomamascapecod.com/contact,Gift Cards,,MA,02653,restaurant
Tailgate Tavern,"19552 Mainstreet, Parker, CO 80138",Bar,Parker,"American grub from breakfast onward, plus live bands, poker, karaoke & more in a saloon atmosphere.",http://www.tailgatetavern.com/,http://www.tailgatetavern.com/wp-content/uploads/2014/05/Tailgate-Tavern-Breakfast-menu04-2014.pdf,https://www.toasttab.com/tailgate-tavern-grill/giftcards,http://www.tailgatetavern.com/contact,Gift Cards,Contact,CO,80138,restaurant
Bancroft & Co,"Northshore Mall, 210 Andover St, Peabody, MA 01960",Restaurant,Peabody,"Warm, modern & sleek steakhouse offering ample chops & seafood dishes, plus cocktails, wine & beer.",http://www.bancroftandco.com/,,http://www.bancroftandco.com/#giftcard,https://www.webberrestaurantgroup.com/jobs/,Buy a Gift Card,Contact Us,MA,01960,restaurant
Wardhurst Grille,"31 Lynnfield St, Peabody, MA 01960",Restaurant,Peabody,,http://www.thewardhurst.com/,http://www.thewardhurst.com/Menus,http://www.thewardhurst.com/Gift,http://www.thewardhurst.com/Contact,Gift Certificate ,Contact Us ,MA,01960,restaurant
Sophia's,"8 Centennial Dr # A, Peabody, MA 01960",American,Peabody,,https://www.marriott.com/,,https://gifts.marriott.com,https://www.marriott.com/tel:+1 978-977-9700, Gift Cards ,  +1 978-977-9700  ,MA,01960,restaurant
The Irish Cottage,"17 Branch St, Methuen, MA 01844",Irish pub,Methuen,"Cozy restaurant & pub serving up 3 Irish-accented meals a day, lots of beer on tap & live music.",http://www.theirishcottagepub.com/,http://www.theirishcottagepub.com/Menu/Menus.aspx,http://www.theirishcottagepub.com/GiftCards,,Gift Cards,,MA,01844,restaurant
Rockwells American Restaurant,"105 Wolfs Ln, Village of Pelham, NY 10803",American,Village of Pelham,"Family-friendly American eatery with outdoor seats, plus sports-watching, live music & comedy shows.",http://rockwellsusa.com/,http://places.singleplatform.com/rockwells-restaurant/menu?ref=google,https://rockwellsusa.com/gift-certificates/,https://rockwellsusa.com/contact/,Gift Card,Contact,NY,10803,restaurant
Macelleria Italian Steakhouse,"142 Fifth Ave, Village of Pelham, NY 10803",Restaurant,Village of Pelham,,http://www.macelleriaitaliansteakhouse.com/,https://www.macelleriaitaliansteakhouse.com/dinner/,https://www.macelleriaitaliansteakhouse.com/gift-cards/,https://www.macelleriaitaliansteakhouse.com/contact/,Gift Cards,Contact,NY,10803,restaurant
Posto 22,"22 Division St, New Rochelle, NY 10801",Restaurant,New Rochelle,Compact trattoria offering straightforward Italian eats with gluten-free options & 50+ wines.,https://www.posto22.com/,http://www.posto22.com/images/Brunch_Package.pdf,https://www.posto22.com/store/gift-cards/,https://www.posto22.com/contact/,Gift Cards,Contact,NY,10801,restaurant
Pizzeria Zacharia Bar & Grill,"85 Runnells Bridge Rd, Hollis, NH 03049",Pizza,Hollis,,http://www.pizzeriazacharia.com/,http://www.pizzeriazacharia.com/,https://restadmin.imenu360.com/newui/PizzeriaZachariaGiftCards,http://www.pizzeriazacharia.com/#contact,Gift Cards,Click Here,NH,03049,restaurant
The Alamo Texas BBQ and Tequila Bar,"99 Rte 13, Brookline, NH 03033",Barbecue,Brookline,,https://www.alamobarbecue.com/,https://www.alamobarbecue.com/menu-1,https://onelink.quickgifts.com/merchant/the-alamo-texas-bbq-and-tequila-bar/,,"Buy a Gift Card




",,NH,03033,restaurant
Nobu  Palo Alto,"180 Hamilton Ave, Palo Alto, CA 94301",Japanese,Palo Alto,"Upmarket standard for Peruvian-accented Japanese fare & drinks served in a chic, happening setting.",http://noburestaurants.com/,http://noburestaurants.com/paloalto/home/,http://noburestaurants.com/home/gift-cards/,http://noburestaurants.com/home/contact-and-reserve/,"
                                Gift Cards","
                                Contact & Reserve",CA,94301,restaurant
Teresa's Restaurant,"315 Palmer Rd, Ware, MA 01082",Italian,Ware,,http://www.teresasrestaurantware.com/,http://teresasrestaurantware.com/wp-content/uploads/2016/10/TeresasLunchMenu.pdf,http://teresasrestaurantware.com/about/gift-certificates/,http://teresasrestaurantware.com/contact/,Gift Certificates,Contact,MA,01082,restaurant
Rail Stop Restaurant & Bar,"96 Guest St, Boston, MA 02135",New England,Boston,Buzzy train-themed spot serving modern New England cuisine & cool cocktails amid vintage decor.,https://www.railstopboston.com/,https://www.railstopboston.com/,https://beauporthotel.cardfoundry.com/giftcards.php?action=store,https://visitor.r20.constantcontact.com/manage/optin?v=001c5Zc9ukCtXb_KVzR9Mci0ltf1dph_bo3I5DJUXYrG5xjX7tiGApUVNNfUtrwnorDMIayUgEZUKf_qgaveVCvNo2SttLWdmqm-bAn-bin5uKQopRWX9u-6ENVyebU75fd69WLeSbYlx-Wg9R-viIMYGMNvc80ifUH5dswQFboi1Q%3D,Gift Cards,Join Our Email List,MA,02135,restaurant
Osteria Nino,"19 3rd Ave, Burlington, MA 01803",Italian,Burlington,"Plates range from small to extra-large at this modern, patio-equipped Roman osteria.",http://www.osterianino.com/,http://www.osterianino.com/eat/,http://www.osterianino.com/burlington-3rd-ave-osteria-nino-gift-cards,https://www.twitter.com/OsteriaNino,"
                              GIFT CARDS
                              
                          ",Twitter page,MA,01803,restaurant
42o North Restaurant,"690 State Rd, Plymouth, MA 02360",Seafood,Plymouth,Modern bar & grill featuring fresh local seafood & American classics like prime rib & chicken wings.,http://www.42degreesnorthrestaurant.com/,,http://www.42degreesnorthrestaurant.com/gift-card,http://www.42degreesnorthrestaurant.com/contact,Gift Card,Contact Us ,MA,02360,restaurant
Sam Diego's,"950 Iyannough Rd, Hyannis, MA 02601",Mexican,Hyannis,"Sprawling Mexican place also serving BBQ, with garden patio, 2 bars & all-you-can-eat weekday lunch.",http://www.samdiegos.com/,http://hyannis.samdiegos.com/info/menusHyannis.php?categoryName=Sams%20Own%20Specialties&categoryID=11&columns=1&submenu=main,https://www.comminternet.com/websites/capecodrestaurants.com/gift_certificates/purchase.php?customer=1236&domain=capecodrestaurants.com,,Gift Cards,,MA,02601,restaurant
ThirtyNine Court,"39 Court St, Plymouth, MA 02360",Restaurant,Plymouth,,https://www.thirtyninecourt.com/,https://www.thirtyninecourt.com/menu,https://swipeit.com/product/1574/thirty-nine-court,https://www.thirtyninecourt.com/#restaurant-section,Order Gift Cards,"
                        Contact
                      ",MA,02360,restaurant
Mamma Mia's of Plymouth Pinehills,"3 Village Green N #312, Plymouth, MA 02360",Italian,Plymouth,,https://mammamias.net/,https://mammamias.net/pinehills-menu/,https://mammamias.net/product/gift-card/,,MAMMA MIA’S GIFT CARD,,MA,02360,restaurant
Bongi's Turkey Roost,"414 Kingstown Way, Duxbury, MA 02332",Cafe,Duxbury,,http://bongis.com/,http://places.singleplatform.com/bongis-turkey-roost/menu?ref=google,https://swipeit.com/product/959/bongis-turkey-roost,http://bongis.com/contact-us/,BUY A GIFT CARD ONLINE!,Contact Us,MA,02332,restaurant
The Mews Restaurant & Cafe,"429 Commercial St, Provincetown, MA 02657",New American,Provincetown,"New American eatery with water views, an upstairs cafe & a huge vodka collection in neon-lit bar.",http://mewsptown.com/,http://mewsptown.com/menus.php,http://mewsptown.com/giftcard.php,http://mewsptown.com/contact.php,Gift Cards,Contact,MA,02657,restaurant
The Canteen,"225 Commercial St, Provincetown, MA 02657",American,Provincetown,"Counter-serve, beach-themed nook in a historic building with communal seating & casual seafood eats.",http://www.thecanteenptown.com/,http://www.thecanteenptown.com/menu-1/,https://squareup.com/gift/F3AJ9TG2ESEJK/order,,Gift cards,,MA,02657,restaurant
Victor's,"175 Bradford Street Ext, Provincetown, MA 02657",American,Provincetown,"Cottage-like spot offering seafood-driven New American small plates, a raw bar, happy hour & brunch.",http://victorsptown.com/,https://www.victorsptown.com/menu,https://www.victorsptown.com/gift-card,https://www.victorsptown.com/contact-us,Gift Card,Contact Us,MA,02657,restaurant
Ross' Grill,"237 Commercial St, Provincetown, MA 02657",New American,Provincetown,Sleek harborfront spot featuring New American cuisine & an extensive list of wines by the glass.,http://www.rossgrillptown.com/,http://www.rossgrillptown.com/provincetown-waterfront-lunch-restaurant/,https://squareup.com/gift/50AH3X0C429ZD/order,,Order Gift Cards Online ,,MA,02657,restaurant
Far Land Provisions,"150 Bradford St, Provincetown, MA 02657",Restaurant,Provincetown,"Quaint all-day deli/bakery offering sandwiches & light fare, plus specialty grocery items.",http://www.farlandprovisions.com/,http://farlandprovisions.com/event-catering/from-the-block/,https://farlandprovisions.com/gift-certificates-for-the-holidays/,https://farlandprovisions.com/contact-us,"
 ",Contact Us,MA,02657,restaurant
Shabu,"397 Hancock St, Quincy, MA 02171",Hot Pot,Quincy,"Japanese hot pot dining in a contemporary, cozy space with a small outdoor garden area.",https://www.shaburestaurant.com/,https://www.shaburestaurant.com/menus/,https://www.shaburestaurant.com/gift-cards/,https://www.shaburestaurant.com/contact/,Gift Cards,Contact,MA,02171,restaurant
Grumpy White's Restaurant,"211 Sea St, Quincy, MA 02169",American,Quincy,Longtime eatery dishes up a wide variety of classic comfort eats & brews in a laid-back atmosphere.,http://www.grumpywhites.com/,http://www.grumpywhites.com/menu/menu-4-19.pdf,http://www.grumpywhites.com/../giftcertificates.asp,http://www.grumpywhites.com/mailto:bob@grumpywhites.com,,"Contact 
        Us",MA,02169,restaurant
Fox and Hound Wood Grille and Tavern,"123 Sea St, Quincy, MA 02169",American,Quincy,"Contemporary American grill fare, wine & cocktails offered in a polished space with Sunday brunch.",http://foxandhoundquincy.com/,,http://foxandhoundquincy.com/giftcards.php,http://foxandhoundquincy.com/contacts.php, GIFT CARDS, CONTACT,MA,02169,restaurant
Sala By Fratelli's,"470 Southern Artery #2, Quincy, MA 02169",Dessert,Quincy,,http://salabyfratellis.com/,,https://salabyfratellis.com/gift-cards/,http://maps.google.com/maps?q=470+southern+artery+unit+#2,Gift Cards,"
Location   470 Southern Artery Unit #2
",MA,02169,restaurant
Venezia Restaurant Boston,"20 Ericsson St, Boston, MA 02122",Italian,Boston,"Classic Italian dishes in a refined airy dining room on the water, plus related winery next door.",https://www.veneziaboston.com/,https://www.veneziaboston.com/main-menu,https://www.veneziaboston.com/venezia-gift-cards,,Gift Cards,,MA,02122,restaurant
Cagney's,"214 Washington St, Quincy, MA 02169",Gastropub,Quincy,"Low-key sports bar offering rotating taps of local craft beer, hearty pub grub & trivia nights.",http://cagneysquincy.com/,http://cagneysquincy.com/uploads/pdf_menus/354_Cagneys%20revisions%207-19-12.pdf,http://cagneysquincy.com/gift-cards,http://cagneysquincy.com/contact,Purchasegift cardsHere,Contact,MA,02169,restaurant
Antico Forno,"93 Salem St, Boston, MA 02113",Italian,Boston,"Neapolitan-style pizza & Southern Italian eats are doled out in vibrant, traditional environs.",https://www.anticofornoboston.com/,https://www.anticofornoboston.com/food-menu/,https://www.anticofornoboston.com/gift-certificates/,https://www.anticofornoboston.com/contact-us/,Gift Certificates,,MA,02113,restaurant
Gaetano's Restaurant,"2731 Pacific Coast Hwy, Torrance, CA 90505",Italian,Torrance,Family-owned spot since 1999 for classic Italian fare & wine flights in romantic digs or on a patio.,http://www.gaetanosonline.com/,https://www.gaetanosonline.com/wp-content/uploads/2015/11/Menu.pdf,https://bit.ly/italian10,,Gift Cards,,CA,90505,restaurant
The Remedy Exchange,"41 Tuttle St, Wakefield, MA 01880",Health Food,Wakefield,,http://theremedyexchange.com/,http://theremedy.exchange/wp-content/uploads/TheRemedyExchangeMenu.pdf,https://squareup.com/gift/Q21GA5ZQ7X4JW/order,,GIFT CARDS,,MA,01880,restaurant
The Aviary,"2229 Grand Army of the Republic Hwy, Swansea, MA 02777",New American,Swansea,,http://www.theaviaryrestaurant.com/,,https://theaviaryrestaurant.com/product/restaurant-gift-card/,https://theaviaryrestaurant.com/contact/,Gift Cards,Contact,MA,02777,restaurant
Dryft,"500 Ocean Ave, Revere, MA 02151",Restaurant,Revere,,http://www.dryftrevere.com/,,https://www.dryftrevere.com/gift-cards/,https://www.dryftrevere.com/contact/,Gift Cards,Contact,MA,02151,restaurant
LARRY J's BBQ CAFE,"1148 N Shore Rd, Revere, MA 02151",Restaurant,Revere,,https://www.larryjsbbqcafe.com/,http://places.singleplatform.com/larry-js-bbq/menu?ref=google,https://www.larryjsbbqcafe.com/store/gift-cards/,https://www.larryjsbbqcafe.com/contact/,Gift Cards,Contact,MA,02151,restaurant
Aqua Pazza,"135 Richmond St, Boston, MA 02109",Seafood,Boston,Charming neighborhood hideaway serving cuisine-jumping Mediterranean small plates.,http://aquapazza-boston.com/,http://aquapazza-boston.com/menu.html,https://swipeit.com/product/832/aquapazza/in/NIGHT-LIFE-GIFT-CARDS,,Gift Cards,,MA,02109,restaurant
Waterman Grille,"4 Richmond Square, Providence, RI 02906",Restaurant,Providence,Special-occasion destination on the Seekonk River offering refined American small plates & mains.,https://www.watermangrille.com/,https://www.watermangrille.com/menu/,http://www.newportrestaurantgroup.com/gift-cards-rhode-island-dining/,,Purchase Gift Cards,,RI,02906,restaurant
Webster Timber Lanes,"460 Bedford St, Abington, MA 02351",Restaurant,Abington,,http://www.candlepin.com/,,http://www.candlepin.com/gift_cards.htm,http://visitor.r20.constantcontact.com/d.jsp?llr=n5w9fkcab&p=oi&m=1102000774093&sit=6cdug8bdb&f=647369a6-ee6b-404c-badc-90160b633350,"
Gift Cards",Join Our Email Lists!,MA,02351,restaurant
Rowes Wharf Sea Grille,"70 Rowes Wharf, Boston, MA 02110",Restaurant,Boston,Boston Harbor Hotel's casual yet chic seafood spot with waterside patio & live music in the summer.,http://www.roweswharfseagrille.com/,http://places.singleplatform.com/rowes-wharf-sea-grille/menu?ref=google,http://www.roweswharfseagrille.com/gift-cards,http://www.roweswharfseagrille.com/contact,"
Gift Cards
","
Contact
",MA,02110,restaurant
Seaport Grille,"6 Rowe Square, Gloucester, MA 01930",Seafood,Gloucester,"Airy waterfront eatery offers a wide menu of surf ’n’ turf, plus pizza, burgers & signature drinks.",https://seaportgrillegloucester.com/,https://seaportgrillegloucester.com/seaport-grille-menu/,https://beauporthotel.cardfoundry.com/giftcards.php?action=store,https://visitor.r20.constantcontact.com/manage/optin?v=001c5Zc9ukCtXb_KVzR9Mci0ltf1dph_bo3I5DJUXYrG5xjX7tiGApUVNNfUtrwnorDMIayUgEZUKf_qgaveVCvNo2SttLWdmqm-bAn-bin5uKQopRWX9u-6ENVyebU75fd69WLeSbYlx-Wg9R-viIMYGMNvc80ifUH5dswQFboi1Q%3D,Gift Cards,Join Our Email List,MA,01930,restaurant
The Farmhouse,"970 Great Plain Ave, Needham, MA 02492",American,Needham,Farm-to-table restaurant & bar serving upscale New American comfort food in elegant-yet-rustic digs.,https://www.thefarmhouseneedham.com/,https://www.thefarmhouseneedham.com/menu,https://www.thefarmhouseneedham.com/shop,https://www.thefarmhouseneedham.com/contact-us,Gift Cards,Contact Us,MA,02492,restaurant
Cafe Escadrille,"26 Cambridge St, Burlington, MA 01803",Restaurant,Burlington,Refined setting for American & Continental cuisine with an elegant mahogany bar & an outdoor patio.,https://www.cafeescadrille.com/,http://cafeescadrille.com/menus/,https://www.cafeescadrille.com/gift-cards/cafe-escadrille-gift-card/gift-card-1,https://www.cafeescadrille.com/contact-us,"
        GIFT CARDS
      ","
            CONTACT US
          ",MA,01803,restaurant
Briar Barn Inn,"101 Main St, Rowley, MA 01969",Inn,Rowley,,http://www.briarbarninn.com/,,https://scontent-ort2-1.xx.fbcdn.net/v/t51.2885-15/93157109_2566210420315211_8443210202507919052_n.jpg?_nc_cat=102&_nc_sid=8ae9d6&_nc_ohc=yIn-vdI02ToAX92gaDV&_nc_ht=scontent-ort2-1.xx&oh=627a2a4072ba618e119dd916067dd105&oe=5EC4DCB9,https://www.briarbarninn.com/contact/, Open  ,Contact,MA,01969,restaurant
Hutghi's at The Nook,"8 Franklin St, Westfield, MA 01085",Oyster Bar,Westfield,,http://www.hutghis.com/,http://www.hutghis.com/menu,https://www.google.com/url?q=https%3A%2F%2Fsquareup.com%2Fgift%2FJN2FM16EPXPVR%2Forder&sa=D&sntz=1&usg=AFQjCNFH8jfMg-qVI4uDiXZ_-K2I_9reNA,http://www.hutghis.com/mailto:Hutghis@gmail.com,Gift Cards,Contact,MA,01085,restaurant
Boston Bay Pizza 2,"73 Elm St, Westfield, MA 01085",Pizza,Westfield,,http://bostonbaypizza2.com/,http://bostonbaypizza2.com/Menus,http://bostonbaypizza2.com/Gift,http://bostonbaypizza2.com/Contact,Gift Certificate ,Contact Us ,MA,01085,restaurant
Bella Roma pizza,"57 Southwick Rd, Westfield, MA 01085",Pizza,Westfield,,http://bellaromawestfield.com/,http://bellaromawestfield.com/Menus,http://bellaromawestfield.com/Gift,http://bellaromawestfield.com/Contact,Gift Certificate ,Contact Us ,MA,01085,restaurant
Pizza Towne,"80 Main St, Westfield, MA 01085",Pizza Delivery,Westfield,,https://pizzatowne.net/,http://pizzatowne.net/Menus,https://pizzatowne.net/Gift,https://pizzatowne.net/Contact,Gift Certificate ,Contact Us ,MA,01085,restaurant
The Roof,"209 Essex St, Salem, MA 01970",Restaurant,Salem,,http://theroofsalem.com/,http://places.singleplatform.com/the-roof-28/menu?ref=google,https://www.larkhotels.com/purchase-gift-cards/,,Purchase online,,MA,01970,restaurant
Boston Burger Company,"133 Washington St, Salem, MA 01970",Restaurant,Salem,,https://www.bostonburgercompany.com/,,https://bostonburgercompany.com/shop/gift-cards,https://www.bostonburgercompany.com/contact-us,"
GIFT CARDS
","
CONTACT US
",MA,01970,restaurant
Jaho Coffee Roaster & Wine Bar,"197 Derby St, Salem, MA 01970",Coffee shop,Salem,"Cozy coffee hangout pairing espresso drinks & lots of teas with light bites, baked goods & desserts.",http://www.jaho.com/,https://cdn.shopify.com/s/files/1/0010/9882/files/Binder4.pdf?9082606616155843068,http://www.jaho.com/collections/jaho-gift-cards,,"
                    Jaho Gift Cards
                    
                  ",,MA,01970,restaurant
Jilly's Pizza,"26 Broadway, Brooklyn, NY 11249",Pizza,Brooklyn,"Wood-fired pizzas, meats & veggies plus housemade pastas & other Italian fare in a warm space.",http://www.baranobk.com/,https://www.baranobk.com/pick-up-and-delivery,http://www.baranobk.com/gift-cards,http://www.baranobk.com/locations,Gift Cards,Location & Contact,NY,11249,restaurant
110 Grill,"855 Broadway, Saugus, MA 01906",American,Saugus,"Casual restaurant with contemporary American dishes, including vegetarian options, plus a full bar.",http://110grill.com/,http://110grill.com/,https://110grill.cardfoundry.com/,http://110grill.com/contact-us,Gift Cards,General Contact ,MA,01906,restaurant
The Honey Baked Ham Company,"750 S Winchester Blvd, San Jose, CA 95128",Deli,San Jose,,http://www.shophoneybaked.com/,http://places.singleplatform.com/honey-baked-ham-company-17/menu?ref=google,https://shophoneybaked.com/shop-by-product/gift-cards.html,,Shop Gift Cards Online,,CA,95128,restaurant
Pera Bistro,"60 Spring St, Williamstown, MA 01267",Bistro,Williamstown,,http://www.perabistro.com/,http://www.perabistro.com/gluten-free-menu/,https://www.perabistro.com/pera-gift-cards/,https://www.perabistro.com/contact-us/,GIFT CARDS,CONTACT,MA,01267,restaurant
Alta,"34 Church St, Lenox, MA 01240",Mediterranean,Lenox,Buzzing eatery/wine bar offering a Mediterranean menu & a covered porch for outdoor dining.,http://www.altawinebar.com/,http://places.singleplatform.com/alta-15/menu?ref=google,https://altawinebar.com/gift-certificate/,https://altawinebar.com/contact/,Gift Certificates,Contact,MA,01240,restaurant
Savoy Taproom,"301 Lark St, Albany, NY 12210",American,Albany,"Craft cocktails, brunch & gourmet pub grub in a brick-walled tavern with live music & DJ shows.",http://www.savoyonlark.com/,http://www.savoyonlark.com/#foodmenu-section,http://www.savoyonlark.com/giftcard,http://www.savoyonlark.com/location,"
                Gift Card
              ","
                Location/Contact
              ",NY,12210,restaurant
Avenue N,"20 Newman Ave, Rumford, RI 02916",American,Rumford,"Seasonal New American fare & craft cocktails in a refined, minimalist setting with a gourmet market.",http://avenuenamericankitchen.com/,http://www.avenuenamericankitchen.com/brunch_menu.php,http://avenuenamericankitchen.com/gift_cards.php,http://avenuenamericankitchen.com/javascript:void(0);,Gift Cards,"
                            Contact
                        ",RI,02916,restaurant
Crescent Ridge,"407 Bay Rd, Sharon, MA 02067",Ice Cream,Sharon,,http://www.crescentridge.com/,,http://www.crescentridge.com/gift.php,http://www.crescentridge.com/find-us-in-store,GIFT CARDS,FIND US IN STORE,MA,02067,restaurant
Stateline Pizza,"340 N Elm St, Canaan, CT 06018",Pizza,Canaan,,https://statelinepizzeria.com/,https://statelinepizzeria.com/Menus,https://statelinepizzeria.com/Gift,https://statelinepizzeria.com/Contact,Gift Certificate ,Contact Us ,CT,06018,restaurant
Pop's Diner,"85 S Main St, Putnam, CT 06260",Diner,Putnam,"Wide-ranging New American cuisine from burgers to raw bar fare, plus sushi in a casual tavern.",http://www.85main.com/,http://85main.com/lunch/,https://85main.com/store/,,Buy a Gift Card,,CT,06260,restaurant
Race Brook Lodge,"864 S Undermountain Rd, Sheffield, MA 01257",Event venue,Sheffield,,http://www.rblodge.com/,,https://images.squarespace-cdn.com/content/v1/58265ae8bebafb7de35ddf23/1587065251367-DIX25VBUBD5WQKG8MXQS/ke17ZwdGBToddI8pDm48kExyYj20fTSc0pkCx72eD9JZw-zPPgdn4jUwVcJE1ZvWQUxwkmyExglNqGp0IvTJZUJFbgE-7XRK3dMEBRBhUpyySSBf6Yb9KlTlg7K1061MjfyyAFP_GYyycm4z05QsQL7BfR33ukvCQnjsCJTfCVk/image-asset.jpeg,http://www.rblodge.com/contact,"

","
              Contact
            ",MA,01257,restaurant
Shrewsbury Pizzaria,"560 Main St, Shrewsbury, MA 01545",Pizza Delivery,Shrewsbury,,https://shrewsburypizzeria.com/,https://shrewsburypizzeria.com/Menus,https://shrewsburypizzeria.com/Gift,https://shrewsburypizzeria.com/Contact,Gift Certificate ,Contact Us ,MA,01545,restaurant
Student Prince Cafe And Fort Restaurant,"8 Fort St, Springfield, MA 01103",German,Springfield,"Family-run spot, serving German food & beer since 1935, with a huge collection of steins in the bar.",http://www.studentprince.com/,http://places.singleplatform.com/fort/menu?ref=google,https://www.beanrg.com/shop,http://www.studentprince.com/contact,"
              Gift Cards
            ","
            Contact
          ",MA,01103,restaurant
Amherst Coffee,"28 Amity St, Amherst, MA 01002",Bar,Amherst,Chill haunt in a historic building with a bar offering coffee & cocktails along with tea & pastries.,https://www.amherstcoffee.com/,http://www.drinkquivr.com/shop/beans,https://www.amherstcoffee.com/gift-cards,,"
            Gift Cards
          ",,MA,01002,restaurant
Magoni's Ferry Landing,"681 Riverside Ave, Somerset, MA 02725",Restaurant,Somerset,,http://www.magonisrestaurant.com/,http://www.magonisrestaurant.com/Magonis_Menu.html,http://www.magonisrestaurant.com/Gift_Cards.html,http://www.magonisrestaurant.com/Contact_Us.html,Gift Cards,Contact Us,MA,02725,restaurant
Casa B Tapas and Cocktail & Rum Bar,"253 Washington St, Somerville, MA 02143",Tapas,Somerville,"Inventive Spanish-Caribbean tapas served in a romantic, contemporary split-level space.",http://www.casabrestaurant.com/,http://casabrestaurant.com/menu/,https://casabrestaurant.com/market/gift-cards/,https://casabrestaurant.com/info/contact-casa-b/,Gift Cards,Contact Casa B,MA,02143,restaurant
La Brasa,"124 Broadway, Somerville, MA 02145",Restaurant,Somerville,"Wood-fired, globally inspired dishes & cocktails showcased in a rustic, industrial-chic bar & grill.",https://www.labrasasomerville.com/,http://www.labrasasomerville.com/menus/#dinner,https://www.labrasasomerville.com/store/gift-cards/,https://www.labrasasomerville.com/contact-us/,Gift Cards,Contact Us,MA,02145,restaurant
Avenue kitchen  bar,"158 Boston Ave, Somerville, MA 02144",Restaurant,Somerville,,http://www.avenuesomerville.com/,https://www.avenuesomerville.com/,https://www.toasttab.com/avenue-kitchen/giftcards,,"
              Gift Cards
            ",,MA,02144,restaurant
Ebi sushi,"290 Somerville Ave, Somerville, MA 02143",Sushi,Somerville,Japanese restaurant serving an extensive menu of sushi & other favorites in informal environs.,http://www.ebisushi.com/,http://places.singleplatform.com/ebi-sushi-restaurant/menu?ref=google,https://www.toasttab.com/ebi-sushi/giftcards,https://www.facebook.com/212190555457957,"
                                    GIFT CARDS                                ",Facebook page,MA,02143,restaurant
NU Kitchen Somerville,"195 Washington St, Somerville, MA 02143",Health Food,Somerville,"Relaxed health-oriented cafe offering global & vegan-friendly dishes, plus smoothies & juices.",http://www.thenukitchen.com/,https://www.thenukitchen.com/wp-content/uploads/2018/04/Nu-Kitchen-Menu-4.2.18-Edit.pdf,https://www.toasttab.com/nu-kitchen/giftcards,https://www.thenukitchen.com/contact/,E-Gift Card,Contact,MA,02143,restaurant
The Vin Bin Southboro Cafe,"154 Turnpike Rd, Southborough, MA 01772",Cafe,Southborough,,http://thevinbin.com/,,https://thevinbin.com/wp-content/uploads/2012/07/gift-card2.png,http://thevinbin.com/contact-us,,"Hopkinton, MA",MA,01772,restaurant
MJ's Pizza,"955 Worthington St, Springfield, MA 01105",Pizza,Springfield,,https://mjspizza.net/,https://mjspizza.net/Menus,https://mjspizza.net/Gift,https://mjspizza.net/Contact,Gift Certificate ,Contact Us ,MA,01105,restaurant
Atlantic Poke,"193 Boston Turnpike, Shrewsbury, MA 01545",Restaurant,Shrewsbury,,http://atlanticpoke.com/,https://www.atlanticpoke.com/menus/,https://www.toasttab.com/atlantic-poke-shrewsbury/giftcards,http://atlanticpoke.com/contact/,Gift Cards,Contact,MA,01545,restaurant
Deliworks & Pizzeria,"62 Montvale Ave, Stoneham, MA 02180",Pizza,Stoneham,"Popular option for specialty pizza, calzones, subs & wrap sandwiches, plus an outdoor patio.",https://deliworkspizzeria.com/,https://www.deliworkspizzeriastoneham.com/,https://deliworks.foodtecsolutions.com/giftcards/actions,https://deliworkspizzeria.com/tel:7814387955,Buy Now,(781) 438-7955,MA,02180,restaurant
The Village pub,"2967 Woodside Rd, Woodside, CA 94062",Bar,Woodside,High-end American eatery drawing a well-heeled clientele with gourmet seasonal fare & fine wines.,http://www.thevillagepub.net/,http://www.thevillagepub.net/menus/wine_list,https://www.toasttab.com/the-village-pub/giftcards,http://www.thevillagepub.net/contact,THE VILLAGE PUB GIFT CARDS,CONTACT,CA,94062,restaurant
Cedar Street Cafe,"420 Main St, Sturbridge, MA 01566",Cafe,Sturbridge,,https://cedarstreetcafesturbridge.com/,https://cedarstreetcafesturbridge.com/#menus,https://table3restaurantgroup.com/gift-cards,,Gift Cards,,MA,01566,restaurant
The Barn at Wight Farm,"420 Main St, Sturbridge, MA 01566",Caterer,Sturbridge,,https://thebarnatwightfarm.com/,,https://table3restaurantgroup.com/gift-cards,https://thebarnatwightfarm.com/contact-us/,Gift Cards,Contact Us,MA,01566,restaurant
Brickstone Kitchen,"4 Worcester-Providence Turnpike, Sutton, MA 01590",American,Sutton,,http://brickstonekitchen.com/,http://brickstonekitchen.com/menu/,https://www.toasttab.com/brickstone-kitchen/giftcards,https://brickstonekitchen.com/contact/,"
","CONTACT US

",MA,01590,restaurant
Dream Dinners,"847 Edgell Rd, Framingham, MA 01701",Takeout Restaurant,Framingham,"Food preparation center, where customers assemble & pack a selection of meals to take home & cook.",http://dreamdinners.com/,,http://dreamdinners.com/main.php?page=gift_card_order,http://dreamdinners.com/main.php?static=contact_us,Gift Cards,Contact Us,MA,01701,restaurant
Anthonys Pier Four Corporation Office,"299 Salem St, Swampscott, MA 01907",Seafood,Swampscott,,http://www.pier4.com/,,http://pier4.com/gift-card/,http://pier4.com/contact/,Gift Card,Contact,MA,01907,restaurant
Eli's Kitchen,"40 Market St, Warren, RI 02885",Restaurant,Warren,"Rustic-chic eatery with an open kitchen serving upmarket comfort eats, craft beer & cocktails.",http://www.eliskitchenwarren.com/,,https://swipeit.com/product/1154/elis-kitchen,,"
NEED THE PERFECT GIFT?! BUY AN ELI'S KITCHEN GIFT CARD!
",,RI,02885,restaurant
The Square Peg,"51 Miller St, Warren, RI 02885",American,Warren,"Quaint, warm fixture in a historic building with burgers, casual seafood bites & seasonal cocktails.",http://www.squarepegwarren.com/,,https://swipeit.com/product/1189/the-square-peg,,"
              Gift Cards
            ",,RI,02885,restaurant
Bywater,"54 State St #3129, Warren, RI 02885",American,Warren,,http://www.bywaterrestaurant.com/,,http://bywaterrestaurant.com/#buy-gift-certificates,,Gift Certificates,,RI,02885,restaurant
Bluewater Bar  Grill,"32 Barton Ave, Barrington, RI 02806",Grill,Barrington,Casual eatery with patio seating & live music showcasing seasonal fare & modern seafood dishes.,http://bluewatergrillri.com/,http://bluewatergrillri.com/menus/dinner-menu,http://onelink.quickgifts.com/merchant/bluewater-bar-and-grill/,http://bluewatergrillri.com/contact,Gift Cards,Contact,RI,02806,restaurant
Nat's Nook,"38 Main St, Vineyard Haven, MA 02568",Coffee shop,Vineyard Haven,,http://natsnookmv.com/,,https://squareup.com/gift/BCACVQCVQ2A9E/order,,"Gift Cards




",,MA,02568,restaurant
The Black Dog Cafe,"509 State Rd, Vineyard Haven, MA 02568",Cafe,Vineyard Haven,"Retailer selling casualwear, accessories & gifts with its signature dog logo for men, women & kids.",http://www.theblackdog.com/,https://cdn.shopify.com/s/files/1/1296/0139/files/BDCAFE_7_15_15.pdf?9752634365088216503,http://www.theblackdog.com/pages/gift-card-balance,http://www.theblackdog.com/pages/contact-us,Gift Card Balance,Contact Us,MA,02568,restaurant
Millwright's Restaurant and Tavern,"77 West St, Simsbury, CT 06070",New England,Simsbury,"Farm-fresh American fine dining in plank-ceilinged room with waterfall view, or less formal tavern.",http://www.millwrightsrestaurant.com/,http://www.millwrightsrestaurant.com/,https://millwrightsrestaurant.cardfoundry.com/giftcards.php,http://www.millwrightsrestaurant.com/contact-1,"
        Gift Cards
      ","
            Contact
          ",CT,06070,restaurant
Max Burger,"684 Bliss Rd, Longmeadow, MA 01106",Hamburger,Longmeadow,,https://www.maxburgerbar.com/,https://maxburgerbar.com/#menu-section,https://www.maxdiningcard.com/,,"
              GIFT CARDS
            ",,MA,01106,restaurant
Metro Bis Restaurant,"690 Hopmeadow St, Simsbury, CT 06070",American,Simsbury,This family-owned eatery in a historic B&B offers upmarket American bistro fare & patio dining.,http://www.metrobis.com/,https://www.metrobis.com/,https://metrobis.com/gift-cards/,,Gift Cards,,CT,06070,restaurant
Cal's Woodfired Grill and Bar,"1068 Riverdale St, West Springfield, MA 01089",Grill,West Springfield,"Spacious, low-key dining room & bar offering traditional American steak, seafood & pasta dishes.",http://www.calswoodfiredgrill.com/,http://www.calswoodfiredgrill.com/menu/,https://millrestaurantgroup.com/giftCert/start-gift-card.html,https://www.calswoodfiredgrill.com/contact-us/,"



				Gift Card
			

","



				Contact Us
			

",MA,01089,restaurant
 The Barn Restaurant,"17R E Granby Rd, Granby, CT 06035",Fine Dining,Granby,"Stylish dining destination with modern American steakhouse fare, a cocktail lounge & live music.",http://atthebarngranby.com/,http://www.atthebarngranby.com/,https://www.giftrocker.com/secure/order/?hash=7230cb03,,GIFT CARDS,,CT,06035,restaurant
Panini Pizzeria,"11 Maple St, Danvers, MA 01923",Pizza,Danvers,"Casual spot serving hand-tossed traditional & specialty pizzas, plus calzones, panini & sandwiches.",http://paninipizzeria.com/,http://places.singleplatform.com/panini-pizzeria/menu?ref=google,https://www.toasttab.com/paninipizza/giftcards?fbclid=IwAR2MaFMQ8Qm8NTPDqH5T5CVk4p6YZ_iRAFq34qTENMtZXfukGT11b2Dl68I,https://www.paninipizzeria.com/contactus,"ORDER
GIFT CARDS!",Contact,MA,01923,restaurant
Moby Dick's Restaurant,"3225 US-6, Wellfleet, MA 02667",Seafood,Wellfleet,Family-friendly institution dishes up hearty plates of New England seafood standards & is BYOB.,http://www.mobys.com/,https://mobys.com/menu/,http://www.mobys.com/product/gift-card/,https://mobys.com/contact/,Gift Cards,Directions,MA,02667,restaurant
The Wicked Oyster,"50 Main St, Wellfleet, MA 02667",Seafood,Wellfleet,"Warm New American option, in a 1750 house, known for hearty eats by day & seafood by night.",http://www.thewickedo.com/,https://thewickedo.com/menus/lunch/,http://www.thewickedo.com/gift-certificates/,https://thewickedo.com/contact/,,Contact,MA,02667,restaurant
MT's Local Kitchen & Wine Bar,"212 Main St, Nashua, NH 03060",Restaurant,Nashua,"Polished New American entrees & pizzas in a warm, casual setting with a wine bar & sidewalk seating.",http://www.mtslocal.com/,https://www.mtslocal.com/menu,https://www.mtslocal.com/giftcards,https://www.mtslocal.com/contact,Gift Cards,Contact,NH,03060,restaurant
Barrington Coffee Roasting Company,"165 Quarry Hill Rd, Lee, MA 01238",Coffee roasters,Lee,,http://www.barringtoncoffee.com/,,https://barringtoncoffee.com/shop/gift-certificate/,https://barringtoncoffee.com/contact/,e-Gift Card,CONTACT,MA,01238,restaurant
Colonial Theatre,"111 South St, Pittsfield, MA 01201",Performing arts theater,Pittsfield,,http://www.berkshiretheatregroup.org/,,https://www.berkshiretheatregroup.org/dining-lodging-services/gift-certificates/,,Gift Certificates,,MA,01201,restaurant
Harrington's Pub,"17 Water St, Wakefield, MA 01880",Restaurant,Wakefield,"Classic tavern with weekend live music, a full bar & a mix of homestyle Irish eats & pub grub.",https://www.harringtonspub.com/,https://www.harringtonspub.com/menus/,https://www.harringtonspub.com/store/gift-cards/,https://www.harringtonspub.com/contact/,Gift Cards,Contact,MA,01880,restaurant
anoush'ella,"1205 Market St, Lynnfield, MA 01940",Middle Eastern,Lynnfield,,http://www.anoushella.com/,http://places.singleplatform.com/anoushella-0/menu?ref=google,https://www.giftrocker.com/anoushella/,http://www.anoushella.com/index.php#contact,Gift Cards,Contact Us,MA,01940,restaurant
Stafford House Of Pizza,"19 Main St, Stafford Springs, CT 06076",Pizza,Stafford Springs,,https://staffordhouseofpizza.com/,https://staffordhouseofpizza.com/Menus,https://staffordhouseofpizza.com/Gift,https://staffordhouseofpizza.com/Contact,Gift Certificate ,Contact Us ,CT,06076,restaurant
Fancy That,"272 Main St, Walpole, MA 02081",Tea house,Walpole,,http://afternoontea.com/,https://www.afternoontea.com/menus,https://squareup.com/gift/9EHVAV7ZV5YP8/order,https://www.afternoontea.com/contact,eGift Cards,Contact,MA,02081,restaurant
Amuleto Mexican Table,"484 Moody St, Waltham, MA 02453",Mexican,Waltham,"Upscale-casual restaurant serving regional Mexican fare, plus creative tequila & mezcal cocktails.",http://amuletorestaurant.com/,http://places.singleplatform.com/amuleto-mexican-table/menu?ref=google,https://swipeit.com/product/839/amuleto-mexican-table,http://amuletorestaurant.com/contact_form.html,Gift Cards,"
EMAIL US",MA,02453,restaurant
Bistro781,"336 Moody St, Waltham, MA 02453",American,Waltham,"Tavernlike spot with a long bar serving elevated American classics, craft beers & more.",http://www.bistro781.com/,,https://swipeit.com/product/1068/bistro-781,http://www.bistro781.com/contact/,Gift Cards,Contact,MA,02453,restaurant
NY Pie,"934 Moody St, Waltham, MA 02453",Pizza Delivery,Waltham,,http://nypiewaltham.com/,http://nypiewaltham.com/Menus,http://nypiewaltham.com/Gift,http://nypiewaltham.com/Contact,Gift Certificate ,Contact Us ,MA,02453,restaurant
Narrows Restaurant,"3023 Kent Narrow Way S, Grasonville, MD 21638",Restaurant,Grasonville,Crab cakes & crab soup are signature dishes at this upscale-casual seafood eatery with water views.,https://thenarrowsrestaurant.com/,http://places.singleplatform.com/the-narrows-restaurant/menu?ref=google,https://thenarrowsrestaurant.com/gift-cards/,https://thenarrowsrestaurant.com/contact-us/,Gift Cards,Directions,MD,21638,restaurant
Sophia's Tuscan Grille,"1729 Warwick Ave, Warwick, RI 02889",Italian,Warwick,"Warm, well-appointed BYOB eatery offering classic Tuscan & Italian dishes. Breakfast also served.",http://www.sophiastuscangrille.com/,http://places.singleplatform.com/sophias-tuscan-grille/menu?ref=google,https://swipeit.com/product/1194/sophias-tuscan-grille,,"



",,RI,02889,restaurant
The Shanty,"3854 Post Rd, Warwick, RI 02886",New American,Warwick,"New American restaurant with a farm-to-fork menu, full bar & craft brews in warm, relaxed surrounds.",http://theshantyri.com/,,https://www.instagram.com/p/B_Afp4BHe8P/,https://theshantyri.com/contact-us/,"
In the past few weeks we’ve had a lot of people 


 
",Contact,RI,02886,restaurant
Iron Works,"697 Jefferson Blvd, Warwick, RI 02886",Restaurant,Warwick,"Brick walls, polished wood & big bar in former foundry set scene for steaks & other American fare.",http://ironworkswarwick.com/,https://www.ironworkswarwick.com/menu/,http://ironworkswarwick.com/#rewards,,Loyalty & Gift Cards,,RI,02886,restaurant
Elizabeth's Portofino Tuscan Grille,"897 Post Rd, Warwick, RI 02888",Italian,Warwick,"Tuscan-style Italian cuisine, wine & cocktails served in a relaxed, intimate setup with patio seats.",http://www.elizabethportofino.com/,http://elizabethportofino.com/dinner-menu/,http://www.elizabethportofino.com/portofinos-tuscan-grille-gift-card/,http://www.elizabethportofino.com/contact/,Gift Cards,Contact,RI,02888,restaurant
Stockyard,"135 Market St, Brighton, MA 02135",Steak,Brighton,"Longtime traditional steakhouse with a horseshoe bar & fireplace, hearty entrees & classic sides.",http://www.stockyardrestaurant.com/,http://stockyardrestaurant.com/menus/,https://stockyardrestaurant.cardfoundry.com/giftcards.php,https://www.stockyardrestaurant.com/function-rooms-menus-3/,Gift Cards,Contact,MA,02135,restaurant
Ravello Italian Kitchen,"136 Belmont St, Watertown, MA 02472",Restaurant,Watertown,,https://www.ravelloitaliankitchen.com/,,https://www.toasttab.com/ravello/giftcards,https://www.ravelloitaliankitchen.com/contact,Gift Cards,"
        
        Contact
      ",MA,02472,restaurant
Conley's,"164 Belmont St, Watertown, MA 02472",Pub,Watertown,"Pub grub & plenty of beers on tap are offered at this casual, Irish-style tavern with sports on TV.",http://www.conleyspub.com/,http://conleyspub.com/menu/starters/,http://www.conleyspub.com/product/gift-card/,https://conleyspub.com/contact/,Gift Certificates,Contact,MA,02472,restaurant
Mel and Ernie's Catering,"310 Commonwealth Rd, Wayland, MA 01778",Caterer,Wayland,,http://melanderniescatering.com/,http://places.singleplatform.com/mels-commonwealth-cafe/menu?ref=google,https://swipeit.com/product/1387/mels-commonwealth-cafe,http://melanderniescatering.com/contact-us,Gift Cards,Contact Us,MA,01778,restaurant
Indian Ranch,"200 Gore Rd Building #1, Webster, MA 01570",Live Music,Webster,"This bucolic outdoor music venue with campgrounds is equipped with a bar, grills & picnic tables.",http://www.indianranch.com/,,https://rhpindian18.wpengine.com/gift-cards/,https://indianranch.com/contact/,"

",CONTACT US,MA,01570,restaurant
Eighty Ates Catering,"172 Gore Rd, Webster, MA 01570",Caterer,Webster,,http://www.eightyates.com/,,http://www.eightyates.com/gift-cards.html,http://www.eightyates.com/contact-us.html,Gift Cards,Contact Us,MA,01570,restaurant
Kings Dining & Entertainment World Headquarters,"35 Walnut St #200, Wellesley, MA 02481",American,Wellesley,,https://kingsbowlamerica.com/,,https://kingsbowlamerica.com/promotions-all-venues/gift-cards,https://kingsbowlamerica.com/contact-us/menu-questions-special-request, Gift Cards,Allergy Information & Requests,MA,02481,restaurant
Diemand Farm,"126 Mormon Hollow Rd, Millers Falls, MA 01349",Poultry farm,Millers Falls,,http://thediemandfarm.com/,,https://thediemandfarm.com/gift-cards/,https://thediemandfarm.com/contact/,Gift Cards,Contact Us,MA,01349,restaurant
Table Twelve,"175 W Boylston St, West Boylston, MA 01583",Food and drink,West Boylston,,http://www.tabletwelvekitchen.com/,,https://tabletwelvekitchen.com/#giftcards,,Gift Cards,,MA,01583,restaurant
Irish House Restaurant and Trinity Pub at the Irish Cultural Center,"429 Morgan Rd, West Springfield, MA 01089",Irish,West Springfield,,http://www.irishcenterwne.org/,http://www.irishcenterwne.org/restaurant-and-pub/menu/,https://www.irishcenterwne.org/restaurant-and-pub/gift-certificates/,https://www.irishcenterwne.org/restaurant-and-pub/hours-and-contact/,Gift Certificates,Hours and Contact,MA,01089,restaurant
The Crest Room,"706 Westfield St, West Springfield, MA 01089",Pub,West Springfield,,http://www.thecrestroom.com/,https://thecrestroom.com/slider-test/,https://www.toasttab.com/the-crest-room/giftcards,https://thecrestroom.com/contact-us/,Gift Cards,Contact,MA,01089,restaurant
Town Bar and Grill MV,"227 Upper Main St, Edgartown, MA 02539",Grill,Edgartown,,https://www.townbarmv.com/,,https://www.toasttab.com/town-bar-and-grill-mv/giftcards,https://www.townbarmv.com/contact/,Click Here,Contact,MA,02539,restaurant
Martha's,"281 Main St, Falmouth, MA 02540",Sandwich,Falmouth,,https://www.marthascapecod.com/,http://places.singleplatform.com/marthas-125/menu?ref=google,https://www.toasttab.com/martha-s/giftcards,https://www.marthascapecod.com,PURCHASE GIFT CARDS,LOCATION & CONTACT,MA,02540,restaurant
Red Heat Tavern Westborough ma,"227 Turnpike Rd, Westborough, MA 01581",Restaurant,Westborough,,https://redheattavern.com/,,https://redheattavern.securetree.com,https://redheattavern.com/find-us/find-us/,Gift Cards,Contact,MA,01581,restaurant
Casa Basso,"59 Montauk Hwy, Westhampton, NY 11977",Italian,Westhampton,Old-time Italian eatery with basic menu & 3-course special is known for on-site castle & sculptures.,http://www.casabasso.net/,http://www.casabasso.net/winelist.html,http://www.casabasso.net/giftcertificates.html,http://www.casabasso.net/contact.html,"Gift 
              Certificates ",Contact,NY,11977,restaurant
Tonino's Pizza,"88 Old Riverhead Rd, Westhampton Beach, NY 11978",Pizza,Westhampton Beach,"Inventive pies, gourmet slices & classic Italian dishes offered in an airy cafe with a patio.",http://www.toninospizzali.com/,http://places.singleplatform.com/toninos-pizza-8/menu?ref=google,http://www.toninospizzali.com/Contentcomingsoon,http://www.toninospizzali.com/Catering-Form,Gift Cards,Contact Form,NY,11978,restaurant
Brunetti Pizza,"103 Main St, Westhampton Beach, NY 11978",Pizza,Westhampton Beach,,http://www.brunettipizza.com/,,https://squareup.com/gift/434Z4C5779XSM/order,,Gift Cards,,NY,11978,restaurant
Dockers Waterside Marina & Restaurant,"94 Dune Rd, East Quogue, NY 11942",American,East Quogue,Upscale surf 'n' turf spot starring a top-notch bay view plus a hopping outdoor bar & lounge setup.,http://www.dockerswaterside.com/,,https://mgd.mercury-gift.com/dockerswaterside,https://www.dockerswaterside.com/contact,GIFT CARDS,Contact,NY,11942,restaurant
Pollo Club,"456 Moody St, Waltham, MA 02453",Restaurant,Waltham,,http://www.polloclubwaltham.com/,,https://www.moodyswaltham.com/onlinestore/Moodys-Gift-Card-p89639558,,GIFT CARDS,,MA,02453,restaurant
Ten Cousins Brick Oven,"977 Main Rd, Westport, MA 02790",Pizza,Westport,,https://www.tencousinsbrickoven.com/,https://www.tencousinsbrickoven.com/menu/,https://shop.lafrancehospitality.com/products/lafrance-hospitality-gift-card,https://www.tencousinsbrickoven.com/contact/,Gift Cards,Contact,MA,02790,restaurant
US Pizza & Grill,"1856 Pleasant St, Fall River, MA 02723",Pizza,Fall River,,http://usapizzangrill.com/,http://usapizzangrill.com/Menus,http://usapizzangrill.com/Gift,http://usapizzangrill.com/Contact,Gift Certificate ,Contact Us ,MA,02723,restaurant
Four Corners Grille,"3841 Main Rd, Tiverton, RI 02878",American,Tiverton,,http://www.4cornersgrille.com/,,https://swipeit.com/product/610/four-corners-grille,http://www.4cornersgrille.com/Pages/ContactUs.aspx,Gift Cards,Contact Us,RI,02878,restaurant
Cupcake Mojo,"644 Middle St, Weymouth, MA 02189",Caterer,Weymouth,,http://www.cupcakemojo.com/,http://places.singleplatform.com/cupcake-mojo/menu?ref=google,https://squareup.com/gift/879KD8ASMGNPG/order,,Order e-Gift Card,,MA,02189,restaurant
LUCIE drink  dine,"120 Huntington Ave, Boston, MA 02116",Restaurant,Boston,,http://www.luciebackbay.com/,http://www.luciebackbay.com/,http://www.luciebackbay.com/giftcards,,Gift Cards,,MA,02116,restaurant
Lucia Ristorante  Winchester,"13 Mt Vernon St, Winchester, MA 01890",Restaurant,Winchester,Neighborhood fixture for family-style Italian fare serves classic dishes amid old-country decor.,http://luciawinchester.com/,https://static1.squarespace.com/static/53ca9851e4b0207d2957b119/t/58091a05cd0f687a0365bfe7/1476991494530/Winchester+Dinner.pdf,https://www.toasttab.com/ristorante-lucia-winchester/giftcards,http://luciawinchester.com/contact,Gift Cards,Contact,MA,01890,restaurant
Maine Fish Market & Restaurant,"60 Bridge St, East Windsor, CT 06088",Seafood,East Windsor,Fresh seafood retail counter & traditional New England seafood restaurant in a 1780s building.,http://www.mainefishmarket.com/,http://mainefishmarket.com/wp-content/uploads/2016/02/Lunch-Menu-2015.pdf,https://mainefishmarket.com/gift-cards/,https://mainefishmarket.com/contact-2/,Gift Cards,Contact,CT,06088,restaurant
Sofia's Restaurant & Pizzeria,"136 Prospect Hill Rd, East Windsor, CT 06088",Italian,East Windsor,"Easygoing neighborhood standby for classic Italian-American fare, including plenty of pasta & pizza.",http://www.sofiasrestaurant.com/,http://www.sofiasrestaurant.com/menus/main-menu/,https://swipeit.com/product/1509/sofias-restaurant,https://www.sofiasrestaurantct.com/contact-us/,Gift Cards,Contact us,CT,06088,restaurant
Giovanni's Pizza Restaurant Bar & Lounge,"160 Broad St, Windsor, CT 06095",Grill,Windsor,,http://giovannispizzact.com/,http://giovannispizzact.com/Menus,http://giovannispizzact.com/Gift,http://giovannispizzact.com/Contact,Gift Certificate ,Contact Us ,CT,06095,restaurant
Pizza Rama,"645 Poquonock Ave, Windsor, CT 06095",Pizza,Windsor,"Modest, counter-serve Italian joint offering pizza, wings & salads plus outdoor seating.",https://pizzaramact.com/,http://pizzaramact.com/,https://pizzaramact.com/Gift,https://pizzaramact.com/Contact,Gift Certificate ,Contact Us ,CT,06095,restaurant
Adriana,"19 Main St, Winthrop, MA 02152",Bar,Winthrop,"Cozy, rustic-industrial–style cafe with waterfront views offering coffee, bagels, pastries & more.",http://adrianacafe.com/,,https://squareup.com/gift/QF0H9YC01K9FP/order,,Gift Cards,,MA,02152,restaurant
Pressed Cafe,"200 District Ave, Burlington, MA 01803",Restaurant,Burlington,"Stylish, contemporary cafe serving coffee, raw juices & smoothies, plus panini & other light fare.",http://www.pressedcafe.com/,http://www.pressedcafe.com/menu-1/,https://www.instagram.com/p/B-o6aFqggKW/,http://www.pressedcafe.com/contact,"

","
                Contact
              ",MA,01803,restaurant
Boomers Sub & Deli,"93 Highland St #2724, Worcester, MA 01609",Deli,Worcester,,http://www.boomerspizzeria.com/,http://places.singleplatform.com/boomers-sub--deli/menu?ref=google,https://boomerspizzeria.com/gift-cards/,https://boomerspizzeria.com?storeUrl=https://worcester.boomerspizzeria.com/contact,Gift Cards,Contact,MA,01609,restaurant
Still & Stir,"90 Commercial St, Worcester, MA 01608",Restaurant,Worcester,,https://www.stillandstir.com/,,https://www.nichehospitality.com/gift-cards/,https://www.stillandstir.com/contactus,"
        Gift Cards
      ","
            Contact Us
          ",MA,01608,restaurant
ProteinHouse Worcester,"145 Front St Unit 3, Worcester, MA 01608",Restaurant,Worcester,,https://www.protein-house.com/,https://www.protein-house.com/menu/,https://www.protein-house.com/gift-cards,,Gift Cards,Contact,MA,01608,restaurant
BarKaya Sushi & Ramen,"278 Worthington St, Springfield, MA 01103",Restaurant,Springfield,,http://www.barkaya.com/,http://www.barkaya.com/,https://barkaya.com/gift-cards/,,Gift Cards,,MA,01103,restaurant
Tavern in the Square Wrentham,"1 Premium Outlet Blvd, Suite 252, Wrentham, MA 02093",American,Wrentham,,http://www.taverninthesquare.com/,https://www.taverninthesquare.com/menus-food,https://www.taverninthesquare.com,,,,MA,02093,restaurant
