name,address,type,place,website_url,menu_url,description,gift_card_txt,gift_card_website,contact_website,contact_txt,searched,state,zipcode,store_type
Neet Nails,"376 Washington St # 3, Norwell, MA 02061",Nail salon,Norwell,http://www.neetnails.com/,,,,,http://www.neetnails.com/contact-us.html,"
				Contact Us...
			",1,MA,02061,beauty_salon
Blink Eyelash Extensions Studio Boutique and Bar,"68 Webster St, Hanover, MA 02339",Beauty salon,Hanover,http://www.blinklashextensions.com/,,,,,http://www.blinklashextensions.com/eyelash-extensions-hanover-ma-south-shore-contact-us.html,"
				Contact
			",1,MA,02339,beauty_salon
Vina Nails and Spa,"326 N Main St, Randolph, MA 02368",Nail salon,Randolph,http://vinanailsandspa.com/,,,,,http://vinanailsandspa.com/contact.php,,1,MA,02368,beauty_salon
Salon 605,"605 Great Rd, Stow, MA 01775",Beauty salon,Stow,https://www.salonsix0five.com/,,,,,https://www.salonsix0five.com/mailto:salon605@gmail.com,Contact Me,1,MA,01775,beauty_salon
Au Pair in America Melinda Brooks,"31 7 Star Ln, Concord, MA 01742",Beauty salon,Concord,http://www.aupairinamerica.com/,,,,,https://www.aupairinamerica.com/contact_us.asp,contact us,1,MA,01742,beauty_salon
Moodz Spa Salon & Boutique,"19 Pelham Island Rd, Wayland, MA 01778",Beauty salon,Wayland,http://moodz.com/,,,,,http://moodz.com/Contact.html,"





Contact


",1,MA,01778,beauty_salon
The Glam Room,"288 Littleton Rd #14, Westford, MA 01886",Makeup artist,Westford,http://www.theglamroomma.com/,,,,,https://theglamroomma.com/contact/,Contact,1,MA,01886,beauty_salon
Shear Madness,"222 Great Rd, Littleton, MA 01460",Hair salon,Littleton,http://shearmadnesslittleton.com/,,,,,https://www.shearmadnesslittleton.com/contact-us,CONTACT US,1,MA,01460,beauty_salon
Acton Skin Care,"77 Great Rd #2, Acton, MA 01720",Skin care clinic,Acton,http://actonskincare.com/,,,,,http://actonskincare.com/,Contact Us,1,MA,01720,beauty_salon
Acton Massage,"481 Great Rd #9, Acton, MA 01720",Massage therapist,Acton,https://www.nancyamesmt.com/,,,,,https://www.nancyamesmt.com/contact,Contact,1,MA,01720,beauty_salon
Marjon Hair Design Inc,"334 Stockbridge Rd, Great Barrington, MA 01230",Hair salon,Great Barrington,https://marjonhair.wixsite.com/,,,,,https://marjonhair.wixsite.com/mysite/contact-us,CONTACT US,1,MA,01230,beauty_salon
Healthy Image,"616 Main St, Williamstown, MA 01267",Medical spa,Williamstown,https://www.healthyimagema.com/,,,,,https://www.healthyimagema.com/contact-us/,Request Appointment,1,MA,01267,beauty_salon
Heads Up Hair Salon,"11 Main St, Natick, MA 01760",Beauty salon,Natick,http://salonheadsup.com/,,,,,http://salonheadsup.com/contact,"
        Contact Us
      ",1,MA,01760,beauty_salon
BOSTON LASH  Eyelash Extensions,"509 E 1st St, South Boston, MA 02127",Beauty salon,South Boston,http://www.bostonlash.com/,,,,,http://www.bostonlash.com/contactus,CONTACT US,1,MA,02127,beauty_salon
Salon Eva Michelle,"37 Newbury St 4th floor, Boston, MA 02116",Beauty salon,Boston,http://www.salonevamichelle.com/,,,,,http://www.salonevamichelle.com/contact,"
              Contact
            ",1,MA,02116,beauty_salon
Hair Place One,"85 Quincy Ave #4, Quincy, MA 02169",Beauty salon,Quincy,http://www.hairplaceone.com/,,,,,http://www.hairplaceone.com/hair-salon-quincy-ave-ma-contact-us.html,Contact Us,1,MA,02169,beauty_salon
MedeirosAntho Wendy L,"271 Carew St, Springfield, MA 01104",Beauty salon,Springfield,http://www.mercycares.com/,,,,,http://www.mercycares.com/contactus-31,Contact Us,1,MA,01104,beauty_salon
Zenergy Spa,"13 S Bridge Dr, Agawam, MA 01001",Spa,Agawam,https://www.z-energyspa2.com/,,,,,https://www.z-energyspa2.com/contact_us,Contact us,1,MA,01001,beauty_salon
Bar Beauty  Alta Moda,"906 Shaker Rd, Longmeadow, MA 01106",Hair salon,Longmeadow,http://www.barbeautyataltamoda.com/,,,,,http://www.barbeautyataltamoda.com/home/contact/,Contact,1,MA,01106,beauty_salon
Darker Image,"303 Walnut St, Agawam, MA 01001",Tanning salon,Agawam,http://www.darkimagetanning.com/,,,,,http://darkimagetanning.com/contact/,Contact,1,MA,01001,beauty_salon
Beach House Tan Agawam,"850 Suffield St, Agawam, MA 01001",Tanning salon,Agawam,http://www.beachhousetan.com/,,,,,https://www.beachhousetan.com/contact/,Locations,1,MA,01001,beauty_salon
Pure Massage and Bodywork,"46 Suffield St, Agawam, MA 01001",Massage therapist,Agawam,http://puremassageandbodywork.com/,,,,,http://puremassageandbodywork.com/contact.html,Contact,1,MA,01001,beauty_salon
St Cyr Salon & Spa,"235 Park Ave, Worcester, MA 01609",Beauty salon,Worcester,http://stcyrsalon.com/,,,,,http://stcyrsalon.com/contact.html,Contact,1,MA,01609,beauty_salon
Latino Beauty Salon,"3125 Washington St, Roxbury, MA 02119",Beauty salon,Roxbury,http://www.latinobeautysalonboston.com/,,,,,https://latinobeautysalonboston.com/contact/,Contact Us,1,MA,02119,beauty_salon
Ultra Beauty Salon,"401 Centre St, Jamaica Plain, MA 02130",Beauty salon,Jamaica Plain,http://www.ultrabeautysalon.com/,,,,,http://www.ultrabeautysalon.com/contact,Contact Us,1,MA,02130,beauty_salon
Vibrant Beauty Salon,"585 Massachusetts Ave, Boston, MA 02118",Nail salon,Boston,http://vibrantbeautysalon.com/,,,,,https://vibrantbeautysalon.com/contact-us/,Contact Us,1,MA,02118,beauty_salon
Salon Reyna,"4 Railroad Ave, Bedford, MA 01730",Beauty salon,Bedford,http://www.thesalonreyna.com/,,,,,https://thesalonreyna.com/contact/,Contact,1,MA,01730,beauty_salon
Brian Richards Salon,"456 W Central St #3, Franklin, MA 02038",Beauty salon,Franklin,http://www.brianrichardsalon.com/,,,,,http://www.brianrichardsalon.com/contact.html,Contact,1,MA,02038,beauty_salon
Suite 2 Beauty Bar,"155 Broadway Rd #2, Dracut, MA 01826",Beauty salon,Dracut,http://www.suite2beautybar.com/,,,,,https://www.suite2beautybar.com/contact-us/,Contact Us,1,MA,01826,beauty_salon
Sei Bella Salon,"49 Boltwood Walk, Amherst, MA 01002",Hair salon,Amherst,http://www.seibellasalon.com/,,,,,https://www.seibellasalon.com,CONTACT,1,MA,01002,beauty_salon
salon invi,"28 Chestnut St, Andover, MA 01810",Beauty salon,Andover,http://saloninvi.com/,,,,,http://saloninvi.com/contact/,Contact,1,MA,01810,beauty_salon
New Image Hair Salon,"187 Cambridge St, Burlington, MA 01803",Beauty salon,Burlington,http://newimagesalonburlington.com/,,"Long-running, down-to-earth salon for haircuts & coloring services, plus texturing treatments.",,,https://www.salonbuilder.com/website/169655/contact.asp,Contact,1,MA,01803,beauty_salon
Salon Forty Four,"44 Main St, Boston, MA 02129",Beauty salon,Boston,http://salonfortyfour.com/,,,,,https://salonfortyfour.com/contact-us/,Contact Us,1,MA,02129,beauty_salon
Marchelle Salone,"820-822 Massachusetts Ave, Arlington, MA 02476",Beauty salon,Arlington,http://www.marchellesalone.com/,,,,,https://marchellesalone.com/contact/,Contact,1,MA,02476,beauty_salon
Kenneth Wildes Hair Salon,"9 Beacon Pl, Newton Centre, MA 02459",Hair salon,Newton Centre,https://kwsalons.com/,,,,,https://kwsalons.com/contact-us/,Contact us,1,MA,02459,beauty_salon
Salon De Cinzia,"1146 Beacon St, Newton, MA 02461",Beauty salon,Newton,http://www.salondecinzia.com/,,,,,http://www.salondecinzia.com/contact,Contact,1,MA,02461,beauty_salon
Salon Maleah,"180 Linden St #103, Wellesley, MA 02482",Beauty salon,Wellesley,http://www.salonmaleah.com/,,,,,http://www.salonmaleah.com/contact-us/3264476,CONTACT US,1,MA,02482,beauty_salon
Salon One of Wellesley,"277 Linden St, Wellesley, MA 02482",Beauty salon,Wellesley,http://www.salononewellesley.com/,,,,,https://www.salononewellesley.com/contact/,Contact,1,MA,02482,beauty_salon
Salon Bellissima,"202 Hampshire St, Cambridge, MA 02139",Beauty salon,Cambridge,http://salonbellissima.net/,,,,,"http://maps.google.com/?q=Salon Bellissima, Cambridge, MA 02139",,1,MA,02139,beauty_salon
Salon Ambiance Full Service Salon & Spa,"138 Fulton St, Fall River, MA 02720",Beauty salon,Fall River,http://salonambiancema.com/,,,,,https://salonambiancema.com/contact-us/,Contact Us,1,MA,02720,beauty_salon
Le Posh Salon & Spa,"42 Washington St, Haverhill, MA 01832",Nail salon,Haverhill,http://www.leposhsalon.com/,,,,,http://leposhsalon.com/contact-us,Contact Us,1,MA,01832,beauty_salon
Kilpatrick Athletic Center,"84 Alford Rd, Great Barrington, MA 01230",Fitness center,Great Barrington,http://www.simons-rock.edu/,,,,,http://www.simons-rock.edu/early-college/contact-us/offices-and-departments/wellness-center/wellness-center-update-covid19.php,Learn More»,1,MA,01230,beauty_salon
Instyle Hair Salon and Spa,"479 Turnpike St, South Easton, MA 02375",Beauty salon,South Easton,http://www.instylehairdesigneaston.com/,,"Modest parlor featuring hair services for men & women, plus waxing, facials & Botox.",,,http://www.instylehairdesigneaston.com/contact-us/,Contact Us ,1,MA,02375,beauty_salon
Wash House Salon,"207 Popes Island, New Bedford, MA 02740",Beauty salon,New Bedford,http://washhousesalon.net/,,,,,https://washhousesalonma.com/contact-us/,Contact Us,1,MA,02740,beauty_salon
Carousel Cuts,"880 Boston Rd, Billerica, MA 01821",Beauty salon,Billerica,http://www.carouselcutshair.com/,,,,,http://www.carouselcutshair.com/httpwww-carouselcutshair-combeauty-salon-locat," Location & Contact

",1,MA,01821,beauty_salon
Salon Tres Chic,"340 Washington St #3, Norwell, MA 02061",Beauty salon,Norwell,http://www.salontreschicnorwell.com/,,,,,http://www.salontreschicnorwell.com/contact-us.html,Contact Us,1,MA,02061,beauty_salon
Avanti Hair Salon,"85 Bass Ave, Gloucester, MA 01930",Beauty salon,Gloucester,http://www.avantisalongloucester.com/,,,,,http://www.avantisalongloucester.com/contact.html,Contact,1,MA,01930,beauty_salon
Personal Best Ltd,"270 Washington St, Pembroke, MA 02359",Beauty salon,Pembroke,http://www.utopiaplace.net/,,,,,http://www.utopiaplace.net/hair-salon-pembroke-ma-utopia-place-contact-us.html,Contact us,1,MA,02359,beauty_salon
Creative Cuts Plus,"331 Cotuit Rd, Sandwich, MA 02563",Beauty salon,Sandwich,http://www.creativecutsplus.com/,,,,,http://www.creativecutsplus.com/contact-us,Contact Us,1,MA,02563,beauty_salon
Sarpi Salon & Spa,"5 Broadway, Saugus, MA 01906",Beauty salon,Saugus,https://www.sarpisalon.com/,,,,,https://www.sarpisalon.com/contact," Contact

",1,MA,01906,beauty_salon
Margo's Hair Design,"253 Arlington St, Acton, MA 01720",Hair salon,Acton,http://www.margosdesign.com/,,,,,https://www.salonbuilder.com/website/152688/contact.asp,Contact,1,MA,01720,beauty_salon
Noelle Day Spa & Salon,"421 E Central St, Franklin, MA 02038",Beauty salon,Franklin,http://www.noelledayspa.com/,,,,,http://www.noelledayspa.com/contact.html,"

			Contact
		
",1,MA,02038,beauty_salon
La Salon Sorella,"293 Washington St, Norwell, MA 02061",Hair salon,Norwell,https://salonsorellanorwell.com/,,,,,https://salonsorellanorwell.com/contact,Contact,1,MA,02061,beauty_salon
GYPSY LASH,"10 Prince Pl, Newburyport, MA 01950",Beauty salon,Newburyport,http://gypsylashma.com/,,,,,https://gypsylashma.com/contact-us/,CONTACT US,1,MA,01950,beauty_salon
Royal Nails SB LLC,"779 Lafayette Rd, Seabrook, NH 03874",Nail salon,Seabrook,http://royalnailsseabrook.com/,,,,,http://royalnailsseabrook.com/contact,Contact Us,1,NH,03874,beauty_salon
Brian Simpson's Salon,"21 Pleasant St, Newburyport, MA 01950",Hair salon,Newburyport,http://briansimpsonssalon.com/,,,,,http://briansimpsonssalon.com/contact.html,Contact,1,MA,01950,beauty_salon
Ana's Hair Studio Inc,"10 Prince Pl #109, Newburyport, MA 01950",Hair salon,Newburyport,https://anashairstudio.net/,,,,,https://anashairstudio.net/contact-us/,Contact,1,MA,01950,beauty_salon
Soul Serenity Beauty & Wellness,"24 Vernon St, Newburyport, MA 01950",Spa,Newburyport,http://soulserenitywellness.com/,,,,,https://www.soulserenitywellness.com/contact,Book Appointment,1,MA,01950,beauty_salon
Amelia's Salon,"66 W Main St, Merrimac, MA 01860",Hair salon,Merrimac,http://www.ameliassalon.com/,,,,,http://www.ameliassalon.com/?page/416956/contact-us,Contact Us,1,MA,01860,beauty_salon
French Twist Salon,"3 Water St, Newburyport, MA 01950",Hair salon,Newburyport,http://www.frenchtwisthairsalon.com/,,,,,https://frenchtwisthairsalon.com/contact/,Contact,1,MA,01950,beauty_salon
The Parlor,"50 Water St #136, Newburyport, MA 01950",Hair salon,Newburyport,http://www.the-parlor.com/,,,,,http://www.the-parlor.com/contact.html,Contact,1,MA,01950,beauty_salon
Merle Norman Cosmetic Studio,"855 Lafayette Rd, Seabrook, NH 03874",Beauty salon,Seabrook,http://www.merlenorman.com/,,,,,https://www.merlenorman.com/on/demandware.store/Sites-merlenorman-Site/default/CustomerService-ContactUs,Contact Us,1,NH,03874,beauty_salon
Transformations Salon & Day Spa,"123 E Main St, Merrimac, MA 01860",Day spa,Merrimac,http://www.transformationsdayspa.com/,,,,,https://www.transformationsdayspa.com/contact-us/,Contact Us,1,MA,01860,beauty_salon
Gennie Grady Facial Spa,"83 Lafayette Rd, Hampton Falls, NH 03844",Facial spa,Hampton Falls,http://genniegrady.com/,,,,,http://genniegrady.com/contact/,Contact,1,NH,03844,beauty_salon
Suite Six Medical Aesthetics,"6 Winter St #6d, Newburyport, MA 01950",Medical spa,Newburyport,http://www.suitesixmedspa.com/,,,,,http://www.suitesixmedspa.com/contact-us/,,1,MA,01950,beauty_salon
Makeup Artistry by Liz,"609 Northampton St, Holyoke, MA 01040",Beauty salon,Holyoke,http://www.bridalbyliz.com/,,,,,https://www.bridalbyliz.com/contact/,Contact,1,MA,01040,beauty_salon
Salon O Hair Salon,"50 Green St, Northampton, MA 01060",Hair salon,Northampton,http://www.salononorthampton.com/,,"Quaint, cozy shop offering cuts, color & treatments for men, women & children, plus retail.",,,http://www.salononorthampton.com/#contact_us,Contact Us,1,MA,01060,beauty_salon
Willoughby,"11C Bridge St, Sunderland, MA 01375",Hair salon,Sunderland,https://willoughbyhair.com/,,,,,https://willoughbyhair.com/find-us,"
            Find / Contact Us
          ",1,MA,01375,beauty_salon
Salon Advantages,"15 College Hwy # H1, Southampton, MA 01073",Beauty salon,Southampton,http://www.salonadvantages.com/,,,,,https://www.salonadvantages.com/contact/,Contact,1,MA,01073,beauty_salon
Salon 180 East,"180 Pleasant St #210, Easthampton, MA 01027",Beauty salon,Easthampton,http://www.salon180east.com/,,"Beauty salon offering hair styling & coloring, plus face waxing, mani-pedis, spray tans & more.",,,https://www.salon180east.com/contact,Book an appointment,1,MA,01027,beauty_salon
Purele Waxing Salon,"44 Harkness Avenue, Second Floor, East Longmeadow, MA 01028",Beauty salon,East Longmeadow,http://www.purelewaxing.com/,,,,,https://www.purelewaxing.com,CONTACT,1,MA,01028,beauty_salon
Hair's The Thing,"21 Locust St STE 1, Northampton, MA 01060",Hair salon,Northampton,http://hairsthething.net/,,,,,http://hairsthething.net/tel:4135860485,(413) 586-0485,1,MA,01060,beauty_salon
SKINCARE BY JULIEANNE,"2 Conz St #60th, Northampton, MA 01060",Facial spa,Northampton,https://skincarebyjulieanne.com/,,,,,https://skincarebyjulieanne.com/#74419856-8ff9-43ed-8cd1-1e08b00fa5eb,Contact Us,1,MA,01060,beauty_salon
Katherine Kennedy Makeup,"151 Main St Downstairs, Northampton, MA 01060",Beauty salon,Northampton,http://www.katherinekennedymakeup.com/,,,,,http://www.katherinekennedymakeup.com/contact-us,"
                Contact Us
              ",1,MA,01060,beauty_salon
Hands On Healing Massage and Skincare,"49 Milton St, Northampton, MA 01062",Massage therapist,Northampton,https://handsonhealingnoho.com/,,,,,https://handsonhealingnoho.com/contact/,Contact,1,MA,01062,beauty_salon
New Beginnings Hair Design,"56 Water St, North Andover, MA 01845",Beauty salon,North Andover,http://www.newbeginningshd.com/,,,,,http://www.newbeginningshd.com/#contact,Contact Us,1,MA,01845,beauty_salon
Hair by Charbel,"1 Dundee Park Dr #4, Andover, MA 01810",Hair salon,Andover,http://www.hairbycharbel.com/,,,,,https://www.hairbycharbel.com/contact,Contact,1,MA,01810,beauty_salon
Andover Electrology & Laser,"16 Haverhill St, Andover, MA 01810",Skin care clinic,Andover,http://www.andoverelectrologylaser.com/,,,,,http://andoverelectrologylaser.com/contact-us/,CONTACT US,1,MA,01810,beauty_salon
Lily Nails and Lash,"3 Elm St, Andover, MA 01810",Nail salon,Andover,http://lilynailsandlash.com/,,,,,http://lilynailsandlash.com/contact-us/,CONTACT US,1,MA,01810,beauty_salon
Simplicity salon,"43 High Street 3rd Fl. Suite #320, North Andover, MA 01845",Beauty salon,North Andover,http://www.simplicitysalon.com/,,,,,http://www.simplicitysalon.com/contact-us,Contact Us,1,MA,01845,beauty_salon
All Care Laser Center,"820 a Turnpike St, North Andover, MA 01845",Medical spa,North Andover,http://allcarelasercenter.com/,,,,,https://allcarelasercenter.com/contact/,Contact,1,MA,01845,beauty_salon
Vida Wellness,"451 Andover Street suite #G4, North Andover, MA 01845",Health spa,North Andover,http://www.vidawellnesscenter.com/,,,,,http://www.vidawellnesscenter.com/contact/,Contact,1,MA,01845,beauty_salon
D'Carola Beauty Salon,"530 Broadway, Lawrence, MA 01841",Beauty salon,Lawrence,http://dcarolasalon.com/,,,,,http://dcarolasalon.com/contact-us/,BOOK NOW,1,MA,01841,beauty_salon
Passion Nails and Spa,"1060 Osgood St, North Andover, MA 01845",Beauty salon,North Andover,http://www.passionnailsandspa.com/,,,,,http://www.passionnailsandspa.com/contact/,Contact,1,MA,01845,beauty_salon
Tran Tran Nails,"1077 Osgood St, North Andover, MA 01845",Nail salon,North Andover,http://www.trantrannails.com/,,"Established outpost for pampering of the hands & feet, plus waxing hair removal for body & face.",,,http://www.trantrannails.com/contact.html,Contact Us/Directions,1,MA,01845,beauty_salon
Stephanie Cogliano Laser & Electrology Assoc,"280 Main St, North Reading, MA 01864",Laser hair removal service,North Reading,http://www.laserandelectrology.com/,,,,,http://www.laserandelectrology.com/contact.html,Contact,1,MA,01864,beauty_salon
Level Up Med Spa,"27 Main St, Andover, MA 01810",Medical spa,Andover,http://www.levelupmedspa.com/,,,,,http://www.levelupmedspa.com/contact-us,Schedule Appointment,1,MA,01810,beauty_salon
Vecina Beauty,"4 Hampshire St, Lawrence, MA 01840",Beauty salon,Lawrence,http://www.athenabeauty.com/,,,,,http://www.athenabeauty.com/contact.html,Contact Us,1,MA,01840,beauty_salon
Wildflower Hair Studio,"27 Main St, Andover, MA 01810",Hair salon,Andover,http://wildflowerhairstudio26.com/,,,,,https://www.wildflowerhairstudio26.com/contact-us,CONTACT US,1,MA,01810,beauty_salon
Dovetail Apothecary of Beauty,"46 Main St, Andover, MA 01810",Beauty supply store,Andover,https://www.dovetailapothecary.com/,,,,,https://www.dovetailapothecary.com/contact-us,"
              Contact Us
            ",1,MA,01810,beauty_salon
MJJM Salons,"MJJM Salons, 37 Walker Rd, North Andover, MA 01845",Hair salon,North Andover,http://mjjmsalons.com/,,,,,https://www.mjjmsalons.com/contactus/,Contact,1,MA,01845,beauty_salon
Karen de Steuben Esthetician,"1820 Turnpike St, North Andover, MA 01845",Makeup artist,North Andover,http://deanzasalon.com/,,,,,https://deanzasalon.com/contact/,Book Now,1,MA,01845,beauty_salon
Pura Vida Color & Extension Lounge,"27 Main St Suite 2, Andover, MA 01810",Hair salon,Andover,http://www.puravidahairlounge.com/,,,,,https://www.puravidahairlounge.com,Contact,1,MA,01810,beauty_salon
Bella Fiore Salon,"226 Merrimack St, Methuen, MA 01844",Beauty salon,Methuen,http://www.bellafiore.salon/,,,,,http://bellafiore.salon/contact/,Contact,1,MA,01844,beauty_salon
Brush Nails & Supply LLC,"191 Essex St, Lawrence, MA 01841",Beauty product supplier,Lawrence,http://www.brushnailssupply.com/,,,,,https://www.brushnailssupply.com/contacto-1,Contacto: ,1,MA,01841,beauty_salon
Euphoria Organic Hair Salon,"305 Main St, Falmouth, MA 02540",Hair salon,Falmouth,http://www.euphoriaorganicsalon.com/,,,,,http://www.euphoriaorganicsalon.com/Hair-Stylist-Contact.html,Contact,1,MA,02540,beauty_salon
La Cave II,"1182 S Main St, Attleboro, MA 02703",Beauty salon,Attleboro,http://www.lacavesuzannesalon.com/,,,,,https://lacavesuzannesalon.com/contact/,Contact,1,MA,02703,beauty_salon
Hot Locks Salon Plymouth,"20 Home Depot Dr, Plymouth, MA 02360",Beauty salon,Plymouth,http://www.hotlockssalon.com/,,,,,http://www.hotlockssalon.com/contactdirections," Contact/Directions

",1,MA,02360,beauty_salon
Salon Ell,"647 Dartmouth St, South Dartmouth, MA 02748",Hair salon,South Dartmouth,http://www.salonell.com/,,,,,https://www.salonell.com,Contact,1,MA,02748,beauty_salon
Revolutions Styling Salon,"265 Bedford St, Bridgewater, MA 02324",Beauty salon,Bridgewater,http://revolutionssalon.com/,,,,,http://revolutionssalon.com/mailto:contact@revolutionssalon.com,contact@revolutionssalon.com,1,MA,02324,beauty_salon
Image Makers,"410 W Falmouth Hwy, West Falmouth, MA 02574",Hair salon,West Falmouth,http://www.imagemakersma.com/,,,,,http://www.imagemakersma.com/contact,Contact Us,1,MA,02574,beauty_salon
Dlalys Beauty Salon,"6 Columbia Rd, Boston, MA 02121",Beauty salon,Boston,http://www.dlalysbeautysalon.com/,,,,,http://dlalysbeautysalon.com/contact-us/,Contact,1,MA,02121,beauty_salon
Infinity Beauty Salon & Spa,"164 Massachusetts Ave, Arlington, MA 02474",Beauty salon,Arlington,https://www.infinitysalonarlington.com/,,,,,https://www.infinitysalonarlington.com,CONTACT,1,MA,02474,beauty_salon
Heather's Hair Port,"585 MA-28, Harwich Port, MA 02646",Nail salon,Harwich Port,http://www.heatherssalonandspa.com/,,,,,http://www.heatherssalonandspa.com/##,Contact Us,1,MA,02646,beauty_salon
Brush Salon,"634 N Falmouth Hwy #11, North Falmouth, MA 02556",Hair salon,North Falmouth,http://www.brushsalonfalmouth.com/,,,,,http://www.brushsalonfalmouth.com/contact.html,Contact,1,MA,02556,beauty_salon
Sage Salon,"648 Old West Central St, Franklin, MA 02038",Beauty salon,Franklin,http://www.sage4you.com/,,,,,http://www.sage4you.com/contact.html,Contact,1,MA,02038,beauty_salon
Vanity Hair Salon,"979 Main St, Wakefield, MA 01880",Beauty salon,Wakefield,http://vanityhairwakefield.com/,,,,,http://vanityhairwakefield.com/contact/,Contact,1,MA,01880,beauty_salon
Avanti Salon,"20 Newbury St #4, Boston, MA 02116",Beauty salon,Boston,http://www.avantisalonboston.com/,,,,,http://avantisalonboston.com/contact/,Contact,1,MA,02116,beauty_salon
L'Equipe Personalized Hairdressing,"276 Franklin Village Drive, Franklin, MA 02038",Beauty salon,Franklin,http://lequipesalon.com/,,,,,http://lequipesalon.com/contact-us.html,"
				Contact
			",1,MA,02038,beauty_salon
Megan Graham Beauty,"115 Newbury St #401, Boston, MA 02116",Beauty salon,Boston,http://www.megangrahambeauty.com/,,,,,http://www.megangrahambeauty.com/contact-us,Contact,1,MA,02116,beauty_salon
Lisa James Salon,"573 Washington St, Wellesley, MA 02482",Beauty salon,Wellesley,https://www.lisajamessalon.com/,,,,,https://www.lisajamessalon.com/contact," Contact

",1,MA,02482,beauty_salon
Salon CU,"698 Broadway, Somerville, MA 02144",Beauty salon,Somerville,http://saloncu.com/,,,,,http://saloncu.com/contact,CONTACT ,1,MA,02144,beauty_salon
Salon Giovanni,"34 South Rd, Bedford, MA 01730",Beauty salon,Bedford,http://salongiovanni.com/,,,,,http://salongiovanni.com/contact.htm,,1,MA,01730,beauty_salon
Lulu's Family Cuts,"2323 Massachusetts Ave, Cambridge, MA 02140",Beauty salon,Cambridge,http://www.luluskidscuts.com/,,,,,http://www.luluskidscuts.com/contact.html,,1,MA,02140,beauty_salon
Rumors Salon,"500 Boston Post Rd E, Marlborough, MA 01752",Hair salon,Marlborough,http://www.rumorsonline.net/,,,,,https://www.instagram.com/p/B9zfLfonHpu/,"

",1,MA,01752,beauty_salon
D'Iorio's,"335 Plantation St, Worcester, MA 01604",Beauty salon,Worcester,http://dioriossalon.com/,,,,,http://dioriossalon.com/contact.html,,1,MA,01604,beauty_salon
Salon Pure,"99 Chelmsford Rd Unit 6, North Billerica, MA 01862",Beauty salon,North Billerica,http://www.salonpureusa.com/,,,,,https://www.salonpureusa.com/cancel-contact,-cancellation policy-,1,MA,01862,beauty_salon
Katelyn Webb Beauty,"662 State Rd, North Dartmouth, MA 02747",Makeup artist,North Dartmouth,http://www.katelynwbeauty.com/,,,,,https://www.katelynwbeauty.com/contact-us,CONTACT,1,MA,02747,beauty_salon
Aspire Dermatology  Barrington Medical Center,"1525 Wampanoag Trail UNIT 203, Riverside, RI 02915",Skin care clinic,Riverside,https://www.aspiredermatology.com/,,,,,https://aspiredermatology.com/medical-contact-dermatitis.php,Contact Dermatitis,1,RI,02915,beauty_salon
Your Hair Salon,"27 Mt Auburn St #6031, Cambridge, MA 02138",Beauty salon,Cambridge,http://yourhairsalononline.com/,,,,,https://www.yourhairsalononline.com,Contact,1,MA,02138,beauty_salon
Michael Marina Salon,"2 Main St, Woburn, MA 01801",Beauty salon,Woburn,http://michaelmarinasalon.net/,,,,,http://michaelmarinasalon.net/contactus.htm,Contact Us,1,MA,01801,beauty_salon
Alfred Harvard Square Salon,"8 Eliot St, Cambridge, MA 02138",Beauty salon,Cambridge,http://www.alfredharvardsquare.com/,,,,,http://www.alfredharvardsquare.com/#contact,Contact,1,MA,02138,beauty_salon
Tea Nails,"237 Highland Ave B, Somerville, MA 02143",Nail salon,Somerville,http://www.teanailssomerville.com/,,,,,http://www.teanailssomerville.com/contact,Contact US,1,MA,02143,beauty_salon
Georgia's,"10 Skillings Rd, Winchester, MA 01890",Beauty salon,Winchester,https://www.georgiasown.org/,,,,,https://www.georgiasown.org/contact-us/,Contact Us,1,MA,01890,beauty_salon
HairTheory Studio,"5 Arrow St, Cambridge, MA 02138",Beauty salon,Cambridge,http://hairtheorystudio.com/,,,,,https://www.hairtheorystudio.com/contact,Contact,1,MA,02138,beauty_salon
Plan B Cut and Color Boutique,"99 Mt Auburn St # 2, Cambridge, MA 02138",Beauty salon,Cambridge,http://planbsalon.com/,,,,,https://www.planbsalon.com/location,,1,MA,02138,beauty_salon
Leo's Hair Place  Leos barbershop,"312 Main St, Medford, MA 02155",Beauty salon,Medford,http://www.leoshairplace.com/,,,,,http://www.leoshairplace.com/contact, Contact,1,MA,02155,beauty_salon
Skin & Body Works,"77 Holland St, Somerville, MA 02144",Spa,Somerville,http://www.skinandbodyworks.net/,,,,,http://www.skinandbodyworks.net/contact.html,"
				Contact
			",1,MA,02144,beauty_salon
Horizons Salon &The Barbershop,"1340 Massachusetts Ave, Arlington, MA 02476",Day spa,Arlington,http://horizonssalon.com/,,,,,http://horizonssalon.com/contact/,Contact,1,MA,02476,beauty_salon
EASE hair studio,"15 Cambridge St, Burlington, MA 01803",Beauty salon,Burlington,http://www.easehairstudio.com/,,,,,http://www.easehairstudio.com/contact-us.html,Contact Us,1,MA,01803,beauty_salon
T Spa,"362 Trapelo Rd, Belmont, MA 02478",Nail salon,Belmont,http://www.tspanails.com/,,,,,http://www.tspanails.com/contact.php,Contact Us,1,MA,02478,beauty_salon
Essentially Bare Cosmetic & Laser Clinics,"777 Concord Ave, Cambridge, MA 02138",Skin care clinic,Cambridge,http://www.essentiallybare.com/,,,,,http://essentiallybare.com/contact/appointment-request/,Request an Appointment,1,MA,02138,beauty_salon
Glow,"71 Arlington St, Watertown, MA 02472",Beauty salon,Watertown,http://www.glowwatertown.com/,,,,,https://www.glowwatertown.com/contact-us/,"

Contact Us  
",1,MA,02472,beauty_salon
Winchester ElectrologyLaser,"831 Main St #3, Winchester, MA 01890",Hair removal service,Winchester,http://www.ihatebodyhair.com/,,,,,http://ihatebodyhair.com/contact,Contact Us,1,MA,01890,beauty_salon
Tony's AllSport Barbershop,"721 Massachusetts Ave, Arlington, MA 02474",Barber shop,Arlington,http://www.tonysallsportbarbershop.com/,,,,,https://www.tonysallsportbarbershop.com,Contact,1,MA,02474,beauty_salon
Ntrigue Salon,"277 Shrewsbury St, Worcester, MA 01604",Beauty salon,Worcester,http://www.ntriguesalononline.com/,,,,,http://www.ntriguesalononline.com/contact-us,Contact Us,1,MA,01604,beauty_salon
Style Salon & Spa,"835 Main St, Amherst, MA 01002",Beauty salon,Amherst,http://stylesbydeborah.com/,,,,,https://www.stylesbydeborah.com/contact,Contact,1,MA,01002,beauty_salon
Image Hair Salon,"533 Park Ave, Worcester, MA 01603",Beauty salon,Worcester,http://imagehairsalonparkave.com/,,,,,http://imagehairsalonparkave.com/contact," CONTACT

",1,MA,01603,beauty_salon
Salon Sogno,"307 Grafton St, Shrewsbury, MA 01545",Beauty salon,Shrewsbury,http://salonsogno.com/,,,,,http://salonsogno.com/directions-hours/3746319,Contact us,1,MA,01545,beauty_salon
The Room  A Beauty Lounge,"53 Boston Post Rd E, Marlborough, MA 01752",Beauty salon,Marlborough,http://www.theroombeautylounge.com/,,,,,https://www.theroombeautylounge.com/contact-us,CONTACT US,1,MA,01752,beauty_salon
Salon Bella Mia,"72 E Main St suite a, Westborough, MA 01581",Beauty salon,Westborough,http://www.hairsalonbellamia.com/,,,,,http://www.hairsalonbellamia.com/mailto:contact@hairsalonbellamia.com,Click Here To Email Us!,1,MA,01581,beauty_salon
J'adore Salon,"423 Chandler St, Worcester, MA 01602",Facial spa,Worcester,http://www.jadore-salon.com/,,,,,http://www.jadore-salon.com/contact-us/,Contact Us,1,MA,01602,beauty_salon
Destination Beauty MedSpa,"1319 Worcester Rd, Framingham, MA 01701",Day spa,Framingham,http://www.dbmedspa.com/,,,,,https://www.dbmedspa.com/contact,Contact,1,MA,01701,beauty_salon
StarLines Hair Salon,"472 E Ashland St, Brockton, MA 02302",Hair salon,Brockton,http://www.starlineshairsalon.com/,,,,,https://www.starlineshairsalon.com/contact,CONTACT,1,MA,02302,beauty_salon
Salon Theory,"158 Copeland Dr, Mansfield, MA 02048",Beauty salon,Mansfield,http://www.theoryofmansfield.com/,,,,,http://www.theoryofmansfield.com/contact,CONTACT,1,MA,02048,beauty_salon
Viva Nails & Spa,"63 E Main St #3, Norton, MA 02766",Nail salon,Norton,http://vivanailsandspanorton.com/,,,,,http://vivanailsandspanorton.com/contact.php, Contact Us,1,MA,02766,beauty_salon
Serenity Hair Designs,"556 Kelley Blvd, North Attleborough, MA 02760",Hair salon,North Attleborough,http://serenityhd.com/,,,,,https://maps.google.com/maps?q=556 Kelley Blvd. North Attleboro United States,Find us on the map,1,MA,02760,beauty_salon
Total Image Hair and Nails,"112 Park St, North Attleborough, MA 02760",Hair salon,North Attleborough,http://totalimagehairandnails.mysalononline.com/,,,,,http://totalimagehairandnails.mysalononline.com/Contact,Contact,1,MA,02760,beauty_salon
Gallery Salons,"44 Central St, Foxborough, MA 02035",Beauty salon,Foxborough,http://gallerysalons.com/,,,,,http://gallerysalons.com/contact-us/,Contact,1,MA,02035,beauty_salon
Outlooks Hair Salon,"130 Mansfield Ave, Norton, MA 02766",Hair salon,Norton,http://outlookshairsalon.com/,,,,,http://outlookshairsalon.com/contact-us.html,CONTACT US,1,MA,02766,beauty_salon
King Barber,"201 Washington St, Attleboro, MA 02703",Barber shop,Attleboro,http://kingbarber.us/,,"Upscale, local barbershop with a homey atmosphere offering haircuts, beard trims & hot towel shaves.",,,https://www.kingbarber.us/contacts,contacts,1,MA,02703,beauty_salon
Detox Shop and Spa Inc,"319A Southbridge St Suite 202, Auburn, MA 01501",Spa,Auburn,http://www.detoxshopandspa.com/,,,,,https://www.detoxshopandspa.com/contact,CONTACT,1,MA,01501,beauty_salon
Christy Lavallee  Makeup Artist,"58 Main St, Sturbridge, MA 01566",Beauty salon,Sturbridge,http://www.makeup-artistry.com/,,,,,https://www.makeup-artistry.com/contact/,Contact,1,MA,01566,beauty_salon
Salon Vicaro,"222 Central St, Milford, MA 01757",Hair salon,Milford,http://salonvicaro.com/,,,,,http://salonvicaro.com/contact/,Contact,1,MA,01757,beauty_salon
Snip Plus Salon,"159 Mt Auburn St, Watertown, MA 02472",Beauty salon,Watertown,http://www.snipplussalon.com/,,,,,http://www.snipplussalon.com/contact," Contact

",1,MA,02472,beauty_salon
European Wax Center,"84 Boston Turnpike, Shrewsbury, MA 01545",Waxing hair removal service,Shrewsbury,https://www.waxcenter.com/,,,,,https://www.waxcenter.com/pages/contact,"
          Contact Us",1,MA,01545,beauty_salon
Rae of Sun Tanning Salon,"424 N Franklin St, Holbrook, MA 02343",Tanning salon,Holbrook,http://raeofsuntanning.com/,,,,,http://raeofsuntanning.com/a/locations/contact/21605?return_to=%2F,"

                Email
",1,MA,02343,beauty_salon
Eyelash Extensions And More,"79 Pleasant Ave, East Bridgewater, MA 02333",Beauty salon,East Bridgewater,https://pixielashextensions.wixsite.com/,,,,,https://www.facebook.com/PixieLashExtensions/,Contact,1,MA,02333,beauty_salon
Lux Nails,"10010-J, Shops Way, Northborough, MA 01532",Nail salon,Northborough,http://luxnailsnorthborough.com/,,,,,http://luxnailsnorthborough.com/contact.php,Contact Us,1,MA,01532,beauty_salon
The Robert Jason Salon Beauty Bar,"96 Main St, Andover, MA 01810",Nail salon,Andover,http://robertjasonsalon.com/,,,,,http://robertjasonsalon.com/#contact,Appointments & Contact,1,MA,01810,beauty_salon
Stacey Frasca Professional Make up Artist,"568 Washington St, Wellesley, MA 02482",Beauty salon,Wellesley,http://www.staceyfrasca.com/,,,,,http://www.staceyfrasca.com/contact_stacey_makeup_artist.html,contact,1,MA,02482,beauty_salon
Creative Expressions,"291 Broad Meadow Rd, Needham, MA 02492",Beauty salon,Needham,http://www.creativeexpressionsneedham.com/,,,,,http://www.creativeexpressionsneedham.com/contact,"
                Contact
              ",1,MA,02492,beauty_salon
A Healing Vibration Wellness Center & Emporium,"69 Broadway St, Westford, MA 01886",Hair salon,Westford,http://www.ahealingvibration.com/,,,,,http://www.ahealingvibration.com/contact.html,Contact,1,MA,01886,beauty_salon
Andover Hair Removal Center Inc,"13 Main St #3, Andover, MA 01810",Hair removal service,Andover,http://www.andoverhairremoval.com/,,,,,http://www.andoverhairremoval.com/contact-us.html,Contact Us,1,MA,01810,beauty_salon
La Bella Hair Salon,"1263 Washington St, Newton, MA 02465",Hair salon,Newton,http://labellahairsalon.org/,,,,,https://www.labellahairsalon.org/contact-la-bella-hair-salon,CONTACT,1,MA,02465,beauty_salon
Nashoba Valley Fitness Center,"83 Central Ave, Ayer, MA 01432",Fitness center,Ayer,https://nashobavalleyfitnesscenterinc.vpweb.com/,,,,,https://nashobavalleyfitnesscenterinc.vpweb.com/contact-us,Contact Us,1,MA,01432,beauty_salon
Salon Beni,"555 Providence Hwy, East Walpole, MA 02032",Beauty salon,East Walpole,https://www.salonbeni.net/,,Contemporary hair salon at a shopping center with an upscale feel & styling products for sale.,,,https://www.salonbeni.net/contact,"
            Contact
          ",1,MA,02032,beauty_salon
San Laurent Salon,"160 Worcester-Providence Turnpike #8, Sutton, MA 01590",Beauty salon,Sutton,http://www.sanlaurent.com/,,,,,https://sanlaurent.com/temp/contact/,Contact,1,MA,01590,beauty_salon
Le Belle Day Spa,"24 S Main St, Natick, MA 01760",Massage therapist,Natick,http://lebellenatick.com/,,,,,http://lebellenatick.com/contact/4505902,CONTACT,1,MA,01760,beauty_salon
True Balance Day Spa,"15 Cambridge St, Burlington, MA 01803",Massage therapist,Burlington,http://www.truebalancedayspa.com/,,,,,http://www.truebalancedayspa.com/contact.html,Contact,1,MA,01803,beauty_salon
Kenzo Salon,"5 Central St, Stoneham, MA 02180",Beauty salon,Stoneham,http://www.kenzosalon.com/,,,,,http://www.kenzosalon.com/contact/,Contact,1,MA,02180,beauty_salon
Capelli Avanti,"104 Grove St, Worcester, MA 01605",Beauty salon,Worcester,http://capelliavantisalons.com/,,,,,http://capelliavantisalons.com/contact.html,Book Now,1,MA,01605,beauty_salon
Koukla Salon,"62 Salem St, Boston, MA 02113",Beauty salon,Boston,http://www.kouklasalon.com/,,,,,https://www.kouklasalon.com/contact,Get in Touch,1,MA,02113,beauty_salon
Beautifully Balanced Skin Boutique,"780 Tiogue Ave, Coventry, RI 02816",Beauty salon,Coventry,http://www.bbskinboutique.weebly.com/,,,,,http://www.bbskinboutique.weebly.com/contact.html,"
				Contact
			",1,RI,02816,beauty_salon
Regal Nails Salon & Spa,"250 Hartford Ave, Bellingham, MA 02019",Nail salon,Bellingham,http://www.regalnails.com/,,,,,https://regalnails.com/contact-us/,Contact us,1,MA,02019,beauty_salon
Maria Francesco Salon & Spa,"130 Sylvan St #3, Danvers, MA 01923",Beauty salon,Danvers,http://mariafrancescosalonspa.com/,,,,,http://mariafrancescosalonspa.com/#contact,Contact Us,1,MA,01923,beauty_salon
Cape Cod Rescue Room,"23 W Bay Rd, Osterville, MA 02655",Massage spa,Osterville,http://www.capecodrescueroom.com/,,,,,https://www.capecodrescueroom.com/contact-us/,Contact Us,1,MA,02655,beauty_salon
Ancient Eyebrows,"793 Iyannough Rd W103, Hyannis, MA 02601",Hair removal service,Hyannis,http://www.hyanniseyebrowthreading.com/,,,,,http://www.hyanniseyebrowthreading.com/contact,Contact Us,1,MA,02601,beauty_salon
Hair by Jess,"344 Main St 2nd Floor, Hyannis, MA 02601",Hair salon,Hyannis,https://hairbyjess.org/,,,,,https://hairbyjess.org/tel:5083642990,508-364-2990,1,MA,02601,beauty_salon
Cape Cod Skin Care Co Inc,"4650 Falmouth Rd, Cotuit, MA 02635",Medical spa,Cotuit,http://capecodskincare.com/,,,,,http://capecodskincare.com/mailto:contact@capecodskincare.com,contact@capecodskincare.com,1,MA,02635,beauty_salon
East Coast Salon,"923 MA-6A UNIT R, Yarmouth Port, MA 02675",Beauty salon,Yarmouth Port,https://www.eastcoastsalon.com/,,,,,https://www.eastcoastsalon.com/contact-us,Contact Us,1,MA,02675,beauty_salon
HairLines Inc,"11 Enterprise Rd #8, Hyannis, MA 02601",Beauty supply store,Hyannis,https://www.hairlinesonline.com/,,,,,https://www.hairlinesonline.com/contact-us,contact us,1,MA,02601,beauty_salon
Mr Robert's Hairstyling,"1051 MA-28, South Yarmouth, MA 02664",Beauty salon,South Yarmouth,http://www.mrrobertshairstyling.com/,,,,,http://www.mrrobertshairstyling.com/contact," Contact

",1,MA,02664,beauty_salon
Hair Today Plus,"190 Main St, Buzzards Bay, MA 02532",Beauty salon,Buzzards Bay,http://hairtodayplus.co/,,,,,http://hairtodayplus.co/contact/,Contact,1,MA,02532,beauty_salon
Artistry by Jennifer & Company Salon and Spa,"44 MA-28 A, Bourne, MA 02532",Beauty salon,Bourne,http://www.artistrybyjenniferandcompany.com/,,,,,https://www.artistrybyjenniferandcompany.com/contact,CONTACT,1,MA,02532,beauty_salon
Emily Michael Too Skin CarePureVitelle Clinic,"35 MA-134 STE 12, South Dennis, MA 02660",Skin care clinic,South Dennis,http://www.emilymichaeltoo.com/,,,,,http://www.emilymichaeltoo.com/contact.html,"
								Contact
							",1,MA,02660,beauty_salon
Karma & Company Salon,"16 MA-28, West Harwich, MA 02671",Hair salon,West Harwich,http://karmaandcompanysalon.com/,,,,,http://www.karmaandcompanysalon.com/contact-us/,Contact Us,1,MA,02671,beauty_salon
Sunsational Tanning Boutique,"11 Enterprise Rd #13, Hyannis, MA 02601",Tanning salon,Hyannis,http://sunsational-tanning.com/,,,,,http://sunsational-tanning.com/tel:5087710388,508-771-0388,1,MA,02601,beauty_salon
Radiance Hair Salon & Spa,"2277 State Rd, Plymouth, MA 02360",Beauty salon,Plymouth,https://radiancehairsalon.wordpress.com/,,,,,https://radiancehairsalon.wordpress.com/contact/,Contact,1,MA,02360,beauty_salon
Beauty Solo,"675 Lowell St, Lexington, MA 02420",Beauty salon,Lexington,http://beauty-solo.com/,,,,,http://beauty-solo.com/#contact, Contact,1,MA,02420,beauty_salon
Hair Illusions,"321 Boston Rd, North Billerica, MA 01862",Beauty salon,North Billerica,http://www.hairillusionsalon.com/,,,,,https://hairillusionsalon.com/contact-us/,Contact us,1,MA,01862,beauty_salon
May May Beauty,"120 Cambridge St, Burlington, MA 01803",Beauty salon,Burlington,http://www.maymaybeautyboston.com/,,,,,http://www.maymaybeautyboston.com/25en.html,Contact,1,MA,01803,beauty_salon
Cassandra Vazquez,"173 Cambridge St, Burlington, MA 01803",Beauty salon,Burlington,http://www.cassandravazquez.com/,,,,,https://www.cassandravazquez.com/contactwaxingmakeup,Get In Touch,1,MA,01803,beauty_salon
First Lash,"428 Marrett Rd, Lexington, MA 02421",Beauty salon,Lexington,https://firstlashsalon.com/,,,,,https://firstlashsalon.com/contact,Contact,1,MA,02421,beauty_salon
iNail Pro,"193 Cambridge St, Burlington, MA 01803",Nail salon,Burlington,http://www.inailpro.net/,,,,,http://www.inailpro.net/contact,Contact,1,MA,01803,beauty_salon
Serena's Nails&Spa,"64 Middlesex Turnpike, Burlington, MA 01803",Nail salon,Burlington,http://serenanailsspa.com/,,,,,https://serenanailsspa.com/contact-us/,Contact Us,1,MA,01803,beauty_salon
Laserdocs,"203 Middlesex Turnpike #4, Burlington, MA 01803",Laser hair removal service,Burlington,http://laserdocs.com/,,,,,//www.laserdocs.com/contact-us,Contact Us,1,MA,01803,beauty_salon
Beleza Salon & Spa,"420 Boston Rd, Billerica, MA 01821",Beauty salon,Billerica,https://beleza-studio.com/,,,,,https://beleza-studio.com/contact-us/,Contact Us,1,MA,01821,beauty_salon
All About You,"1777 Main St #2, Tewksbury, MA 01876",Beauty salon,Tewksbury,http://www.allaboutyouhairdesigns.com/,,,,,https://www.facebook.com/AllAboutYouSalonTewksbury,,1,MA,01876,beauty_salon
Fresh Looks,"1830 Main St, Tewksbury, MA 01876",Beauty salon,Tewksbury,http://freshlookssalon.com/,,,,,//www.hugedomains.com/contact.cfm,Contact Us,1,MA,01876,beauty_salon
Narcisso a brow & beauty studio,"173 Cambridge St Unit 103, Burlington, MA 01803",Waxing hair removal service,Burlington,https://www.cassandravazquez.com/,,,,,https://www.cassandravazquez.com/contactwaxingmakeup,Get In Touch,1,MA,01803,beauty_salon
Bedford Barber Shop,"200 Great Rd # 5B, Bedford, MA 01730",Barber shop,Bedford,http://www.bedfordbarbershop.com/,,,,,http://www.bedfordbarbershop.com/contact-us.html,"
				Contact Us
			",1,MA,01730,beauty_salon
PRONTO,"675 Lowell St, Lexington, MA 02420",Hair salon,Lexington,http://www.prontohair.com/,,,,,http://www.prontohair.com/contact,Contact,1,MA,02420,beauty_salon
Smita's Boutique,"120 Cambridge St, Burlington, MA 01803",Beauty salon,Burlington,http://www.smitas.com/,,"Cozy boutique stocking vibrant Indian apparel, including bridal wear, jewelry & accessories.",,,http://www.smitas.com/#contact,Contact,1,MA,01803,beauty_salon
N'Vie Skin Care,"330 Boston Rd STE 7, North Billerica, MA 01862",Beauty salon,North Billerica,http://www.nvieskincare.com/,,,,,http://www.nvieskincare.com/testimonials.html,,1,MA,01862,beauty_salon
Cut To The Chase Salon,"37 Central Square, Chelmsford, MA 01824",Beauty salon,Chelmsford,http://www.cuttothechasesalon.com/,,,,,https://www.cuttothechasesalon.com/contact-us,Contact Us,1,MA,01824,beauty_salon
Sport Clips Haircuts of Lexington,"411 Waltham St, Lexington, MA 02421",Hair salon,Lexington,https://haircutmenlexingtonma.com/,,,,,https://www.sportclips.com/about-us/contact-us,Contact Us,1,MA,02421,beauty_salon
RELAX STATION MASSAGE,"165 Middlesex Turnpike STE 108, Bedford, MA 01730",Massage spa,Bedford,https://business.google.com/,,,,,https://contacts.google.com/?hl=en&tab=uC,Contacts,1,MA,01730,beauty_salon
Flawless MedSpa,"11 Cambridge St, Burlington, MA 01803",Medical spa,Burlington,http://www.flawlessmed.net/,,,,,https://www.flawlessmed.net/contact-medical-spa-burlington/,Contact Us,1,MA,01803,beauty_salon
Summer Falls Day Spa,"799 S Main St #8, Bellingham, MA 02019",Day spa,Bellingham,http://summerfallsdayspa.com/,,,,,http://summerfallsdayspa.com/#contact,"
                                            Contact
                                        ",1,MA,02019,beauty_salon
Lotus Lash Aesthetics,"13 Main St #10A, Franklin, MA 02038",Beauty salon,Franklin,http://www.lotuslashaesthetics.com/,,,,,https://www.lotuslashaesthetics.com,CONTACT,1,MA,02038,beauty_salon
Irmgard's Salon & Spa,"3383 Mendon Rd, Cumberland, RI 02864",Beauty salon,Cumberland,http://irmgards.com/,,,,,http://irmgards.com/contact.php,,1,RI,02864,beauty_salon
Salon Bella Vita,"206 E Main St #2, Milford, MA 01757",Hair salon,Milford,http://www.salonbellavitamilford.com/,,"Beauty salon for hairstyling, coloring & extensions as well as waxing, makeup & bridal services.",,,http://www.salonbellavitamilford.com/contact,CONTACT US,1,MA,01757,beauty_salon
Shimmer Hair Boutique,"706 St Paul St, North Smithfield, RI 02896",Beauty salon,North Smithfield,http://www.shimmerhairboutique.com/,,,,,https://shimmerhairboutique.com/contact/,Contact,1,RI,02896,beauty_salon
Mac Donald Judith A,"Common Building, 258 Main St Suite #307, Milford, MA 01757",Laser hair removal service,Milford,http://judithmacdonald.com/,,,,,http://judithmacdonald.com/contact," Contact

",1,MA,01757,beauty_salon
Salon Central,"158 West St, Milford, MA 01757",Hair salon,Milford,http://saloncentral.biz/,,,,,http://saloncentral.biz/contact.html,CONTACT US,1,MA,01757,beauty_salon
Uplift Barbershop,"15 N Main St Unit C4, Bellingham, MA 02019",Barber shop,Bellingham,http://upliftbarbershop.net/,,,,,http://upliftbarbershop.net/contact--location.html,"
      		    Contact & Location
      		  ",1,MA,02019,beauty_salon
Franklin Electrolysis,"29 James St, Franklin, MA 02038",Hair removal service,Franklin,http://www.franklinelectrolysis.com/,,,,,http://www.franklinelectrolysis.com/contact," Contact

",1,MA,02038,beauty_salon
Ultimate Tanning,"194 West St STE 6, Milford, MA 01757",Tanning salon,Milford,https://ultimate-tanning.com/,,,,,https://ultimate-tanning.com/#contact-us,Contact Us,1,MA,01757,beauty_salon
El Shaddai's Hair Braiding,"80 Main St, Milford, MA 01757",Hair salon,Milford,http://www.elshaddaissalon.com/,,,,,http://www.elshaddaissalon.com/#contact,Contact,1,MA,01757,beauty_salon
Claudia Frustaci Ciao Bella Day Spa,"17 Nancy Rd, Milford, MA 01757",Spa,Milford,http://www.claudiafrustaci.com/,,,,,http://www.claudiafrustaci.com/pages/contact,Contact,1,MA,01757,beauty_salon
The waxing lounge & skincare,"208 Main St #106, Milford, MA 01757",Waxing hair removal service,Milford,http://thewaxingloungeskincare.com/,,,,,http://thewaxingloungeskincare.com/contacts,Contacts,1,MA,01757,beauty_salon
Sacred Hands Massage & Wellness Center,"719 Front St # 107, Woonsocket, RI 02895",Massage therapist,Woonsocket,http://www.sacredhandswellness.com/,,,,,http://www.sacredhandswellness.com/contact/,Contact,1,RI,02895,beauty_salon
Newton Massage Associates,"38 Saddleback Hill Rd, Bellingham, MA 02019",Massage therapist,Bellingham,http://www.newtonlmt.biz/,,,,,http://www.newtonlmt.biz/#four,Contact,1,MA,02019,beauty_salon
Ciaobella Day Spa,"17 Nancy Rd, Milford, MA 01757",Day spa,Milford,http://www.theciaobellabeautybar.com/,,,,,http://theciaobellabeautybar.com/contact-us/,Contact,1,MA,01757,beauty_salon
philosophe,"65 Cedar St, Dedham, MA 02026",Beauty salon,Dedham,http://www.philosophehair.com/,,,,,http://www.philosophehair.com/contact-3,"
            Contact
          ",1,MA,02026,beauty_salon
Ess Aar Salon,"131 Pearl St, Braintree, MA 02184",Beauty salon,Braintree,http://www.essaarsalon.com/,,,,,http://www.essaarsalon.com/contact-us.html,Contact Us,1,MA,02184,beauty_salon
Salon Serenity,"590 Monponsett St # E, Halifax, MA 02338",Hair salon,Halifax,http://salonserenityhalifax.com/,,,,,http://salonserenityhalifax.com/tel:7812935379,781-293-5379,1,MA,02338,beauty_salon
Art and Craft Salon,"50 Central St, Norwood, MA 02062",Hair salon,Norwood,http://artandcraftsalon.com/,,,,,https://www.salonbuilder.com/website/187640/contact.asp,Contact,1,MA,02062,beauty_salon
Rae Of Sun 2 Tanning Salon,"1470 New State Hwy, Raynham, MA 02767",Tanning salon,Raynham,https://www.raeofsuntanning.com/,,,,,https://www.raeofsuntanning.com/a/locations/contact/21605?return_to=%2F,"

                Email
",1,MA,02767,beauty_salon
Blackroom Salon,"61 Berkeley St, Boston, MA 02116",Hair salon,Boston,http://blackroomsalon.com/,,,,,http://blackroomsalon.com/#where-to-find,"

Where to Find Us
",1,MA,02116,beauty_salon
Eclipx Salon,"72-A Haverhill Rd, Amesbury, MA 01913",Beauty salon,Amesbury,http://www.eclipxhair.com/,,,,,http://www.eclipxhair.com/eclipx-salon-contact,"
            Contact
          ",1,MA,01913,beauty_salon
Cottage Day Spa,"328 Bedford St, Lakeville, MA 02347",Day spa,Lakeville,https://thecottagedayspa.net/,,,,,https://thecottagedayspa.net/contact-and-directions/,Contact and Directions,1,MA,02347,beauty_salon
J & S Hair Co Etc,"13 Washington St, Hudson, MA 01749",Beauty salon,Hudson,http://www.jandshair.com/,,,,,//www.jandshair.com/contact-us,Contact,1,MA,01749,beauty_salon
Isabella's Fine Hair Design,"492 High St, Clinton, MA 01510",Beauty salon,Clinton,http://www.isabellasfinehair.com/,,,,,http://www.isabellasfinehair.com/Contact_Isabellas_Hair_Salon.html,,1,MA,01510,beauty_salon
Shine Salon,"92 Union St, Marlborough, MA 01752",Beauty salon,Marlborough,http://shinesalon.com/,,,,,http://shinesalon.com/contact-us,"
            Contact us
          ",1,MA,01752,beauty_salon
Shear Pi'zazz Hair Salon,"126 S White Horse Pike, Berlin, NJ 08009",Hair salon,Berlin,http://www.shearpizazz.net/,,,,,https://m.facebook.com/profile.php?id=476448005737666&ref=content_filter,,1,NJ,08009,beauty_salon
Lashed & Beauty Bar,"269 W Main St, Northborough, MA 01532",Beauty salon,Northborough,http://www.lashedandbeautybar.com/,,,,,https://www.lashedandbeautybar.com/contact,Contact,1,MA,01532,beauty_salon
X Cited Nails & Spa,"222 E Main St Ste K, Marlborough, MA 01752",Nail salon,Marlborough,http://xcitednailsmarlborough.com/,,,,,http://xcitednailsmarlborough.com/contact,Contact us,1,MA,01752,beauty_salon
Beauty Center Deluxe,"245 E Main St, Marlborough, MA 01752",Beauty salon,Marlborough,http://beautycenterdeluxe.com/,,,,,http://beautycenterdeluxe.com/contact-us-1,"
            CONTACTO
          ",1,MA,01752,beauty_salon
Paul Mammola Salon and Spa,"1787 Massachusetts Ave, Lexington, MA 02420",Beauty salon,Lexington,https://www.paulmammolasalonandspa.com/,,,,,https://www.paulmammolasalonandspa.com/contact,"
            Contact Us
          ",1,MA,02420,beauty_salon
Sport Clips Haircuts of Berlin  Hudson,"58 Highland Commons W E, Hudson, MA 01749",Hair salon,Hudson,https://www.haircutmenberlinma.com/,,,,,https://www.sportclips.com/about-us/contact-us,Contact Us,1,MA,01749,beauty_salon
DaVi Nails,"280 Washington St, Hudson, MA 01749",Nail salon,Hudson,http://davinails.com/,,,,,http://davinails.com/contact-us/,Contact Us,1,MA,01749,beauty_salon
Moodz Day Spa & Salon,"556 Massachusetts Ave, Acton, MA 01720",Beauty salon,Acton,http://www.moodz.com/,,,,,http://www.moodz.com/Contact.html,"





Contact


",1,MA,01720,beauty_salon
Lakeside Hair Boutique,"25 Lakeside Ave, Marlborough, MA 01752",Hair salon,Marlborough,http://www.lakesidehair.com/,,,,,http://www.lakesidehair.com/page11.html, Find Us ,1,MA,01752,beauty_salon
SACHE Hair Design,"18 Church St, Hudson, MA 01749",Hair salon,Hudson,https://sachehairdesign.com/,,,,,https://policies.google.com/privacy,Privacy Policy,1,MA,01749,beauty_salon
The Beauty Studio,"393 East St, Ludlow, MA 01056",Beauty salon,Ludlow,http://www.thebeautystudioma.com/,,,,,https://www.thebeautystudioma.com/contact,C O N T A C T,1,MA,01056,beauty_salon
Hogan's Hair Design,"152 Main St, Marlborough, MA 01752",Hair salon,Marlborough,http://hoganshairdesign.com/,,,,,http://hoganshairdesign.com/contact.html,contact us,1,MA,01752,beauty_salon
Be Waxed,"50 Leominster Rd, Sterling, MA 01564",Waxing hair removal service,Sterling,http://bewaxed.net/,,,,,http://bewaxed.net/waxing2.html,Contact,1,MA,01564,beauty_salon
Luxe Electrology and Aesthetic Studio,"112 Main St Suite 101, Northborough, MA 01532",Hair removal service,Northborough,http://www.luxeelectrology.com/,,,,,http://luxeelectrology.com/#contact,Contact,1,MA,01532,beauty_salon
Bellezza Laser Spa,"10 SW Cutoff, Northborough, MA 01532",Laser hair removal service,Northborough,http://www.bellezzalaserspa.com/,,,,,http://bellezzalaserspa.com/contact-us/,Contact Us,1,MA,01532,beauty_salon
Creative Reflections,"60 Edinboro St, Marlborough, MA 01752",Hair salon,Marlborough,http://www.creativereflections.net/,,,,,http://www.creativereflections.net/Contact,Contact,1,MA,01752,beauty_salon
Studio Giorgi,"126 High St, Clinton, MA 01510",Hair salon,Clinton,http://www.studiogiorgima.com/,,,,,http://www.studiogiorgima.com/contact.html,"
				Contact
			
			",1,MA,01510,beauty_salon
Advanced SkinCare Northborough,"300 W Main St Building B Suite, Northborough, MA 01532",Skin care clinic,Northborough,http://advancedskincare.solutions/,,,,,http://advancedskincare.solutions/contact-us/,Contact us,1,MA,01532,beauty_salon
The Art of Hair,"187 Main St, Marlborough, MA 01752",Hair salon,Marlborough,http://www.theartofhairusa.com/,,,,,https://www.theartofhairusa.com/contact,CONTACT,1,MA,01752,beauty_salon
Sport Clips Haircuts of Marlborough  Apex Center,"160B Apex Dr, Marlborough, MA 01752",Hair salon,Marlborough,https://www.haircutmenapexcentermarlboroughma.com/,,,,,https://www.sportclips.com/about-us/contact-us,Contact Us,1,MA,01752,beauty_salon
Headlines LLC,"11009 Manklin Meadows Ln, Ocean Pines, MD 21811",Beauty salon,Ocean Pines,http://www.headlinessalonandspa.com/,,,,,http://www.headlinessalonandspa.com/contact," Contact

",1,MD,21811,beauty_salon
Skin By Lizabeth,"290 W Main St, Northborough, MA 01532",Laser hair removal service,Northborough,http://www.skinbylizabeth.com/,,,,,http://www.skinbylizabeth.com/tel:5083519009,(508) 351-9009,1,MA,01532,beauty_salon
New England Hair Academy,"110 Florence St #203, Malden, MA 02148",Beauty salon,Malden,http://www.newenglandhairacademy.com/,,,,,http://www.newenglandhairacademy.com/contact.php,Contact us,1,MA,02148,beauty_salon
Canvas Salon and Spa,"30 Lyman St Suite 108, Westborough, MA 01581",Hair salon,Westborough,http://canvassalonspa.com/,,,,,https://www.salonbuilder.com/website/192978/contact.asp,About,1,MA,01581,beauty_salon
Shear Elegance Salon and Spa,"72 Hosmer St, Marlborough, MA 01752",Day spa,Marlborough,http://www.sheardimension1223.wix.com/,,,,,https://sheardimension1223.wixsite.com/elegance/contact-us,CONTACT US,1,MA,01752,beauty_salon
All About You Salon & Day Spa,"119 Green St, Foxborough, MA 02035",Day spa,Foxborough,http://www.foxborospa.com/,,,,,http://www.foxborospa.com/index.php/map-contact,Map/Contact,1,MA,02035,beauty_salon
Cosmix School of Beauty Sciences,"181 Cedar Hill St, Marlborough, MA 01752",Beauty school,Marlborough,http://www.cosmixschoolofbeautysciences.com/,,,,,http://www.cosmixschoolofbeautysciences.com/contact.html,"
								Contact
							",1,MA,01752,beauty_salon
Spa Blossom,"1787 Massachusetts Ave, Lexington, MA 02420",Day spa,Lexington,https://spablossom.com/,,,,,https://spablossom.com/contact,"
            Contact Us
          ",1,MA,02420,beauty_salon
CheraBella Salon,"111 Foster St #5, Peabody, MA 01960",Beauty salon,Peabody,https://www.cherabellasalon.com/,,,,,https://www.cherabellasalon.com/contact," CONTACT

",1,MA,01960,beauty_salon
Odette's Hair Salon,"165 Lynn St, Peabody, MA 01960",Beauty salon,Peabody,http://www.odettessalon.com/,,,,,http://www.odettessalon.com/contact.html,contact us,1,MA,01960,beauty_salon
Golden Shears II,"1 Mt Pleasant Dr, Peabody, MA 01960",Beauty salon,Peabody,http://goldenshears114.com/,,,,,http://goldenshears114.com/contact-us/3261079,CONTACT US,1,MA,01960,beauty_salon
Details Hair Design Inc,"215 Newbury St #205, Peabody, MA 01960",Beauty salon,Peabody,http://www.detailshairdesigninc.com/,,,,,http://www.detailshairdesigninc.com/index.php?main_page=contact_us,Kontakt oss,1,MA,01960,beauty_salon
Casual Cuts,"598 Lowell St, Peabody, MA 01960",Beauty salon,Peabody,https://www.casualcutssalons.com/,,,,,https://www.casualcutssalons.com/contact-us/,Contact Us,1,MA,01960,beauty_salon
Beautique Nails & Spa,"79 Lynnfield St, Peabody, MA 01960",Nail salon,Peabody,http://beautique-of-peabody.com/,,,,,https://www.beautique-nails-spa.com/contact-1,CONTACT,1,MA,01960,beauty_salon
TD Beautique,"176 Bay Rd, South Hamilton, MA 01982",Day spa,South Hamilton,http://tdbeautique.com/,,,,,https://www.salonbuilder.com/website/175734/contact.asp,Contact Info,1,MA,01982,beauty_salon
Rouge Cosmetics,"322 Derby St, Salem, MA 01970",Beauty salon,Salem,http://www.rougesalem.com/,,,,,https://www.rougesalem.com/contact-us,Contact Us,1,MA,01970,beauty_salon
Ward's Hair Co,"44 Railroad Ave, Hamilton, MA 01982",Hair salon,Hamilton,http://wardshairco.mysalononline.com/,,,,,http://wardshairco.mysalononline.com/Contact,Contact,1,MA,01982,beauty_salon
Perfect Airbrush,"100 Cummings Center, Beverly, MA 01915",Tanning salon,Beverly,http://perfectairbrush.com/,,,,,http://perfectairbrush.com/tel:(855) 859-4668,(855) 859-4668,1,MA,01915,beauty_salon
Absolute Advantage Electrology & Laser Clinic,"6 Essex Center Dr, Peabody, MA 01960",Laser hair removal service,Peabody,http://www.absoluteadvantagetoday.net/,,,,,http://www.absoluteadvantagetoday.net/locationcoctact," Location/ Contact

",1,MA,01960,beauty_salon
Textura Hair Design,"69 Exchange St, Lynn, MA 01901",Beauty salon,Lynn,http://texturahairdesign.com/,,,,,http://texturahairdesign.com/contact.php,Contact,1,MA,01901,beauty_salon
E Salon Studio Inc,"165 Pleasant St #2308, Marblehead, MA 01945",Hair salon,Marblehead,https://www.esalonstudiomarblehead.com/,,,,,https://www.esalonstudiomarblehead.com/contact," Contact

",1,MA,01945,beauty_salon
The Barber's Edge,"350 Rantoul St, Beverly, MA 01915",Barber shop,Beverly,http://www.thebarbersedge.com/,,"Barber shop offering haircuts & shaves for men & kids, plus a lounge area with TVs, Wi-Fi & toys.",,,http://www.thebarbersedge.com/about-contact,"
            About + Contact
          ",1,MA,01915,beauty_salon
Therapeutic Massage of Bolton,"563 Main St, Bolton, MA 01740",Massage therapist,Bolton,http://therapeuticmassageofbolton.com/,,,,,http://therapeuticmassageofbolton.com/#contact,Contact,1,MA,01740,beauty_salon
Skin Care Center Dermalogica,"2068 Pacific Coast Hwy Ste C, Lomita, CA 90717",Skin care clinic,Lomita,https://www.dermalogica.com/,,,,,"https://www.dermalogica.com/contact-us/contact-us,default,pg.html",contact us,1,CA,90717,beauty_salon
The Sophia Medspa,"141 Boston Post Rd, Sudbury, MA 01776",Medical spa,Sudbury,https://www.thesophiamedspa.com/,,,,,https://www.thesophiamedspa.com/contact-us/,Contact Us,1,MA,01776,beauty_salon
Dermalogica Learning Loft New York NY,"499 7th Ave 6th floor, New York, NY 10018",Skin care clinic,New York,http://education.dermalogica.com/,,,,,http://education.dermalogica.com/contact,Contact us,1,NY,10018,beauty_salon
Astra Salon,"516 E 2nd St, Boston, MA 02127",Beauty salon,Boston,http://www.astrahairsalon.com/,,,,,https://www.astrahairsalon.com/contact,CONTACT,1,MA,02127,beauty_salon
JSD Studio,"36 Newbury St, Boston, MA 02116",Beauty salon,Boston,http://www.jsdboston.com/,,,,,http://www.jsdboston.com/contact,"
                Contact
              ",1,MA,02116,beauty_salon
Liz's Hair Care,"1605 Tremont St, Crossing, MA 02120",Beauty salon,Crossing,http://www.lizshaircare.com/,,,,,https://www.lizshaircare.com/?page_id=12,Contact,1,MA,02120,beauty_salon
DH Estetica,"683 Tremont St, Boston, MA 02118",Beauty salon,Boston,http://www.dhestetica.com/,,,,,https://www.dhestetica.com/contact/,Contact,1,MA,02118,beauty_salon
Kelly's Beauty,"101 Arch St Suite 874, Boston, MA 02110",Beauty salon,Boston,https://www.kellybeautyboston.com/,,,,,https://www.kellybeautyboston.com/contact-us,Contact Us,1,MA,02110,beauty_salon
Isabel's Unisex Salon,"427 Bowdoin St, Boston, MA 02122",Beauty salon,Boston,http://www.isabelunisexsalon.com/,,,,,http://www.isabelunisexsalon.com/#contact,Contact,1,MA,02122,beauty_salon
Carlos Leon Style Studio,"20 Meridian St floor 2, Boston, MA 02128",Beauty salon,Boston,http://www.carlosleonstyle.com/,,,,,https://www.carlosleonstyle.com,CONTACT,1,MA,02128,beauty_salon
Brazilian Ipanema Hair Salon,"781 Cambridge St, Cambridge, MA 02141",Beauty salon,Cambridge,http://ipanemahairsalon.com/,,,,,http://ipanemahairsalon.com/contact/4972494,CONTACT,1,MA,02141,beauty_salon
The Boston Threading,"333 Washington St, Boston, MA 02108",Beauty salon,Boston,http://www.thebostonthreading.com/,,,,,http://www.thebostonthreading.com/contact.html,"
				Contact
			",1,MA,02108,beauty_salon
Infinity Threading & Wax Spa,"75 Summer St, Boston, MA 02110",Waxing hair removal service,Boston,http://infinitythreadingspa.wixsite.com/,,,,,https://infinitythreadingspa.wixsite.com/skincare/contact,CONTACT,1,MA,02110,beauty_salon
Studio 9,"121 Newbury St floor 2, Boston, MA 02116",Beauty salon,Boston,http://www.studio9boston.com/,,,,,http://www.studio9boston.com/contact.html,Contact,1,MA,02116,beauty_salon
Ecco Beauty Hair Salon & Spa,"2 Boylston St #1, Boston, MA 02116",Hair salon,Boston,http://www.2eccohair.com/,,,,,http://www.2eccohair.com/contact/,contact us,1,MA,02116,beauty_salon
RelaxSation Massage Therapy & Nails,"25 Kingston St, Boston, MA 02111",Massage therapist,Boston,https://relaxsation.com/,,,,,https://relaxsation.com/contact-us/,Contact,1,MA,02111,beauty_salon
Crystal's Brazilian Wax Center & Aesthetics,"215 Newbury St f2, Boston, MA 02116",Waxing hair removal service,Boston,http://brazilianwaxcenternewbury.com/,,,,,http://brazilianwaxcenternewbury.com/contact-2/,Contact,1,MA,02116,beauty_salon
The Extologist,"98 Beverly St, Boston, MA 02114",Beauty salon,Boston,http://extologist.com/,,,,,http://extologist.com/contact/,"98 Beverly St. Boston, MA 02114",1,MA,02114,beauty_salon
Dolores Maniscalco Skin Care,"236 Commercial Street #100, Boston, MA 02109",Hair removal service,Boston,http://www.hairremovalbydolores.com/,,,,,http://www.hairremovalbydolores.com/contact.html,CONTACT,1,MA,02109,beauty_salon
STUDIO 27 Hair Salon,"780 Tremont St, Boston, MA 02118",Hair salon,Boston,http://studio27hairsalon.com/,,,,,https://www.studio27hairsalon.com/contact/,Contact,1,MA,02118,beauty_salon
The Threading Place  BostonWinter Street,"45 Winter Pl, Boston, MA 02108",Beauty salon,Boston,http://thethreadingplace.com/,,,,,http://thethreadingplace.com/contact,Contact us,1,MA,02108,beauty_salon
Hair Adventure Hair Salon,"32 Boylston St, Boston, MA 02116",Hair salon,Boston,http://www.hairadventure.com/,,,,,http://www.hairadventure.com/contact.html,"
",1,MA,02116,beauty_salon
Japanese Hair Salon Defi,"132 Newbury St, Boston, MA 02116",Hair salon,Boston,http://salondefi.com/,,,,,http://salondefi.com/contact-1-1-1,"
            Contact
          ",1,MA,02116,beauty_salon
Salon 428,"428 Massachusetts Ave, Boston, MA 02118",Hair salon,Boston,http://kentboston.wixsite.com/,,,,,https://kentboston.wixsite.com/salon428/contact-428massave-boston,CONTACT,1,MA,02118,beauty_salon
Highstyle Laser Center Alma Meli Hill,"200 High St, Boston, MA 02110",Medical spa,Boston,https://www.highstylelaser.net/,,,,,https://www.highstylelaser.net/contactus,"
Contact
",1,MA,02110,beauty_salon
M Salon,"54 Queensberry St, Boston, MA 02215",Hair salon,Boston,http://www.msalonboston.com/,,,,,http://www.msalonboston.com/Contact,Contact,1,MA,02215,beauty_salon
Cosmetic And Laser Center,"330 Congress St, Boston, MA 02210",Medical spa,Boston,http://www.1bostonlaser.com/,,,,,http://www.1bostonlaser.com/cosmetic_and_laser_center_contact_us.html,"

			Contact Us
		
",1,MA,02210,beauty_salon
KBeauty,"Inside of Le Gala Salon, 78 Essex St, Boston, MA 02111",Beauty salon,Boston,http://kbeautyboston.com/,,,,,http://kbeautyboston.com/contact," Contact

",1,MA,02111,beauty_salon
Jupiter Beauty Academy,"95 Freeport St, Boston, MA 02122",Beauty salon,Boston,http://www.jupiterbeautyacademy.com/,,,,,http://www.jupiterbeautyacademy.com/contact-us/,Contact us,1,MA,02122,beauty_salon
Tanorama,"113 Atlantic Ave, Boston, MA 02110",Beauty salon,Boston,http://tanoramasalon.com/,,,,,http://tanoramasalon.com/contact," Contact

",1,MA,02110,beauty_salon
AR Nail Bar & Lounge,"485 Revolution Dr, Somerville, MA 02145",Nail salon,Somerville,https://arnailbarsomerville.com/,,,,,https://arnailbarsomerville.com/contact,Contact Us,1,MA,02145,beauty_salon
Priscilla Collins,"207 Newbury St #203, Boston, MA 02116",Hair salon,Boston,http://www.themodernpriscilla.com/,,,,,http://www.themodernpriscilla.com/contact.html,,1,MA,02116,beauty_salon
Sound Shapes,"230 Commercial Street #1a, Boston, MA 02109",Spa,Boston,http://www.sound-shapes.com/,,,,,https://www.sound-shapes.com/contact/,Contact Us,1,MA,02109,beauty_salon
Prettyology,"18 Newbury St, Boston, MA 02116",Beauty salon,Boston,http://prettyology.com/,,,,,http://prettyology.com/contact-us/request-appointment.php,Request Appointment,1,MA,02116,beauty_salon
Brightbar Boston Spray Tanning Boutique,"145 Hanover St 4th floor, Boston, MA 02108",Beauty salon,Boston,https://brightbarboston.com/,,,,,https://brightbarboston.com/contact-1,"
              Contact
            ",1,MA,02108,beauty_salon
Boston Medical Aesthetics,"21 Merchants Row #3a, Boston, MA 02109",Medical spa,Boston,http://www.bostonmedicalaesthetics.net/,,,,,https://www.bostonmedicalaesthetics.net,,1,MA,02109,beauty_salon
Salon Direct,"253 S Main St, Middleton, MA 01949",Beauty supply store,Middleton,http://www.salondirectonline.com/,,,,,https://salondirectonline.com/contact/,Contact,1,MA,01949,beauty_salon
Forever Young Laser & Skin Center,"225 Newbury St, Danvers, MA 01923",Medical spa,Danvers,http://www.frvryoung.com/,,,,,http://frvryoung.com/contact/,Contact Us,1,MA,01923,beauty_salon
New England Beauty Supply,"110 Newbury St, Danvers, MA 01923",Beauty supply store,Danvers,http://newenglandsalonsolutions.com/,,,,,http://newenglandsalonsolutions.com/pages/contact,"
              Contact 
            ",1,MA,01923,beauty_salon
The Hair Studio and Wig Salon,"5 Broadway, Saugus, MA 01906",Hair salon,Saugus,http://thehairstudioandwigsalon.com/,,,,,http://www.bostonwigs.com/contact-us-directions/,Directions – Contact Us,1,MA,01906,beauty_salon
Salon Karma,"1487 Main St #4, Tewksbury, MA 01876",Hair salon,Tewksbury,http://www.salonkarmatewksbury.com/,,,,,http://www.salonkarmatewksbury.com/contactus.html,Contact Us,1,MA,01876,beauty_salon
Beauty Concept Salon,"592 Main St, Shrewsbury, MA 01545",Hair salon,Shrewsbury,https://www.beautyconceptsalon.com/,,,,,https://beautyconceptsalon.com/contact/,Contact,1,MA,01545,beauty_salon
Danny K Salon,"928 Grafton St, Worcester, MA 01604",Hair salon,Worcester,http://dannyksalon.com/,,,,,http://dannyksalon.com/index-4.html,Contacts,1,MA,01604,beauty_salon
The Experience Hair Salon,"898 Grafton St, Worcester, MA 01604",Hair salon,Worcester,http://theexperiencehairsalon.com/,,,,,http://theexperiencehairsalon.com/#,Contact Us,1,MA,01604,beauty_salon
Sassoon Salon,"399 Boylston St, Boston, MA 02116",Beauty salon,Boston,http://www.sassoon-salon.com/,,,,,https://pgconsumersupport.secure.force.com/ContactUs?brand=Vidal+Sassoon&country=United+States+of+America&language=English-US,Contacts,1,MA,02116,beauty_salon
Dina's Unisex Salon,"5 School St, Quincy, MA 02169",Beauty salon,Quincy,http://www.dinashairsalon.com/,,,,,http://www.dinashairsalon.com/contact," Contact

",1,MA,02169,beauty_salon
EYE LUSH SALON,"1564 Hancock St, Quincy, MA 02169",Beauty salon,Quincy,https://eyelushsalon.com/,,,,,https://eyelushsalon.com/index.php/contact-us/,Contact Us,1,MA,02169,beauty_salon
Pura Vida Salon,"347 Washington St, Braintree, MA 02184",Hair salon,Braintree,http://www.puravidahairsalon.com/,,,,,http://www.puravidahairsalon.com/contact.htm,Contact,1,MA,02184,beauty_salon
Louis Anthony Hair Salon,"229 Parkingway, Quincy, MA 02169",Beauty salon,Quincy,http://louisanthonysalon.com/,,,,,https://louisanthonysalon.com/contact/,Contact,1,MA,02169,beauty_salon
Lovely Nails & Spa,"125 Pearl St, Braintree, MA 02184",Nail salon,Braintree,https://lovelynailspabraintree.com/,,,,,https://lovelynailspabraintree.com/contact,Contact Us,1,MA,02184,beauty_salon
Salon De Beauty,"Shaw’s Plaza, 624 Middle St, Weymouth, MA 02189",Beauty salon,Weymouth,http://www.salondebeauty.com/,,,,,https://salondebeauty.com/contact-us/,APPOINTMENTS,1,MA,02189,beauty_salon
Gentle Aesthetics Med Spa,"150 Grossman Dr #304, Braintree, MA 02184",Medical spa,Braintree,http://www.gentleaestheticsmedspa.com/,,,,,http://www.gentleaestheticsmedspa.com/contact-medical-spa-boston/,Contact Us,1,MA,02184,beauty_salon
Halstead Haircutters,"158 Winter St, Weymouth, MA 02188",Hair salon,Weymouth,http://www.halsteadshaircutters.com/,,,,,http://www.halsteadshaircutters.com/contact.html,"
				Contact
			",1,MA,02188,beauty_salon
Jolan's Hair Design,"1175 Main St, Weymouth, MA 02190",Beauty salon,Weymouth,http://www.jolanshairdesign.com/,,,,,http://www.jolanshairdesign.com/contact.html,Contact,1,MA,02190,beauty_salon
Laser and Skincare Co,"140 Wood Rd #407, Braintree, MA 02184",Facial spa,Braintree,http://www.laserandskincareco.com/,,,,,http://www.laserandskincareco.com/contact,"
    Contact Us
",1,MA,02184,beauty_salon
Nails Club & Spa,"35 Pleasant St #3118, South Weymouth, MA 02190",Nail salon,South Weymouth,http://nailsclubspa.webstarts.com/,,,,,http://nailsclubspa.webstarts.com/contact_us.html,Contact Us,1,MA,02190,beauty_salon
Nothing But Nails,"522 Sea St, Quincy, MA 02169",Beauty salon,Quincy,http://nothingbutnails.wixsite.com/,,,,,http://nothingbutnails.wixsite.com/nothingbutnails/contract,Contact Us,1,MA,02169,beauty_salon
Salon neo,"2814, 672 Hancock St, Quincy, MA 02170",Beauty salon,Quincy,http://salonneoma.com/,,,,,http://salonneoma.com/#Contact,Contact Us,1,MA,02170,beauty_salon
Misa Beauty Spa Hair Salon Body Waxing Hair Removal Nail Salon,"184 W Squantum St, Quincy, MA 02171",Beauty salon,Quincy,https://www.misabeautyspa.net/,,,,,https://www.misabeautyspa.net/registry,Contact & Hours,1,MA,02171,beauty_salon
Skin Wellness Center,"2300 Crown Colony Dr, Quincy, MA 02169",Skin care clinic,Quincy,https://www.bostonplastic.com/,,,,,https://www.bostonplastic.com/contact/,Schedule your consultation,1,MA,02169,beauty_salon
Boncaldo's Gentlemen's Barbershop and Spa,"76 Beale St, Quincy, MA 02170",Barber shop,Quincy,http://www.boncaldos.com/,,,,,http://www.boncaldos.com/contact/,Contact,1,MA,02170,beauty_salon
Belle Visage,"564 Adams St, Milton, MA 02186",Beauty salon,Milton,http://www.bvdayspa.com/,,,,,http://www.bvdayspa.com/contact.html,Contact,1,MA,02186,beauty_salon
TONI&GUY Hairdressing Academy,"727A Granite St, Braintree, MA 02184",Beauty school,Braintree,http://braintree.toniguy.edu/,,,,,https://www.toniguy.com/contact-us,Contact Us,1,MA,02184,beauty_salon
Sun Touch Tanning,"381 Washington St, Braintree, MA 02184",Tanning salon,Braintree,http://suntouchtanning.com/,,,,,http://suntouchtanning.com/contact.html,Contact,1,MA,02184,beauty_salon
Pickney Nails,"91 Charles St # B, Boston, MA 02114",Nail salon,Boston,http://pinckneynails.com/,,,,,http://pinckneynails.com/contact/,Contact,1,MA,02114,beauty_salon
Leslie's Hair Salon,"312 E Main St, East Brookfield, MA 01515",Beauty salon,East Brookfield,http://www.hairsalonbrookfieldma.com/,,,,,http://hairsalonbrookfieldma.com/contact/,Contact,1,MA,01515,beauty_salon
Carenza Color Cutting Salon,"2205 N Calhoun Rd Suite 18, Brookfield, WI 53005",Beauty salon,Brookfield,http://www.carenza.com/,,,,,http://www.carenza.com/contact/,Contact,1,WI,53005,beauty_salon
Yetzaly Beauty Salon,"Fiske Hill Road, 71 Main St, Sturbridge, MA 01566",Hair salon,Sturbridge,http://www.yetzalysalon.com/,,,,,http://www.yetzalysalon.com/tel:+1(413)531-4022,+1 (413) 531-4022,1,MA,01566,beauty_salon
Allure Hair Design,"135 Main St, Sturbridge, MA 01566",Beauty salon,Sturbridge,http://www.alluresturbridge.com/,,,,,http://www.alluresturbridge.com/contact-us.html,Contact Us,1,MA,01566,beauty_salon
Carrie And Company,"54 Main St, Sturbridge, MA 01566",Beauty salon,Sturbridge,http://carrieandcompany.com/,,,,,https://carrieandcompany.com/contact-us/,Contact Us,1,MA,01566,beauty_salon
Studio 538,"538 Main St, Fiskdale, MA 01518",Beauty salon,Fiskdale,http://www.538sturbridge.com/,,,,,http://www.538sturbridge.com/#sectionContact,CONTACT,1,MA,01518,beauty_salon
Top Nail Spa,"179 Main St, Sturbridge, MA 01566",Nail salon,Sturbridge,http://topnailspasturbridge.com/,,,,,http://topnailspasturbridge.com/#contact,"
Contact
",1,MA,01566,beauty_salon
Minuteman Salon,"57 Old Muggett Hill Rd, Charlton, MA 01507",Beauty salon,Charlton,http://www.baypath.net/,,,,,http://www.baypath.net/the-school/contact.php,Contact,1,MA,01507,beauty_salon
Pigtails & Crewcuts Haircuts for Kids  Brookfield,"17365 W Bluemound Rd Unit A, Brookfield, WI 53045",Beauty salon,Brookfield,https://www.pigtailsandcrewcuts.com/,,,,,https://www.pigtailsandcrewcuts.com/contact-salon/,Contact the Salon,1,WI,53045,beauty_salon
Metamorphosis Hair Design,"419 Main St, Sturbridge, MA 01566",Hair salon,Sturbridge,http://www.metamorphosishairdesign.com/,,,,,http://www.metamorphosishairdesign.com/contact-us/,Contact Us,1,MA,01566,beauty_salon
Chic Full Service Salon,"359 Wilbur Ave, Somerset, MA 02725",Beauty salon,Somerset,http://www.chicfullservicesalon.com/,,,,,http://www.chicfullservicesalon.com/contact-us,Contact Us,1,MA,02725,beauty_salon
Park Place Salon,"500 Main St, Sturbridge, MA 01518",Hair salon,Sturbridge,http://www.parkplacesalonofsturbridge.com/,,,,,http://parkplacesalonofsturbridge.com/contact/,Contact,1,MA,01518,beauty_salon
Motee's Beauty Salon,"425 Bay St, Taunton, MA 02780",Hair salon,Taunton,https://moteesbeautysalon.com/,,,,,https://moteesbeautysalon.com/contact-us,CONTACT US ,1,MA,02780,beauty_salon
One Med Spa,"79 Hammond Ln #11, Plattsburgh, NY 12901",Medical spa,Plattsburgh,http://www.onemedspa.com/,,,,,http://www.onemedspa.com/contact.html,"
				Contact
			",1,NY,12901,beauty_salon
Advanced Electrolysis,"1676 Beacon St, Brookline, MA 02445",Hair removal service,Brookline,http://www.advancedelectrolysisbrookline.com/,,,,,http://www.advancedelectrolysisbrookline.com/find-us," Find Us

",1,MA,02445,beauty_salon
G A Electrolysis Center,"364 Harvard St, Brookline, MA 02446",Hair removal service,Brookline,http://www.gaelectrolysis.com/,,,,,http://www.gaelectrolysis.com/contact.html,Contact,1,MA,02446,beauty_salon
Nails On Huntington,"39 S Huntington Ave, Boston, MA 02130",Nail salon,Boston,http://nailsonhuntington.com/,,,,,http://nailsonhuntington.com/contact-us,CONTACT US,1,MA,02130,beauty_salon
LaserCare Cosmetic Centers  Brookline,"1018 Beacon St, Brookline, MA 02446",Facial spa,Brookline,http://www.lasercarecenters.com/,,,,,http://www.lasercarecenters.com/Feedback,Contact Us,1,MA,02446,beauty_salon
MauraLinhSpa,"1085 Commonwealth Avenue, Boston, MA 02215",Day spa,Boston,http://www.mauralinhspa.com/,,,,,http://www.mauralinhspa.com/contact/4968019,CONTACT,1,MA,02215,beauty_salon
Boston Laser and Skin,"1018 Beacon St, Brookline, MA 02446",Skin care clinic,Brookline,http://lasercarecenters.com/,,,,,http://lasercarecenters.com/Feedback,Contact Us,1,MA,02446,beauty_salon
Alluring Beauty LLC,"15 Lamartine St, Jamaica Plain, MA 02130",Beauty salon,Jamaica Plain,http://alluringbeautysalon.com/,,,,,https://www.alluringbeautysalon.com/contact-us,Now accepting appointments!,1,MA,02130,beauty_salon
All Bright Nails & Spa,"514 Cambridge St, Allston, MA 02134",Nail salon,Allston,http://www.allbrightnailsandspa.com/,,,,,http://www.allbrightnailsandspa.com/contact.php,Contact & Hours,1,MA,02134,beauty_salon
community conversations sister to sister,"268 Brookline St, Cambridge, MA 02139",Beauty salon,Cambridge,http://www.ccsister2sister.org/,,,,,https://www.ccsister2sister.org/contact,CONTACT US,1,MA,02139,beauty_salon
station8salon,"761 Centre St, Jamaica Plain, MA 02130",Beauty salon,Jamaica Plain,http://www.station8jp.com/,,"Hair services, facials, body waxing & massage in an airy space with an urbane vibe.",,,https://www.station8salon.com/contact,Contact,1,MA,02130,beauty_salon
Giovanni Hair Design,"313 Harvard St, Brookline, MA 02446",Hair salon,Brookline,http://giovanniboston.com/,,,,,http://giovanniboston.com/contact,"
Contact
",1,MA,02446,beauty_salon
Yes Nails And Spa Inc,"416 Market St, Boston, MA 02135",Nail salon,Boston,http://www.yesnails.net/,,,,,http://www.yesnails.net/contact.html,Contact Us,1,MA,02135,beauty_salon
Escape Hair Salon,"38 Spring St, West Roxbury, MA 02132",Beauty salon,West Roxbury,http://escapesalonboston.com/,,,,,http://escapesalonboston.com/book-now/,BOOK NOWContact Us,1,MA,02132,beauty_salon
Paris Nails & Skin Care,"590 Washington St, Boston, MA 02135",Nail salon,Boston,http://parisnailsbrighton.com/,,,,,http://parisnailsbrighton.com/contact.php,Contact Us,1,MA,02135,beauty_salon
WOW SUGARING BOSTON,"1618 Beacon St, Brookline, MA 02446",Hair removal service,Brookline,http://www.wowsugaringboston.com/,,,,,http://www.wowsugaringboston.com/tel:6177752966,(617) 775-2966,1,MA,02446,beauty_salon
The Balayage Bar,"82 Boylston St, Brookline, MA 02445",Hair salon,Brookline,http://www.thebalayagebarboston.com/,,,,,http://www.thebalayagebarboston.com/contact,"
                Contact
              ",1,MA,02445,beauty_salon
Laser Hair Removal Boston,"1318 Beacon St, Brookline, MA 02446",Laser hair removal service,Brookline,http://www.bostonskin.com/,,,,,http://www.bostonskin.com/contact/,Contact,1,MA,02446,beauty_salon
Bradley & Diegel Salon,"77 Newbury St, Boston, MA 02116",Beauty salon,Boston,http://www.bradleyanddiegel.com/,,,,,https://www.bradleyanddiegel.com/contact-your-stylist,,1,MA,02116,beauty_salon
Deep Blue Barber Shop,"395 Washington St, Brookline, MA 02446",Barber shop,Brookline,http://www.deepbluebarbershop.com/,,,,,http://www.deepbluebarbershop.com/contact,CONTACT,1,MA,02446,beauty_salon
EYESTARR Eyelashes Eyelash Extensions Boutique ,"291 Newbury St, Boston, MA 02115",Beauty salon,Boston,http://www.eyestarr.com/,,,,,https://www.eyestarr.com/contact,CONTACT,1,MA,02115,beauty_salon
Dente's Barber Shop,"417 Highland Ave, Somerville, MA 02144",Beauty salon,Somerville,http://dentesbarbershop.com/,,,,,http://dentesbarbershop.com/tel:6176258875,(617) 625-8875,1,MA,02144,beauty_salon
Perfect Tan,"1030 Commonwealth Avenue #2, Boston, MA 02215",Beauty salon,Boston,http://perfectan.com/,,,,,http://perfectan.com/contact-us/,Contact Us,1,MA,02215,beauty_salon
Floyd's 99 Barbershop,"189 Massachusetts Ave, Boston, MA 02115",Hair salon,Boston,http://floydsbarbershop.com/,,,,,http://floydsbarbershop.com/service/contact/,CONTACT,1,MA,02115,beauty_salon
Salon Justine,"35 MA-134 #10, South Dennis, MA 02660",Beauty salon,South Dennis,http://salonjustine.com/,,,,,http://salonjustine.com/contactus.htm,Contact Us,1,MA,02660,beauty_salon
Simple Man CT,"98 Elm St, Cheshire, CT 06410",Hair salon,Cheshire,http://www.cbartofhair.com/,,,,,https://www.salonbuilder.com/website/180032/contact.asp,Contact,1,CT,06410,beauty_salon
NuYu Aveda Salon and Spa,"268 Great Rd, Acton, MA 01720",Beauty salon,Acton,https://www.nuyu-naturallyyou.com/,,,,,https://www.nuyu-naturallyyou.com,Contact,1,MA,01720,beauty_salon
Paden's Hair Studio,"239 Main St, Greenfield, MA 01301",Hair salon,Greenfield,http://thehairstudiomass.com/,,,,,https://www.thehairstudiomass.com/contact-home-greenfield-ma,Contact Us,1,MA,01301,beauty_salon
Indique Virgin Hair Extensions,"170 Neponset Ave, Dorchester, MA 02122",Beauty supply store,Dorchester,http://www.indiquehair.com/,,,,,http://www.indiquehair.com/shop/contact/client-care-phone-orders.html,CUSTOMER SERVICE,1,MA,02122,beauty_salon
The Zoo Health Club,"35 Manchester Rd, Derry, NH 03038",Tanning salon,Derry,http://www.zoogymnh.com/,,,,,https://www.zoogymnh.com/contact-manchester/,contact manchester,1,NH,03038,beauty_salon
Safar Boston,"235 Newbury St, Boston, MA 02116",Beauty salon,Boston,https://www.safarboston.com/,,,,,https://www.safarboston.com/contact-us-2/,CONTACT US,1,MA,02116,beauty_salon
J & J DOMINICAN BEAUTY SALON,"5282 Oaklawn Blvd, Hopewell, VA 23860",Beauty salon,Hopewell,http://jandjbeautysalon.com/,,,,,http://jandjbeautysalon.com/contact,Contact,1,VA,23860,beauty_salon
Escada Salon Inc,"11517 Busy St, Richmond, VA 23236",Beauty salon,Richmond,http://www.escadasalon.com/,,,,,http://escadasalon.com/contact/,Contact,1,VA,23236,beauty_salon
J & J Beauty Salon,"5321 Hull Street Rd #2425, Richmond, VA 23224",Beauty salon,Richmond,http://www.jandjbeautysalon.com/,,,,,http://www.jandjbeautysalon.com/contact,Contact,1,VA,23224,beauty_salon
Luv My Natural Curls,"185 Main St, Avon, MA 02322",Beauty salon,Avon,http://www.luvmynaturalcurls.com/,,,,,http://www.luvmynaturalcurls.com/contact-us/,Contact Us,1,MA,02322,beauty_salon
Sport Clips Haircuts of Chesterfield Commons,"202 THF Blvd, Chesterfield, MO 63005",Hair salon,Chesterfield,https://haircutmenchesterfieldmo.com/,,,,,https://www.sportclips.com/about-us/contact-us,Contact Us,1,MO,63005,beauty_salon
188 Fine Men's Salons  Financial District,"20 Pine St, New York, NY 10005",Beauty salon,New York,http://eighteeneight.com/,,,,,https://eighteeneight.com/lower-manhattan-ny/contact/,Contact,1,NY,10005,beauty_salon
CBD Daily,"21900 Plummer St, Chatsworth, CA 91311",Cosmetics store,Chatsworth,https://cbddailyproducts.com/,,,,,https://cbddailyproducts.com/contact,Contact,1,CA,91311,beauty_salon
Cibu for Hair,"1577 Spring Hill Rd, Vienna, VA 22182",Beauty supply store,Vienna,http://cibuforhair.com/,,,,,http://cibuforhair.com/pages/contact-us,Contact Us,1,VA,22182,beauty_salon
Greta's Beauty Bar,"430 Main St Suite 208, Agawam, MA 01001",Beauty salon,Agawam,https://gretasbeautybar.com/,,,,,https://gretasbeautybar.com/contact/,Contact Us,1,MA,01001,beauty_salon
Biro Dominican Salon,"11629 Nebel St, Rockville, MD 20852",Beauty salon,Rockville,http://www.birodominicansalon.com/,,,,,https://www.birodominicansalon.com/contact-us,Contact Us,1,MD,20852,beauty_salon
Gordon Salon Lakeshore East,"333 E Benton Pl #106, Chicago, IL 60601",Beauty salon,Chicago,https://www.hairsalonchicagoil.com/,,,,,https://www.hairsalonchicagoil.com/contactus/,contact,1,IL,60601,beauty_salon
Gordon Salon Wilmette,"3232 Lake Ave #160, Wilmette, IL 60091",Beauty salon,Wilmette,https://www.hairsalonwilmetteil.com/,,,,,https://www.hairsalonwilmetteil.com/contactus/,contact,1,IL,60091,beauty_salon
Taylor Cuts,"11496 Telegraph Rd, Taylor, MI 48180",Beauty salon,Taylor,http://www.taylorcuts.net/,,,,,https://www.taylorcuts.net/contact,,1,MI,48180,beauty_salon
Divas Retreat,"12512 Horseshoe Bend Cir, Clarksburg, MD 20871",Hair salon,Clarksburg,http://www.thedivasretreat.com/,,,,,https://www.thedivasretreat.com/appointments,CONTACT,1,MD,20871,beauty_salon
Eyebrow Land,"A9, 10710 Gateway Blvd. North, El Paso, TX 79924",Hair removal service,El Paso,http://www.eyebrowland.com/,,,,,http://www.eyebrowland.com/#section9,"

CONTACT US

",1,TX,79924,beauty_salon
Thairapy The Hair Salon,"509 Humphrey St, Swampscott, MA 01907",Beauty salon,Swampscott,http://www.thairapythehairsalon.com/,,,,,http://www.thairapythehairsalon.com/hair-salon-swampscott-ma-contact-us.html,Contact Us,1,MA,01907,beauty_salon
Tropical Trend Hair Salon,"996 Middle St, Weymouth, MA 02188",Beauty salon,Weymouth,http://www.tropicaltrendsalon.com/,,,,,http://www.tropicaltrendsalon.com/contact-us," CONTACT US

",1,MA,02188,beauty_salon
EyeCandy Lash Extensions & Beauty Bar,"450 Plain St #5, Marshfield, MA 02050",Beauty salon,Marshfield,http://eyecandy-marshfield.com/,,,,,http://eyecandy-marshfield.com/contact,Contact,1,MA,02050,beauty_salon
Corinne's Hair Affair,"46 Columbia Rd # 2A, Pembroke, MA 02359",Beauty salon,Pembroke,http://corinneshairaffair.com/,,,,,http://corinneshairaffair.com/contact-us.html,Contact Us,1,MA,02359,beauty_salon
Kyma,"134 Washington St, Norwell, MA 02061",Medical spa,Norwell,http://www.kymaantiaging.com/,,,,,http://www.kymaantiaging.com/contact-us,Contact Us,1,MA,02061,beauty_salon
Earth Tones Hair Salon,"1502 Tremont St, Duxbury, MA 02332",Beauty salon,Duxbury,https://www.earthtonessalon.com/,,,,,https://www.earthtonessalon.com/contact,CONTACT,1,MA,02332,beauty_salon
As Good As It Gets Holistic Aesthetics,"222 North St, Hingham, MA 02043",Facial spa,Hingham,http://www.goodgets.com/,,,,,http://www.goodgets.com/contact.html,"
				Contact
			
			",1,MA,02043,beauty_salon
New England Beauty Salon,"635 Washington St, Canton, MA 02021",Facial spa,Canton,https://nebs.qrd.by/,,,,,https://nebs.qrd.by/l/businesscard/template/vCard.vcf?id=nebs-bc&d=1&addvcard=,"

Add to contacts
",1,MA,02021,beauty_salon
Hair Envee Salon,"56 General Way Studio 27, Reading, MA 01867",Beauty salon,Reading,http://www.hairenveesalon.com/,,,,,http://www.hairenveesalon.com/contact-us,Contact Us,1,MA,01867,beauty_salon
Shear Image Unisex Salon & Day,"51 Church St, Chatham, NY 12037",Beauty salon,Chatham,http://www.shearimagesny.com/,,,,,https://shearimagesny.com/contact/,Contact Us,1,NY,12037,beauty_salon
Rejuvenations Salon & Day Spa,"5 Manomet Point Rd, Plymouth, MA 02360",Day spa,Plymouth,http://www.rejuvenations.com/,,,,,https://www.salonbuilder.com/website/166993/contact.asp,Contact,1,MA,02360,beauty_salon
Moon Baby Hair Salon,"302B Essex St, Salem, MA 01970",Hair salon,Salem,https://moonbabysalem.mysalononline.com/,,,,,https://moonbabysalem.mysalononline.com/Contact,| Contact |,1,MA,01970,beauty_salon
Brocatos Studio of Hair Design,"2500 Boston St, Baltimore, MD 21224",Beauty salon,Baltimore,http://www.brocatos.com/,,,,,http://www.brocatos.com/contact.html,CONTACT US,1,MD,21224,beauty_salon
LUSH LASHES US,"1618 Beacon St, Brookline, MA 02446",Waxing hair removal service,Brookline,https://www.lushlashesus.com/,,,,,https://www.lushlashesus.com/contact,"

                CONTACT
            
",1,MA,02446,beauty_salon
Local Beauty Barre,"217 W Hollis St, Nashua, NH 03060",Hair salon,Nashua,http://localbeautybarre.com/,,,,,https://www.localbeautybarre.com/contact-visit,Contact / Visit,1,NH,03060,beauty_salon
Mert's Beauty Supply,"2615 Main St, Conway, SC 29526",Beauty supply store,Conway,http://www.mertsbeautysupply.com/,,,,,http://www.mertsbeautysupply.com/contactus.html,Contact Us,1,SC,29526,beauty_salon
Deliah Rosel Healing Therapies,"Main Poland Rd, Conway, MA 01341",Massage therapist,Conway,http://deliahrosel.com/,,,,,http://deliahrosel.com/#section97,"
                Contact                ",1,MA,01341,beauty_salon
Arkansas Beauty College,"109 N Commerce Ave, Russellville, AR 72801",Beauty school,Russellville,http://arkansasbeautycollege.us/,,,,,http://arkansasbeautycollege.us/contact,"  

Contact Us
",1,AR,72801,beauty_salon
Elizabeth's Electrology & Laser Hair Removal LLC,"1354 Pleasant St, Fall River, MA 02723",Hair removal service,Fall River,http://www.laserfallriver.com/,,,,,http://www.laserfallriver.com/contact-us,Contact Us,1,MA,02723,beauty_salon
Elite Electrology & Laser Hair Removal,"250 New Boston Rd, Fall River, MA 02720",Laser hair removal service,Fall River,http://eliteelectrologylaser.com/,,,,,http://eliteelectrologylaser.com/tel:5086796799,508-679-6799,1,MA,02720,beauty_salon
Harley Artistry,"33 4th Ave #1, Needham, MA 02494",Beauty salon,Needham,http://harleyartistry.com/,,,,,https://www.harleyartistry.com/contact,Contact,1,MA,02494,beauty_salon
Dedham Day Spa,"174 Providence Hwy, Dedham, MA 02026",Day spa,Dedham,http://www.dedhamdayspa.com/,,,,,https://dedhamdayspa.com/contact/,Contact,1,MA,02026,beauty_salon
Precious Nails & Spa,"500 Boston-Providence Turnpike, Norwood, MA 02062",Nail salon,Norwood,http://www.preciousnailsspa.com/,,,,,http://www.preciousnailsspa.com/contact-us,Contact Us,1,MA,02062,beauty_salon
American Nails Spa,"1200 Boston-Providence Turnpike #120, Norwood, MA 02062",Nail salon,Norwood,http://americannailspanorwood.com/,,,,,http://americannailspanorwood.com/contact,Contact Us,1,MA,02062,beauty_salon
Brazils Waxing Center,"262 Providence Hwy Unit 9, Westwood, MA 02090",Waxing hair removal service,Westwood,https://www.brazilswaxingcenter.com/,,,,,https://www.brazilswaxingcenter.com/contact-us/,Contact,1,MA,02090,beauty_salon
Simina African Hair Braiding,"1152 Blue Hill Avenue, Boston, MA 02124",Beauty salon,Boston,http://siminaafricanhairbraiding.com/,,,,,http://siminaafricanhairbraiding.com/contact.html,Contact,1,MA,02124,beauty_salon
Devin Louise A,"15 Cottage St, Norwood, MA 02062",Hair removal service,Norwood,http://www.devinelectrolysis.com/,,,,,http://www.devinelectrolysis.com/contact-us.html,781-769-6063,1,MA,02062,beauty_salon
Leeann's Skin & Laser Center,"1 Walpole St #3, Norwood, MA 02062",Skin care clinic,Norwood,http://www.leeannskinandlasercenter.com/,,,,,http://www.leeannskinandlasercenter.com/contact-us,CONTACT US,1,MA,02062,beauty_salon
American Skin Care,"493 High St, Dedham, MA 02026",Skin care clinic,Dedham,http://americanskincarededham.com/,,,,,http://americanskincarededham.com/contact," Contact

",1,MA,02026,beauty_salon
Concepts Salon and Day Spa,"51 Eliot St, Natick, MA 01760",Beauty salon,Natick,http://conceptssalon.com/,,,,,http://conceptssalon.com/contactus.html,Contact Us,1,MA,01760,beauty_salon
Statix Salon and Spa,"827 Central Ave, Dover, NH 03820",Beauty salon,Dover,http://www.statixsalonandspa.com/,,,,,https://www.salonbuilder.com/website/185290/contact.asp,Contact,1,NH,03820,beauty_salon
iLash and Spa,"677A Washington St, Norwood, MA 02062",Beauty salon,Norwood,https://ilashandspanorwood.com/,,,,,https://ilashandspanorwood.com/contact,Contact Us,1,MA,02062,beauty_salon
M & Co Hair Studio,"179 W Central St #10, Natick, MA 01760",Beauty salon,Natick,http://mandcohair.com/,,,,,http://mandcohair.com/contact,Contact,1,MA,01760,beauty_salon
Iris Beauty Bar,"36 Park St, Medfield, MA 02052",Beauty salon,Medfield,http://www.irisbeautybar.com/,,,,,http://www.irisbeautybar.com/contact,"
Contact
",1,MA,02052,beauty_salon
Positive Directions,"Third St, Dover, NH 03820",Beauty salon,Dover,http://www.positivedirectionssalon.com/,,,,,http://www.positivedirectionssalon.com/dover-nh-hair-salon/,Contact,1,NH,03820,beauty_salon
The Metrospa,"487 Central Ave, Dover, NH 03820",Hair salon,Dover,http://www.themetrospa.com/,,,,,https://www.themetrospa.com/contact,CONTACT,1,NH,03820,beauty_salon
wendyo Salon,"572 Massachusetts Ave, Acton, MA 01720",Beauty salon,Acton,http://wendyosalon.com/,,,,,http://wendyosalon.com/contact-us/,Contact,1,MA,01720,beauty_salon
Pandolfinos Hair Studio,"117 W Central St, Natick, MA 01760",Hair salon,Natick,http://pandolfinoshairstudio.com/,,,,,https://www.pandolfinoshairstudio.com/c-o-n-t-a-c-t,LEARN MORE,1,MA,01760,beauty_salon
Plaza Barber Shop & Hair Salon,"208 Main St, Milford, MA 01757",Beauty salon,Milford,http://www.plazabarbershopandhairsalon.com/,,,,,https://www.plazabarbershopandhairsalon.com/contact,CONTACT,1,MA,01757,beauty_salon
Sringar Hair Design,"369 Massachusetts Ave, Arlington, MA 02474",Beauty salon,Arlington,http://sringarhair.com/,,,,,https://sringarhair.com/contact-us/,Contact Us,1,MA,02474,beauty_salon
Horizons Salon & Day Spa,"1309 Massachusetts Ave, Arlington, MA 02476",Beauty salon,Arlington,http://www.horizonssalon.com/,,,,,http://horizonssalon.com/contact/,Contact,1,MA,02476,beauty_salon
JonClaud Salon,"157 Great Rd, Acton, MA 01720",Beauty salon,Acton,http://www.jonclaudsalon.com/,,,,,https://policies.google.com/privacy,Privacy Policy,1,MA,01720,beauty_salon
Skinscapes,"31 Central St, Wellesley, MA 02482",Laser hair removal service,Wellesley,http://www.skinscapes.com/,,,,,http://www.skinscapes.com/contact-us,Contact,1,MA,02482,beauty_salon
Martie & Associates Hairstylists,"Inside Sebouh's Hair Salon, 92 June St, Worcester, MA 01602",Hair salon,Worcester,http://martieandassociates.com/,,,,,http://martieandassociates.com/contact,Contact,1,MA,01602,beauty_salon
Bombshell Beauty Lounge,"33 4th Ave #12, Needham, MA 02494",Hair salon,Needham,http://www.bombshellboston.com/,,,,,https://www.bombshellboston.com/about,About/Contact,1,MA,02494,beauty_salon
Bella Vida Salon,"17 South Ave, Natick, MA 01760",Hair salon,Natick,http://bellavidanatick.com/,,,,,http://bellavidanatick.com/contact-us/,Contact Us,1,MA,01760,beauty_salon
Kendile Electrolysis,"471 Washington St, Wellesley, MA 02482",Electrolysis hair removal service,Wellesley,http://www.kendileelectrolysis.com/,,,,,http://www.kendileelectrolysis.com/contact.aspx,"
CONTACT",1,MA,02482,beauty_salon
Salon Couture Llc,"114 Water St, Danvers, MA 01923",Beauty salon,Danvers,http://www.saloncouture.net/,,,,,http://www.saloncouture.net/contact.htm,Contact,1,MA,01923,beauty_salon
Chrisso Studio,"19 Pleasant St, Newton Centre, MA 02459",Beauty salon,Newton Centre,http://www.chrissostudio.com/,,,,,http://www.chrissostudio.com/contact-us,"  

Leave Feedback
",1,MA,02459,beauty_salon
Serina's Hair & Treatment Salon,"33 4th Ave #25, Needham Heights, MA 02494",Hair salon,Needham Heights,https://serinashairsalon.glossgenius.com/,,,,,https://serinashairsalon.glossgenius.com/contact,Contact,1,MA,02494,beauty_salon
Boston Color Group,"6 Mt Auburn St, Watertown, MA 02472",Beauty salon,Watertown,https://www.bostoncolorgroup.com/,,,,,https://www.bostoncolorgroup.com/#contact,Contact our stylists today,1,MA,02472,beauty_salon
Allustra Skin Care and Electrolysis,"10 Oak St Suite #6, Needham, MA 02492",Electrolysis hair removal service,Needham,http://www.allustraskincare.com/,,,,,https://www.allustraskincare.com,CONTACT,1,MA,02492,beauty_salon
Atelier,"39 Grove St, Wellesley, MA 02482",Hair salon,Wellesley,https://www.atelierwellesley.com/,,,,,https://www.atelierwellesley.com/contact-us,CONTACT US,1,MA,02482,beauty_salon
Sport Clips Haircuts of Dover  DuPont Highway,"1211 N Dupont Hwy Suite #C, Dover, DE 19901",Hair salon,Dover,https://haircutmenduponthighwaydoverde.com/,,,,,https://www.sportclips.com/about-us/contact-us,Contact Us,1,DE,19901,beauty_salon
Hex Hair Boutique,"90 Washington St Suite 302, Dover, NH 03820",Hair salon,Dover,http://www.hexhair.boutique/,,,,,http://www.hexhair.boutique/,Contact,1,NH,03820,beauty_salon
Empire Beauty School,"1328 Hooksett Rd, Hooksett, NH 03106",Beauty salon,Hooksett,http://www.empirebeautyschools.com/,,,,,http://www.empirebeautyschools.com/locations.cfm,​Contact,1,NH,03106,beauty_salon
Clear Cosmetic Clinic,"150 Westford Rd, Tyngsborough, MA 01879",Laser hair removal service,Tyngsborough,http://www.clearcosmetic.com/,,,,,http://www.clearcosmetic.com/contact-us/4562377042,CONTACT US,1,MA,01879,beauty_salon
Carriage House Salon,"205 Main St, Groton, MA 01450",Beauty salon,Groton,https://www.thecarriagehousesalon.com/,,,,,https://www.thecarriagehousesalon.com/contact,Contact,1,MA,01450,beauty_salon
Beauty 5 Salon,"187 Main Dunstable Rd, Nashua, NH 03060",Hair salon,Nashua,http://www.beauty5salon.com/,,,,,https://www.beauty5salon.com/visit-us,Contact Us >,1,NH,03060,beauty_salon
Shazis Hair & Beauty Salon,"83 Parkhurst Rd # 6, Chelmsford, MA 01824",Beauty salon,Chelmsford,http://www.shazis.com/,,,,,http://www.shazis.com/ContactUs.html,Contact Us,1,MA,01824,beauty_salon
TEAL Hair & Makeup Studio,"229 Stedman St, Lowell, MA 01851",Beauty salon,Lowell,http://teal-studio.com/,,"Full-service beauty salon providing hairstyling, cuts & color, plus waxing & smoothing treatments.",,,http://teal-studio.com/contact,"
              Contact
            ",1,MA,01851,beauty_salon
Nashua Electrolysis LLC,"110 Daniel Webster Hwy, Nashua, NH 03060",Electrolysis hair removal service,Nashua,https://www.nashua-electrolysis.com/,,,,,https://www.nashua-electrolysis.com/contact/,Contact,1,NH,03060,beauty_salon
All Dunn Up,"596 Main St, Nashua, NH 03060",Hair salon,Nashua,https://alldunnupllc.com/,,,,,https://alldunnupllc.com/contact.html,Contact,1,NH,03060,beauty_salon
Vivid Salon,"1095R Lakeview Ave unit 5, Dracut, MA 01826",Beauty salon,Dracut,http://www.vividbeautysalon.com/,,,,,https://vividbeautysalon.com/?page_id=16,Contact,1,MA,01826,beauty_salon
Shampoo Hair Salon & Day Spa,"207 Chelmsford St, Chelmsford, MA 01824",Beauty salon,Chelmsford,http://www.shampoohairanddayspa.com/,,,,,http://www.shampoohairanddayspa.com/contact.html,,1,MA,01824,beauty_salon
Salon Estilo,"910 Andover St, Tewksbury, MA 01876",Beauty salon,Tewksbury,http://salon-estilo.com/,,,,,https://www.salon-estilo.com/contact-us/,Contact Us,1,MA,01876,beauty_salon
BB Hair Salon & Supply LLC,"131 Boston Rd #11, North Billerica, MA 01862",Beauty salon,North Billerica,http://bbhairsalon.com/,,,,,http://bbhairsalon.com/contact/3932856,CONTACT,1,MA,01862,beauty_salon
Hair Design by Amanda,"264 Main Dunstable Rd, Nashua, NH 03062",Hairdresser,Nashua,https://hairdesignbyamanda.com/,,,,,https://hairdesignbyamanda.com/tel:6035081537,(603) 508-1537,1,NH,03062,beauty_salon
Brush Me Bronze,"264 Main Dunstable Rd, Nashua, NH 03062",Beauty salon,Nashua,http://brushmebronze.com/,,,,,http://brushmebronze.com/contact,Contact,1,NH,03062,beauty_salon
Boutique Nail Lounge,"289 Chelmsford St, Chelmsford, MA 01824",Nail salon,Chelmsford,http://boutiquenaillounge.com/,,,,,http://boutiquenaillounge.com/#contact-us,Contact,1,MA,01824,beauty_salon
Bella Mia Hair Salon,"446 Boston Rd #2, Billerica, MA 01821",Beauty salon,Billerica,http://www.bellamiahairsalon.com/,,,,,http://www.bellamiahairsalon.com/bella-mia-salon-boston-road-billerica-contact-us.html,,1,MA,01821,beauty_salon
Lumari Salon and Spa,"10 Middlesex Ave Unit 2, Wilmington, MA 01887",Hair salon,Wilmington,http://lumarisalon.com/,,,,,https://lumarisalon.com/contact/,Contact,1,MA,01887,beauty_salon
Marissa Michaels Hair Salon,"38 Florence St, Andover, MA 01810",Beauty salon,Andover,http://marissamichaels.com/,,,,,http://marissamichaels.com/contact-us/,Contact Us,1,MA,01810,beauty_salon
Superior Styles,"791 Boston Rd, Billerica, MA 01821",Beauty salon,Billerica,http://www.superiorstyles.org/,,,,,https://www.salonbuilder.com/website/167713/contact.asp,Contact,1,MA,01821,beauty_salon
Tangerine Organic Salon,"313 Littleton Rd, Chelmsford, MA 01824",Hair salon,Chelmsford,http://www.tangerineorganicsalon.com/,,,,,http://www.tangerineorganicsalon.com/contact/,Schedule Your Appointment,1,MA,01824,beauty_salon
Salon Vergados,"350 Winthrop Ave Suite 9A, North Andover, MA 01845",Beauty salon,North Andover,http://salonvergados.com/,,,,,https://www.salonvergados.com,Contact,1,MA,01845,beauty_salon
Radiance Skin Care Salon,"106 Tyngsboro Rd, North Chelmsford, MA 01863",Day spa,North Chelmsford,http://radiancechelmsford.com/,,,,,https://www.radiancechelmsford.com/contact,Contact,1,MA,01863,beauty_salon
J Christopher Hair Cutters,"65 Park St, Andover, MA 01810",Beauty salon,Andover,http://jchristopherhaircutters.com/,,,,,http://jchristopherhaircutters.com/contact.html,"
				Contact
			
			",1,MA,01810,beauty_salon
prim  salon jen z,"141 Main St, North Andover, MA 01845",Nail salon,North Andover,http://primsalonandover.com/,,,,,http://primsalonandover.com/contactus,Contact Us,1,MA,01845,beauty_salon
Cassin Deborah Electrologist,"14 Fletcher St, Chelmsford, MA 01824",Hair removal service,Chelmsford,http://www.debcassin.com/,,,,,http://www.debcassin.com/contact-us.html,Contact,1,MA,01824,beauty_salon
East Coast Tan,"440 Middlesex Rd, Tyngsborough, MA 01879",Tanning salon,Tyngsborough,http://www.eastcoasttan.com/,,,,,http://www.eastcoasttan.com/tel:9786490111,(978) 649-0111,1,MA,01879,beauty_salon
Rosemary Spa2nd FloorNo BackdoorTemporarily Closed,"2 Groton Rd #3, North Chelmsford, MA 01863",Massage therapist,North Chelmsford,http://rosemaryspama.wix.com/,,,,,https://rosemaryspama.wixsite.com/01863/contact,Contact,1,MA,01863,beauty_salon
Candela Hair Studio,"93 Main St, Andover, MA 01810",Hair salon,Andover,http://www.candelahairstudio.com/,,,,,https://www.candelahairstudio.com/contact,CONTACT,1,MA,01810,beauty_salon
Studio Five Hair Salon,"140 Main St, Peabody, MA 01960",Hair salon,Peabody,https://studiofivehairsalon.com/,,,,,https://studiofivehairsalon.com/contact-us.php,Contact Us,1,MA,01960,beauty_salon
Galleria Day Spa,"345 North Rd, North Chelmsford, MA 01863",Spa,North Chelmsford,http://www.thegalleriadayspa.com/,,,,,https://www.salonbuilder.com/website/160524/contact.asp,Contact,1,MA,01863,beauty_salon
Boston Beauty Supply,"120 Cambridge St, Burlington, MA 01803",Beauty supply store,Burlington,https://bostonbeautyonline.com/,,,,,https://bostonbeautyonline.com/contact/,Contact,1,MA,01803,beauty_salon
The Little Salon,"1776 Main St, Sarasota, FL 34236",Beauty salon,Sarasota,http://www.thelittlesalon.net/,,,,,http://www.thelittlesalon.net/contact,contact,1,FL,34236,beauty_salon
Sanibel Beauty Salon,"2248 Periwinkle Way, Sanibel, FL 33957",Beauty salon,Sanibel,http://www.sanibelbeautysalon.com/,,,,,https://www.sanibelbeautysalon.com/contact-us,Contact Us,1,FL,33957,beauty_salon
Matura Salon and Spa Management,"1300 Bethlehem Pike #22, Flourtown, PA 19031",Beauty salon,Flourtown,http://www.maturasalonandspa.com/,,,,,http://www.maturasalonandspa.com/contact-us,Contact Us,1,PA,19031,beauty_salon
Nail Bar & Spa,"4817 Milton St #4, Cape Coral, FL 33904",Nail salon,Cape Coral,https://www.nailbarnspa.com/,,,,,https://www.nailbarnspa.com/contact-us,"
            Contact
          ",1,FL,33904,beauty_salon
PS Salon and Spa,"1535 Broadway Ave, Pittsburgh, PA 15216",Beauty salon,Pittsburgh,http://www.pssalonandspa.com/,,,,,https://www.pssalonandspa.com,CONTACT,1,PA,15216,beauty_salon
Wild Moon Studio,"468 N Milledge Ave #102b, Athens, GA 30601",Beauty salon,Athens,http://www.wildmoonathens.com/,,,,,http://www.wildmoonathens.com/#Contact,CONTACT,1,GA,30601,beauty_salon
Absolute Tops Hair Specialists,"8821 Front Beach Rd, Panama City Beach, FL 32407",Hair salon,Panama City Beach,http://www.absolutetopshairsalon.com/,,,,,http://www.absolutetopshairsalon.com/contact_us," CONTACT US

",1,FL,32407,beauty_salon
Q Nail & Spa,"8681 Sudley Rd, Manassas, VA 20110",Nail salon,Manassas,http://qnailspamanassas.com/,,,,,http://qnailspamanassas.com/contact-us/,Contact us,1,VA,20110,beauty_salon
Sport Clips Haircuts of Jensen Beach,"2517 NW Federal Hwy, Jensen Beach, FL 34994",Hair salon,Jensen Beach,https://haircutmenjensenbeachfl.com/,,,,,https://www.sportclips.com/about-us/contact-us,Contact Us,1,FL,34994,beauty_salon
Salon Furniture Warehouse,"1757 Marshall Dr, Des Plaines, IL 60018",Beauty supply store,Des Plaines,http://www.salonfurniturewarehouse.com/,,,,,http://www.salonfurniturewarehouse.com/contacts/,Contact Us,1,IL,60018,beauty_salon
Evolve Salon Systems,"23A Crystal Ave Unit 4, Derry, NH 03038",Beauty supply store,Derry,http://www.evolvesalonsystems.com/,,,,,http://www.evolvesalonsystems.com/contact,Contact,1,NH,03038,beauty_salon
Just Blaze Barber Shop Inc,"2451 E Semoran Blvd, Apopka, FL 32703",Hair salon,Apopka,http://www.justblazebarbers.com/,,,,,http://www.justblazebarbers.com/#contactus,Contact Us / Locations,1,FL,32703,beauty_salon
ABC Nail Supply,"1239 Hillcrest St, Orlando, FL 32803",Beauty supply store,Orlando,http://abcnailsupplies.com/,,,,,http://www.abcnailsupplies.com/contact/,Contact,1,FL,32803,beauty_salon
Sunlight Nail & Beauty Supply,"1401 E Colonial Dr, Orlando, FL 32803",Beauty supply store,Orlando,http://sunlightbeautysupply.com/,,,,,http://sunlightbeautysupply.com/contact,Contact Us,1,FL,32803,beauty_salon
Jolie Hair and Beauty Academy,"44 Sewall St, Ludlow, MA 01056",Beauty school,Ludlow,https://www.jolieacademy.com/,,,,,https://www.jolieacademy.com/contactus/,Contact Us,1,MA,01056,beauty_salon
Serenity Skincare Spa & Nails,"30 Main St, Topsfield, MA 01983",Nail salon,Topsfield,https://www.serenityskincareandnails.com/,,,,,https://www.serenityskincareandnails.com,CONTACT,1,MA,01983,beauty_salon
The Salon Professional Academy Georgetown,"901 I-35 #102, Georgetown, TX 78626",Hair salon,Georgetown,https://www.tspageorgetown.com/,,,,,https://www.tspageorgetown.com/contact-us/,Contact Us,1,TX,78626,beauty_salon
Illusions of Georgetown,"1629 Wisconsin Ave NW, Washington, DC 20007",Hair salon,Washington,http://illusionsofgeorgetown.com/,,,,,http://illusionsofgeorgetown.com/contact/3094382,CONTACT,1,DC,20007,beauty_salon
Own Your Wonder,"1659 Wisconsin Ave NW, Washington, DC 20007",Beauty salon,Washington,http://www.ownyourwonder.com/,,,,,http://www.ownyourwonder.com/contact,"
            Contact
          ",1,DC,20007,beauty_salon
V Wax Studio,"3242 Jones Ct NW, Washington, DC 20007",Waxing hair removal service,Washington,http://www.vwaxstudio.com/,,,,,http://www.vwaxstudio.com/contact-1,"
            Contact
          ",1,DC,20007,beauty_salon
Krystals Kreations Hair Salon,"127 S Main St, Haverhill, MA 01835",Hair salon,Haverhill,http://www.krystalskreations1.com/,,,,,https://www.krystalskreations1.com/contact,Contact,1,MA,01835,beauty_salon
Hair Enhancement By Ilona,"85, Suite 300B2, Constitution Ln, Danvers, MA 01923",Hair salon,Danvers,http://www.ilonashairenhancement.com/,,,,,http://www.ilonashairenhancement.com/contact," CONTACT US
",1,MA,01923,beauty_salon
Planet Fitness  Temporarily Closed,"Shawsheen Plaza, 209 N Main St, Andover, MA 01810",Spa,Andover,http://planetfitness.com/,,,,,http://www.facebook.com/Planet.Fitness.Andover.MA,Find us on Facebook,1,MA,01810,beauty_salon
Family Cuts,"98 Hamilton St, Worcester, MA 01604",Hair salon,Worcester,http://familycuts.weebly.com/,,,,,http://familycuts.weebly.com/contact.html,Contact,1,MA,01604,beauty_salon
Skin Care by Kayla,"2 Cross St, Westborough, MA 01581",Facial spa,Westborough,https://www.skincarebykayla.com/,,,,,https://www.skincarebykayla.com/contactme,Contact,1,MA,01581,beauty_salon
Cynthia Klocek Makeup & Skin,"153 Turnpike Rd #111, Westborough, MA 01581",Makeup artist,Westborough,http://www.cynthiaklocek.com/,,,,,http://www.cynthiaklocek.com/new-page-3,Contact,1,MA,01581,beauty_salon
Beyond Still Waters Massage North Grafton MA 01536,"212 Worcester St suite d, North Grafton, MA 01536",Massage therapist,North Grafton,http://beyondstillwaters.com/,,,,,http://beyondstillwaters.com/contact/,Contact,1,MA,01536,beauty_salon
Ishma Skin Care,"45 Browning Rd, Shrewsbury, MA 01545",Spa,Shrewsbury,http://ishmaskincare.com/,,,,,http://ishmaskincare.com/contact-us,Contact Us,1,MA,01545,beauty_salon
Organic Tan at Salon sogno,"307 Grafton St, Shrewsbury, MA 01545",Tanning salon,Shrewsbury,http://www.salonsogno.com/,,,,,http://www.salonsogno.com/directions-hours/3746319,Contact us,1,MA,01545,beauty_salon
Lash & Brow Studio By Chaba,"40 N Main St, Millbury, MA 01527",Spa,Millbury,http://www.chabadayspa.com/,,,,,http://www.chabadayspa.com/contact.html,Contact Us,1,MA,01527,beauty_salon
Simply Divine Hair Salon,"12 Snow Rd, Marshfield, MA 02050",Hair salon,Marshfield,http://www.simplydivinemarshfield.com/,,,,,http://www.simplydivinemarshfield.com/contact-us/,Visit Our Salon,1,MA,02050,beauty_salon
Good Hair Co,"215 Hanover St #201-202, Boston, MA 02113",Hair salon,Boston,http://www.goodhairco.co/,,,,,https://goodhairco.co/contact/,Contact,1,MA,02113,beauty_salon
Lavender Park Hair Salon,"2537 N Sheffield Ave, Chicago, IL 60614",Beauty salon,Chicago,http://www.lavenderparksalon.com/,,,,,http://www.lavenderparksalon.com/contact,Contact,1,IL,60614,beauty_salon
Julie's Eyebrows Microblading,"231 Bedford St level 2, Lexington, MA 02420",Beauty salon,Lexington,https://www.microbladingbrowlady.com/,,,,,https://microbladingbrowlady.com/contact/,Contact,1,MA,02420,beauty_salon
Salon Seven Studio Inc dba New Identity Hair Salon,"580 Kelley Blvd # 2, North Attleborough, MA 02760",Beauty salon,North Attleborough,http://www.newidentityhairsalon.com/,,,,,http://www.newidentityhairsalon.com/#contact,Contact,1,MA,02760,beauty_salon
Station Row,"41 Lincoln St, Newton, MA 02461",Hair salon,Newton,http://www.stationrow.com/,,,,,http://www.stationrow.com/contact,Contact,1,MA,02461,beauty_salon
KidSnips Lincoln Park,"1953 N Clybourn Ave # F, Chicago, IL 60614",Beauty salon,Chicago,http://kidsnips.com/,,,,,http://kidsnips.com/contact-kidsnips/,Company Info,1,IL,60614,beauty_salon
Marc Anthony Salon,"17 Tremont St, Taunton, MA 02780",Beauty salon,Taunton,http://www.michaelanthonyshairandskin.com/,,,,,http://www.michaelanthonyshairandskin.com/contact.html,"
				Contact
			",1,MA,02780,beauty_salon
Sassafrass Hair Salon Inc,"2390 Mendon Rd, Cumberland, RI 02864",Beauty salon,Cumberland,http://www.sassafrasshairsalon.com/,,,,,http://www.sassafrasshairsalon.com/contact,"
              Contact
            ",1,RI,02864,beauty_salon
Sport Clips Haircuts of McMinnville,"540 OR-99W Suite B, McMinnville, OR 97128",Hair salon,McMinnville,https://haircutmenmcminnvilleor.com/,,,,,https://www.sportclips.com/about-us/contact-us,Contact Us,1,OR,97128,beauty_salon
All About The Look Eyelash Studio,"1455 Mineral Spring Ave, North Providence, RI 02904",Beauty salon,North Providence,http://www.allaboutthelooklashes.com/,,,,,https://www.allaboutthelooklashes.com/contact-us,About Us,1,RI,02904,beauty_salon
Hair By Courtney B,"518 Lincoln Ave, Saugus, MA 01906",Hairdresser,Saugus,http://www.hairbycourtneyb.com/,,,,,https://www.hairbycourtneyb.com/contact,Contact,1,MA,01906,beauty_salon
The Salon  Hair & Beauty,"160 Lincoln Rd, Lincoln, MA 01773",Beauty salon,Lincoln,http://www.bellatusalon.com/,,,,,http://www.bellatusalon.com/contact-us.html,Contact Us,1,MA,01773,beauty_salon
Unique Beauty Bar LLC,"121 Lincoln St, Worcester, MA 01605",Electrolysis hair removal service,Worcester,http://www.fresha.com/,,,,,http://www.fresha.com/contact-us,Customer support,1,MA,01605,beauty_salon
Sport Clips Haircuts of Boston  South Station Financial District,"185 Essex St, Boston, MA 02111",Hair salon,Boston,https://haircutmenfinancialdistrictbostonma.com/,,,,,https://www.sportclips.com/about-us/contact-us,Contact Us,1,MA,02111,beauty_salon
Unique by Louise LLC,"121 Lincoln St level 2, Worcester, MA 01605",Electrolysis hair removal service,Worcester,https://www.uniquebylouise.com/,,,,,https://www.uniquebylouise.com/contact,Contact,1,MA,01605,beauty_salon
Hair Studio 6,"526 Franklin St, Melrose, MA 02176",Beauty salon,Melrose,https://hairstudiosix.com/,,,,,https://hairstudiosix.com/contacts/,Contact Us,1,MA,02176,beauty_salon
Newbury North Salon,"18 Lafayette Rd # 7, North Hampton, NH 03862",Beauty salon,North Hampton,http://www.newburynorthsalonnh.com/,,"Salon offering hair styling & coloring, plus keratin treatments, perms & facial waxing.",,,http://www.newburynorthsalonnh.com/contact.html,"
							Contact
						",1,NH,03862,beauty_salon
bisou by Melissa,"2 Haven St, Reading, MA 01867",Hair salon,Reading,http://www.bisoubymelissa.com/,,,,,http://www.bisoubymelissa.com/contact/,Contact,1,MA,01867,beauty_salon
Dr Shanthala MD Medspa Botox Specialist  Injectables  CoolSculpting  Acne Treatment  Vaginal Rejuvenation  PDO Threadlift,"194 Newbury St, Peabody, MA 01960",Medical spa,Peabody,https://shanthalamd.com/,,,,,https://shanthalamd.com/contact-us/,CONTACT US,1,MA,01960,beauty_salon
Emily Aarons Holistic Massage & Yoga,"618 Salem St, Lynnfield, MA 01940",Spa,Lynnfield,http://emilyaarons.com/,,,,,https://emilyaarons.com/contact/,Contact,1,MA,01940,beauty_salon
The Lux Studio,"81 S Main St, Middleton, MA 01949",Hair salon,Middleton,http://www.theluxstudioma.com/,,,,,http://www.theluxstudioma.com/contact,"
              Contact
            ",1,MA,01949,beauty_salon
Posh Lash,"99 Cambridge St, Burlington, MA 01803",Beauty salon,Burlington,http://www.poshlash.net/,,,,,http://www.poshlash.net/contact/,Contact,1,MA,01803,beauty_salon
Estrela Skin Care Inc,"214 Main St, Stoneham, MA 02180",Beauty salon,Stoneham,http://www.estrelaskincare.com/,,,,,http://www.estrelaskincare.com/contact,CONTACT,1,MA,02180,beauty_salon
Soma Day Spa,"341 North Ave, Wakefield, MA 01880",Spa,Wakefield,http://www.relaxatsoma.com/,,,,,http://www.relaxatsoma.com/tel:7812135099,(781) 213-5099,1,MA,01880,beauty_salon
Meraki Spa,"28 Broadway, Lynnfield, MA 01940",Spa,Lynnfield,http://www.merakispainc.com/,,,,,https://www.merakispainc.com/contact,CONTACT,1,MA,01940,beauty_salon
Boston Sports Clubs,"425 Walnut St, Lynnfield, MA 01940",Fitness center,Lynnfield,https://www.bostonsportsclubs.com/,,,,,https://www.bostonsportsclubs.com/contact-us,"
        Contact Us
    ",1,MA,01940,beauty_salon
Wild Seed Community Farm,"636 Rudd Pond Rd, Millerton, NY 12546",Spa,Millerton,http://www.wildseedcommunity.org/,,,,,http://www.wildseedcommunity.org/wildseedny@gmail.com,contact us,1,NY,12546,beauty_salon
The Massage School,"63 Wareham St, Boston, MA 02118",Massage school,Boston,http://www.themassageschool.org/,,,,,http://www.themassageschool.org/contact,Contact,1,MA,02118,beauty_salon
Needham Barber Shop,"41 Central Ave, Needham, MA 02494",Barber shop,Needham,https://www.needhambarbershop.com/,,,,,https://www.needhambarbershop.com/tel:7742252163,(774)225-2163,1,MA,02494,beauty_salon
Personal Image,"20 Chestnut St, Needham, MA 02492",Hair replacement service,Needham,http://personalimageofneedham.com/,,,,,http://personalimageofneedham.com/contact/,Contact,1,MA,02492,beauty_salon
Beauty Muse,"117 Chapel St, Needham, MA 02492",Skin care clinic,Needham,http://www.beautymuse.com/,,,,,http://www.beautymuse.com/pages/contact,"
                Contact
            ",1,MA,02492,beauty_salon
Suisse Natural Hair Salon,"31 Channing St, Newton, MA 02458",Hair salon,Newton,http://www.suissesalon.com/,,,,,https://www.suissesalon.com/contact,CONTACT,1,MA,02458,beauty_salon
Beauty Muse Collective,"33 4th Ave, Needham, MA 02494",Makeup artist,Needham,http://www.beautymusecollective.com/,,,,,http://www.beautymusecollective.com/contact-1,Contact,1,MA,02494,beauty_salon
Treat Wellness and Shine,"26 Princess St #2a, Wakefield, MA 01880",Permanent makeup clinic,Wakefield,http://shinemedspa.com/,,,,,http://shinemedspa.com/treat-wellness-and-shine-contact.html,Contact Us,1,MA,01880,beauty_salon
Bell's Barber Shop,"288 Main St, Reading, MA 01867",Barber shop,Reading,http://www.bellsbarbershop.com/,,,,,http://www.bellsbarbershop.com/contact-us,Contact Us,1,MA,01867,beauty_salon
Glow Skin Salon,"670 Main St, Reading, MA 01867",Skin care clinic,Reading,http://www.glowskinsalon.com/,,,,,http://glowskinsalon.com/contact-us/,Contact,1,MA,01867,beauty_salon
O'Dea's Barber Shop,"231 Haven St, Reading, MA 01867",Barber shop,Reading,https://odeasbarbershop.com/,,,,,https://odeasbarbershop.com/tel:7819440800,(781) 944-0800,1,MA,01867,beauty_salon
Massachusetts Beauty & Barber Supply,"76 Maple St Unit #400, Stoneham, MA 02180",Beauty supply store,Stoneham,http://massbeautysupply.com/,,,,,https://massbeautysupply.com/1787-2/,Find Us,1,MA,02180,beauty_salon
Ramon's Razors,"Sola Salons, 56 General Way Studio 18, Reading, MA 01867",Barber shop,Reading,http://ramonsrazors.glossgenius.com/,,,,,http://ramonsrazors.glossgenius.com/contact,Contact,1,MA,01867,beauty_salon
Tanorama of Stoughton,"595 Washington St #4209, Stoughton, MA 02072",Tanning salon,Stoughton,http://www.tanoramatanning.com/,,,,,http://www.tanoramatanning.com/contact.html,Contact,1,MA,02072,beauty_salon
Mike Blendz Barbershop Salon,"1608 Ownby Ln, Richmond, VA 23220",Barber shop,Richmond,http://www.mikeblendzllc.com/,,,,,http://www.mikeblendzllc.com/contact-us/,Contact Us,1,VA,23220,beauty_salon
VIP Cuts,"12 White St, Haverhill, MA 01830",Barber shop,Haverhill,http://www.vipcuts.net/,,,,,https://www.vipcuts.net/contact,CONTACT,1,MA,01830,beauty_salon
Platinum Salon ROC Inc,"311 Exchange Blvd, Rochester, NY 14608",Hair salon,Rochester,http://www.platinumsalonroc.com/,,,,,http://platinumsalonroc.com/contact-us/,Contact Us,1,NY,14608,beauty_salon
Ape  Canary on Strathallan,"566 East Ave, Rochester, NY 14607",Beauty salon,Rochester,http://www.apeandcanary.com/,,,,,https://apeandcanary.com/contact/,Contact,1,NY,14607,beauty_salon
Continental School of Beauty,"633 Jefferson Rd, Rochester, NY 14623",Beauty salon,Rochester,https://continentalschoolofbeauty.edu/,,,,,https://continentalschoolofbeauty.edu/contact-us/, Request Info,1,NY,14623,beauty_salon
Gateway Barber Shop,"3 Tremont Rd, Wareham, MA 02571",Barber shop,Wareham,http://www.gatewaybarber.com/,,,,,http://www.gatewaybarber.com/pages/the-shop-srq-barbershop-sarasota-about-contact.html,About | Contact,1,MA,02571,beauty_salon
