name,address,type,place,website_url,menu_url,description,gift_card_txt,gift_card_website,contact_website,contact_txt,searched,state,zipcode,store_type
JB Pride Uniforms,"1471 Main St, South Weymouth, MA 02190",Uniform store,South Weymouth,https://www.jbprideuniforms.com/,,,,,https://www.jbprideuniforms.com/uniforms/content/contact-us,Contact,1,MA,02190,clothing_store
Windward Trading Group,"77 SPARK St, Brockton, MA 02302",Clothing wholesaler,Brockton,http://windwardtrading.com/,,,,,http://windwardtrading.com/contact-us/,Contact Us,1,MA,02302,clothing_store
Volume Apparel,"49 Rose St, Stoughton, MA 02072",Clothing store,Stoughton,https://www.volumeapparel.com/,,,,,https://www.volumeapparel.com/mailto:info@volumeapparel.com?subject=Contact%20Us,Contact,1,MA,02072,clothing_store
Richard Lewis Formal wear & Kevin Michaels Men's Fine Clothing,"626 Washington St, Canton, MA 02021",Men's clothing store,Canton,http://rltux.com/,,,,,https://richardlewisformalwear.com/contact/,Contact Us!,1,MA,02021,clothing_store
Doughboy Uniforms,"295 Union St, Rockland, MA 02370",Uniform store,Rockland,http://doughboyuniforms.com/,,,,,http://doughboyuniforms.com/ContactUs,Contact Us,1,MA,02370,clothing_store
Rose Therese Caps & Gown Co,"59 Pleasant St, Brockton, MA 02301",Uniform store,Brockton,http://www.rosetherese.com/,,,,,http://rosetherese.com/contact-us/,Contact Us,1,MA,02301,clothing_store
The Yard Sale Store,"24 North St, Randolph, MA 02368",Thrift store,Randolph,http://theyardsalestore.org/,,,,,http://theyardsalestore.org/contact-us,Contact Us,1,MA,02368,clothing_store
Lulabelle,"222 Webster St, Hanover, MA 02339",Lingerie store,Hanover,http://mylulabelle.com/,,"Women's boutique offering refined contemporary European lingerie, sleepwear & swimwear.",,,http://mylulabelle.com/contact,"
            Contact
          ",1,MA,02339,clothing_store
Tuxedo Time,"8 Elm St, Braintree, MA 02184",Tuxedo shop,Braintree,http://tuxedotime.com/,,,,,https://tuxedotime.com/contact/,CONTACT,1,MA,02184,clothing_store
Touch of Design,"25 Washington St, North Easton, MA 02356",Dressmaker,North Easton,https://www.thetouchofdesign.com/,,,,,https://www.thetouchofdesign.com/appointment,Contact Us,1,MA,02356,clothing_store
Piesco Sporting Goods Inc,"130 Washington St, North Easton, MA 02356",Uniform store,North Easton,http://piescosports.com/,,,,,http://www.piescosports.com/contact/,Contact,1,MA,02356,clothing_store
MillCity Clothing Co,"45 Bridge St, Lowell, MA 01852",Clothing store,Lowell,http://everythinglowell.com/,,,,,http://everythinglowell.com/contact,Contact Us,1,MA,01852,clothing_store
A Piece of Heaven Ltd,"312 Main St, Hudson, MA 01749",Vintage clothing store,Hudson,https://www.apieceofheavenltd.com/,,,,,https://www.apieceofheavenltd.com/contact,Contact,1,MA,01749,clothing_store
Andrew D Lee & Co,"30 Monument St, Concord, MA 01742",Boutique,Concord,http://www.adleeco.com/,,,,,http://www.adleeco.com/contacts.htm,"
",1,MA,01742,clothing_store
Red Rover Clothing Co,"9 Vernon St # 1, Framingham, MA 01701",Clothing store,Framingham,https://redroverclothing.com/,,,,,https://redroverclothing.com/contact/,Contact,1,MA,01701,clothing_store
Freida B's Skating Apparel,"205 Walnut St, Framingham, MA 01702",Clothing store,Framingham,http://www.freidab.com/,,,,,https://www.freidab.com,Contact@FreidaB.com,1,MA,01702,clothing_store
Amari Prom,"138 Cambridge St, Burlington, MA 01803",Formal wear store,Burlington,http://www.amariprom.com/,,,,,http://www.amariprom.com/pages/contact,Contact Us,1,MA,01803,clothing_store
CambridgeWear,"73 Leonard St, Belmont, MA 02478",Women's clothing store,Belmont,http://www.cambridgewear.net/,,,,,http://www.cambridgewear.net/new-page,"
Contact us
",1,MA,02478,clothing_store
Cloak & Dagger Creations,"61 Gilson Rd, Littleton, MA 01460",Custom tailor,Littleton,https://www.cloakmaker.com/,,,,,https://www.cloakmaker.com/contact.html,"Contact
us! ",1,MA,01460,clothing_store
Chantilly Place,"73 Princeton St UNIT 7, North Chelmsford, MA 01863",Bridal shop,North Chelmsford,http://www.chantillyplace.net/,,Charming bridal shop offering designer & custom-made wedding gowns & bridesmaid dresses.,,,https://www.chantillyplace.net/home,CONTACT,1,MA,01863,clothing_store
Celia's Boutique,"111 William St, New Bedford, MA 02740",Boutique,New Bedford,http://shopceliasboutique.com/,,,,,http://shopceliasboutique.com/contact.html,"
		    Contact
		  ",1,MA,02740,clothing_store
Mike & Wayne's Uniforms & Accessories,"163 Huttleston Ave, Fairhaven, MA 02719",Uniform store,Fairhaven,http://mikeandwaynes.com/,,,,,https://mikeandwaynes.com/contact-us/,Contact Us,1,MA,02719,clothing_store
U7,"102 William St, New Bedford, MA 02740",Clothing store,New Bedford,http://shopuseven.com/,,"Hip, compact shop offering a variety of gently used, designer sneakers, streetwear & accessories.",,,http://shopuseven.com/pages/contact-us-today,CONTACT US ,1,MA,02740,clothing_store
Myron McLane Farrier Aprons,"49 Winter St, Somerset, MA 02726",Work clothes store,Somerset,http://myronmclaneaprons.com/,,,,,http://myronmclaneaprons.com/contact-us.html, Contact Us ,1,MA,02726,clothing_store
Glass Slipper,"1721 Acushnet Ave, New Bedford, MA 02746",Shoe store,New Bedford,http://www.glassslippernb.com/,,,,,http://www.glassslippernb.com/GlassSlipper_Contact.aspx,,1,MA,02746,clothing_store
Carmen Fashions Bridal,"1415 Pleasant St, Fall River, MA 02723",Bridal shop,Fall River,http://www.carmenfashions.com/,,"Bridal salon since 1997 with wedding gowns, prom & other special-occasion dresses, plus alterations.",,,http://www.carmenfashions.com/findus.php,FIND US,1,MA,02723,clothing_store
Just Looking Consignment Shop,"575 S St W #5, Raynham, MA 02767",Clothing store,Raynham,http://www.justlookingconsignmentshop.com/,,,,,http://www.justlookingconsignmentshop.com/contact-us/,Contact Us,1,MA,02767,clothing_store
Alexandra's Boutique,"372 S Main St, Fall River, MA 02721",Bridal shop,Fall River,https://www.alexandrasbridalboutique.com/,,"Elegant shop offering by-appointment bridal fittings, plus bridal party, prom & cocktail dresses.",,,https://www.alexandrasbridalboutique.com/./sub.php?Page=Text&PT=4985,Contact Us,1,MA,02721,clothing_store
Roberts House of Formals Warehouse,"310 Rhode Island Ave, Fall River, MA 02721",Tuxedo shop,Fall River,http://www.robertstux.com/,,,,,http://www.robertstux.com/contact-us.html,Contact Us,1,MA,02721,clothing_store
Cintas the Uniform People,"74 Downing Industrial Park, Pittsfield, MA 01201",Uniform store,Pittsfield,https://www.cintas.com/,,,,,https://www.cintas.com/#,Questions? Contact us for more information ,1,MA,01201,clothing_store
Pumpkin Patch Quilts,"43 Main St, Lee, MA 01238",Clothing store,Lee,http://www.pumpkinpatchquilts.com/,,,,,http://www.pumpkinpatchquilts.com/contact_us,click here for driving directions ,1,MA,01238,clothing_store
Tux Express,"313 North St, Pittsfield, MA 01201",Wedding store,Pittsfield,https://berkshirebride.com/,,,,,https://berkshirebride.com/contact-us,Contact Us,1,MA,01201,clothing_store
White's,"41 Maple St, East Longmeadow, MA 01028",Clothing store,East Longmeadow,http://shopwhites.com/,,,,,https://shopwhites.com/contact-directions/,Contact & Directions,1,MA,01028,clothing_store
Just B Prom,"900 Allen St, Springfield, MA 01118",Dress store,Springfield,http://www.justbprom.com/,,,,,http://www.justbprom.com/pages/contact-us,Contact,1,MA,01118,clothing_store
Urban Exchange,"233 Main St, Northampton, MA 01060",Women's clothing store,Northampton,http://www.urbanexchangekeene.com/,,"Women's consignment store offering apparel, shoes & accessories, including designer selections.",,,http://www.urbanexchangekeene.com/contact.html,"
				Contact
			",1,MA,01060,clothing_store
Polgold Jewelers,"63 Cabot St, Chicopee, MA 01013",Jewelry store,Chicopee,https://www.polgoldjewelers.com/,,,,,https://www.polgoldjewelers.com/contacts,"
Contacts
",1,MA,01013,clothing_store
Kissy's,"50 & 54 Elm St, Pittsfield, MA 01202",Women's clothing store,Pittsfield,http://www.shopkissysfineapparel.com/,,,,,http://www.shopkissysfineapparel.com/pages/contact-us,Contact Us,1,MA,01202,clothing_store
Kenver,"39 Main Street South Egremont, MA 01258, Egremont, MA 01230",Clothing store,Egremont,http://www.kenver.com/,,,,,https://www.kenver.com/contact-2/,contact,1,MA,01230,clothing_store
Shire Glass,"87 Railroad St, Great Barrington, MA 01230",Clothing store,Great Barrington,http://shireglass.com/,,,,,https://shireglass.com/contact/,Contact,1,MA,01230,clothing_store
Van Heusen  IZOD Company Store,"560 Premium Outlet Blvd, Lee, MA 01238",Clothing store,Lee,http://vanheusen.com/,,,,,https://help.vanheusen.partnerbrands.com/s/brand-form,Contact Us,1,MA,01238,clothing_store
Puddlejumpers,"31 Water St, Exeter, NH 03833",Children's clothing store,Exeter,http://www.puddlejumpersnh.com/,,,,,http://www.puddlejumpersnh.com/pages/we-are-renovating,"
Contact Us
",1,NH,03833,clothing_store
The Koza Clothing Company,"149 Washington St, Haverhill, MA 01832",Clothing store,Haverhill,http://www.kozykoza.com/,,,,,http://www.kozykoza.com/pages/contact-us,"
              Contact Us
            ",1,MA,01832,clothing_store
Blue Polly Boutique,"410 Middle Rd, Brentwood, NH 03833",Women's clothing store,Brentwood,https://kristalarson.com/,,,,,https://kristalarson.com/contact/,Contact Us,1,NH,03833,clothing_store
All Around Active,"15 Chapman Rd, Boxford, MA 01921",Clothing store,Boxford,http://allaroundactive.com/,,,,,https://allaroundactive.com/contact-us/,Contact Us,1,MA,01921,clothing_store
Dani Kaye,"85 Main St, North Andover, MA 01845",Women's clothing store,North Andover,http://www.danikaye.com/,,,,,http://www.danikaye.com/pages/contact-us,Contact Us,1,MA,01845,clothing_store
Starbird Jewelers,"80 Main St, Amesbury, MA 01913",Jeweler,Amesbury,http://www.starbirdjewelers.com/,,,,,http://www.starbirdjewelers.com/contact.html,Contact Us,1,MA,01913,clothing_store
Amy Vander Els,"9 Water St, Amesbury, MA 01913",Jewelry designer,Amesbury,http://www.amyvanderels.com/,,,,,http://www.amyvanderels.com/contact,Contact,1,MA,01913,clothing_store
Club Boutique and City Shoes,"10 Pleasant St, Portsmouth, NH 03801",Women's clothing store,Portsmouth,http://www.clubboutiquecityshoes.com/,,,,,https://clubboutiquecityshoes.com/contact/,Contact,1,NH,03801,clothing_store
Wheat Boutique Newburyport,"8 Inn Street, Newburyport, MA 01950",Boutique,Newburyport,http://wheatboutique.com/,,,,,http://wheatboutique.com/pages/we-ll-meet-you-there,Where to Find Us,1,MA,01950,clothing_store
Top Drawer,"147 Water St, Exeter, NH 03833",Lingerie store,Exeter,http://www.topdrawerboutique.com/,,,,,https://www.topdrawerboutique.com/contact-info,Return Policy,1,NH,03833,clothing_store
Elam's Widow,"20 Wilder Pl, Florence, MA 01062",Clothing store,Florence,http://elamswidow.com/,,,,,https://elamswidow.com/contact/,contact,1,MA,01062,clothing_store
Moldavite Dreams,"176 Main St, Greenfield, MA 01301",Clothing store,Greenfield,http://moldavitedreams.com/,,,,,https://moldavitedreams.com/contact/,Contact & Directions,1,MA,01301,clothing_store
Gazebo,"14 Center St, Northampton, MA 01060",Lingerie store,Northampton,https://www.the-gazebo.com/,,"Brand-name & custom lingerie & accessories are the draw at this long-standing, independent boutique.",,,https://www.the-gazebo.com/contact-us-2/,Get in Touch,1,MA,01060,clothing_store
Peak Performance Bicycles,"77 W State St, Granby, MA 01033",Clothing store,Granby,https://peakbikes.com/,,,,,https://peakbikes.com/tel:4134672453,(413) 467-2453,1,MA,01033,clothing_store
Andover Discount Dance & Costume,"33 S Broadway, Lawrence, MA 01843",Clothing store,Lawrence,http://www.andoverdiscountdance.com/,,,,,http://www.andoverdiscountdance.com/contact/4955373,CONTACT,1,MA,01843,clothing_store
Halloween Headquarters,"33 S Broadway, Lawrence, MA 01843",Costume store,Lawrence,http://www.halloweenheadquarterslawrence.com/,,,,,http://www.halloweenheadquarterslawrence.com/contact/3609480,CONTACT,1,MA,01843,clothing_store
Brissonte Gifts & Home Decor,"157 Main St, North Reading, MA 01864",Gift shop,North Reading,https://brissonte.com/,,,,,https://www.brissonte.com/brissonte,Contact Info,1,MA,01864,clothing_store
Varsity Swim Shop,"157 Main St, North Reading, MA 01864",Swimwear store,North Reading,http://www.varsityswim.com/,,,,,https://www.varsityswim.com/CTUS.html,CONTACT,1,MA,01864,clothing_store
La Scala Bridal Shoppe,"1875 Main St, Tewksbury, MA 01876",Bridal shop,Tewksbury,http://www.lascalabridal.net/,,,,,http://www.lascalabridal.net/#1148798038,"  

Contact Us
",1,MA,01876,clothing_store
Royal Jewelers,"58 Main St, Andover, MA 01810",Jewelry store,Andover,https://royaljewelers.com/,,"Long-running store featuring designer jewelry & Swiss watches, plus repair services.",,,https://royaljewelers.com/contact-royal/,Contact Royal,1,MA,01810,clothing_store
Hey Chick,"75 Middlesex Turnpike Suite #1309, Burlington, MA 01803",Women's clothing store,Burlington,https://shopheychick.com/,,,,,https://shopheychick.com/pages/contact-us,Contact Us,1,MA,01803,clothing_store
The Andover Shop,"22 Holyoke St, Cambridge, MA 02138",Clothing store,Cambridge,http://www.theandovershop.com/,,"Longtime traditional menswear shop offering classic, preppy styles & made-to-measure suiting.",,,https://theandovershop.com/contacts/,"Contact
",1,MA,02138,clothing_store
MV ALLSTON,"15 Circuit Ave, Oak Bluffs, MA 02557",Women's clothing store,Oak Bluffs,http://www.mvallston.com/,,,,,http://www.mvallston.com/pages/contact-directions,GET HERE,1,MA,02557,clothing_store
Soft as a Grape,"14 Circuit Ave, Oak Bluffs, MA 02557",Clothing store,Oak Bluffs,https://softasagrape.com/,,,,,https://softasagrape.com/contact/,Contact,1,MA,02557,clothing_store
Biba,"53 Main St B, Vineyard Haven, MA 02568",Clothing store,Vineyard Haven,https://www.biba.in/,,,,,https://www.biba.in/contact-us,Contact Us,1,MA,02568,clothing_store
Xwearcom,"193 Main St, Falmouth, MA 02540",Clothing store,Falmouth,http://www.x-wear.com/,,,,,http://www.x-wear.com/pages/contact-us,"
          Contact Us

          
            







",1,MA,02540,clothing_store
Cape Chic,"176 Main St, Falmouth, MA 02540",Clothing store,Falmouth,http://www.capechic.com/,,,,,http://www.capechic.com/pages/contact-us,Contact Us,1,MA,02540,clothing_store
Martha's Vineyard Beach Boutique  Unique Gifts and Beach Supplies,"23 Winter St #15, Edgartown, MA 02539",Gift shop,Edgartown,https://mvbeachboutique.wixsite.com/,,,,,https://www.marthasvineyardescaperoom.com,CONTACT,1,MA,02539,clothing_store
Stefanie Wolf Designs,"12 N Water St, Edgartown, MA 02539",Jewelry store,Edgartown,http://stefaniewolf.com/,,,,,http://stefaniewolf.com/pages/contact-the-studio,"
          Contact",1,MA,02539,clothing_store
Tidal Effects,"24 Spring Bars Rd #2a, Falmouth, MA 02540",Clothing store,Falmouth,http://www.tidaleffectscapecod.com/,,,,,http://www.tidaleffectscapecod.com/contact.html,"
		    Contact
		  ",1,MA,02540,clothing_store
Sneakers The Boss,"2130, 1707 Acushnet Ave, New Bedford, MA 02746",Clothing store,New Bedford,http://www.elchuchobeatzmusic.com/,,,,,//www.blogger.com/rearrange?blogID=1542687222067876164&widgetType=ContactForm&widgetId=ContactForm1&action=editWidget&sectionId=sidebar-right-2-1,"

",1,MA,02746,clothing_store
Little Anchor Boutique,"424 E Falmouth Hwy, East Falmouth, MA 02536",Clothing store,East Falmouth,https://little-anchor-boutique.myshopify.com/,,,,,https://little-anchor-boutique.myshopify.com/pages/contact-us,Contact Us,1,MA,02536,clothing_store
Sports Haven,"5 Beach St, Vineyard Haven, MA 02568",Sporting goods store,Vineyard Haven,http://www.mvsportshaven.com/,,,,,http://mvsportshaven.com/athletic-merchandise/contact/,Contact,1,MA,02568,clothing_store
Cottage Haven Interiors,"18 Beach St, Vineyard Haven, MA 02568",Clothing store,Vineyard Haven,http://www.cottagehaveninteriors.com/,,,,,http://www.cottagehaveninteriors.com/pages/contact-us,Contact Us,1,MA,02568,clothing_store
The Glasshouse,"24 Union St, Vineyard Haven, MA 02568",Gift shop,Vineyard Haven,https://www.theglasshousema.com/,,,,,https://www.theglasshousema.com/#contact,"
Contact

",1,MA,02568,clothing_store
Strollie  By The Duvet Company,"P216 PO Box, South Dartmouth, MA 02748",Baby store,South Dartmouth,http://www.strollie.com/,,,,,//www.hugedomains.com/contact.cfm,Contact Us,1,MA,02748,clothing_store
Murray's Toggery Shop,"62 Main St, Nantucket, MA 02554",Clothing store,Nantucket,http://www.nantucketreds.com/,,"Long-running store selling Nantucket Reds clothing & other apparel, plus gifts & accessories.",,,http://www.nantucketreds.com/pages/contact,Contact Us,1,MA,02554,clothing_store
Rainy Day,"66 Main St, Vineyard Haven, MA 02568",Gift shop,Vineyard Haven,http://rainydaymv.com/,,,,,http://rainydaymv.com/pages/a-walking-guide,Find Us!,1,MA,02568,clothing_store
Fatima's Bridal,"53 Main St, Fairhaven, MA 02719",Boutique,Fairhaven,http://fatimasbridal.com/,,,,,http://fatimasbridal.com/contact/,Contact,1,MA,02719,clothing_store
Head Over Heels Bridal Boutique,"52 Market St, Mashpee, MA 02649",Bridal shop,Mashpee,http://www.hohbridal.com/,,"Airy, shabby-chic showroom for stylish, sophisticated bridal gowns & handmade wedding favors.",,,http://www.hohbridal.com/contact,Contact Us,1,MA,02649,clothing_store
Monella,"29 Brattle St, Cambridge, MA 02138",Women's clothing store,Cambridge,http://www.monellaboutique.com/,,,,,https://www.monellaboutique.com/contact,Contact,1,MA,02138,clothing_store
SoleAmour,"17 Thompson St, Winchester, MA 01890",Women's clothing store,Winchester,https://www.soleamour.com/,,,,,https://www.soleamour.com/contact/,CONTACT,1,MA,01890,clothing_store
Helena's,"397 Massachusetts Ave, Arlington, MA 02474",Boutique,Arlington,https://ilovehelenas.com/,,Chic boutique catering to women wanting stylish wear that can be worn every day & anywhere.,,,https://www.ilovehelenas.com/contact-us,Contact Us,1,MA,02474,clothing_store
Artbeat Creativity Store & Studio,"212 Massachusetts Ave A, Arlington, MA 02474",Gift shop,Arlington,http://artbeatonline.com/,,Pint-sized shop featuring an array of art supplies plus classes of all types & a walk-in studio.,,,https://artbeatonline.com/about-us/contact-us/,Contact Us,1,MA,02474,clothing_store
Allegria Bridal,"285 Belmont St, Belmont, MA 02478",Bridal shop,Belmont,http://allegriabridal.com/,,High-end wedding-dress specialist offering bridal & bridesmaid gowns from renowned designers.,,,http://allegriabridal.com/style-search-contact-us.html,Style Search,1,MA,02478,clothing_store
T C Jewelers,"456 Massachusetts Ave, Arlington, MA 02474",Jeweler,Arlington,http://www.tcjewelers.com/,,"Cozy jewelry retailer & design shop for engagement rings, wedding bands & jewelry design.",,,http://www.tcjewelers.com/contact-us.html,"
				Contact Us
			",1,MA,02474,clothing_store
Hemlock Ink Screen Printing & Embroidery,"19 Properzi Way, Somerville, MA 02143",Clothing store,Somerville,http://www.hemlockink.com/,,,,,http://www.hemlockink.com/#contact_us,Contact,1,MA,02143,clothing_store
Fjallraven Cambridge,"63 Church St, Cambridge, MA 02138",Clothing store,Cambridge,http://www.fjallraven.us/,,,,,http://www.fjallraven.us/us/en-us/customer-service/contact,"
Contact Us
",1,MA,02138,clothing_store
Utopia Cleaners,"1370 Massachusetts Ave, Arlington, MA 02476",Clothing alteration service,Arlington,http://utopiacleanersboston.com/,,,,,https://utopiacleanersboston.com/contact/,Contact,1,MA,02476,clothing_store
Military Clothing Store,"58 MacArthur Ave, Devens, MA 01434",Clothing store,Devens,http://www.military.com/,,,,,https://www.military.com/member-reg/login.html?vlv_redir=https://www.military.com/base-guide/fort-devens/contact/military-clothing-sales/8085,Login,1,MA,01434,clothing_store
Anne's Bridal & Tux,"312 Central St, Gardner, MA 01440",Bridal shop,Gardner,http://annesbridalandtux.com/,,"Bridal salon with many wedding & bridesmaid gowns, plus elegant dresses for proms & quinceañeras.",,,http://annesbridalandtux.com/contact,Contact,1,MA,01440,clothing_store
Bottom Drawers,"13 Richards Rd, Princeton, MA 01541",Clothing store,Princeton,http://www.bottomdrawers.com/,,,,,http://www.bottomdrawers.com/contactus.htm,Contact Us,1,MA,01541,clothing_store
Evans On the Common,"18 Highland St, Townsend, MA 01469",Clothing store,Townsend,http://www.evansonthecommon.com/,,"Retailer in an 1800s schoolhouse offering men's, women's & kids' shoes, outdoor gear, toys & gifts.",,,https://www.evansonthecommon.com/contact,CONTACT,1,MA,01469,clothing_store
Six 20 Six Fashion Consignment,"626 Main St, Clinton, MA 01510",Clothing store,Clinton,http://www.six20six.com/,,,,,http://www.six20six.com/contact,Contact,1,MA,01510,clothing_store
Country Bridals and Formal Wear,"17 Main St, Jaffrey, NH 03452",Bridal shop,Jaffrey,http://www.countrybridals.com/,,"Bridal salon carrying off-the-shelf designer gowns, plus special-occasion apparel & tuxedos.",,,https://www.countrybridals.com/contact-us,CONTACT US,1,NH,03452,clothing_store
Thrifty Bear,"2 Main St UNIT 3, Jaffrey, NH 03452",Clothing store,Jaffrey,http://thethriftybear.weebly.com/,,,,,http://thethriftybear.weebly.com/contact-us.html,Contact Us,1,NH,03452,clothing_store
Joseph's Coat,"32 Grove St, Peterborough, NH 03458",Clothing store,Peterborough,http://www.jocoat.com/,,,,,http://www.jocoat.com/contact,Contact,1,NH,03458,clothing_store
Acts,"106 Carter St, Leominster, MA 01453",Costume rental service,Leominster,http://actscostumes.com/,,,,,http://new.actscostumes.com/contact,Contact,1,MA,01453,clothing_store
Formal Attire Tuxedo Rentals,"100 Commercial Rd, Leominster, MA 01453",Tuxedo shop,Leominster,http://www.tuxedo-prom-wedding-rental-leominster.com/,,,,,http://www.tuxedo-prom-wedding-rental-leominster.com/contact.html,"





Contact Us


",1,MA,01453,clothing_store
Clay's,"417 West St, Keene, NH 03431",Women's clothing store,Keene,http://www.claysclothing.com/,,,,,https://www.claysclothing.com/hours-locations-and-contact-info/,"Hours, Locations and Contact Info",1,NH,03431,clothing_store
Pollywogs,"1024 Great Plain Ave, Needham, MA 02492",Clothing store,Needham,https://pollywogskids.com/,,,,,https://pollywogskids.com/tel:7814440876,781-444-0876,1,MA,02492,clothing_store
Lacoste,"80 Premium Outlets Blvd Space 725, Merrimack, NH 03054",Clothing store,Merrimack,https://www.lacoste.com/,,,,,https://www.lacoste.com/us/FAQ.html,"




Help & Support

",1,NH,03054,clothing_store
Marry & Tux Bridal,"100 Daniel Webster Hwy, Nashua, NH 03060",Bridal shop,Nashua,http://www.marryandtuxbridal.com/,,"Longstanding shop offering both off-the-rack & special-order wedding dresses, plus tuxedo rentals.",,,http://www.marryandtuxbridal.com/tel:6038836999,"

",1,NH,03060,clothing_store
Mass Audubon Shop,"208 S Great Rd, Lincoln, MA 01773",Gift shop,Lincoln,https://www.massaudubon.org/,,,,,https://www.massaudubon.org/contact-us,Contact Us,1,MA,01773,clothing_store
C P Shades,"2633 Ashby Ave, Berkeley, CA 94705",Clothing store,Berkeley,http://cpshades.com/,,,,,https://cpshades.com/contact/,Contact,1,CA,94705,clothing_store
Aliber's Bridal,"18 Federal St, Greenfield, MA 01301",Bridal shop,Greenfield,http://www.alibersbridal.com/,,"Long-running shop for designer bridal gowns,  bridesmaid dresses & accessories, plus tuxedo rentals.",,,https://www.alibersbridal.com/contact-us, BOOK,1,MA,01301,clothing_store
Synergy,"197 Main St, Northampton, MA 01060",Outerwear store,Northampton,http://www.synergysportswear.com/,,,,,http://www.synergysportswear.com/pages/contact-us,Contact Us,1,MA,01060,clothing_store
Against All Odds Usa,"50 Holyoke St, Holyoke, MA 01040",Clothing store,Holyoke,http://aao-usa.com/,,,,,http://aao-usa.com/pages/contact-us,"
              Contact Us
              
            ",1,MA,01040,clothing_store
My Hats,"150 Main St, Northampton, MA 01060",Hat shop,Northampton,http://myhats.org/,,,,,http://myhats.org/mailto:webmaster@myhats.org,Contact your hosting provider,1,MA,01060,clothing_store
Sentry Uniforms,"803 James St #101, Chicopee, MA 01020",Uniform store,Chicopee,http://www.sentryuniform.com/,,"Long-running go-to for law enforcement uniforms, flags & flagpoles, decals & custom embroidery.",,,http://www.sentryuniform.com/index.php?page=contact-us,13: Contact Us,1,MA,01020,clothing_store
Berkshire Wedding Associates,"313 North St, Pittsfield, MA 01201",Bridal shop,Pittsfield,http://www.berkshirebride.com/,,,,,http://www.berkshirebride.com/contact-us,Contact Us,1,MA,01201,clothing_store
Custom Apparel Inc,"135 Main St, Medway, MA 02053",Sportswear store,Medway,http://www.customapparelcai.com/,,,,,http://www.customapparelcai.com/contact,"
Contact Us
",1,MA,02053,clothing_store
Spallone & Son,"90 Main St, Milford, MA 01757",Men's clothing store,Milford,http://spalloneandson.webs.com/,,,,,https://www.spalloneandson.com/contact-us,Contact Us,1,MA,01757,clothing_store
TriValley Sports & Apparel,"106 Main St, Medway, MA 02053",Sporting goods store,Medway,http://tri-valleysports.com/,,,,,http://tri-valleysports.com/info/contact/,Contact,1,MA,02053,clothing_store
EA Davis & Company,"579 Washington St, Wellesley, MA 02482",Clothing store,Wellesley,https://eadavisshop.com/,,,,,https://eadavisshop.com/contact/,Contact,1,MA,02482,clothing_store
Commercial Painting Company Interior Exterior Painting Services,"100 Concord St #1CR, Framingham, MA 01702",Bridal shop,Framingham,http://www.trustpainting.com/,,,,,http://www.trustpainting.com/contact_painter.php,Contact,1,MA,01702,clothing_store
Anna Nieman Couture,"550 Washington St, Wellesley, MA 02482",Clothing store,Wellesley,http://www.annanieman.com/,,,,,http://www.annanieman.com/pages/contact-us-boston,Contact,1,MA,02482,clothing_store
Habitat  Clothes To Live In,"349 Lenox St, Norwood, MA 02062",Women's clothing store,Norwood,https://www.habitatclothes.com/,,,,,https://habitatclothes.com/contact/,Contact,1,MA,02062,clothing_store
Aria Couture,"1245 Worcester St, Natick, MA 01760",Bridal shop,Natick,http://www.ariacouture.net/,,"Women's boutique with designer special-occasion attire, including evening gowns & bridal dresses.",,,https://www.ariacouture.net,Contact Us,1,MA,01760,clothing_store
Janee's Originals,"117 Jerrold St, Holliston, MA 01746",Dressmaker,Holliston,http://www.janeesoriginals.com/,,,,,http://www.janeesoriginals.com/mailto:jsoriginals@verizon.net?subject=Saw your website and I'd like more information,Contact me!,1,MA,01746,clothing_store
Noureen Design,"66 Dinsmore Ave #310, Framingham, MA 01702",Bridal shop,Framingham,http://noureendesign.com/,,,,,https://noureendesign.com/contact/,Contact,1,MA,01702,clothing_store
Fire Department Clothing,"180 Hempstead Turnpike, West Hempstead, NY 11552",Uniform store,West Hempstead,https://www.firedepartmentclothing.com/,,,,,https://www.firedepartmentclothing.com/pages/contact-us,Contact Us,1,NY,11552,clothing_store
Dansco,"1299 County St, Attleboro, MA 02703",Costume store,Attleboro,https://www.dansco.com/,,,,,https://www.dansco.com/contact-us/,Contact Us,1,MA,02703,clothing_store
Aria Bridal & Formal,"999 S Washington St, North Attleborough, MA 02760",Bridal shop,North Attleborough,https://www.ariacouture.net/,,,,,https://www.ariacouture.net,Contact Us,1,MA,02760,clothing_store
LIPO EXPRESS FAJAS COLOMBIANAS,"162 Broad St, Pawtucket, RI 02860",Clothing store,Pawtucket,https://www.lipoexpressfajascolombianas.com/,,,,,https://www.lipoexpressfajascolombianas.com,Contact,1,RI,02860,clothing_store
Fragrance Outlet,"1 Premium Outlet Blvd # 875, Tinton Falls, NJ 07753",Perfume store,Tinton Falls,https://www.fragranceoutlet.com/,,,,,https://www.fragranceoutlet.com/pages/contact-us,Contact Us,1,NJ,07753,clothing_store
Helene's Bridal Shop,"84 Taunton Ave, East Providence, RI 02914",Bridal shop,East Providence,http://www.helenesboutique.com/,,"Independent boutique featuring wedding gowns & prom, bridesmaid, flower girl & mothers' dresses.",,,http://www.helenesboutique.com/contact,Contact,1,RI,02914,clothing_store
Kind By Nature,"482 Southbridge St #164, Auburn, MA 01501",Baby store,Auburn,http://kindbynatureliving.com/,,,,,http://kindbynatureliving.com/contact-us/,Contact,1,MA,01501,clothing_store
QLook Bridal,"1219 Main St, Worcester, MA 01603",Bridal shop,Worcester,http://www.qlookbridalonline.com/,,Formalwear boutique specializing in modern & classic gowns for mothers of the bride & groom.,,,http://www.qlookbridalonline.com/sub.php?Page=Text&PT=ContactUs,Contact Us,1,MA,01603,clothing_store
Rocco's Gentlemen's Clothing,"315 Park Ave, Worcester, MA 01609",Men's clothing store,Worcester,http://www.roccothetailor.com/,,,,,http://www.roccothetailor.com/contact,Contact,1,MA,01609,clothing_store
Starline Fashions,"147 Pleasant St, Worcester, MA 01609",Clothing store,Worcester,http://www.starlinefashions.com/,,,,,http://box2125.temp.domains/~starliv6/home/,Contact,1,MA,01609,clothing_store
Grime,"356 Shrewsbury St, Worcester, MA 01604",Thrift store,Worcester,http://grimeworcester.com/,,,,,http://grimeworcester.com/contact,CONTACT,1,MA,01604,clothing_store
Bikini Pilot,"553 Cambridge St, Worcester, MA 01610",Swimwear store,Worcester,http://www.bikinipilot.com/,,,,,http://www.bikinipilot.com/pages/contact-us,"
            Contact Us
          ",1,MA,01610,clothing_store
Alexis Bridal,"413 Chandler St, Worcester, MA 01602",Bridal shop,Worcester,http://alexisbridalformals.com/,,"Local salon with designer wedding gowns & other special-occasion fashions, plus on-site alterations.",,,http://alexisbridalformals.com/contact," Contact Us

",1,MA,01602,clothing_store
Goldstein Swank & Gordon,"385 Southbridge St, Auburn, MA 01501",Jewelry store,Auburn,http://www.goldsteinswankgordon.com/,,,,,http://www.goldsteinswankgordon.com/contacts,Contact Us,1,MA,01501,clothing_store
US Sports and Apparel,"276 W Main St, Northborough, MA 01532",Sporting goods store,Northborough,https://ussportsandapparel.com/,,,,,https://ussportsandapparel.com/contact,Contact,1,MA,01532,clothing_store
Auburn Sewing Center,"850 Southbridge St #3, Auburn, MA 01501",Sewing machine repair service,Auburn,http://www.auburnsew.com/,,,,,http://www.auburnsew.com/contact-us.htm,Contact Us,1,MA,01501,clothing_store
Trippi's Uniforms Inc,"268 Boston Turnpike, Shrewsbury, MA 01545",Uniform store,Shrewsbury,http://trippisuniforms.com/,,"Store selling uniforms & shoes for first responders, postal employees, schools & more.",,,http://www.trippisuniforms.com/mm5/merchant.mvc?Screen=CNCT&Store_Code=TU,Contact,1,MA,01545,clothing_store
Allens School Uniforms,"452 W Boylston St, Worcester, MA 01606",Uniform store,Worcester,http://www.allensuniforms.com/,,"Cozy, longtime uniform supply shop carrying school & hospital attire, shoes & activewear.",,,https://www.allensuniforms.com/index.php/contact-us/,Contact Us,1,MA,01606,clothing_store
Sugarplums,"36 N Main St, North Grafton, MA 01536",Boutique,North Grafton,http://www.danceitup.com/,,,,,http://www.danceitup.com/mailto:danceitup@danceitup.com?subject=Contact Us,danceitup@danceitup.com,1,MA,01536,clothing_store
Hardwick Farmers CoOp Exchange,"444 Lower Rd, Gilbertville, MA 01031",Clothing store,Gilbertville,http://www.hardwickfarmers.net/,,,,,http://www.hardwickfarmers.net/contact.html,Contact,1,MA,01031,clothing_store
Natale's Men's Clothier,"370 Washington St, Norwell, MA 02061",Men's clothing store,Norwell,http://www.natalesclothing.com/,,,,,http://www.natalesclothing.com/category-s/1852.htm,Contact,1,MA,02061,clothing_store
Keeping Pace With Multiple Miracles,"194 S Main St #4, West Bridgewater, MA 02379",Thrift store,West Bridgewater,http://www.keepingpace.org/,,,,,http://keepingpace.org/find-us/,Directions,1,MA,02379,clothing_store
Euro Glam Dance Boutique,"20 Broadway STE 4, Norwood, MA 02062",Clothing store,Norwood,http://www.euroglamdanceboutique.com/,,,,,http://www.euroglamdanceboutique.com/pages/contact-us,Contact Us,1,MA,02062,clothing_store
Prada Boston Saks Donna RTW,"800 Boylston St #1, Boston, MA 02199",Clothing store,Boston,https://www.prada.com/,,"Retailer of upscale apparel, handbags, fragrances & more from the Italian designer.",,,https://www.prada.com/us/en/info/contact-us.html,"
                    Or write a message
                ",1,MA,02199,clothing_store
Ellie Kai,"7 Parker Rd, Osterville, MA 02655",Women's clothing store,Osterville,https://www.elliekai.com/,,,,,https://www.elliekai.com/contact,Contact Us,1,MA,02655,clothing_store
Buckle Works,"4701 Falmouth Rd, Cotuit, MA 02635",Clothing store,Cotuit,http://www.buckleworks.net/,,,,,https://www.buckleworks.net/contact,CONTACT,1,MA,02635,clothing_store
Sposabella Bridal,"28 Barnstable Rd #5552, Hyannis, MA 02601",Bridal shop,Hyannis,http://www.sposabellabridals.com/,,"Local store with wedding, prom & other special-occasion dresses, plus on-site alterations & tuxedos.",,,http://www.sposabellabridals.com/wedding-gowns-cape-cod-wedding-contact.asp,,1,MA,02601,clothing_store
Kandy Korner,"474 Main St, Hyannis, MA 02601",Clothing store,Hyannis,https://www.kandykorner.com/,,,,,https://www.kandykorner.com/pages/contact-us,Contact Us,1,MA,02601,clothing_store
MOCEAN Cape Cod,"846 Main St, Osterville, MA 02655",Outdoor clothing and equipment shop,Osterville,http://www.moceancapecod.com/,,,,,http://www.moceancapecod.com/pages/contact-us,Contact Us,1,MA,02655,clothing_store
Cape Cat,"987 MA-28, South Yarmouth, MA 02664",Clothing store,South Yarmouth,https://www.capecat.com/,,,,,https://www.capecat.com/catalog/contact_us.php,Contact Us,1,MA,02664,clothing_store
Mrs Mitchells Gifts,"362 Main St, Hyannis, MA 02601",Gift shop,Hyannis,https://www.mrsmitchellscapecod.com/,,,,,https://www.mrsmitchellscapecod.com/contact,Contact,1,MA,02601,clothing_store
Cape Cod Hospital Auxiliary Thrift Shop,"690 Main St, Hyannis, MA 02601",Thrift store,Hyannis,http://www.capecodhospitalauxiliary.org/,,,,,http://www.capecodhospitalauxiliary.org/contact-us/,Contact Us,1,MA,02601,clothing_store
Heart of Stone,"130 MA-6A, Sandwich, MA 02563",Gift shop,Sandwich,http://www.heartofstoneonline.com/,,,,,https://www.heartofstoneonline.com/contact,Contact,1,MA,02563,clothing_store
Mermaids on Cape Cod Boutique,"Main Street, 855 MA-28, West Dennis, MA 02670",Gift shop,West Dennis,http://www.mermaidsoncapecod.com/,,,,,http://www.mermaidsoncapecod.com/pages/contact-us,Contact Us,1,MA,02670,clothing_store
Ben's,"68 Main St, Lee, MA 01238",Shoe store,Lee,http://www.bensinlee.com/,,,,,http://www.bensinlee.com/contact,"
              Contact Us
            ",1,MA,01238,clothing_store
Prom Central At Deidre's,"Park Square, 2 South St, Pittsfield, MA 01201",Fashion accessories store,Pittsfield,http://promcentral.net/,,,,,http://promcentral.net/contact,Contact ,1,MA,01201,clothing_store
Jessie Couture,"610 College Hwy, Southwick, MA 01077",Boutique,Southwick,http://www.jessiecouturestore.com/,,,,,http://jessiecouturestore.com/index.php/contact/,Contact,1,MA,01077,clothing_store
Family Footwear Center,"444 Pittsfield Rd, Lenox, MA 01240",Shoe store,Lenox,https://www.familyfootwearcenter.com/,,,,,https://www.facebook.com/FamilyFootwearCenterLenoxMA/,,1,MA,01240,clothing_store
Fritz & Gigi,"79 Main St, Concord, MA 01742",Children's clothing store,Concord,http://www.fritzandgigi.com/,,,,,https://www.fritzandgigi.com/contact,CONTACT,1,MA,01742,clothing_store
Tess & Carlos,"81 Main St, Concord, MA 01742",Women's clothing store,Concord,http://www.tessandcarlos.com/,,,,,http://www.tessandcarlos.com/contact-us/,Contact Us,1,MA,01742,clothing_store
Smita's Boutique,"120 Cambridge St, Burlington, MA 01803",Boutique,Burlington,http://www.smitas.com/,,"Cozy boutique stocking vibrant Indian apparel, including bridal wear, jewelry & accessories.",,,http://www.smitas.com/#contact,Contact,1,MA,01803,clothing_store
Averill's Sharper Uniforms Store,"159 Overland Rd, Waltham, MA 02451",Uniform store,Waltham,https://www.sharperuniforms.com/,,,,,https://www.sharperuniforms.com/contact-us.html,Contact Us,1,MA,02451,clothing_store
The Landing Gift Shop & Chandlery,"98 Front St, New Bedford, MA 02740",Gift shop,New Bedford,http://www.thelandingshop.com/,,,,,http://www.thelandingshop.com/tel:5086429211,(508) 642-9211,1,MA,02740,clothing_store
FIORI,"305 Union St, Franklin, MA 02038",Boutique,Franklin,http://www.fioriflorals.com/,,,,,http://www.fioriflorals.com/hoursandcontact,"
            Hours & Contact
          ",1,MA,02038,clothing_store
Bridals BY Rochelle,"110 Church St, Whitinsville, MA 01588",Bridal shop,Whitinsville,http://www.bridalsbyrochelle.com/,,"Established bridal shop carrying designer gowns & bridesmaid dresses, plus in-house alterations.",,,http://bridalsbyrochelle.com/contact/,Contact,1,MA,01588,clothing_store
Soka European Boutique,"308A Watertown St, Newton, MA 02458",Dress store,Newton,http://www.sokaeuropeanboutique.com/,,,,,http://www.sokaeuropeanboutique.com/#contact-us,contact us,1,MA,02458,clothing_store
Vows Bridal,"130 Galen St, Watertown, MA 02472",Bridal shop,Watertown,http://www.vowsbridal.com/,,Discount wedding-gown seller carrying overstock & sample dresses from designer brands.,,,https://vowsbridal.com/contact-us/,Contact Us,1,MA,02472,clothing_store
Formalwear Limited,"15 Elm St, Waltham, MA 02453",Tuxedo shop,Waltham,http://www.formalwearltd.com/,,,,,http://www.formalwearltd.com/#contact,CONTACT,1,MA,02453,clothing_store
Armani Exchange,"100 Cambridgeside Pl Space W - 116, Cambridge, MA 02141",Clothing store,Cambridge,http://www.armaniexchange.com/,,Fashion retailer selling high-end apparel & accessories from the namesake designer.,,,https://www.armaniexchange.com/system/web/custom/hp/email.jsp,"
                        Contact Us
                    ",1,MA,02141,clothing_store
Elite Feet Ballet Boutique,"85 Main St #102, Watertown, MA 02472",Boutique,Watertown,https://www.elitefeetllc.com/,,,,,https://www.elitefeetllc.com/contact.html,Contact,1,MA,02472,clothing_store
Bride's Choice,"205 Lexington St, Waltham, MA 02452",Bridal shop,Waltham,http://www.brideschoiceonline.com/,,"Longtime boutique with designer wedding gowns & other special-occasion dresses, plus tuxedo rentals.",,,https://www.brideschoiceonline.com/contact-us,Contact,1,MA,02452,clothing_store
USA Rugby Club Inc,"9 Boyd St, Watertown, MA 02472",Sportswear store,Watertown,http://www.usarugbyclub.com/,,"Sportswear specialist featuring customized rugby gear, from jerseys to uniforms to flip-flops.",,,http://www.usarugbyclub.com/tel:9783175491,(978) 317-5491,1,MA,02472,clothing_store
Company Store Uniforms,"657 Quarry St, Fall River, MA 02723",Uniform store,Fall River,http://www.companystoreuniforms.com/,,This uniform store sells discounted pieces ranging from medical & nursing scrubs to chef coats.,,,http://www.companystoreuniforms.com/pages/contact-us,"
            Contact
            

+



-

",1,MA,02723,clothing_store
Goal Line Pro Shop,"1568 Broadway, Raynham, MA 02767",Sportswear store,Raynham,https://www.goallineproshop.com/,,,,,https://www.goallineproshop.com/contact-us,Contact Us,1,MA,02767,clothing_store
Sari Palace,"1000 University Ave, Berkeley, CA 94710",Clothing store,Berkeley,http://www.thesaripalace.com/,,"Women's boutique specializing in Indian saris & salwars, plus bridal wear & men's & kids' items.",,,https://thesaripalace.com/contact-us/,Contact Us,1,CA,94710,clothing_store
Outback In the Temple of Venus,"1799 Fourth St, Berkeley, CA 94710",Women's clothing store,Berkeley,http://outbackinthetempleofvenus.com/,,Whimsical & feminine fashions are the hallmark of this designer-owned boutique with a New Age vibe.,,,http://outbackinthetempleofvenus.com/contact/,Contact,1,CA,94710,clothing_store
Gould's Clothing,"Gould's Plaza, 260 Great Rd, Acton, MA 01720",Tuxedo shop,Acton,http://www.gouldsclothing.com/,,,,,http://www.gouldsclothing.com/contact.html,Contact Us,1,MA,01720,clothing_store
GANT,"290 Speen St, Natick, MA 01760",Clothing store,Natick,https://www.gant.com/,,"Classic clothing & sportswear for men, women & children. Some stores sell watches & accessories.",,,https://www.gant.com/contact,Customer services,1,MA,01760,clothing_store
Boston Ski  Tennis,"Bay State Commons, 400 Union St Suite 102, Westborough, MA 01581",Clothing store,Westborough,http://www.bostonskiandtennis.com/,,,,,https://www.bostonskiandtennis.com/contact/,CONTACT,1,MA,01581,clothing_store
La Sposa Bridal,"372 Watertown St, Newton, MA 02458",Bridal shop,Newton,http://www.bridalshopnewton.com/,,"Charming shop selling dresses for brides & their wedding parties, with a selection of plus sizes.",,,http://www.bridalshopnewton.com/contact,Contact Us,1,MA,02458,clothing_store
Willow Brook LLC,"852 Hwy 12 Suite 2, Westmoreland, NH 03467",Gift shop,Westmoreland,http://www.willowbrooknh.com/,,,,,https://www.willowbrooknh.com,Contact,1,NH,03467,clothing_store
The Felt Fanatic,"41 Mason St #6, Salem, MA 01970",Vintage clothing store,Salem,http://thefeltfanatic.com/,,,,,http://thefeltfanatic.com/contact-us/,CONTACT US,1,MA,01970,clothing_store
Curtsy,"10 Front St, Salem, MA 01970",Boutique,Salem,http://www.shopcurtsy.com/,,,,,http://www.shopcurtsy.com/contact-us.html,"
				Contact Us
			",1,MA,01970,clothing_store
Aasma's Dream,"210 Andover St, Peabody, MA 01960",Clothing store,Peabody,http://www.aasmasdream.com/,,,,,https://www.aasmasdream.com/contect,Contact Us,1,MA,01960,clothing_store
Pink Blossom Boutique,"26 Atlantic Ave, Marblehead, MA 01945",Women's clothing store,Marblehead,http://www.pinkblossomboutique.com/,,,,,https://pinkblossomboutique.com/contact-us/,"

    Contact Us
    
",1,MA,01945,clothing_store
Glamour Formal Wear and Bridal,"1201 Broadway, Saugus, MA 01906",Bridal shop,Saugus,http://www.glamourformalwearandbridal.com/,,,,,http://www.glamourformalwearandbridal.com/contact," Contact

",1,MA,01906,clothing_store
Associated Health & Beauty Products,"1501 Main St STE 48, Tewksbury, MA 01876",Costume store,Tewksbury,http://www.electrolysissupplies.com/,,,,,http://www.electrolysissupplies.com/contact.html,Contact,1,MA,01876,clothing_store
All Sports Heroes,"18 1st St, Lowell, MA 01850",Uniform store,Lowell,https://www.allsportsapparelpromotions.com/,,"Sporty, laid-back store selling athletic clothing & equipment, plus uniforms & tactical products.",,,https://www.allsportsapparelpromotions.com/contact.php,Contact,1,MA,01850,clothing_store
Diana's Place,"181 Canal St # 7, Lawrence, MA 01840",Women's clothing store,Lawrence,http://www.canalstreetantique.com/,,,,,http://www.canalstreetantique.com/contact,Contact Us,1,MA,01840,clothing_store
Green Label Boutique,"3335 Mendon Rd suite 6, Cumberland, RI 02864",Clothing store,Cumberland,http://www.greenlabelboutiqueri.com/,,,,,http://www.greenlabelboutiqueri.com/index.php?main_page=contact_us,Info & Contatti,1,RI,02864,clothing_store
Bridals By Rochelle,"32A S Main St, Uxbridge, MA 01569",Bridal shop,Uxbridge,http://bridalsbyrochelle.com/,,,,,http://bridalsbyrochelle.com/contact/,Contact,1,MA,01569,clothing_store
ICU Sexy,"216 West St, Hopedale, MA 01747",Dress store,Hopedale,http://www.icusexy.com/,,,,,https://icusexy.com/pages/contact,Contact Information,1,MA,01747,clothing_store
Miles to Go Sports,"160 Worcester-Providence Turnpike, Sutton, MA 01590",Clothing store,Sutton,http://www.milestogosports.com/,,,,,http://www.milestogosports.com/contact-us,Contact Us,1,MA,01590,clothing_store
Blackstone's of Beacon Hill,"46 Charles St, Boston, MA 02114",Gift shop,Boston,http://www.blackstonesbeaconhill.com/,,"Eclectic haunt offering a wide & whimsical array of collectible figurines, home decor & more.",,,http://www.blackstonesbeaconhill.com/pages/contact-us-1,Contact Us,1,MA,02114,clothing_store
Celebrity Leggings,"Faneuil Hall Marketplace, Boston, MA 02109",Women's clothing store,Boston,https://www.celebrityleggings.com/,,,,,https://www.celebrityleggings.com/pages/contact-us,Contact Us,1,MA,02109,clothing_store
NRO Boston,"39 Charles St, Boston, MA 02114",Women's clothing store,Boston,http://www.nroco.com/,,"Plaids, tweeds & other New England classics for all ages, plus resortwear, footwear & accessories.",,,https://www.nroco.com/contact,CONTACT,1,MA,02114,clothing_store
Cuffs & Collars,"9 Water St, Boston, MA 02109",Men's clothing store,Boston,https://cuffsandcollars.com/,,"Men's boutique offering upscale Italian suits, shirts & ties plus a wide selection of cuff links.",,,https://cuffsandcollars.com/contact-us/,Contact Us,1,MA,02109,clothing_store
Handsome Boy Clothing Co,"239 Causeway St, Boston, MA 02114",Clothing store,Boston,https://www.handsomeboyclothing.com/,,,,,https://www.handsomeboyclothing.com/pages/contact,"
              CONTACT
            ",1,MA,02114,clothing_store
Lola's Urban Vintage,"169 Norfolk Ave, Boston, MA 02119",Women's clothing store,Boston,http://www.lolasurbanvintage.net/,,,,,https://www.lolasurbanvintage.net/untitled-csmt,CONTACT,1,MA,02119,clothing_store
Injeanius,"441 Hanover St, Boston, MA 02113",Clothing store,Boston,http://www.injeanius.com/,,"Boutique carrying 30+ brands of designer denim jeans, plus T-shirts, tops, jewelry & accessories.",,,http://www.injeanius.com/contact,Contact,1,MA,02113,clothing_store
I Do Wedding Dresses and Photography,"283 Tremont St, Boston, MA 02116",Bridal shop,Boston,https://www.idowedding.co/,,"Salon selling & renting bridal gowns. Photography, makeup & styling services are also available.",,,"http://maps.google.com/?q=283A Tremont Street, Boston, MA 02116",,1,MA,02116,clothing_store
Flair Boston,"140 Newbury St #202, Boston, MA 02116",Bridal shop,Boston,http://www.flairbridesmaid.com/,,"Shabby-chic bridal boutique featuring couture wedding gowns, bridesmaids' dresses & accessories.",,,http://www.flairbridesmaid.com/contact,CONTACT,1,MA,02116,clothing_store
Rick Walker's,"306 Newbury St, Boston, MA 02115",Western apparel store,Boston,http://www.rickwalkers.com/,,"Longtime seller of new & pre-owned western wear, including boots, cowboy hats, jewelry & apparel.",,,https://www.rickwalkers.com,CONTACT,1,MA,02115,clothing_store
Allan's Formal Wear Cropped Stretch Tuxedo Pants Proms Quinceanera & Wedding Rentals,"594 Blue Hill Avenue, Dorchester, MA 02121",Formal wear store,Dorchester,http://www.allansformalwear.com/,,"Established family-owned shop with classic & contemporary suits & tuxes for rent, plus kids' sizes.",,,https://www.allansformalwear.com/location,Location / Contact Us,1,MA,02121,clothing_store
underground express,"31 Winter Pl, Boston, MA 02108",Costume store,Boston,http://www.undergroundexpressonline.com/,,,,,https://www.undergroundexpressonline.com/find-us-google-map,FIND US / GOOGLE MAP / ABOUT US,1,MA,02108,clothing_store
Foot Paths,"415 Washington St, Boston, MA 02108",Shoe store,Boston,http://footpathsshoes.com/,,"This shoe store sells brand-name casual shoes, boots, clogs & sneakers for men, women & kids.",,,http://footpathsshoes.com/pages/contact-us,Contact,1,MA,02108,clothing_store
Boston Uniform Service,"2 International Pl, Boston, MA 02110",Uniform store,Boston,http://www.bostonuniformservice.com/,,,,,http://www.bostonuniformservice.com/request-a-quote,Contact Us,1,MA,02110,clothing_store
Brideside Bridesmaid,"73 Newbury St floor 2, Boston, MA 02116",Bridal shop,Boston,https://brideside.com/,,,,,https://www.olark.com/site/2730-646-10-9261/contact,Questions? Feedback?,1,MA,02116,clothing_store
Hilton's Tent City,"565 Massachusetts Ave, Cambridge, MA 02139",Sporting goods store,Cambridge,http://hiltonstentcity.com/,,"Large outdoors store offering 4 stories of camping, backpacking & climbing gear.",,,http://hiltonstentcity.com/mailto:support@hiltonstentcity.com,support@hiltonstentcity.com,1,MA,02139,clothing_store
European Watch Company,"232 Newbury St, Boston, MA 02116",Watch store,Boston,http://www.europeanwatch.com/,,"Resource for high-end new, pre-owned & vintage watches, with trade-in & restoration services.",,,http://www.europeanwatch.com/contact.html,Contact Us,1,MA,02116,clothing_store
Style Unlimited,"62 Court St #1, Plymouth, MA 02360",Clothing store,Plymouth,https://styleunltd.com/,,,,,https://styleunltd.com/contact,CONTACT & LOCATION INFORMATION,1,MA,02360,clothing_store
Plush & Plunder,"605 Main St, Hyannis, MA 02601",Vintage clothing store,Hyannis,http://www.plushandplunder.com/,,,,,http://www.plushandplunder.com/contact-us,Contact Us,1,MA,02601,clothing_store
Country Soul,"605 Main St, Hyannis, MA 02601",Western apparel store,Hyannis,http://countrysoulclothing.com/,,,,,http://countrysoulclothing.com/pages/where-to-find-us,"
              WHERE TO FIND US
            ",1,MA,02601,clothing_store
Baby Friendly USA Inc,"449 MA-6A, East Sandwich, MA 02537",Baby store,East Sandwich,https://www.babyfriendlyusa.org/,,,,,https://www.babyfriendlyusa.org/about/contact/,Contact,1,MA,02537,clothing_store
Cape Kids,"2053 Washington St Suite 103, Hanover, MA 02339",Children's clothing store,Hanover,http://www.capekids.com/,,,,,https://www.capekids.com/contact,CONTACT,1,MA,02339,clothing_store
Laughing Moon Boutique,"1 Court St #3, Plymouth, MA 02360",Boutique,Plymouth,https://www.laughingmoonboutique.com/,,,,,https://www.laughingmoonboutique.com/contact-us.html,"
						Contact Us
					",1,MA,02360,clothing_store
Ma Dukes Alterations,"46 Bourne Neck Dr, Buzzards Bay, MA 02532",Clothing alteration service,Buzzards Bay,http://madukesalterations.com/,,,,,http://madukesalterations.com/contact,Contact,1,MA,02532,clothing_store
Joker's Wild North Reading,"204 Main St, North Reading, MA 01864",Costume store,North Reading,http://thejokerswild.com/,,,,,http://thejokerswild.com/?page_id=34,Contact Us,1,MA,01864,clothing_store
Clothes Clinic,"244 W Boylston St, West Boylston, MA 01583",Custom tailor,West Boylston,http://clothesclinic.co/,,,,,http://clothesclinic.co/#contact,Contact,1,MA,01583,clothing_store
Bettyonce's Boutique,"250 Granite St, Braintree, MA 02184",Bridal shop,Braintree,https://www.bettyonceboutique.com/,,,,,https://www.bettyonceboutique.com/contact,Contact,1,MA,02184,clothing_store
Designs By Daniella,"32 Kensington Rd, Weymouth, MA 02188",Lingerie store,Weymouth,http://www.designsbydaniella.com/,,,,,http://www.designsbydaniella.com/mailto:daniella@dbdaniella.com,contact us,1,MA,02188,clothing_store
Elegance African Fashions Inc,"54 Mt Everett St, Dorchester, MA 02125",Clothing store,Dorchester,http://www.eleganceafricanfashions.com/,,,,,http://www.eleganceafricanfashions.com/contact-us,Contact Us,1,MA,02125,clothing_store
Zamforia Global Threads,"188 Sea St, Quincy, MA 02169",Clothing store,Quincy,http://www.zamforia.com/,,,,,http://www.zamforia.com/pages/contact-us,Contact Us,1,MA,02169,clothing_store
Simon & Sons,"679 Highland Ave, Needham, MA 02494",Clothing store,Needham,http://www.simonandsons.com/,,"Designer apparel, suits & tuxedo rentals for men & boys are the draw at this established retailer.",,,http://www.simonandsons.com/contact,Contact,1,MA,02494,clothing_store
STILL SEWING,"Southern Eagle Cartway, Brewster, MA 02631",Sewing company,Brewster,http://stillsewing.com/,,,,,http://stillsewing.com/contact.html,Contact,1,MA,02631,clothing_store
Salty Crown Boutique,"39 Main St, Orleans, MA 02653",Fashion accessories store,Orleans,https://www.saltycrownboutique.com/,,,,,https://www.saltycrownboutique.com/contact,Contact,1,MA,02653,clothing_store
Ragg Time Ltd,"25 Bank St, Wellfleet, MA 02667",Clothing store,Wellfleet,http://www.raggtimeltd.com/,,,,,https://www.raggtimeltd.com/contact-ragg-time-ltd/,Contact,1,MA,02667,clothing_store
The Grey House,"586 MA-28, Harwich Port, MA 02646",Boutique,Harwich Port,http://www.thegreyhouse.design/,,,,,http://www.thegreyhouse.design/#contact,Contact,1,MA,02646,clothing_store
Cape Abilities Farm Market,"193 Main St, Chatham, MA 02633",Clothing store,Chatham,http://www.capeabilities.org/,,,,,https://www.capeabilities.org/contact-us/,Contact Us,1,MA,02633,clothing_store
blake & co,"47 Main St, Orleans, MA 02653",Jewelry designer,Orleans,http://blakeorleans.com/,,,,,http://blakeorleans.com/contact,contact,1,MA,02653,clothing_store
Especially Yours,"400 Manley St, West Bridgewater, MA 02379",Clothing supplier,West Bridgewater,https://www.especiallyyours.com/,,,,,https://www.especiallyyours.com/category/customer-service-section/contact-us.do,Contact Us,1,MA,02379,clothing_store
Fabletics,"400 Commons Way Suite 2450, Bridgewater Township, NJ 08807",Sportswear store,Bridgewater Township,http://www.fabletics.com/,,,,,https://www.fabletics.com/faq,"
				Help & Contact
			",1,NJ,08807,clothing_store
Honey Crisp Clothing,"94 John Gilbert Rd, West Brookfield, MA 01585",Clothing store,West Brookfield,http://www.honeycrispclothing.com/,,,,,https://www.honeycrispclothing.com/contact-us,Contact Us,1,MA,01585,clothing_store
Wilton Childrens Store,"50 E Main St, Ware, MA 01082",Clothing store,Ware,http://wiltonkids.com/,,,,,http://wiltonkids.com/contact-us/,Contact Us,1,MA,01082,clothing_store
Nat Falk,"64 Main St, Ware, MA 01082",Men's clothing store,Ware,http://www.natfalkmensclothing.com/,,,,,https://www.natfalkmensclothing.com/contact,CONTACT,1,MA,01082,clothing_store
Purple Onion,"105 N Main St, West Brookfield, MA 01585",Gift shop,West Brookfield,http://www.browsethebrookfields.com/,,,,,http://www.browsethebrookfields.com/contact.html,Contact,1,MA,01585,clothing_store
Walker Homestead,"19 Martin Rd, Brookfield, MA 01506",Gift shop,Brookfield,http://www.walkerhomestead.com/,,,,,http://www.walkerhomestead.com/contact.html,Contact Us,1,MA,01506,clothing_store
Drinkwater's Cambridge,"2067 Massachusetts Ave, Cambridge, MA 02140",Men's clothing store,Cambridge,http://www.drinkwaterscambridge.com/,,"This boutique offers stylish men's suits & casualwear, plus customized items with high-end fabrics.",,,http://www.drinkwaterscambridge.com/contact,"
            Contact
          ",1,MA,02140,clothing_store
Pronovias Boston,"100 Huntington Ave, Unit G018A, Copley Pl, Boston, MA 02116",Bridal shop,Boston,http://www.pronovias.com/,,,,,https://www.pronovias.com/contact/,"

Contact
",1,MA,02116,clothing_store
Thrifty Threads,"210 Harvard St, Brookline, MA 02446",Thrift store,Brookline,https://www.unitedparishbrookline.org/,,,,,https://www.unitedparishbrookline.org/about-us/contact-us,Contact Us,1,MA,02446,clothing_store
Luxury Resale Network,"359 Newbury St 5th floor, Boston, MA 02115",Clothing store,Boston,http://www.luxuryresale.net/,,,,,https://luxuryresale.net/pages/online-luxury-consignment,Contact,1,MA,02115,clothing_store
Sonias DressmakingAlteration,"1628 Massachusetts Ave, Lexington, MA 02420",Dressmaker,Lexington,http://soniasdressmaking.com/,,,,,http://soniasdressmaking.com/sonia.vcf,Add to Contacts,1,MA,02420,clothing_store
William Edward Boutique,"100 Cambridgeside Pl, Cambridge, MA 02141",Boutique,Cambridge,http://www.shopwilliamedward.com/,,,,,http://www.shopwilliamedward.com/contact,Contact,1,MA,02141,clothing_store
AX Cambridgeside Galleria,"100 Cambridgeside Pl, Cambridge, MA 02141",Boutique,Cambridge,http://www.cambridgeside.com/,,,,,http://www.cambridgeside.com/contact-us/,Contact Us,1,MA,02141,clothing_store
Zinnia Jewelry,"1300 Massachusetts Ave, Cambridge, MA 02138",Jewelry store,Cambridge,http://www.ilovezinnia.com/,,"Quaint corner storefront featuring handcrafted earrings, necklaces, rings & more by local artisans.",,,http://visitor.r20.constantcontact.com/d.jsp?llr=dm6omhcab&p=oi&m=1101907064195&sit=k5566e8cb&f=1ab8455d-74e7-4a65-a574-8040e1149547,News & Deals,1,MA,02138,clothing_store
African Gift Items,"1815 Massachusetts Ave, Cambridge, MA 02140",Gift shop,Cambridge,https://africangiftitems.com/,,,,,https://africangiftitems.com/contact-us,Contact Us,1,MA,02140,clothing_store
Musette Bridal,"419 Boylston St 4th floor suite a, Boston, MA 02116",Wedding store,Boston,http://www.musettebridal.com/,,"High-end bridal shop featuring an array of gowns, including designer-made dresses, plus accessories.",,,https://www.musettebridal.com/contact/,Contact,1,MA,02116,clothing_store
Le Couturier House of Alterations,"1738 Massachusetts Ave, Cambridge, MA 02138",Clothing alteration service,Cambridge,http://www.lecouturierma.com/,,,,,http://www.lecouturierma.com/contact," Contact

",1,MA,02138,clothing_store
TheLightWalk,"106 Washington St, Canton, MA 02021",Shoe store,Canton,http://thelightwalk.com/,,,,,https://thelightwalk.com/contact/,Contact Us,1,MA,02021,clothing_store
Custom Clothiers,"326A Washington St, Wellesley, MA 02481",Clothing store,Wellesley,http://www.customclothiers.us/,,,,,http://www.customclothiers.us/contact-us/,Schedule an Appointment,1,MA,02481,clothing_store
Direct Premium Buys LLC,"153 Washington St # 10, East Walpole, MA 02032",Sporting goods store,East Walpole,http://www.surplusnation.com/,,,,,http://www.surplusnation.com/pages/contact-us,Contact Us,1,MA,02032,clothing_store
Ann's Fabrics Inc,"235 Turnpike St, Canton, MA 02021",Sewing machine repair service,Canton,http://annsfabrics.com/,,,,,http://annsfabrics.com/contact.htm, Contact Us,1,MA,02021,clothing_store
FootStock,"33 Central St, Wellesley, MA 02482",Shoe store,Wellesley,http://www.footstockshoes.com/,,,,,http://visitor.r20.constantcontact.com/d.jsp?llr=lpgz9voab&p=oi&m=1115276745195&sit=yvafibhib&f=453e0755-474a-4e18-b705-6cd23779300b,Join our email list!,1,MA,02482,clothing_store
Pelo Mar,"2007 Main St, Brewster, MA 02631",Boutique,Brewster,https://www.pelomarcapecod.com/,,,,,https://www.pelomarcapecod.com/contact-us,contact us,1,MA,02631,clothing_store
Laxmi,"321 Main St, Wellfleet, MA 02667",Clothing store,Wellfleet,http://laxmiwellfleet.com/,,,,,http://laxmiwellfleet.com/contact,"
Contact
",1,MA,02667,clothing_store
Perch Nantucket,"2 Harbor Square, Nantucket, MA 02554",Women's clothing store,Nantucket,http://www.perchvail.com/,,,,,https://perchvail.com/contact/,Contact,1,MA,02554,clothing_store
Peachtree Kids,"19 Main St, Nantucket, MA 02554",Children's clothing store,Nantucket,http://peachtreekidsnantucket.com/,,,,,http://peachtreekidsnantucket.com/pages/contact-directions,"
Contact Us
",1,MA,02554,clothing_store
Johnstons of Elgin,"4 Federal St, Nantucket, MA 02554",Clothing store,Nantucket,http://www.johnstonscashmerenantucket.com/,,,,,https://www.johnstonsofelgin.com/us/customer-assistance/contact-us/,Contact Us,1,MA,02554,clothing_store
D Dream,"26 Centre St, Nantucket, MA 02554",Boutique,Nantucket,http://ddreamatelier.com/,,,,,http://ddreamatelier.com/pages/contact-us,Contact Us,1,MA,02554,clothing_store
Schiller Jewelers,"302 Market St, Lowell, MA 01852",Jeweler,Lowell,http://schillerjewelers.com/,,,,,http://schillerjewelers.com/contact.htm,"Contact 
        Us",1,MA,01852,clothing_store
We Thieves,"1 Bow Market Way #37, Somerville, MA 02143",Women's clothing store,Somerville,http://www.wethieves.com/,,,,,http://www.wethieves.com/pages/store-hours-contact,"
                Hours and Location
            ",1,MA,02143,clothing_store
La Tia Artisan Glass Gallery,"154 Maverick St, East Boston, MA 02128",Clothing store,East Boston,http://www.latiaartisanglassgallery.com/,,,,,https://www.latiaartisanglassgallery.com/contact,Contact,1,MA,02128,clothing_store
Hugo Boss,"1 Harborside Dr Suite #E2245, Boston, MA 02128",Perfume store,Boston,http://www.hugoboss.com/,,,,,https://www.hugoboss.com/us/contactus?currentSiteName=contactAG,     Email us ,1,MA,02128,clothing_store
Promo Lacrosse LLC,"480 Commercial Street, Boston, MA 02109",Sportswear store,Boston,http://www.promolacrosse.com/,,,,,http://www.promolacrosse.com/contact,Contact Us,1,MA,02109,clothing_store
Furnari Jewelers,"1189 Memorial Dr, Chicopee, MA 01020",Jeweler,Chicopee,http://furnarijewelers.com/,,,,,http://furnarijewelers.com/contact-us,CONTACT US,1,MA,01020,clothing_store
MBL Gift Shop,"100 Water St, Woods Hole, MA 02543",Gift shop,Woods Hole,http://www.mbl.edu/,,,,,http://www.mbl.edu/pages/contact-us,"
            Shop Hours
          ",1,MA,02543,clothing_store
Hand in hand Thrift Shop,"141 Sandwich Rd, East Falmouth, MA 02536",Thrift store,East Falmouth,http://www.falmouthservicecenter.org/,,,,,http://www.falmouthservicecenter.org/contact-and-directions.html,Contact ,1,MA,02536,clothing_store
Aramark Uniform & Career Apparel Llc,"141 Longwater Dr, Norwell, MA 02061",Uniform store,Norwell,https://shop.aramarkuniform.com/,,,,,https://shop.aramarkuniform.com/mailto:feedback@aramark-uniform.com,"

",1,MA,02061,clothing_store
Cohasset Jewelers,"790 Chief Justice Cushing Hwy, Cohasset, MA 02025",Jewelry store,Cohasset,http://www.cohassetjewelers.com/,,,,,https://www.cohassetjewelers.com/contact/,Contact,1,MA,02025,clothing_store
Pooja Boutique,"88 Front St Unit 11, Scituate, MA 02066",Boutique,Scituate,http://poojafashion.com/,,,,,http://poojafashion.com/mailto:webmaster@poojafashion.com,Contact your hosting provider,1,MA,02066,clothing_store
Expressions,"132 Front St, Scituate, MA 02066",Clothing store,Scituate,http://expressionsscituate.com/,,,,,http://expressionsscituate.com/contact-us.html,Contact Us,1,MA,02066,clothing_store
Grandasia Bridal Prom & Fashion Emporium,"1259 Hancock St, Quincy, MA 02169",Women's clothing store,Quincy,https://www.grandasia.com/,,"Intimate bridal shop showcasing high-end formalwear,  including traditional Chinese wedding gowns.",,,https://www.grandasia.com/pages/contact-us,Contact us,1,MA,02169,clothing_store
Acquire Good,"132 North St, Hingham, MA 02043",Boutique,Hingham,http://acquiregood.com/,,,,,http://acquiregood.com/pages/contact-us,Contact Us,1,MA,02043,clothing_store
wild child tie dye,"33 Amherst Rd, Pelham, MA 01002",Clothing store,Pelham,http://www.wildchildtiedyes.com/,,,,,http://www.wildchildtiedyes.com/../contact.php?P=B:contact,Contact Us,1,MA,01002,clothing_store
Golden Girls Conway,"1020 Oak St, Conway, AR 72032",Clothing store,Conway,https://shopgoldengirls.com/,,,,,https://shopgoldengirls.com/pages/contact-us,CONTACT US,1,AR,72032,clothing_store
The Haberdashery Gentlemen's Clothiers,"1019 4th Ave, Conway, SC 29526",Men's clothing store,Conway,http://www.thehabconway.com/,,,,,http://www.thehabconway.com/contact.html,Contact,1,SC,29526,clothing_store
Colesce Couture(r),"6 Bluemer Rd, Southampton, MA 01073",Lingerie store,Southampton,http://www.lingeriepartybiz.com/,,,,,http://www.lingeriepartybiz.com/contact.htm,Contact Information,1,MA,01073,clothing_store
Joker's Wild,"85 Andover St, Danvers, MA 01923",Costume store,Danvers,http://www.thejokerswild.com/,,,,,http://thejokerswild.com/?page_id=34,Contact Us,1,MA,01923,clothing_store
Blushing Bride,"215 Newbury St # 207, Peabody, MA 01960",Bridal shop,Peabody,http://blushingbride.me/,,"Quaint bridal salon with in-house tailoring selling designer wedding gowns, dresses & accessories.",,,http://blushingbride.me/contact/,Contact,1,MA,01960,clothing_store
Glitterati Prom Salem Appointment ONLY,"121 Lafayette St, Salem, MA 01970",Women's clothing store,Salem,http://www.glitteratistyle.com/,,,,,http://www.glitteratistyle.com/t8/contact-us.html,,1,MA,01970,clothing_store
Vintage Victorian,"64 Maolis Rd, Nahant, MA 01908",Vintage clothing store,Nahant,http://www.vintagevictorian.com/,,,,,http://www.vintagevictorian.com/#contact,        Contact,1,MA,01908,clothing_store
TIEN 2,"20 Lothrop St, Beverly, MA 01915",Boutique,Beverly,http://www.tien2.com/,,,,,http://www.tien2.com/contact.html,"
								Contact
							",1,MA,01915,clothing_store
Pennyworth's of Lynn,"137 Boston St, Lynn, MA 01904",Clothing store,Lynn,http://pennyworthslynn.com/,,"Store selling footwear for men, women & children, plus a selection of casual clothing.",,,https://visitor.r20.constantcontact.com/d.jsp?llr=xv7u8c7ab&p=oi&m=1129672503991&sit=954chccmb&f=72e8ab45-51d3-443c-959d-dbfd2bcf71c3,Sign Up For Email Specials,1,MA,01904,clothing_store
Simons Uniforms,"329 Lynnway, Lynn, MA 01901",Uniform store,Lynn,http://www.simonsuniforms.com/,,"Veteran supplier (since 1885) of professional uniforms, with embroidering & tailoring services.",,,http://www.simonsuniforms.com/find-us-13.html,Find Us,1,MA,01901,clothing_store
Mr Joseph's Tailor Shop,"44 Garden St #4, Danvers, MA 01923",Tailor,Danvers,http://mrjosephstailor.wix.com/,,,,,https://mrjosephstailor.wixsite.com/mr-joseph/contact,Contact,1,MA,01923,clothing_store
Mod style,"100 Independence Way, Danvers, MA 01923",Tailor,Danvers,http://mod7style.com/,,,,,https://mod7style.com/find-us,find us,1,MA,01923,clothing_store
Angela's Bridal,"1526 VFW Pkwy, West Roxbury, MA 02132",Bridal shop,West Roxbury,https://www.angelas-bridal.com/,,"Strip-mall bridal salon displaying dresses for weddings, proms, pageants & other special occasions.",,,https://www.facebook.com/angelasbridalandspecialoccasion,,1,MA,02132,clothing_store
Ultimate Dedham,"771 Providence Hwy, Dedham, MA 02026",Dress store,Dedham,https://www.theultimate-dedham.com/,,,,,https://www.theultimate-dedham.com/contact-us, Temporary Store Hours - Closed Monday 3/23 Until Further Notice,1,MA,02026,clothing_store
Dedham Bridal,"177 Washington St l1, Dedham, MA 02026",Bridal shop,Dedham,http://dedhambridal.com/,,,,,http://dedhambridal.com/contact-us,Contact Us,1,MA,02026,clothing_store
Covet  Lou,"947 Great Plain Ave, Needham, MA 02492",Clothing store,Needham,http://covetandlou.com/,,,,,http://covetandlou.com/pages/contact,CONTACT,1,MA,02492,clothing_store
YForgetMe Apparel,"80 Victoria Heights Rd, Boston, MA 02136",Clothing store,Boston,http://yforgetmeapparel.com/,,,,,https://yforgetmeapparel.com/index.php?route=information/contact,Contact Us,1,MA,02136,clothing_store
Village Kids,"35 Lincoln St # A, Newton, MA 02461",Children's clothing store,Newton,http://www.villagekids.com/,,,,,http://www.villagekids.com/pages/contact-us,Contact Us,1,MA,02461,clothing_store
Hatched  EcoFriendly Goods For Babies And Big Kids,"668 Centre St, Boston, MA 02130",Children's clothing store,Boston,http://www.hatchedboston.com/,,"Shop selling clothes for kids 10 & under made from organic & eco-friendly fibers, plus wooden toys.",,,http://www.facebook.com/pages/Jamaica-Plain-MA/hatched/121551797873658,,1,MA,02130,clothing_store
The Thrift Shop of Boston,"33 Corinth St, Roslindale, MA 02131",Clothing store,Roslindale,http://www.thriftshopofboston.org/,,,,,https://thriftshopofboston.org/contact/,Contact,1,MA,02131,clothing_store
Victoria Regia Bridal,"36 Chestnut St, Needham, MA 02492",Bridal shop,Needham,http://victoriaregiabridal.com/,,,,,http://victoriaregiabridal.com/contact.html,"
				Contact
			",1,MA,02492,clothing_store
Splendid,"33 Boylston St #3310, Chestnut Hill, MA 02467",Clothing store,Chestnut Hill,https://www.splendid.com/,,Retailer with comfort-focused casual fashions & shoes for adults & kids. Some in department stores.,,,https://www.splendid.com/contact-us/,Contact Us,1,MA,02467,clothing_store
Closet to Closet Kids,"92 Park Ave, Natick, MA 01760",Children's clothing store,Natick,https://natickconsignmentshop.com/,,,,,https://natickconsignmentshop.com/contact,"

                                Contact Us
                            
",1,MA,01760,clothing_store
Natick Outdoor Store,"38 North Ave, Natick, MA 01760",Clothing store,Natick,http://www.natickoutdoorstore.com/,,,,,http://www.natickoutdoorstore.com/Contact.asp#Directions,"
",1,MA,01760,clothing_store
Style Encore  Dover,"1253 N Dupont Hwy, Dover, DE 19901",Women's clothing store,Dover,http://www.style-encoredover.com/,,"Women's store buying & selling lightly used clothes, bags, shoes & accessories from designer brands.",,,http://www.style-encoredover.com/tel:302-674-8813, 302-674-8813 ,1,DE,19901,clothing_store
Zuha Trend,"207 W Loockerman St, Dover, DE 19904",Men's clothing store,Dover,http://zuhatrend.com/,,,,,http://zuhatrend.com/contact/,Contact,1,DE,19904,clothing_store
American Stonecraft,"100 Hanover St, Boston, MA 02108",Gift shop,Boston,https://www.americanstonecraft.com/,,,,,https://www.americanstonecraft.com/contact/,Contact,1,MA,02108,clothing_store
125 Bridal Boutique,"37 Plaistow Rd, Plaistow, NH 03865",Bridal shop,Plaistow,http://www.125bridalboutique.com/,,Unfussy strip-mall store carrying wedding & bridesmaids' dresses as well as rental tuxedos.,,,http://www.125bridalboutique.com/wedding-gowns-contact-us.html, Contact Us,1,NH,03865,clothing_store
Bloomingdale's,"1 Stanford Shopping Center, Palo Alto, CA 94304",Clothing store,Palo Alto,https://us.maje.com/,,,,,https://us.maje.com/en/contact-us/contactus.html,here,1,CA,94304,clothing_store
MacroBaby,"1361 Florida Mall Ave, Orlando, FL 32809",Children's clothing store,Orlando,https://www.macrobaby.com/,,"Jumbo baby store offers strollers, clothing & gear plus on-site photo studio & 3D-sonogram imaging.",,,https://www.macrobaby.com/tel:1-877-240-5379,1-877-240-5379,1,FL,32809,clothing_store
511 Tactical,"358 Broadway Suite D, Saugus, MA 01906",Clothing store,Saugus,https://www.511tactical.com/,,,,,https://www.511tactical.com/customer-service/contact/,Contact Us,1,MA,01906,clothing_store
Lady's Secret Boutique Inc,"1201 Broadway Unit E119A, Saugus, MA 01906",Dress store,Saugus,http://www.dresseros.com/,,,,,https://www.dresseros.com/contact,Contact,1,MA,01906,clothing_store
Camouflage Shoppe,"4700 Millhaven Rd Suite 1016, Monroe, LA 71203",Clothing store,Monroe,http://www.camouflageshoppe.com/,,,,,http://www.camouflageshoppe.com/pages/contact-us-return-policy,Return Policy / Contact Information,1,LA,71203,clothing_store
Second Chance Thrift Store,"2311 N Fremont St, Monterey, CA 93940",Thrift store,Monterey,http://secondchancepg.com/,,,,,http://secondchancepg.com/contact,"
            Contact
          ",1,CA,93940,clothing_store
Valentina Kova,"9 A, S Beach St, Nantucket, MA 02554",Women's clothing store,Nantucket,https://www.valentinakova.com/,,,,,https://www.valentinakova.com/contact,Contact,1,MA,02554,clothing_store
Joy West Collection,"14 S Water St, Nantucket, MA 02554",Fashion accessories store,Nantucket,https://joywestcollection.com/,,,,,http://www.joywestcollection.com/contact,Contact,1,MA,02554,clothing_store
Gooding Sports Group,"Eel Point Rd, Nantucket, MA 02554",Sportswear store,Nantucket,http://goodingsportsgroup.com/,,,,,http://goodingsportsgroup.com/contact-us/default.aspx,,1,MA,02554,clothing_store
Seconds Shop,"32 Sparks Ave, Nantucket, MA 02554",Thrift store,Nantucket,http://www.fairwindscenter.org/,,,,,http://www.fairwindscenter.org/contact/,Make an Appointment,1,MA,02554,clothing_store
NICER Vacation,"19 Main St, Nantucket, MA 02554",Baby store,Nantucket,https://www.nicervacation.com/,,,,,https://nicervacation.com/contact/,Contact,1,MA,02554,clothing_store
Hospital Thrift Shop,"17 India St, Nantucket, MA 02554",Thrift store,Nantucket,http://nantuckethospital.org/,,,,,http://nantuckethospital.org/patients-visitors/your-hospital-visit/hospital-directory/,Contact Us,1,MA,02554,clothing_store
Take It or Leave It,"186 Madaket Rd, Nantucket, MA 02554",Thrift store,Nantucket,http://www.nantucket-ma.gov/,,,,,http://www.nantucket-ma.gov/directory.aspx,Contact Us,1,MA,02554,clothing_store
Island Variety,"59 Old South Rd, Nantucket, MA 02554",Gift shop,Nantucket,https://www.ackislandvariety.com/,,,,,https://www.ackislandvariety.com,contact,1,MA,02554,clothing_store
Native Shoes,"356 Santana Row #1007, San Jose, CA 95128",Shoe store,San Jose,https://www.nativeshoes.com/,,,,,https://www.nativeshoes.com/help/help.html#contact-us,Contact Us,1,CA,95128,clothing_store
Four Winds Craft Guild,"8 Straight Wharf, Nantucket, MA 02554",Gift shop,Nantucket,https://fourwindscraftguild.com/,,,,,https://fourwindscraftguild.com/contact/,Contact us.,1,MA,02554,clothing_store
Marquis Jewelers,"80 Winchester St, Newton, MA 02461",Jeweler,Newton,http://www.marquisjewelers.com/,,"Big store offering jewelry & watches plus upscale gifts like crystal, clocks, pens & picture frames.",,,http://www.marquisjewelers.com/about-uscontact.html,"

			About Us/Contact
		
",1,MA,02461,clothing_store
Fann's Tailor Shop,"1025 Great Plain Ave, Needham, MA 02492",Tailor,Needham,https://www.fannstailorshop.com/,,,,,https://www.fannstailorshop.com/contact-us.html,"
				Contact Us
			",1,MA,02492,clothing_store
Timeless Designs Apparel,"46 Edwards Rd, Avon, CT 06001",Women's clothing store,Avon,http://www.timelessdesignsapparel.com/,,,,,http://www.timelessdesignsapparel.com/pages/contact,Contact Us,1,CT,06001,clothing_store
Sports and Things,"999 S Washington St, North Attleborough, MA 02760",Sports accessories wholesaler,North Attleborough,http://sportsandthingsma.com/,,,,,http://sportsandthingsma.com/contact-us.html,Contact Us,1,MA,02760,clothing_store
Seaberry Surf,"461 US-6, Wellfleet, MA 02667",Gift shop,Wellfleet,http://seaberrysurf.com/,,,,,//www.hugedomains.com/contact.cfm,Contact Us,1,MA,02667,clothing_store
Tolland Red & White,"46 Tolland Green, Tolland, CT 06084",Gift shop,Tolland,http://www.tollandredandwhite.com/,,,,,http://www.tollandredandwhite.com/contact,CONTACT,1,CT,06084,clothing_store
Marblehead Marine Outfitters,"112 Washington St, Marblehead, MA 01945",Clothing store,Marblehead,http://www.marbleheadoutfitters.com/,,,,,http://www.marbleheadoutfitters.com/contact,Contact,1,MA,01945,clothing_store
Husky Team Store,"3800 Montlake Blvd NE, Seattle, WA 98195",Sportswear store,Seattle,http://huskyteamstore.com/,,Sportswear retailer on university campus carrying Washington Huskies apparel & collectibles.,,,http://huskyteamstore.com/webapp/wcs/stores/servlet/BNCBLocationAndContactView?catalogId=10001&langId=-1&storeId=89461,Contact Us,1,WA,98195,clothing_store
