name,address,type,place,website_url,menu_url,description,gift_card_txt,gift_card_website,contact_website,contact_txt,searched,state,zipcode,store_type
Nickelle Beauty Salon & Boutique,"160 Summer St k2, Kingston, MA 02364",Beauty salon,Kingston,http://www.nickellebeauty.com/,,,Buy a gift card,https://nickellebeauty.salontarget.com/egift/?guestonly=guestonly,http://www.nickellebeauty.com/contact,"
            Contact
          ",1,MA,02364,beauty_salon
LA Hair Design,"1280 Main St, Hanson, MA 02341",Hairdresser,Hanson,http://lahair.co/,,,Buy Now,https://lahairdesign.salontarget.com/egift?guestonly ,http://lahair.co/contact-us,Contact Us,1,MA,02341,beauty_salon
Atmosphere Salon,"288 Littleton Rd, Westford, MA 01886",Hair salon,Westford,http://atmospheresalonwestford.com/,,,Purchase Gift Certificate,https://atmospheresalonwestford.com/corona-virus/,https://atmospheresalonwestford.com/contact/,Contact,1,MA,01886,beauty_salon
RG Pro Laser,"801 Main St Suite 2, Concord, MA 01742",Laser hair removal service,Concord,http://www.rgprolaser.com/,,,"
            Gift Card
          ",http://www.rgprolaser.com/https/wwwgiftflycom/shop/rg-pro-laser1,,,1,MA,01742,beauty_salon
Elements Massage,"149 Great Rd, Acton, MA 01720",Massage therapist,Acton,https://elementsmassage.com/,,,"
Gift Cards
",https://elementsmassage.com/acton/gift-cards,https://elementsmassage.com/acton/contact-info,Contact Us,1,MA,01720,beauty_salon
Bedford Organic Nails And Spa,"64 Great Rd, Bedford, MA 01730",Nail salon,Bedford,http://www.bedfordorganicnails.com/,,,Giftcards,https://www.bedfordorganicnails.com/shop,https://www.bedfordorganicnails.com/contact,Contact,1,MA,01730,beauty_salon
Whole Beauty Salon,"74 Langley Rd, Newton, MA 02459",Beauty salon,Newton,https://wholebeautysalon.com/,,,WE ARE PARTNERS WITH SPAWEEK.COM AND SPAFINDER.COM ACCEPTING  GIFT CARDS  ,https://wholebeautysalon.com/services-1,https://wholebeautysalon.com/contact-us,Contact Us,1,MA,02459,beauty_salon
HunterDavid Salon,"1197 Adams St, Dorchester, MA 02124",Hair salon,Dorchester,https://square.com/,,,"
Buy now
",https://squareup.com/gift/DJWDYEAQXGJGW/order,,,1,MA,02124,beauty_salon
Amaci Salon,"230 Stuart Street South Cove Plaza, Boston, MA 02116",Beauty salon,Boston,http://www.amacisalon.com/,,,E-Gift Cards,https://amaci.salontarget.com/egift/?guestonly=guestonly,https://amacisalon.com/contact-us/,Contact,1,MA,02116,beauty_salon
Backstage Salon & Spa,"225 Newburyport Turnpike, Rowley, MA 01969",Beauty salon,Rowley,http://backstagerowley.com/,,,GIFT CARDS,http://backstagerowley.com/gift-cards/,http://backstagerowley.com/contact/,CONTACT,1,MA,01969,beauty_salon
Scruples Boutique and Day Spa,"325 Hazard Ave, Enfield, CT 06082",Beauty salon,Enfield,http://www.scruplesdayspa.com/,,,E-Gift Certificates,https://swipeit.com/product/637/scruples-salon-and-day-spa,http://www.scruplesdayspa.com/contact-us,Contact Us,1,CT,06082,beauty_salon
Puffer's Salon & Day Spa,"56 Southwick Rd, Westfield, MA 01085",Day spa,Westfield,http://www.pufferdayspa.com/,,,Gift Certificates,http://pufferdayspa.millenniumegift.com/,http://www.pufferdayspa.com/contact-about.html,Contact,1,MA,01085,beauty_salon
EYEFUL Beauty,"33 Middle St, Lowell, MA 01852",Beauty salon,Lowell,http://eyefulbeauty.com/,,,Purchase Gift Certificates,https://www.eyefulbeauty.com/book-now,https://www.eyefulbeauty.com,CONTACT,1,MA,01852,beauty_salon
Bella Sisters Salon & Spa,"321 Speen St, Natick, MA 01760",Beauty salon,Natick,https://www.bellasisters.net/,,"Plaza-based salon with an extensive menu of skin & hair treatments, like facials, waxing & styling.","  

Buy Gift Certificates
",https://www.thegiftcardcafe.com/cart/index.php?storeID=12512,https://www.bellasisters.net/contact," Contact

",1,MA,01760,beauty_salon
Kaya Beauty Spa & Salon,"92 Highland Ave, Somerville, MA 02143",Hair salon,Somerville,http://www.kayabeautyspa.com/,,,https://go.booker.com/location/Kayabeautyspa/buy/gift-certificate,https://go.booker.com/location/Kayabeautyspa/buy/gift-certificate,http://www.kayabeautyspa.com/contact-us--book-online.html,"
				Contact us & Book Online
			",1,MA,02143,beauty_salon
steller salon & apothecary,"206 Main St, Norfolk, MA 02056",Beauty salon,Norfolk,http://stellersalon.com/,,,"
            giftcards
          ",http://stellersalon.com/giftcards,http://stellersalon.com/contact-1,"
            contact
          ",1,MA,02056,beauty_salon
Bella Capelli West Salon,"505 High St, Medford, MA 02155",Beauty salon,Medford,http://www.bellacapellibymaria.com/,,,instant gift certificates,https://bellacapelli.boomtime.com/lgift,http://www.bellacapellibymaria.com/contact-us,Contact Us,1,MA,02155,beauty_salon
Allure Hair And Beauty,"243 Andover St, Peabody, MA 01960",Beauty salon,Peabody,http://www.allurehairandbeautypeabody.com/,,,GIFT CARDS,https://squareup.com/gift/1WQRW8DZRWQMF/order,https://www.allurehairandbeautypeabody.com/contact-us,CONTACT US,1,MA,01960,beauty_salon
Lauren Craig Salon,"25 Andrew Ave, Wayland, MA 01778",Beauty salon,Wayland,http://www.laurencraigsalon.com/,,,GIFT CARDS,https://www.laurencraigsalon.com,https://www.laurencraigsalon.com/contact,CONTACT,1,MA,01778,beauty_salon
Salon De Cheveux,"661 E Broadway, Boston, MA 02127",Beauty salon,Boston,http://www.salondecheveuxboston.com/,,,"
              E-GIFT CARDS
            ",https://salondecheveux.salontarget.com/egift/?guestonly=guestonly,http://www.salondecheveuxboston.com/contact,"
Contact
",1,MA,02127,beauty_salon
spa nijoli & salon,"116 Pleasant Valley St, Methuen, MA 01844",Beauty salon,Methuen,http://nijoli.com/,,,gift certificates,https://nijoli.millenniumegift.com/,http://nijoli.com/contact,contact,1,MA,01844,beauty_salon
Skin For All Seasons,"351 Revere St, Revere, MA 02151",Beauty salon,Revere,http://www.skinforallseasons.com/,,,Gift Certificates,https://www.skinforallseasons.com/gift-certificates-2/,https://www.skinforallseasons.com/contact-us/,Contact Us,1,MA,02151,beauty_salon
Katana Salon & Spa,"618 Main St, Winchester, MA 01890",Beauty salon,Winchester,http://www.katanasalonandspa.com/,,,GIFT CARDS,http://www.katanasalonandspa.com/mind.html,http://www.facebook.com/KatanaSalonSpa,,1,MA,01890,beauty_salon
Nuance Salon,"4400 Acushnet Ave, New Bedford, MA 02745",Beauty salon,New Bedford,http://nuancesalon.org/,,,Gift Cards,"http://nuancesalon.org/
https://nuancesalon.salontarget.com/egift/?guestonly=guestonly",,"








 

Menu  


Home
Services

Hair 
Nails
Skin
Massage 
Weddings
Hair Extensions
Spray Tan

Gallery
Products
Book Online
Gift Cards
Health and Wellness
Oliveira Art














  














 
        We are a full service salon located in 
          New Bedford, MA. 
          We provide the 
          following beauty services:  
          Hair Cuts     Hair Color
Manicures     Pedicures
Nail Services     Waxing
Massage     Skin Care
and more! We offer special rates on weddings and 
          other special events.  Please call us at
          508.995.2205 to schedule an 
          appointment today, or click ""Book Appointment"" above!
Sundays.............closed
          Mondays............closed
          Tuesdays..............10-8
          Wednesdays...........9-8
          Thursdays.............10-8
          Fridays..................10-6
          Saturdays................9-3


















  Return To Top 


Contact Information
Nuance Salon 4400 Acushnet Avenue New Bedford, MA 508.995.2205 
All Rights Reserved. Website designed by WG Design. 




",1,MA,02745,beauty_salon
INTERLOCKS Salon  Spa,"58 Merrimac St, Newburyport, MA 01950",Beauty salon,Newburyport,http://www.interlockssalon.com/,,,Gift Cards,https://interlockssalon.com/product/interlocks-salon-gift-card/,https://interlockssalon.com/contact-us/,Contact Us,1,MA,01950,beauty_salon
Body Mind Spirit Salon & Day Spa,"134 Main St unit b, Groton, MA 01450",Spa,Groton,http://bodymindspiritsalonanddayspa.com/,,"Warm, relaxed salon/spa with haircuts & color treatments, plus massages, facials & mani/pedicures.",Buy a Gift Card,https://www.mytime.com/gift-cards/body-mind-spirit-salon-and-day-spa-95183?referrer=from_marketplace,https://www.bodymindspiritsalonanddayspa.com/contact-us,Contact Us,1,MA,01450,beauty_salon
Strand Salon & Spa,"272 Chauncy St, Mansfield, MA 02048",Beauty salon,Mansfield,http://www.strandsalonspa.com/,,,Gift Certificates,https://www.strandsalonspa.com/gift-certificates/,https://www.strandsalonspa.com/contact/,Contact,1,MA,02048,beauty_salon
Scizzors Hair Salon,"196 Boston Turnpike, Shrewsbury, MA 01545",Hair salon,Shrewsbury,http://www.scizzors.com/,,,,http://www.scizzors.com/about-us-2/gift-cards/,http://www.scizzors.com/contact-hours-directions/,,1,MA,01545,beauty_salon
Elle Day Spa At The Crowne Plaza,"1 West St, Pittsfield, MA 01201",Day spa,Pittsfield,http://www.elledayspa.com/,,,GIFT CERTIFICATES,https://onlineservices.prosoinc.com/psgconline/gcmain.asp?cl=15364,http://www.elledayspa.com/contact.html,CONTACT,1,MA,01201,beauty_salon
Illusions,"24 Steeple St, Mashpee, MA 02649",Hair salon,Mashpee,http://www.illusionshairsalonmashpee.com/,,,Gift Certificates,http://www.illusionshairsalonmashpee.com/gift-certificates/,http://www.illusionshairsalonmashpee.com/contact/,CONTACT/APPOINTMENTS,1,MA,02649,beauty_salon
Pretty Please Hair Salon,"100, 1754, 319 Newburyport Turnpike, Rowley, MA 01969",Hair salon,Rowley,http://www.prettyplease-salon.com/,,,"
            Gift Certificates
          ",http://www.prettyplease-salon.com/gift-certificates,,,1,MA,01969,beauty_salon
Salone Estetica,"6 Thompson St, Winchester, MA 01890",Hair salon,Winchester,http://www.saloneestetica.com/,,,,http://www.saloneestetica.com/gift-cards/,https://saloneestetica.com/about-us/contact/,Contact,1,MA,01890,beauty_salon
Soma Salon and Spa AVEDA,"471 Artisan Way, Somerville, MA 02145",Hair salon,Somerville,http://www.somaaveda.com/,,,GIFT CARDS,http://somasalon.salontarget.com/egift/?guestonly=guestonly,https://www.somaaveda.com/about/contact-us/,Contact Us,1,MA,02145,beauty_salon
Ciao Bella Skincare,"102 Bridge Rd, Salisbury, MA 01952",Beauty salon,Salisbury,http://ciaobellaskincare.com/,,,Gift Certificates,http://ciaobellaskincare.com/giftcertificates.php,http://ciaobellaskincare.com/contact/,Contact,1,MA,01952,beauty_salon
The Tannery Marketplace,"75 Water St, Newburyport, MA 01950",Beauty salon,Newburyport,http://www.tannerymarketplace.com/,,,"
                Gift Certificates
              ",http://www.tannerymarketplace.com/tannery-gift-certificates,http://www.tannerymarketplace.com/contact,"
                  Contact Us
                ",1,MA,01950,beauty_salon
Bella Visage Skin Studio,"73 Newton Rd Suite 106, Plaistow, NH 03865",Facial spa,Plaistow,http://www.bellavisageskinstudio.skincaretherapy.net/,,,Gift Certificates,http://www.bellavisageskinstudio.skincaretherapy.net/gift-certificates,http://www.bellavisageskinstudio.skincaretherapy.net/contact-information,Contact Information,1,NH,03865,beauty_salon
RN Esthetics Newburyport,"50 Water Street Mill 1, Newburyport, MA 01950",Medical spa,Newburyport,https://www.rnestheticsandlaser.com/,,,Shop Instant Gift Cards,https://rnesthetics1.boomtime.com/lgift,https://www.rnestheticsandlaser.com/contact/,CONTACT,1,MA,01950,beauty_salon
Amesbury Massage and Wellness LLC,"110 Haverhill Rd building b suite 219, Amesbury, MA 01913",Massage therapist,Amesbury,http://amesburymassage.com/,,,"
                                                Gift Certificates
                                            ",http://amesburymassage.com/#gift-certificates,http://amesburymassage.com/#contact,"
                                            Contact
                                        ",1,MA,01913,beauty_salon
Smooth Affairs,"The Mill District, 68 Cowls Rd, Amherst, MA 01002",Spa,Amherst,http://www.smoothaffairs.com/,,,Gift Cards!,https://squareup.com/gift/Y8NDCAB6P5KNP/order,http://www.smoothaffairs.com/tel:4134754624,413-475-4624,1,MA,01002,beauty_salon
The Lift  A Salon,"116 Pleasant St # 130, Easthampton, MA 01027",Beauty salon,Easthampton,http://www.theliftsalon.com/,,,Easthampton Salon Gift Cards,https://go.booker.com/location/Thelift/buy/gift-certificate,https://theliftsalon.com/locations-contact/,Contact,1,MA,01027,beauty_salon
Glow Beauty Bar,"40 Main St STE 102, Florence, MA 01062",Day spa,Florence,http://glowbridalmakeup.com/,,,Buy a Gift Card! ,https://squareup.com/gift/ED0TV99YCJ7GD/order,http://glowbridalmakeup.com/contact-us,"
            Contact
          ",1,MA,01062,beauty_salon
Elements Hot Tub Spa,"373 Main St, Amherst, MA 01002",Spa,Amherst,https://www.elementshottubspa.com/,,,Gift Cards,https://go.booker.com/location/ElementsHotTubSpa/buy/gift-certificate,,,1,MA,01002,beauty_salon
Zinnia Skin and Body Care,"25 Main St #211, Northampton, MA 01060",Day spa,Northampton,http://www.zinniaskinandbodycare.com/,,,Buy Gift Certificate ,https://squareup.com/gift/TVZNP4V7XWBYC/order,http://www.zinniaskinandbodycare.com/contact-1,Contact,1,MA,01060,beauty_salon
Cari Skin Care & Therapeutic Massage Centre,"451 Andover St STE 170, North Andover, MA 01845",Beauty salon,North Andover,http://www.cariskincare.com/,,,Gift Card,https://www.cariskincare.com/gift-card,https://www.cariskincare.com/contact,Contact,1,MA,01845,beauty_salon
Kiki Skin & Body Spa LLC,"38 Florence St, Andover, MA 01810",Skin care clinic,Andover,http://kikiskinspa.com/,,,Gift Certificates,https://kikiskinspa.com/gift-certificates/,https://kikiskinspa.com/contact/,Contact,1,MA,01810,beauty_salon
Hue House Salon And Spa,"200 Sutton St, North Andover, MA 01845",Beauty salon,North Andover,https://www.huehousesalonandspa.com/,,,GIFT CERTIFICATE,https://huehousesalonandspa.salontarget.com/egift?guestonly,https://www.huehousesalonandspa.com/contact-us-1,CONTACT US,1,MA,01845,beauty_salon
Stylist Sarah Sheppard,"166 N Main St, Andover, MA 01810",Hairdresser,Andover,http://www.stylistsarahsheppard.com/,,,Gift Cards,http://www.stylistsarahsheppard.com/gift-cards,http://www.stylistsarahsheppard.com/contact-1,Contact,1,MA,01810,beauty_salon
Hairmates Salon,"291 Main St, Stoneham, MA 02180",Hair salon,Stoneham,http://www.hairmatesstoneham.com/,,,Gift Cards,https://booking.salonultimate.com/main/3f8c7d28-8621-4673-9cb9-8193618c630e#gift-cards?store=2810,https://hairmatesstoneham.com/contact/,Contact,1,MA,02180,beauty_salon
Aesthetics Exchange Skin Care,"1215 Main St STE 125, Tewksbury, MA 01876",Beauty salon,Tewksbury,http://aestxskincare.com/,,,Gift Cards,https://aestxskincare.com/giftcards/,https://www.vagaro.com/aestheticsexchangeskincare,"

",1,MA,01876,beauty_salon
Four Elements Salon & Spa,"632 State Rd, Westport, MA 02790",Beauty salon,Westport,http://fourelementssalonandspa.com/,,,Gift Card,https://fourelements.boomtime.com/lgift,https://fourelementssalonandspa.com/contact/,Contact,1,MA,02790,beauty_salon
Inde Hair Salon and Skin Care,"46 Independence Ave, Quincy, MA 02169",Beauty salon,Quincy,http://indesalon.com/,,,"
        E-Gift Cards
      ",https://indesalon.salontarget.com/egift/?guestonly=guestonly,http://indesalon.com/contact-us,"
            Inde
          ",1,MA,02169,beauty_salon
Salon Industria,"618 State Rd, Dartmouth, MA 02747",Hair salon,Dartmouth,http://salonindustria.com/,,,Gift Cards,https://squareup.com/gift/8N06SK2J6J36R/order,http://salonindustria.com/industria,Industria,1,MA,02747,beauty_salon
Willow Salon & Day Spa,"1275 Main St, Millis, MA 02054",Beauty salon,Millis,https://willow-spa.com/,,,Gift Certificates,https://willow-spa.com/gift-certificates-2/,https://willow-spa.com/contact/,Contact,1,MA,02054,beauty_salon
Lola Beauty Boutique,"393 Neponset Ave, Dorchester, MA 02122",Hair salon,Dorchester,http://lolabeautyboutique.com/,,,"
              E-GIFT CARDS
            ",https://lola.salontarget.com/egift/?guestonly=guestonly,,,1,MA,02122,beauty_salon
Stilisti Salon,"116 Newbury St, Boston, MA 02116",Beauty salon,Boston,http://www.stilistiboston.com/,,,Gift Certificates,https://clients.mindbodyonline.com/classic/ws?studioid=276519&stype=42,http://www.stilistiboston.com/contact/,Contact Us,1,MA,02116,beauty_salon
Jesamondo Salon & Spa,"154 E Central St, Natick, MA 01760",Beauty salon,Natick,http://www.jesamondo.com/,,,Gift Cards,https://jesamondo.com/giftcards,https://jesamondo.com/contact_jesamono_salon_spa,Contact,1,MA,01760,beauty_salon
Bellezza Salon Medspa,"221 Main St, Falmouth, MA 02540",Hair salon,Falmouth,http://www.spabellezza.com/,,,Gift Cards,https://www.spabellezza.com/gift-cards/,https://www.spabellezza.com/contact/,Contact,1,MA,02540,beauty_salon
Daryl Christopher Lifestyle Salon & Spa,"1265 Main St #115, Waltham, MA 02451",Beauty salon,Waltham,http://www.dchristopher.com/,,,GIFT CARDS,https://www.dchristopher.com/gift-cards,https://www.dchristopher.com/contact,CONTACT,1,MA,02451,beauty_salon
NV The Salon,"335 Main St, Stoneham, MA 02180",Beauty salon,Stoneham,http://www.nvthesalon.com/,,,"
                Gift Cards
              ",https://na0.meevo.com/EgiftApp/home?tenantId=10114,,,1,MA,02180,beauty_salon
Invidia Salon and Spa,"736 Boston Post Rd, Sudbury, MA 01776",Beauty salon,Sudbury,http://www.invidiasalon.com/,,,On-line Gift Card,https://invidia.formstack.com/forms/giftcard,https://www.invidiasalon.com/contact,Contact Details,1,MA,01776,beauty_salon
Airport Fitness,"24 Airport Rd, Vineyard Haven, MA 02568",Spa,Vineyard Haven,http://www.airportfitnessmv.com/,,,Gift Certificates,http://www.airportfitnessmv.com/gift-certificates/,http://www.airportfitnessmv.com/contact-us/,Contact Us,1,MA,02568,beauty_salon
Drift Day Spa,"77 State Rd, North Dartmouth, MA 02747",Spa,North Dartmouth,http://www.driftdartmouth.com/,,,"
				eGiftCards
			",https://squareup.com/gift/DYR5F9J8AC7AB/order,,,1,MA,02747,beauty_salon
Evie Salon Studio,"57 Holland St, Somerville, MA 02144",Hair salon,Somerville,http://eviesalonstudio.com/,,,Gift Certificates Available Here,https://es.salontranscripts.com/55bbb9d2000215cf188f010a/,http://eviesalonstudio.com/#contact,CALL TO BOOK AN APPOINTMENT,1,MA,02144,beauty_salon
Trentanove Skin Studio,"39 Thompson St, Winchester, MA 01890",Skin care clinic,Winchester,http://www.trentanoveskinstudio.com/,,,Gift Cards,http://trentanoveskinstudio.com/gift-card/,http://trentanoveskinstudio.com/contact/,Request an Appointment,1,MA,01890,beauty_salon
Mandy's Beauty Skincare Center,"31 Salem St, Medford, MA 02155",Facial spa,Medford,https://www.mandysbeauty.com/,,,GIFT CARDS,https://www.mandysbeauty.com/GiftCards.php,https://www.mandysbeauty.com/#contact,CONTACT,1,MA,02155,beauty_salon
La Moon Thai Spa,"220 Concord Ave f1, Cambridge, MA 02138",Day spa,Cambridge,http://www.lamoonthaicambridge.com/,,"Contemporary office offering massage therapy, skincare treatments & waxing in a peaceful atmosphere.",Gift,https://squareup.com/store/la-moon-thai-spa-cambridge/item/gift-certificates,https://www.lamoonthaicambridge.com,Contact,1,MA,02138,beauty_salon
Anupama Spa and Salon,"80 Winn St, Woburn, MA 01801",Beauty salon,Woburn,http://anupamaspaandsalon.com/,,,Order eGift Card,https://squareup.com/gift/AWQK2QSJ80SST/order,https://www.anupamaspaandsalon.com/contact,CONTACT,1,MA,01801,beauty_salon
Corbu Spa & Salon,"5 Bennett St, Cambridge, MA 02138",Spa,Cambridge,https://corbuspa.com/,,,"
        Gift Cards
      ",https://corbu.salonultimate.com/checkout/giftCard?store_id=8,https://corbuspa.com/contact-us,"
            Contact Us
          ",1,MA,02138,beauty_salon
Rivkah's Hair Studio,"72 E Main St, Westborough, MA 01581",Beauty salon,Westborough,http://www.rivkahshairstudio.com/,,,Buy a Gift Card,https://rivkahs.salontarget.com/egift/?guestonly=guestonly,https://rivkahshairstudio.com/contact-us/,Contact,1,MA,01581,beauty_salon
LunchboxWax Framingham,"25 Prospect St suite b, Framingham, MA 01701",Waxing hair removal service,Framingham,https://www.lunchboxwax.com/,,,Gift Certificates,http://www.secure-booker.com/lunchboxholdings/shoponline/giftcertificate.aspx,https://www.lunchboxwax.com/framingham/contact-us/,Contact Us,1,MA,01701,beauty_salon
B Luxe,"165 Main St #208, Medway, MA 02053",Beauty salon,Medway,http://bluxehairandmakeup.com/,,,click to buy a b.LUXE gift certificate,http://bLUXE.snapcerts.com,https://bluxehairandmakeup.com/contact-us/,contact us,1,MA,02053,beauty_salon
Sereni Salon & Spa,"8 Market St, Hudson, MA 01749",Beauty salon,Hudson,http://www.serenisalon.com/,,,Gift Cards,http://serenisalon.com/gift-cards/,http://serenisalon.com/contact/,Contact,1,MA,01749,beauty_salon
Knockouts Haircuts for Men,"287 School St, Mansfield, MA 02048",Beauty salon,Mansfield,https://knockouts.com/,,,GIFT CARDS,https://knockouts.com/product/knockouts-gift-cards/,https://knockouts.com/contact/,CONTACT,1,MA,02048,beauty_salon
Macy's,"1029 S Washington St, North Attleborough, MA 02760",Beauty supply store,North Attleborough,http://www.maccosmetics.com/,,,Shop All Gift Cards,http://www.maccosmetics.com/gift-card-landing-page,https://www.maccosmetics.com/customer_service/contact_us.tmpl,Email Us 24/7,1,MA,02760,beauty_salon
Nkd Waxing Lashes & Makeup,"301 Grove St, Worcester, MA 01605",Waxing hair removal service,Worcester,http://www.nkdworcester.com/,,, Gift Cards,https://www.vagaro.com/nkdworcester/gift-certificates,https://nkdworcester.com/contact,CONTACT US,1,MA,01605,beauty_salon
Bellisimo Med Spa and Laser Center,"372 Chandler St, Worcester, MA 01602",Medical spa,Worcester,https://www.bellisimospa.com/,,,Gift Cards,https://bellisimospa.com/product/gift-card/,https://bellisimospa.com/contact/,Contact Us,1,MA,01602,beauty_salon
Salon Richard Anthony,"12 Milford St, Upton, MA 01568",Beauty salon,Upton,http://www.salonrichardanthony.net/,,,E-Gift Cards,https://salonrichardanthony.salontarget.com/egift/?guestonly=guestonly,http://www.salonrichardanthony.net/javascript: void(0),Contact Us,1,MA,01568,beauty_salon
NYHair Co & Spa,"32 Main St, Orleans, MA 02653",Beauty salon,Orleans,http://nyhaircoandspa.com/,,,Gift Cards,https://nyhaircoandspa.com/gift-cards/,https://nyhaircoandspa.com/contact/,Contact,1,MA,02653,beauty_salon
Razzmatazz,"70 Industry Rd # B, Marstons Mills, MA 02648",Beauty salon,Marstons Mills,http://razzmatazzhairstudio.com/,,,purchasing a gift card,https://giftup.app/place-order/d8a69472-c1a3-493e-89c2-4c362a139a48?platform=Squarespace,http://razzmatazzhairstudio.com/contact,Contact,1,MA,02648,beauty_salon
Pure Skin Care,"10 Porter St, Stoughton, MA 02072",Skin care clinic,Stoughton,http://www.pureskincaresalon.com/,,,"



					Gift Certificates
				

",https://www.pureskincaresalon.com/gift-certificates/,https://www.pureskincaresalon.com/contact/,"



					Contact
				

",1,MA,02072,beauty_salon
Shear Wellness Salon & Spa,"225 Hopmeadow St, Weatogue, CT 06089",Beauty salon,Weatogue,http://www.shearwellnesssalonandspa.com/,,,,http://www.shearwellnesssalonandspa.com/gift_certificates.htm,http://www.shearwellnesssalonandspa.com/contact_us.htm,,1,CT,06089,beauty_salon
Superior Skin Care and Electrolysis,"#B2,, 148 Linden St, Wellesley, MA 02482",Beauty salon,Wellesley,http://www.superiorskin.net/,,,,https://www.thegiftcardcafe.com/cart/indexpac.php?storeID=17205,https://superiorskin.net/contact/,Contact,1,MA,02482,beauty_salon
Lindsay Taylor SPAtique,"71 E Main St, Westborough, MA 01581",Spa,Westborough,http://www.lindsaytaylorspatique.com/,,,"
        Gift Cards
      ",https://clients.mindbodyonline.com/classic/ws?studioid=253424&stype=42,http://www.lindsaytaylorspatique.com/contact,"
            Contact
          ",1,MA,01581,beauty_salon
Paul Joseph's Hair & Nail Salon,"163 Washington St # 1, North Easton, MA 02356",Beauty salon,North Easton,http://www.pauljosephssalon.com/,,,E-Gift Cards,https://pauljosephssalon.salontarget.com/egift/?guestonly=guestonly,http://www.pauljosephssalon.com/hair-salon-washington-street-ma-contact.html,Contact,1,MA,02356,beauty_salon
Serenity In the City Salon & Spa,"269 Middlesex Ave, Medford, MA 02155",Beauty salon,Medford,http://serenityinthecitymedford.com/,,,"Gift Cards
",https://www.egiftcardexpress.com/live/6/,https://www.serenityinthecitymedford.com/index.php/contacts,"Contact
",1,MA,02155,beauty_salon
Balance Spa,"1788 Main St, Tewksbury, MA 01876",Massage therapist,Tewksbury,http://www.balancespa.com/,,,,https://balancespa.boomtime.com/lgift,http://www.balancespa.com/contact,"


CONTACT

",1,MA,01876,beauty_salon
Serenity Spa & Salon,"Applewood Plaza, 315 Middlesex Rd STE 1, Tyngsborough, MA 01879",Beauty salon,Tyngsborough,http://www.serenityspaandsalon.com/,,,Gift Cards,http://www.serenityspaandsalon.com/uncategorized/gift-cards/,http://www.serenityspaandsalon.com/uncategorized/contact-2/,Contact,1,MA,01879,beauty_salon
Sarah Glover Skincare & Wellness Center,"23 W Bay Rd, Osterville, MA 02655",Facial spa,Osterville,http://www.sarahgloverskincare.com/,,,GIFT CERTIFICATES,https://www.sarahgloverskincare.com/gift-card,https://www.sarahgloverskincare.com/contact,CONTACT,1,MA,02655,beauty_salon
Salon Evolution,"112 State Rd, Sagamore Beach, MA 02562",Beauty salon,Sagamore Beach,http://www.thesalonevolution.com/,,,Contact Us Gift Cards,http://www.thesalonevolution.com/contact-us-gift-cards.html,http://www.thesalonevolution.com/contact-us-gift-cards.html,Contact Us Gift Cards,1,MA,02562,beauty_salon
SBaba Skincare,"710 Main St, Yarmouth Port, MA 02675",Facial spa,Yarmouth Port,http://www.sbabaskincare.com/,,,"
				SB Shop / Contact Info
			",http://www.sbabaskincare.com/sb-gift-cards.html,http://www.sbabaskincare.com/sb-gift-cards.html,"
				SB Shop / Contact Info
			",1,MA,02675,beauty_salon
Beach Plum Spa,"2271, 149 Main St Suite #2, Sandwich, MA 02563",Health spa,Sandwich,https://www.beachplumspa.com/,,,Gift Cards,http://www.capecodgiftcards.com,https://www.beachplumspa.com/contact_us/,Contact Us,1,MA,02563,beauty_salon
SPAco By Jacklyn,"724 Main St, Hyannis, MA 02601",Spa,Hyannis,https://squareup.com/,,,"
                        Buy now
                      ",https://squareup.com/gift/BMMQNTBDGPQNV/order,,,1,MA,02601,beauty_salon
T & K Nail Design,"206 Cambridge St, Burlington, MA 01803",Nail salon,Burlington,https://www.tknailsalon.com/,,,Gift Cards,https://www.tknailsalon.com/gift-card,https://www.tknailsalon.com/contact-us-1,CONTACT US,1,MA,01803,beauty_salon
Stella Dieci Spa & Salon,"158 Main St, Milford, MA 01757",Beauty salon,Milford,http://www.stelladieci.com/,,,Insta Gift Cards,https://stelladieci.boomtime.com/lgift,http://www.stelladieci.com/contact.html,Contact,1,MA,01757,beauty_salon
Jessie Dillon Beauty,"258 Main St #111, Milford, MA 01757",Beauty salon,Milford,http://www.jessiedillonbeauty.com/,,,"
Gift Cards
",http://www.jessiedillonbeauty.com/gift-cards,http://www.jessiedillonbeauty.com/contact-us,"
Contact Us
",1,MA,01757,beauty_salon
Zinc Day Spa Med Spa Nails,"37 E Central St, Franklin, MA 02038",Skin care clinic,Franklin,http://www.zincspa.com/,,,Gift Certificates ,http://www.zincspa.com/shop.htm,http://www.zincspa.com/contact.htm,Contact,1,MA,02038,beauty_salon
Mac Med Tanning Spa,"20 Daniels St, Hopedale, MA 01747",Tanning salon,Hopedale,https://macmedspa.com/,,,Gift Cards,https://macmedspa.com/gift-cards/,,,1,MA,01747,beauty_salon
Charles David Salon & Spa,"1 Village Green N #113, Plymouth, MA 02360",Beauty salon,Plymouth,http://www.charlesdavidsalon.com/,,,gift certificates,http://www.charlesdavidsalon.com/gift_certificates.html,http://www.facebook.com/pages/Hanover-MA/Charles-David-Salon-Spa/167636481650,,1,MA,02360,beauty_salon
Melanie's Day Spa,"111 Dean St, Taunton, MA 02780",Day spa,Taunton,https://www.melaniesdayspa.com/,,,"
            Gift Cards
          ",https://www.melaniesdayspa.com/store,https://www.melaniesdayspa.com/contact,"
            Contact
          ",1,MA,02780,beauty_salon
Regina's,"1160 Main St, Clinton, MA 01510",Beauty salon,Clinton,http://www.pizzeriaregina.com/,,,GIFT CARDS,https://shop.reginapizzeria.com,http://www.pizzeriaregina.com/contact.html,CONTACT,1,MA,01510,beauty_salon
Hair Cosmopolitan,"601 Donald Lynch Blvd # 1157, Marlborough, MA 01752",Beauty salon,Marlborough,https://www.haircosmopolitan.com/,,,Gift Card,https://www.haircosmopolitan.com/collections/digital-gift-card,https://www.haircosmopolitan.com/pages/contact-us,Contact Us,1,MA,01752,beauty_salon
Beautiful People Salon & Spa,"2 Hammerhead Pl, Cromwell, CT 06416",Beauty salon,Cromwell,http://www.bpsalon.com/,,,Gift Certificates,https://www.thegiftcardcafe.com/cart/index.php?storeID=12071,https://bpsalon.com/contact-us/,Contact,1,CT,06416,beauty_salon
Jeffrey Robert Salon,"732 Southbridge St, Auburn, MA 01501",Beauty salon,Auburn,http://www.jeffreyrobertsalon.com/,,,Gift Cards,https://jeffreyrobertsalon.com/gift-cards/,https://jeffreyrobertsalon.com/contact/,Contact Us,1,MA,01501,beauty_salon
Roc's Unisex Salon,"221 Main St, Marlborough, MA 01752",Hair salon,Marlborough,http://www.rocsunisexsalon.com/,,,Gift Certificates,https://rocsunisexsalon.com/gift-certificates/,https://rocsunisexsalon.com/contact/,Contact,1,MA,01752,beauty_salon
Heaven Scent Advanced Skin Care,"213 Main St, Hudson, MA 01749",Facial spa,Hudson,http://heavenscent.skincaretherapy.net/,,"Spa in a charming house offering unique facials & other skincare services, plus brow waxing & reiki.",Gift Certificates,http://heavenscent.skincaretherapy.net/gift-certificates,http://heavenscent.skincaretherapy.net/your-contact-information,Your Contact Information,1,MA,01749,beauty_salon
Essential Therapies Day Spa,"1094 Main St, Bolton, MA 01740",Day spa,Bolton,http://www.etdayspa.com/,,,  Gift Certificates ,http://www.etdayspa.com/essential-therapies/gift-certificates,http://www.etdayspa.com/essential-therapies/contact-us,"
 
Contact 
",1,MA,01740,beauty_salon
Rio Medical Aesthetics,"265 Washington St, Hudson, MA 01749",Beauty salon,Hudson,http://riomedical.net/,,,Gift Cards,https://riomedical.com/shop/,https://riomedical.com/contact-us/,Contact Us,1,MA,01749,beauty_salon
RenovoMD  Medical Aesthetics  Jean Casello MD,"96 W Main St, Northborough, MA 01532",Medical spa,Northborough,https://renovomd.com/,,,Gift Cards,https://renovomd.millenniumegift.com,https://renovomd.com/contact-us/,Contact Us,1,MA,01532,beauty_salon
Hand and Stone Massage and Facial Spa,"5 Highland Common E, Hudson, MA 01749",Massage therapist,Hudson,https://www.handandstonehudson.com/,,,Instant Gift Cards,https://handstone.boomtime.com/lgift,https://www.handandstonehudson.com/#,Contact Us,1,MA,01749,beauty_salon
Sage & Grace an Organic Salon,"g, 2940, 232 Chandler St, Worcester, MA 01609",Hair salon,Worcester,http://www.sageandgracesalon.com/,,,GIFT CARDS,https://squareup.com/gift/XX1X3XSTAQJMW/order,https://www.sageandgracesalon.com/contact,CONTACT US,1,MA,01609,beauty_salon
Corporate Nails And Spa,"44 Margin St, Peabody, MA 01960",Nail salon,Peabody,http://www.corporatenailsandspa.com/,,,Read more,http://www.corporatenailsandspa.com/gift-certificate,http://www.corporatenailsandspa.com/contact-us/,Contact Us,1,MA,01960,beauty_salon
Skin Rejuvenation Center & Spa,"105 Water St, Danvers, MA 01923",Beauty salon,Danvers,http://www.skinrejuvenationctr.com/,,,"
Instagram post 2288684639135278166_9313883558

",https://www.instagram.com/p/B_DCo2mjSRW/,https://skinrejuvenationctr.com/contact-us/,Contact,1,MA,01923,beauty_salon
Pink & White Nail Spa,"110 Newbury St, Danvers, MA 01923",Nail salon,Danvers,http://www.pinknwhitenails.com/,,,Gift Cards,https://www.pinknwhitenails.com/gift-cards,https://www.pinknwhitenails.com/contact,Book a treatment,1,MA,01923,beauty_salon
Tranquility Massage and Spa,"252 Elliott St, Beverly, MA 01915",Massage spa,Beverly,http://www.tranquilitymassage-spa.com/,,,Shop,http://tranquilitymassage-spa.com/gift-certificates/,http://tranquilitymassage-spa.com/contact-directions/,Contact & Directions,1,MA,01915,beauty_salon
Beverly Athletic Club,"7 Reservoir Rd, Beverly, MA 01915",Spa,Beverly,https://beverlyathletic.com/,,,GIFT CARDS,https://clients.mindbodyonline.com/classic/ws?studioid=2499&stype=42,https://beverlyathletic.com/contact-us/,CONTACT US,1,MA,01915,beauty_salon
Mayfair On the Hill,"81 W Cedar St, Boston, MA 02114",Beauty salon,Boston,http://www.mayfaironthehill.com/,,,"
        Gift Cards Available
    ",https://squareup.com/gift/SJCST5X9GNRB7/order,http://www.mayfaironthehill.com/contact-us.php,Contact us,1,MA,02114,beauty_salon
Simply Erinn's Unisex Hair Salon,"268 Brookline St, Cambridge, MA 02139",Beauty salon,Cambridge,https://www.simplyerinns.com/,,,,https://simplyerinns.salontarget.com/egift/?guestonly=guestonly,https://www.simplyerinns.com/contact/,Contact,1,MA,02139,beauty_salon
Jeanne Lee,"115 Newbury St, Boston, MA 02116",Beauty salon,Boston,http://www.jeannesalon.com/,,,gift certificate,http://www.jeannesalon.com/gift_certificate.html,http://www.jeannesalon.com/contact.html,contact,1,MA,02116,beauty_salon
SoHo NAIL BAR,"418 Tremont St, Boston, MA 02116",Nail salon,Boston,http://www.sohonailbar.com/,,,GIFT CARDS,https://www.sohonailbar.com/gift-card,https://www.sohonailbar.com/contact-us-1,CONTACT,1,MA,02116,beauty_salon
Boston's Nails & Spa,"665 Boylston St 2nd floor, Boston, MA 02116",Nail salon,Boston,http://www.bostonsnailsandspa.com/,,,Gift Cards,http://www.bostonsnailsandspa.com/gift-cards,http://www.bostonsnailsandspa.com/contact,Contact,1,MA,02116,beauty_salon
Salon Marc Harris,"4 Avery St, Boston, MA 02111",Beauty salon,Boston,http://salonmarcharris.com/,,,Gift Cards,https://online-booking.salonbiz.com/olb/web_booking.home?%20wbid=c253t201408081139ptu485mzThB583M45A5e8&theme=779,,,1,MA,02111,beauty_salon
RISE Beauty Studio Co,"316 Newbury St 4th floor, Boston, MA 02115",Beauty salon,Boston,http://www.risebeautystudio.com/,,,Buy A Gift Certificate,https://www.vagaro.com/risebeautystudioco1/gift-certificates,http://risebeautystudio.com/contact/,CONTACT,1,MA,02115,beauty_salon
Lord's & Lady's Hair Salon,"450 Belgrade Ave, West Roxbury, MA 02132",Beauty salon,West Roxbury,http://www.lordsandladys.com/,,,PURCHASE A GIFT CARD TODAY,https://lordsandladys.salonultimate.com/clientWeb/login?brand=3&z=1586305097,http://www.lordsandladys.com/contact,"
            Contact
          ",1,MA,02132,beauty_salon
Sugaring Boston,"221 Newbury St floor 2, Boston, MA 02116",Waxing hair removal service,Boston,http://www.bostonsugaring.com/,,,Gift Cards,https://squareup.com/gift/AZJXQ3GZ2G974/order,,,1,MA,02116,beauty_salon
Salon Euphoria,"333 Washington St #221, Boston, MA 02108",Hair salon,Boston,http://www.saloneuphoria.com/,,,Gift Cards,https://squareup.com/gift/4387D3G6WXB70/order,http://www.saloneuphoria.com/tel:6177427951,(617) 742-7951,1,MA,02108,beauty_salon
Toscana Organic European Day Spa & Salon,"231 Newbury St, Boston, MA 02116",Day spa,Boston,http://www.toscanadayspa.com/,,,"
        $ GIFT CARD
      ",http://www.toscanadayspa.com/gift-card,,,1,MA,02116,beauty_salon
House of Ivy,"699 E Broadway, Boston, MA 02127",Beauty salon,Boston,http://houseofivysb.com/,,,Shop,https://www.vagaro.com/houseofivy/gift-certificates,https://www.houseofivysb.com/book-online,CONTACT,1,MA,02127,beauty_salon
SkinHealth Centers Med Spa Boston,"37 Newbury St 5th floor, Boston, MA 02116",Medical spa,Boston,http://www.skinhealthcenters.com/,,,Purchase Instant Gift Certificates,https://skinhealth.boomtime.com/lgift,https://www.skinhealthcenters.com/contact-us,Contact,1,MA,02116,beauty_salon
CSpa  Boston Skin & Massage Studio,"715 Boylston St #510, Boston, MA 02116",Day spa,Boston,https://www.cspaboston.com/,,,Gift Card,https://www.cspaboston.com/gift-card-packages,https://www.cspaboston.com/contact,CONTACT,1,MA,02116,beauty_salon
Le Visage Spa in Boston,"125 Broad St, Boston, MA 02110",Spa,Boston,http://www.levisageboston.com/,,,Gift Cards,https://levisageboston.com/products/gift-cards/,https://visitor.r20.constantcontact.com/d.jsp?llr=fnplqatab&p=oi&m=1119929875877&sit=upnna4mjb&f=8ee68127-51d2-44e8-af1c-efffadec639f,Email Specials,1,MA,02110,beauty_salon
Brad Duncan Skin Care,"530 Tremont St, Boston, MA 02116",Skin care clinic,Boston,http://www.bradduncanskincare.com/,,,Gift Cards,http://www.bradduncanskincare.com/products/gift-card,http://www.bradduncanskincare.com/pages/contact,"
            Contact
          ",1,MA,02116,beauty_salon
Rowes Wharf Health Club and Spa,"70 Rowes Wharf, Boston, MA 02110",Fitness center,Boston,https://www.bhh.com/,,,Gift cards,https://www.privatelabelcard.com/?siteid=wwwbhhcom,https://www.bhh.com/cdn-cgi/l/email-protection#63010b0b0b06020f170b000f160123010b0b4d000c0e,"
                            Contact us
                        ",1,MA,02110,beauty_salon
Follain,"65 Charles St, Boston, MA 02114",Beauty supply store,Boston,https://follain.com/,,,SHOP,https://follainbeauty.myshopify.com/products/follain-gift-card,,,1,MA,02114,beauty_salon
Bliss Spa & Salon,"419 Andover St #5001, North Andover, MA 01845",Hair salon,North Andover,http://www.blissspaandsalon.com/,,,Gift Card ,http://blissspa.boomtime.com/lgift,https://www.blissspaandsalon.com,Contact,1,MA,01845,beauty_salon
Elle Salon,"328 Main St, Reading, MA 01867",Hair salon,Reading,http://ellesalonreading.com/,,,E-Gift Card,https://ellesalons.salontarget.com/egift/?guestonly=guestonly,https://ellesalonreading.com/contact-us/,Contact,1,MA,01867,beauty_salon
Polished Spa,"539 Calef Hwy, Epping, NH 03042",Day spa,Epping,http://www.polishedspanh.com/,,,"
								Purchase a Polished Gift Certificate
							",http://www.secure-booker.com/PolishedSpa1/ShopOnline/GiftCertificate.aspx,http://www.polishedspanh.com/location--contact.html,"
								Location & Contact
							",1,NH,03042,beauty_salon
Med Spa Rowley,"225 Newburyport Turnpike, Rowley, MA 01969",Medical spa,Rowley,http://backstagesalonandspa.com/,,,GIFT CARDS,http://backstagesalonandspa.com/gift-cards/,http://backstagesalonandspa.com/contact/,CONTACT,1,MA,01969,beauty_salon
Meredith Whole Living Center,"48 Main St, Meredith, NH 03253",Spa and health club,Meredith,https://www.meredithwholeliving.com/,,,GIFT CARDS,https://www.meredithwholeliving.com/gift-cards,https://www.meredithwholeliving.com/mailto:info@meredithwholeliving.com,Contact,1,NH,03253,beauty_salon
Salon Exquisite,"395 Chandler St, Worcester, MA 01602",Beauty salon,Worcester,http://www.salonexquisite.net/,,,Purchase a Gift Card>>,https://salonexquisite.salontarget.com/egift/?guestonly,https://www.salonexquisite.net/contact-us,Contact Us,1,MA,01602,beauty_salon
Crystalline Awaken,"730 Main St, Boylston, MA 01505",Spa,Boylston,http://www.crystallineawaken.com/,,,Gift Certificate Boylston,https://go.booker.com/location/CrystallineAwaken/buy/gift-certificate,http://www.crystallineawaken.com/#,"



Send Message
",1,MA,01505,beauty_salon
Truth Organic Spa and Wellness Center,"55 N Main St, North Grafton, MA 01536",Day spa,North Grafton,http://www.truthorganicspa.com/,,,PURCHASEÂ AÂ GIFTÂ CARD,https://clients.mindbodyonline.com/classic/ws?studioid=116170&stype=42&sLoc=0&giftCardID=174,,,1,MA,01536,beauty_salon
Escape Salon Aveda,"Prudential Tower, 800 Boylston St, Boston, MA 02199",Beauty salon,Boston,http://escapesalonaveda.com/,,,Buy Gift Cards,https://squareup.com/gift/TGP18ASAXDPJP/order,https://www.escapesalonaveda.com/appointments,Contact,1,MA,02199,beauty_salon
Orlanda's International Day Spa,"233 Bridge St, North Weymouth, MA 02191",Beauty salon,North Weymouth,http://orlandasdayspa.com/,,,Gift Certificates,http://orlandasdayspa.com/gift-certificates,http://orlandasdayspa.com/contact,Contact,1,MA,02191,beauty_salon
Hair Essentials Salon,"97 Pleasant St, South Weymouth, MA 02190",Beauty salon,South Weymouth,http://www.thehairessentialssalon.com/,,,"

			Gift Cards
		
",http://www.thehairessentialssalon.com/gift-cards.html,http://www.thehairessentialssalon.com/contact-us.html,"
						Contact Us
					",1,MA,02190,beauty_salon
La Novita Salon & Spa,"1395 N Main St # D, Randolph, MA 02368",Beauty salon,Randolph,http://lanovitasalon.com/,,,Gift Cards,http://lanovita.salontarget.com/egift/?guestonly=guestonly,https://v2.lanovitasalon.com/contact/#reviews,Reviews,1,MA,02368,beauty_salon
Milton Nails & Spa,"450 Granite Ave, Milton, MA 02186",Nail salon,Milton,http://miltonnailsandspa.com/,,,Gift Cards,http://miltonnailsandspa.com/gift-cards/,http://miltonnailsandspa.com/contacts/,Contacts and Directions,1,MA,02186,beauty_salon
Zona Salons Weymouth,"1132 Main St, South Weymouth, MA 02190",Hair salon,South Weymouth,http://www.zonaprofessional.com/,,,SHOP GIFT CARDS HERE,http://www.zonaprofessional.com/gift-certificates,https://docs.google.com/forms/d/e/1FAIpQLSegPVcNCHWvu1B9lSUul6It3xIvjb1_KUTz3Aaka1DEQl-AHQ/viewform,CONTACTLESSRETAIL DELIVERY,1,MA,02190,beauty_salon
Aesop Santana Row,"333 Santana Row, San Jose, CA 95128",Cosmetics store,San Jose,http://www.aesop.com/,,Australian company known for its high-end plant-based products for body & hair.,Check Gift Card balance,http://www.aesop.com/us/r/gift-card-balance/,https://assistance.aesop.com/hc/en-us/requests/new,Contact us,1,CA,95128,beauty_salon
Aesop Stanford Shopping Center,"660 Stanford Shopping Center Unit 126C, Palo Alto, CA 94304",Cosmetics store,Palo Alto,http://aesop.com/,,Australian company known for its high-end plant-based products for body & hair.,Check Gift Card balance,http://aesop.com/us/r/gift-card-balance/,https://assistance.aesop.com/hc/en-us/requests/new,Contact us,1,CA,94304,beauty_salon
Hair Mechanix,"22 Summer St, North Brookfield, MA 01535",Beauty salon,North Brookfield,http://www.hairmechanixhairsalon.com/,,,E-Gift Card,https://hairmechanix.salontarget.com/egift/?guestonly=guestonly,,,1,MA,01535,beauty_salon
Shimmer Hair Designs [?],"1 E Main St, West Brookfield, MA 01585",Hair salon,West Brookfield,https://www.shimmerhairdesigns.com/,,,"  

ORDER GIFT CARD
",https://squareup.com/gift/KK50HNPYDCZB4/order,https://www.shimmerhairdesigns.com/#FINDUS," FIND US

",1,MA,01585,beauty_salon
Azana Salon and Spa,"200 N Moorland Rd, Brookfield, WI 53005",Beauty salon,Brookfield,http://www.azanaspa.com/,,,PRINT GIFT CERTIFICATES,https://www.azanaspa.com/index.php/purchase-gift-certificates/,https://www.azanaspa.com/index.php/contact-form/,Contact Form,1,WI,53005,beauty_salon
29ten Salon,"2910 N Brookfield Rd, Brookfield, WI 53045",Beauty salon,Brookfield,https://www.29tensalon.com/,,,click here.,https://go.booker.com/location/29ten/buy/gift-certificate,https://www.29tensalon.com/contact/,contact,1,WI,53045,beauty_salon
Roots Salon,"16750 W Bluemound Rd, Brookfield, WI 53005",Beauty salon,Brookfield,https://www.myrootssalon.com/,,,GIFT CARDS,https://myrootssalon.securetree.com/,https://www.myrootssalon.com/mailto:nikam@myrootssalon.com,Contact Nika,1,WI,53005,beauty_salon
Silhouettes Salon,"164B West St, Ware, MA 01082",Beauty salon,Ware,http://www.silhouettessalon.net/,,,Gift Certificates,http://www.silhouettessalon.net/cab,http://www.silhouettessalon.net/contact,Contact,1,MA,01082,beauty_salon
A Younger You Medical Spa,"18900 W Bluemound Rd Suite 112, Brookfield, WI 53045",Beauty salon,Brookfield,https://ayoungeryou.com/,,,Gift Cards,https://squareup.com/gift/NNN2R3XRCMVS5/order,https://ayoungeryou.com/contact/,Contact,1,WI,53045,beauty_salon
Simple Indulgence Day Spa,"598 Main St, Fiskdale, MA 01518",Day spa,Fiskdale,http://www.simpleindulgencedayspa.com/,,,GIFT CERTIFICATES,https://www.simpleindulgencedayspa.com/gift-certificates,https://www.simpleindulgencedayspa.com/contact,CONTACT,1,MA,01518,beauty_salon
Hair Gallery Salon & Spa,"454 Main St, Fiskdale, MA 01518",Hair salon,Fiskdale,http://thehairgallerysalonandspa.com/,,,Gift Cards,https://hgsalonandspa.localgiftcards.com/,http://thehairgallerysalonandspa.com/contact-us,Contact Us ,1,MA,01518,beauty_salon
Signature Salon & Spa,"1424 Big Bend Rd, Waukesha, WI 53189",Beauty salon,Waukesha,http://www.signaturesalonandspa.com/,,,Gift Cards,http://www.signaturesalonandspa.com/AboutWaukesha/Gifts,http://www.signaturesalonandspa.com/Contact,262-547-6600,1,WI,53189,beauty_salon
Rejuvenis Spa,"50 Elm St, Southbridge, MA 01550",Massage spa,Southbridge,http://www.rejuvenisspa.com/,,,,https://www.rejuvenisspa.com/services/gift-cards-available/,,,1,MA,01550,beauty_salon
Voguecare Electrolysis & Skin Care,"39 Elm St #101, Southbridge, MA 01550",Skin care clinic,Southbridge,http://www.voguecare.com/,,,GIFT CERTIFICATES,https://www.voguecare.com/gift-certificates,,,1,MA,01550,beauty_salon
The Aveda Experience Center - Brookfield Square,"95 N Moorland Rd, Brookfield, WI 53005",Beauty supply store,Brookfield,http://nerolisalonspa.com/,,,GIFT CARDS,https://www.nerolisalonspa.com/gift-cards/,https://www.nerolisalonspa.com/online-reservation-locations/,Book Now,1,WI,53005,beauty_salon
In Balance Healing Massage and Bodywork Center,"394 E Main St, East Brookfield, MA 01515",Massage therapist,East Brookfield,http://www.inbalancemassage.net/,,,Gift Certificates Available,http://inbalancemassage.net/gift-certificate/,http://inbalancemassage.net/contact-us/,Contact Us,1,MA,01515,beauty_salon
Neiman Marcus,"20 Hudson Yards, New York, NY 10001",Cosmetics store,New York,https://www.neimanmarcus.com/,,,Gift Cards,https://www.neimanmarcus.com/c/gifts-gift-cards-cat4110745?navpath=cat000000_cat000672_cat4110745,"https://www.google.com/maps/place/Neiman+Marcus/@40.753405,-74.0031977,17z/data=!3m1!4b1!4m5!3m4!1s0x89c25981e0717989:0x751a431108adf57d!8m2!3d40.753405!4d-74.001009",,1,NY,10001,beauty_salon
Infinity MedISpa,"365 Boston Post Rd #210, Sudbury, MA 01776",Medical spa,Sudbury,https://infinitymedicalspa.com/,,, Gift Cards,https://www.giftfly.com/shop/infinity-medspa,https://infinitymedicalspa.com/contact-us/,Contact Us,1,MA,01776,beauty_salon
Release WellBeing Center,"201 Turnpike Rd, Westborough, MA 01581",Massage therapist,Westborough,http://releasewellbeingcenter.com/,,,Memberships & Gift Cards,https://releasewellbeingcenter.com/membership/,https://releasewellbeingcenter.com/contact/,Contact,1,MA,01581,beauty_salon
PhoRaya Thai Spa,"900 Huntington Ave, Boston, MA 02115",Thai massage therapist,Boston,http://www.phorayathaispa.com/,,,Gift Cards Available Here!! ,https://squareup.com/gift/JX4RVP0T6W2CD/order,https://www.phorayathaispa.com/contact-us,Contact Us,1,MA,02115,beauty_salon
Bagardi Laser Center,"2001 Beacon St #303, Brighton, MA 02135",Laser hair removal service,Brighton,http://www.bagardilaserhairremoval.com/,,,"
",https://squareup.com/gift/BJ37YBB4K9K39/order,http://www.bagardilaserhairremoval.com/contact-us.aspx,Contact Us,1,MA,02135,beauty_salon
The Beauty Studio,"212 Sumner St, Newton Centre, MA 02459",Hair removal service,Newton Centre,http://www.beautystudiothreading.com/,,,"Purchase Gift Card




",https://squareup.com/gift/08M5WFXWG4BG3/order,https://www.beautystudiothreading.com/contact-us,Contact Us,1,MA,02459,beauty_salon
Citrus Aveda Spa & Salon,"662 Revere Beach Blvd, Revere, MA 02151",Day spa,Revere,http://citrusspaboston.com/,,,Gift Certificates,https://citrusspaboston.com/gift-certificates/,https://citrusspaboston.com/contact/,Contact,1,MA,02151,beauty_salon
Everbare,"137 Newbury St 6th floor, Boston, MA 02116",Waxing hair removal service,Boston,http://www.everbare.com/,,,Purchase Gift Certificates,https://www.thegiftcardcafe.com/cart/index.php?storeID=12649,,,1,MA,02116,beauty_salon
Skin Studio,"697 Cambridge St #206, Brighton, MA 02135",Skin care clinic,Brighton,http://skinstudioboston.com/,,,Instant Gift Certificates,http://bit.ly/1zfU0DT,https://skinstudioboston.com/contact-us/,Contact Us,1,MA,02135,beauty_salon
Spa Lapis,"1776 Massachusetts Ave, Cambridge, MA 02140",Spa,Cambridge,http://www.spalapis.com/,,,Learn More,https://www.spalapis.com/gift-cards,,,1,MA,02140,beauty_salon
Visions Salon,"16 Washington St, Canton, MA 02021",Nail salon,Canton,https://visionshaircanton.com/,,,,https://www.thegiftcardcafe.com/cart/index.php?storeID=11034,https://visionshaircanton.com/find-us/,find us,1,MA,02021,beauty_salon
The Salon 16 West,"16 West Rd, Orleans, MA 02653",Beauty salon,Orleans,http://www.thesalon16west.com/,,,Gift Card,https://www.thesalon16west.com/gift-card,https://www.thesalon16west.com/contact,Contact,1,MA,02653,beauty_salon
Sisters' Salon & Spa,"117 Pleasant St, Nantucket, MA 02554",Beauty salon,Nantucket,http://www.nantucketspasalon.com/,,,Gift Card,https://www.nantucketspasalon.com/gift-card,,,1,MA,02554,beauty_salon
The Face Place & Spa,"1344 Washington St #1655, Hanover, MA 02339",Day spa,Hanover,http://faceplaceandspa.com/,,,BUY GIFT CARDS,https://www.secure-booker.com/thefaceplace/ShopOnline/GiftCards.aspx,,,1,MA,02339,beauty_salon
Amy's Salon,"1179 Massachusetts Ave, Arlington, MA 02476",Hair salon,Arlington,http://amyssalonarlington.com/,,,Buy Gift Card,https://amyssalon.salontarget.com/egift/?guestonly=guestonly,https://amyssalonarlington.com/contact/,Contact,1,MA,02476,beauty_salon
188 Fine Men's Salons  Morristown,"40 W Park Pl, Morristown, NJ 07960",Barber shop,Morristown,http://eighteeneight.com/,,,Purchase E-Gift Cards,https://eighteeneight.zenoti.com/webstore/GiftCards.aspx?WebstoreType=0&centerid=6514c103-913a-4b32-b46e-cac06574d1a0,https://eighteeneight.com/morristown-nj/contact/,Contact,1,NJ,07960,beauty_salon
Deja Vu Hair Design,"12032 Belair Rd, Kingsville, MD 21087",Beauty salon,Kingsville,http://dejavusalonandspa.net/,,,,http://dejavusalonandspa.net/giftcertificates.html,http://dejavusalonandspa.net/contactus.html,"
Contact Us
",1,MD,21087,beauty_salon
J&L Hair Studio,"1371 Massachusetts Ave, Arlington, MA 02476",Hair salon,Arlington,http://jandlhairstudio.com/,,,Gift Cards,https://jandlhairstudio.salontarget.com/egift/?guestonly=guestonly,https://jandlhairstudio.com/contact-arlington-hair-salon/,Contact,1,MA,02476,beauty_salon
Famous Hair,"548 Emily Dr, Clarksburg, WV 26301",Hair salon,Clarksburg,https://www.signaturestyle.com/,,,Gift Cards ,https://www.signaturestyle.com/gift-cards.html,https://www.signaturestyle.com/about-signature-style/contact-us.html,Contact Us,1,WV,26301,beauty_salon
Tuscan Sun Spa & Salon  Morgantown,"401 Boyers Ave, Morgantown, WV 26505",Beauty salon,Morgantown,https://www.tuscanspaandsalon.com/,,,Buy Gift Cards,https://tuscansunspa.millenniumegift.com,https://tuscanspaandsalon.com/contact-us/,,1,WV,26505,beauty_salon
Renewcalm,"160 Baldwin St, West Springfield, MA 01089",Day spa,West Springfield,https://renewcalm.com/,,,"
                Gift Cards
              ",https://renewcalm.com/gift-cards,https://renewcalm.com/contact,"
                Contact
              ",1,MA,01089,beauty_salon
Zona Salons Norwell,"10 Washington St, Norwell, MA 02061",Hair salon,Norwell,http://zonaprofessional.com/,,,SHOP GIFT CARDS HERE,http://www.zonaprofessional.com/gift-certificates,https://docs.google.com/forms/d/e/1FAIpQLSegPVcNCHWvu1B9lSUul6It3xIvjb1_KUTz3Aaka1DEQl-AHQ/viewform,CONTACTLESSRETAIL DELIVERY,1,MA,02061,beauty_salon
Leonardo's Salon & Spa,"1604 Hancock St, Quincy, MA 02169",Hair salon,Quincy,https://leonardossalon.net/,,,Gift Cards,https://leonardossalon.net/gift-cards/,https://leonardossalon.net/contact/,Contact,1,MA,02169,beauty_salon
Studio Ten Hair Salon,"10 Sea St, Weymouth, MA 02191",Hair salon,Weymouth,http://www.studiotenhairsalon.com/,,,eGift Cards,https://squareup.com/gift/BGYHFHJAWHVXK/order,http://www.studiotenhairsalon.com/contact.html,Contact,1,MA,02191,beauty_salon
Satori Salon Ithaca,"840 Hanshaw Rd, Ithaca, NY 14850",Hair salon,Ithaca,https://satorisalonithaca.com/,,,Instant Gift Certificate,https://na0.meevo.com/EgiftApp/order?tenantId=100044,,,1,NY,14850,beauty_salon
Gloria and Company,"211 Alden Rd, Fairhaven, MA 02719",Beauty salon,Fairhaven,https://www.gloriaandcompany.com/,,,Gift Cards,https://www.gloriaandcompany.com/gift-cards,,,1,MA,02719,beauty_salon
Texture Salon Medfield,"14 B N Meadows Rd, Medfield, MA 02052",Hair salon,Medfield,http://www.texturesalonmedfield.com/,,"Chic local salon with haircuts & color treatments, plus facial waxing & makeup application.",Online Booking/Gift cards,https://app.salonrunner.com/customer/index.jsp?id=27163,https://www.texturesalonmedfield.com/contact-us-policies,Contact Us~Policies,1,MA,02052,beauty_salon
The DuDa Spa,"53 Green St, Portsmouth, NH 03801",Spa,Portsmouth,http://thedudaspa.com/,,,Gift Cards,https://www.thedudaspa.com/gift-certificates/,https://www.thedudaspa.com/contact/,Contact,1,NH,03801,beauty_salon
Rectify Barbershop & Beauty Alcove,"90 Copeland Dr, Mansfield, MA 02048",Hair salon,Mansfield,http://www.rectifybba.com/,,,"PURCHASE A GIFT CARD




",https://gift-cards.phorest.com/salons/rectifybarbershopandbeautyalco,,,1,MA,02048,beauty_salon
Spa Larimar,"516 Hawthorn St, Dartmouth, MA 02747",Health and beauty shop,Dartmouth,http://www.spalarimar.com/,,,"
            Gift Cards
          ",http://www.spalarimar.com/gift-cards,http://www.spalarimar.com/contact-us,"
            Contact/ Hours
          ",1,MA,02747,beauty_salon
Sky Spa,"451 Walpole St, Norwood, MA 02062",Nail salon,Norwood,http://www.myskyspa.com/,,,GIFT CERTIFICATES,https://myskyspa.com/gc/,https://myskyspa.com/contact-us/,CONTACT US,1,MA,02062,beauty_salon
PureLuxe,"118 Needham St, Newton, MA 02464",Nail salon,Newton,http://www.pureluxenewton.com/,,,SHOP NOW,https://go.booker.com/location/Pureluxe/buy/gift-certificate,http://www.pureluxenewton.com/contact,Contact Us,1,MA,02464,beauty_salon
Rina's Studio,"277 Linden St, Wellesley, MA 02482",Waxing hair removal service,Wellesley,http://www.rina-studio.com/,,,,http://www.rina-studio.com/gift_certificate.html,http://www.rina-studio.com/contact.html,,1,MA,02482,beauty_salon
BlushTan Wellesley,"562 Washington St, Wellesley, MA 02482",Beauty salon,Wellesley,http://www.blushtan.com/,,,here,https://blvd.me/blushtan-hq/gift-cards,,,1,MA,02482,beauty_salon
Chemistry Hair Studio,"278 Central Ave, Dover, NH 03820",Hair salon,Dover,http://www.chemistryhairstudio.co/,,,Gift Certificate,http://www.chemistryhairstudio.co/gift-certificate,http://www.chemistryhairstudio.co/contact,Contact,1,NH,03820,beauty_salon
Park West Salon,"90 Lowell St, Arlington, MA 02476",Hair salon,Arlington,http://www.parkwestsalon.com/,,,Purchase a Gift card From Park West Salon,https://clients.mindbodyonline.com/asp/main_shop.asp?pMode=2&tabID=3,http://www.parkwestsalon.com/contact,"
                Contact
              ",1,MA,02476,beauty_salon
Roosters Men's Grooming Center,"180 Linden St #101, Wellesley, MA 02482",Barber shop,Wellesley,http://www.roostersmgc.com/,,,GIFT CARDS,http://www.roostersmgc.com/gift-cards.html,http://www.roostersmgc.com/contact-us.html,CONTACT US,1,MA,02482,beauty_salon
Aspire Med Spa,"Lower Level Fraser Building, Rockland Trust entrance, 332 Washington St #10, Wellesley, MA 02481",Medical spa,Wellesley,https://aspiremedspa.com/,,,GIFT CARDS,https://www.secure-booker.com/beautifulmoiscc/ShopOnline/GiftCertificate.aspx,,,1,MA,02481,beauty_salon
Bloomingdale's,"225 Boylston St, Chestnut Hill, MA 02467",Cosmetics store,Chestnut Hill,https://www.spacenk.com/,,,Space NK Gift Card,https://cws.givex.com/cws/spacenk_us_gift/consumer/main/home.py,https://help-us.spacenk.com/hc/en-us/requests/new,Contact Us,1,MA,02467,beauty_salon
InStyle Hair Designs Inc,"175 Littleton Rd, Westford, MA 01886",Beauty salon,Westford,http://www.instylehd.com/,,,E Gift Cards,http://www.instylehd.com/e-gift-cards,http://www.instylehd.com/contact-us,Contact Us,1,MA,01886,beauty_salon
The Skin & Body Spa,"385 E Dunstable Rd, Nashua, NH 03062",Day spa,Nashua,http://www.theskinandbodyspa.com/,,,Gift Cards,https://skinandbodyspa.millenniumegift.com/,https://www.theskinandbodyspa.com/contact/,Free Consultation,1,NH,03062,beauty_salon
J Michaels Salon,"580 Main St UNIT 206, Reading, MA 01867",Beauty salon,Reading,http://www.jmichaelssalonandspa.com/,,,"
Purchase E-Gift Card
",https://jmichaels.salontarget.com/egift/?guestonly=guestonly,http://www.jmichaelssalonandspa.com/contact.html,"
										Contact
									",1,MA,01867,beauty_salon
Salon Beau,"63 Park St, Andover, MA 01810",Beauty salon,Andover,http://www.thesalonbeau.com/,,,Purchase gift card,https://www.mkt.com/thesalonbeau/item/salon-beau-gift-card?t=modal-em,http://www.thesalonbeau.com/contactus,"
                  Contact Us
                ",1,MA,01810,beauty_salon
StevenMichael for Hair,"354 N Main St, Andover, MA 01810",Beauty salon,Andover,http://www.stevenmichaelcolorpro.com/,,,Gift Certificates,https://www.stevenmichaelcolorpro.com/gift-certificates,,,1,MA,01810,beauty_salon
Soleil Salon & Spa,"49 Range Rd #105, Windham, NH 03087",Hair salon,Windham,http://www.soleil-salon.com/,,,gift cards,http://www.soleil-salon.com/gift-cards.html,http://www.soleil-salon.com/contact-us.html,Contact,1,NH,03087,beauty_salon
gohspa,"350 Cambridge Rd, Woburn, MA 01801",Day spa,Woburn,http://www.gohspa.com/,,,Gift Certificates,https://gohspa.millenniumegift.com/,https://www.salonbuilder.com/website/182435/contact.asp,Contact,1,MA,01801,beauty_salon
TIFFANY'S MEN  Aveda Men Salon,"77 Maple Ave #3519, Barrington, RI 02806",Beauty salon,Barrington,http://tiffanyssalonandspa.com/,,,BOOK ONLINE/GIFT CARDS,http://tiffanyssalonandspa.com/book-online/,https://tiffanyssalonandspa.com/contact-us/,Contact Us,1,RI,02806,beauty_salon
Blush Salon,"3515 West Chester Pike, Newtown Square, PA 19073",Beauty salon,Newtown Square,http://www.blushlooks.com/,,,Gift Certificates,https://www.salonvision.com/Blush/GiftCertificatePop.aspx,http://www.blushlooks.com/contact/#hours,"


			8:00 AM - 9:00 PM			

				We're Closed			
",1,PA,19073,beauty_salon
Cloud 9 Spa Salon,"6500 SW Archer Rd, Gainesville, FL 32608",Day spa,Gainesville,http://www.cloud9spa.com/,,,Gift Certificates,https://go.booker.com/#/location/cloud9spasalon/buy/gift-certificate,http://www.cloud9spa.com/contact-us,Contact Us,1,FL,32608,beauty_salon
serenity in the city salon and spa,"373 Main St, Stoneham, MA 02180",Hair salon,Stoneham,http://www.serenityinthecitymedford.com/,,,"Gift Cards
",https://www.egiftcardexpress.com/live/6/,https://www.serenityinthecitymedford.com/index.php/contacts,"Contact
",1,MA,02180,beauty_salon
GLAMSQUAD,"54 W 21st St #301, New York, NY 10010",Beauty salon,New York,http://www.glamsquad.com/,,,Gift Cards,http://www.glamsquad.com/gift-card,,Modify Appointment,1,NY,10010,beauty_salon
Sienna & Co Inc,"100 Midway Rd, Cranston, RI 02920",Facial spa,Cranston,http://www.siennaandco.net/,,,Gift Cards,http://www.siennaandco.net/gift-cards,http://www.siennaandco.net/contact,Contact,1,RI,02920,beauty_salon
BlushTan Springfield,"673 White St suite b, Springfield, MA 01108",Tanning salon,Springfield,https://www.blushtan.com/,,,"

",https://images.squarespace-cdn.com/content/v1/59e4e4ce692ebe2cf117bfab/1588076114608-PNGUBFZBA1EWJH1M1406/ke17ZwdGBToddI8pDm48kEpVg-ILAPna1wRh-xAJ9fRZw-zPPgdn4jUwVcJE1ZvWQUxwkmyExglNqGp0IvTJZUJFbgE-7XRK3dMEBRBhUpwEv36x-EUL2-BSQ5feDhwGCbXuJBFqZ-erYzVouT8yOb9TwqchglLQOCYTRn7ZGxI/image-asset.jpeg,,,1,MA,01108,beauty_salon
Ozuki Salon,"1002 30th St NW, Washington, DC 20007",Hair salon,Washington,http://www.ozukisalon.com/,,,,https://www.ozukisalon.com/gift-cards/,,,1,DC,20007,beauty_salon
Joseph Christopher For Beauty and Wellness,"254 W Park Ave, Long Beach, NY 11561",Beauty salon,Long Beach,http://www.josephchristopher.com/,,,GIFT CERTIFICATES,http://www.josephchristopher.com/gift-certificates/,http://www.josephchristopher.com/index.php?p=page&page_id=contact-us,Contact Us,1,NY,11561,beauty_salon
Lotus Massage and Spa,"33 W Main St, Georgetown, MA 01833",Spa,Georgetown,http://lotusmassageandspa.net/,,,Gift Cards,https://lotusmassageandwellness.com/index.php/gift-certificates/,https://lotusmassageandwellness.com/index.php/contact-us/,Contact Us,1,MA,01833,beauty_salon
The Body Fixx,"8 N Main St, Upton, MA 01568",Massage therapist,Upton,http://www.thebodyfixx.com/,,,Gift Certificates,https://www.vagaro.com/thebodyfixx/gift-certificates,,,1,MA,01568,beauty_salon
Relax Already Therapeutic Massage,"210 Worcester St, North Grafton, MA 01536",Massage spa,North Grafton,http://www.graftonmassagetherapy.com/,,,Give a Gift!,https://ratm.boomtime.com/lgift,http://www.graftonmassagetherapy.com/#,Contact ,1,MA,01536,beauty_salon
Spatique Day Spa,"2000 Ocean St 2nd floor, Marshfield, MA 02050",Day spa,Marshfield,http://www.spatique.biz/,,," Gift Certificates

",http://www.spatique.biz/gift-certificates,http://www.spatique.biz/contact," Contact / Hours

",1,MA,02050,beauty_salon
Salon Indulgence By Kimberly,"525 Franklin St, Melrose, MA 02176",Beauty salon,Melrose,http://www.salonindulgencebykimberly.com/,,,Gift CertificatesGift Certificates make a great gift for any loved one. Click here to purchase one online right now.,https://www.salonbuilder.com/website/168256/giftcert.asp,https://www.salonbuilder.com/website/168256/contact.asp,Appointments,1,MA,02176,beauty_salon
One83 Mane Studio,"183 Main St, Lincoln Park, NJ 07035",Beauty salon,Lincoln Park,http://www.one83manestudio.com/,,,GET Gift Cards!,https://na0.meevo.com/EgiftApp/home?tenantId=11160,http://www.one83manestudio.com/#contact,CONTACT,1,NJ,07035,beauty_salon
Bonsai Nail Bar,"228 Washington St, Attleboro, MA 02703",Nail salon,Attleboro,https://bonsainailbar.com/,,,Gift Card,https://bonsainailbar.com/gift-card/,https://bonsainailbar.com/contact/,Contact,1,MA,02703,beauty_salon
Cherry Nails,"131 Highland St A, Worcester, MA 01609",Nail salon,Worcester,http://thecherrynails.com/,,,E-Gift,http://thecherrynails.com/gift-card,http://thecherrynails.com/contactus,Contact Us,1,MA,01609,beauty_salon
Creative Nails & Spa Shrewsbury,"50 Boston Turnpike #3540, Shrewsbury, MA 01545",Nail salon,Shrewsbury,http://creativenailsnspa.com/,,,Gift Cards,https://creativenails.localgiftcards.com/,https://www.creativenailsnspa.com/contact,Contact,1,MA,01545,beauty_salon
Indulgence Day Spa,"189 Bedford St, Lexington, MA 02420",Day spa,Lexington,http://www.indulgencedayspa.com/,,,Gift Certificates,http://indulgencedayspa.com/gift-certificates/,,,1,MA,02420,beauty_salon
Vintage Hair Studio,"518 Lincoln Ave, Saugus, MA 01906",Hair salon,Saugus,http://www.vintagesalonsaugus.com/,,,Gift Cards,https://www.vintagesalonsaugus.com/gift-cards,https://www.vintagesalonsaugus.com/contact,Contact,1,MA,01906,beauty_salon
Davis Hairdressing,"341 W Broadway, Boston, MA 02127",Hair salon,Boston,http://www.davishairdressing.com/,,,Gift Cards,https://davishairdressing.com/dh-gifts/,https://davishairdressing.com/contact/,Contact,1,MA,02127,beauty_salon
MANE565 The Salon,"565 Main St, Reading, MA 01867",Hair salon,Reading,http://www.mane565.com/,,,Buy a Gift Card,https://mane565.com/buy-a-gift-card/,https://mane565.com/contact/,Contact,1,MA,01867,beauty_salon
Luxe Beauty Med Spa,"47 Newbury St, Peabody, MA 01960",Medical spa,Peabody,http://luxebeautymedspa.com/,,,Purchase E-Gift Card,https://squareup.com/gift/CY3RXB6P1ZCB4/order,https://www.luxebeautymedspa.com,CONTACT,1,MA,01960,beauty_salon
Bella Mano Day Spa,"607 North Ave #14, Wakefield, MA 01880",Day spa,Wakefield,http://www.bellamanodayspa.com/,,,Gift Cards,https://bellamano.boomtime.com/lgift,http://www.bellamanodayspa.com/offers-and-contact,Specials & Contact,1,MA,01880,beauty_salon
Spalenza,"75 Newbury St, Danvers, MA 01923",Day spa,Danvers,http://www.spalenzaspa.com/,,,Gift Cards,https://spalenzaspa.com/product/gift-card/,https://spalenzaspa.com/about-us/contact/,Contact Us,1,MA,01923,beauty_salon
Atlas Beauty Hammam Spa,"108 Newbury St, Peabody, MA 01960",Day spa,Peabody,http://atlasbeautyspa.com/,,,"
Gift Certificates 
",https://www.atlasbeautyspa.com/product/beanie/,https://www.atlasbeautyspa.com/contact/,Contact,1,MA,01960,beauty_salon
Eve Beauty,"556 Salem St, Wakefield, MA 01880",Permanent makeup clinic,Wakefield,https://evebeautyma.com/,,,Gift Cards,https://evebeautyma.com/gift-cards,https://evebeautyma.com/contact,Contact,1,MA,01880,beauty_salon
SOLSTICE POWER YOGA,"250 Market St, Lynnfield, MA 01940",Yoga studio,Lynnfield,http://www.solsticepoweryoga.com/,,,"
              Gift Cards
            ",http://www.solsticepoweryoga.com/solsticestore/gift-card,http://www.solsticepoweryoga.com/contact,"
                Contact
              ",1,MA,01940,beauty_salon
Superior Image Barbershop,"536 Franklin St, Melrose, MA 02176",Barber shop,Melrose,http://www.superiorimagebarbershop.com/,,,"
We would like to express our gratitude to all of y

",https://www.instagram.com/p/B_iI-DaBYPe/,http://superiorimagebarbershop.com/contact-us/,Contact Us,1,MA,02176,beauty_salon
Spa at Omni Mount Washington,"310 Mount Washington Hotel Rd, Bretton Woods, NH 03575",Spa,Bretton Woods,https://www.omnihotels.com/,,,Gift Cards,https://www.omnihotels.com/shop/gift-cards,https://www.omnihotels.com/#,Contact Us,1,NH,03575,beauty_salon
Praan Thai Massage,"588 Mt Auburn St, Watertown, MA 02472",Massage spa,Watertown,http://www.praanthai.com/,,,G I F T,https://squareup.com/store/praan-thai-massage/item/online-gift-certificate,https://www.praanthai.com,C O N T A C T,1,MA,02472,beauty_salon
Tara Malone Finn Master Medical Aesthetician,"575 Boylston St #2740, Newton, MA 02459",Laser hair removal service,Newton,http://www.josepharussomd.com/,,,Gift Cards,https://squareup.com/gift/ZRVJCPH3AT2TE/order,https://josepharussomd.com/contact/,Contact,1,MA,02459,beauty_salon
Elite Aesthetics  Luxury MedSpa,"78 Chapel St, Needham, MA 02492",Medical spa,Needham,http://eliteaestheticsmd.com/,,,Buy a Gift Card,https://squareup.com/gift/D89FFV8SX9TRA/order,http://eliteaestheticsmd.com/contact,Contact,1,MA,02492,beauty_salon
B In Touch Massage Therapy,"1253 Highland Ave, Needham, MA 02492",Massage therapist,Needham,http://www.bintouchmassage.com/,,,Gift Certificates,http://www.bintouchmassage.com/gift-certificates.php,,,1,MA,02492,beauty_salon
earth  water spa boutique,"29 Albion St, Wakefield, MA 01880",Massage spa,Wakefield,http://www.earthwaterspa.com/,,,"
              gift cards
            ",https://www.vagaro.com/earthwaterspa/gift-certificates,http://www.earthwaterspa.com/contact,"
                contact
              ",1,MA,01880,beauty_salon
BellaSandra Skin Spa,"159 Ash St, Reading, MA 01867",Spa,Reading,http://www.bellasandraskinspa.com/,,,Purchase EGift Cards,https://squareup.com/gift/7H7GX4QQR27X3/order,https://www.bellasandraskinspa.com,Contact Us,1,MA,01867,beauty_salon
Ponce De Leon Med Spa,"328 Main St, Reading, MA 01867",Medical spa,Reading,http://poncedeleonmedspa.com/,,,Gift Certificates,https://squareup.com/gift/B3B15FJWYX80J/order,http://poncedeleonmedspa.com/#,Contact,1,MA,01867,beauty_salon
Modern Glow Studio,"103 Water St, Wakefield, MA 01880",Tanning salon,Wakefield,https://www.modernglowstudio.com/,,,Purchase Gift Cards,https://squareup.com/gift/14MJ247GVHXR4/order,https://www.modernglowstudio.com/contact,Contact,1,MA,01880,beauty_salon
Pharaoh's Hairum Salon and Spa,"400 Packetts Landing, Fairport, NY 14450",Beauty salon,Fairport,http://www.pharaohshairum.com/,,,Gift CertificatesPurchase Instant Gift Certificates to Pharaoh’s Hairum,https://pharaoh.boomtime.com/lgift,,,1,NY,14450,beauty_salon
La Salon Bianca,"3259 S Winton Rd, Rochester, NY 14623",Hair salon,Rochester,https://www.lasalonbianca.com/,,,->,http://www.secure-booker.com/lasalonbianca/ShopOnline/GiftCertificate.aspx,"http://maps.google.com/?q=3259 S Winton Rd, Rochester, NY 14623",,1,NY,14623,beauty_salon
The Nitty Gritty Hair and Waxing Parlor,"Village Gate, 274 Goodman St N #136b, Rochester, NY 14609",Hair salon,Rochester,http://nittygrittyhairandwax.com/,,,BUY A GIFT CARD,http://bit.ly/nittygrittygiftcards,http://nittygrittyhairandwax.com/contact,CONTACT,1,NY,14609,beauty_salon
Heavenly Hands,"1448 Fall River Ave #6, Seekonk, MA 02771",Massage therapist,Seekonk,http://heavenlyhandsmassages.com/,,,Gift Certificates,https://go.booker.com/#/location/HeavenlyHandsMassageSalon/buy/gift-certificate,http://heavenlyhandsmassages.com/#contactus,Contact Us,1,MA,02771,beauty_salon
Eliza Williams Restorative Body Therapies,"3 Regency Plaza Ste 2, Providence, RI 02903",Beauty salon,Providence,https://www.elizawilliamsdayspa.com/,,,Gift Certificates,https://elizawilliamsdayspa.com/gift-certificates/,https://elizawilliamsdayspa.com/services/,Contact Us,1,RI,02903,beauty_salon
