name,address,type,place,website_url,menu_url,description,gift_card_txt,gift_card_website,contact_website,contact_txt,state,zipcode,store_type
Hair Essentials Salon,"97 Pleasant St, South Weymouth, MA 02190",Beauty salon,South Weymouth,http://www.thehairessentialssalon.com/,,,"

			Gift Cards
		
",http://www.thehairessentialssalon.com/gift-cards.html,http://www.thehairessentialssalon.com/contact-us.html,"
						Contact Us
					",MA,02190,beauty_salon
1 on 1 Self Indulgence Spa,"457 Great Rd, Acton, MA 01720",Spa,Acton,http://1on1spa.com/,,,Gift Cards,https://www.vagaro.com/Users/BusinessWidget.aspx?enc=MMLjhIwJMcwFQhXLL7ifVNQsEtxTEkvh5JUCKYFdD7PXgF2px6JMfObtV891yUyRZeLFLdA2reaEIKxRAUOqT+f/V9FG+FbAHbEWtS38y9MhtzxtLK1UZrPT4yC+8AOJ2taTOtDs2to6TojGx1Fm7u1EakzXRilL0Qqh9WNOgHzGskADxFkZg4cu6R+PWbCBGCT8NzH1j+rBj0MswgdtCwIHRoEd/CafNaPO+fsLBEYPvNXVZyigFo34HouhbLZV/a30CxjmNVkuv/vMiBV7yIOWTxOyjkscv91bvckSpX/A6nxsGl7JD/t1r8o5qbi+WXpW49xsoiYfR3a65LTQ8Q==&c_type=tab,https://www.1on1spa.com/contact,Visit Us,MA,01720,beauty_salon
Mane Escape Salon & Spa,"37 Thoreau St, Concord, MA 01742",Beauty salon,Concord,http://themaneescape.com/,,,Gift Cards,http://themaneescape.com/hair-salon-thoreau-ma-gift-cards.html,,,MA,01742,beauty_salon
Nuance Salon,"4400 Acushnet Ave, New Bedford, MA 02745",Beauty salon,New Bedford,http://nuancesalon.org/,,,Gift Cards,"http://nuancesalon.org/
https://nuancesalon.salontarget.com/egift/?guestonly=guestonly",,"








 

Menu  


Home
Services

Hair 
Nails
Skin
Massage 
Weddings
Hair Extensions
Spray Tan

Gallery
Products
Book Online
Gift Cards
Health and Wellness
Oliveira Art














  














 
        We are a full service salon located in 
          New Bedford, MA. 
          We provide the 
          following beauty services:  
          Hair Cuts     Hair Color
Manicures     Pedicures
Nail Services     Waxing
Massage     Skin Care
and more! We offer special rates on weddings and 
          other special events.  Please call us at
          508.995.2205 to schedule an 
          appointment today, or click ""Book Appointment"" above!
Sundays.............closed
          Mondays............closed
          Tuesdays..............10-8
          Wednesdays...........9-8
          Thursdays.............10-8
          Fridays..................10-6
          Saturdays................9-3


















  Return To Top 


Contact Information
Nuance Salon 4400 Acushnet Avenue New Bedford, MA 508.995.2205 
All Rights Reserved. Website designed by WG Design. 




",MA,02745,beauty_salon
InTouch Massage & Day Spa,"84 Water St, Williamstown, MA 01267",Day spa,Williamstown,http://www.intouchdayspa.com/,,,Gift Certificates,http://www.intouchdayspa.com/gift-certificates.html,,,MA,01267,beauty_salon
Luna Hair Salon,"545 Springfield St, Agawam, MA 01001",Hair salon,Agawam,http://facebook.com/,,,,http://facebook.com/LUNAfeedinghills/photos/pb.375093599576512.-2207520000../947889362296930/?type=3&eid=ARDnbZU3JxAlsrAVBKbUv3Qv6XolMXGgVXQqC7zvF4KZZnfaZ-CiXhviLKLo3DHn---wPOY9xJCr7dm8,,,MA,01001,beauty_salon
Salon 241,"30 Market St, Northampton, MA 01060",Beauty salon,Northampton,http://www.salon241.com/,,,Booker.com,https://go.booker.com/location/Salon241/buy/gift-certificate,https://plus.google.com/112079059255401366532,Find us on Google+,MA,01060,beauty_salon
Sanara Integrative Beauty,"484 Main St, Amesbury, MA 01913",Beauty salon,Amesbury,https://www.sanaranaturalbeauty.com/,,,"
        GIFT CARDS
      ",https://squareup.com/gift/4KCED7Q3V73PN/order,https://www.sanaranaturalbeauty.com/contact,"
            Contact
          ",MA,01913,beauty_salon
Bernadette's Day Spa,"36 Main St, Amesbury, MA 01913",Spa,Amesbury,http://www.bernadettesdayspa.massageplanet.com/,,,YOUR SPA EXPERIENCE & GIFT CERTIFICATE/SPECIALS INFORMATION,http://www.bernadettesdayspa.massageplanet.com/index.php?p=515834,http://www.bernadettesdayspa.massageplanet.com/index.php?p=515829,Contact Us,MA,01913,beauty_salon
StevenMichael for Hair,"354 N Main St, Andover, MA 01810",Beauty salon,Andover,http://www.stevenmichaelcolorpro.com/,,,Gift Certificates,https://www.stevenmichaelcolorpro.com/gift-certificates,,,MA,01810,beauty_salon
Sisters Hair and Skin Care,"67 County Rd, Mattapoisett, MA 02739",Beauty salon,Mattapoisett,http://www.sistershairsalon.com/,,,Gift cards,http://www.sistershairsalon.com/hair-salon-mattapoisett-ma-sisters-gift-cards.html,http://www.sistershairsalon.com/hair-salon-mattapoisett-ma-sisters-contact-us.html,Contact us,MA,02739,beauty_salon
Amy's Salon,"1179 Massachusetts Ave, Arlington, MA 02476",Hair salon,Arlington,http://amyssalonarlington.com/,,,Buy Gift Card,https://amyssalon.salontarget.com/egift/?guestonly=guestonly,https://amyssalonarlington.com/contact/,Contact,MA,02476,beauty_salon
J&L Hair Studio,"1371 Massachusetts Ave, Arlington, MA 02476",Hair salon,Arlington,http://jandlhairstudio.com/,,,Gift Cards,https://jandlhairstudio.salontarget.com/egift/?guestonly=guestonly,https://jandlhairstudio.com/contact-arlington-hair-salon/,Contact,MA,02476,beauty_salon
Bella Capelli West Salon,"505 High St, Medford, MA 02155",Beauty salon,Medford,http://www.bellacapellibymaria.com/,,,instant gift certificates,https://bellacapelli.boomtime.com/lgift,http://www.bellacapellibymaria.com/contact-us,Contact Us,MA,02155,beauty_salon
Park West Salon,"90 Lowell St, Arlington, MA 02476",Hair salon,Arlington,http://www.parkwestsalon.com/,,,Purchase a Gift card From Park West Salon,https://clients.mindbodyonline.com/asp/main_shop.asp?pMode=2&tabID=3,http://www.parkwestsalon.com/contact,"
                Contact
              ",MA,02476,beauty_salon
Sedona Sun Day Spa,"1241 Massachusetts Ave, Arlington, MA 02476",Day spa,Arlington,http://www.sedonasunspa.com/,,,,http://www.sedonasunspa.com/giftcertificates.htm,,,MA,02476,beauty_salon
Trinity Salon,"1113 Burlingame Ave, Burlingame, CA 94010",Beauty salon,Burlingame,http://www.onyxsalonburlingame.com/,,,Gift Certificates,https://onyxsalon.millenniumegift.com/,http://www.onyxsalonburlingame.com/contact/,Contact,CA,94010,beauty_salon
The Village on Main,"213 Main St, Northampton, MA 01060",Beauty salon,Northampton,http://www.thevillageonmain.com/,,,BUY GIFT CERTIFICATES,https://dayspawomen.boomtime.com/lgift,http://www.thevillageonmain.com/information.html,GET IN TOUCH,MA,01060,beauty_salon
Glow Beauty Bar,"40 Main St STE 102, Florence, MA 01062",Day spa,Florence,http://glowbridalmakeup.com/,,,Buy a Gift Card! ,https://squareup.com/gift/ED0TV99YCJ7GD/order,http://glowbridalmakeup.com/contact-us,"
            Contact
          ",MA,01062,beauty_salon
Bella Sisters Salon & Spa,"321 Speen St, Natick, MA 01760",Beauty salon,Natick,https://www.bellasisters.net/,,"Plaza-based salon with an extensive menu of skin & hair treatments, like facials, waxing & styling.","  

Buy Gift Certificates
",https://www.thegiftcardcafe.com/cart/index.php?storeID=12512,https://www.bellasisters.net/contact," Contact

",MA,01760,beauty_salon
Phillip DePalma Salon of Massachusetts,"1154 Worcester Rd, Framingham, MA 01702",Beauty salon,Framingham,http://depalmasalon.com/,,,Gift Cards,http://depalmasalon.com/framingham/gift-cards/,http://depalmasalon.com/framingham/contact-us/,Contact Us,MA,01702,beauty_salon
Jeffrey Robert Salon,"732 Southbridge St, Auburn, MA 01501",Beauty salon,Auburn,http://www.jeffreyrobertsalon.com/,,,Gift Cards,https://jeffreyrobertsalon.com/gift-cards/,https://jeffreyrobertsalon.com/contact/,Contact Us,MA,01501,beauty_salon
Orange Salon,"70 Worcester-Providence Turnpike, Millbury, MA 01527",Beauty salon,Millbury,http://www.orangesalon.com/,,,Purchase Gift Card,https://orange.salonultimate.com/clientWeb/login?z=1528307838,https://orangesalon.com/contact-us/,Contact Us,MA,01527,beauty_salon
African hair braiding by aua,"5530 E US Hwy 36 #240, Avon, IN 46123",Beauty salon,Avon,https://www.aveda.com/,,,egift card,https://www.aveda.com/gift-cards,https://www.aveda.com/customer-service-contact-us-page,EMAIL US,IN,46123,beauty_salon
Chameleon Salon,"7374 Business Center Dr, Avon, IN 46123",Beauty salon,Avon,https://www.cassandcompanysalon.com/,,,"  

Purchase Gift Cards
",https://cassandcompanysalon.millenniumegift.com/,https://www.cassandcompanysalon.com/contact," CONTACT

",IN,46123,beauty_salon
Owen Jacobs Salon and Day Spa,"49 Main St, Ayer, MA 01432",Hair salon,Ayer,http://owenjacobs.com/,,,Gift Card,https://squareup.com/gift/B35H25CJYJB4N/order,https://owenjacobs.com/contact/,Contact,MA,01432,beauty_salon
Body Mind Spirit Salon & Day Spa,"134 Main St unit b, Groton, MA 01450",Spa,Groton,http://bodymindspiritsalonanddayspa.com/,,"Warm, relaxed salon/spa with haircuts & color treatments, plus massages, facials & mani/pedicures.",Buy a Gift Card,https://www.mytime.com/gift-cards/body-mind-spirit-salon-and-day-spa-95183?referrer=from_marketplace,https://www.bodymindspiritsalonanddayspa.com/contact-us,Contact Us,MA,01450,beauty_salon
Youtopia Day Spa,"228 Great Rd, Shirley, MA 01464",Skin care clinic,Shirley,http://www.youtopiaspa.com/,,,gift certificates,http://www.youtopiaspa.com/giftcert.htm,http://www.youtopiaspa.com/contact.htm,contact us,MA,01464,beauty_salon
Spavia Day Spa  Littleton,"615 Constitution Ave, Littleton, MA 01460",Day spa,Littleton,https://spaviadayspa.com/,,,Gift Cards,http://clients.mindbodyonline.com/ws.asp?studioid=791888&stype=42,https://spaviadayspa.com/littleton-ma/contact-us/,Contact Us,MA,01460,beauty_salon
Atmosphere Salon,"288 Littleton Rd, Westford, MA 01886",Hair salon,Westford,http://atmospheresalonwestford.com/,,,Purchase Gift Certificate,https://atmospheresalonwestford.com/corona-virus/,https://atmospheresalonwestford.com/contact/,Contact,MA,01886,beauty_salon
Invidia Salon and Spa,"736 Boston Post Rd, Sudbury, MA 01776",Beauty salon,Sudbury,http://www.invidiasalon.com/,,,On-line Gift Card,https://invidia.formstack.com/forms/giftcard,https://www.invidiasalon.com/contact,Contact Details,MA,01776,beauty_salon
Arte Salon and SPA,"16 Boston Post Rd, Wayland, MA 01778",Beauty salon,Wayland,http://www.artesalonandspa.com/,,,"
            Gift Cards New
",https://salonarte.salonultimate.com/checkout/giftCard?store_id=1,http://www.artesalonandspa.com/#contact,CONTACT,MA,01778,beauty_salon
Daryl Christopher Lifestyle Salon & Spa,"1265 Main St #115, Waltham, MA 02451",Beauty salon,Waltham,http://www.dchristopher.com/,,,GIFT CARDS,https://www.dchristopher.com/gift-cards,https://www.dchristopher.com/contact,CONTACT,MA,02451,beauty_salon
Hair Mechanix,"22 Summer St, North Brookfield, MA 01535",Beauty salon,North Brookfield,http://www.hairmechanixhairsalon.com/,,,E-Gift Card,https://hairmechanix.salontarget.com/egift/?guestonly=guestonly,,,MA,01535,beauty_salon
Simply Natural Nails,"119 Great Rd, Bedford, MA 01730",Day spa,Bedford,http://www.simplynaturalnails.com/,,,,https://www.secure-booker.com/simplynaturalnails/ShopOnline/GiftCertificate.aspx,http://www.simplynaturalnails.com/contact," Contact Us

",MA,01730,beauty_salon
Renzo Salon,"428 North Rd, Bedford, MA 01730",Hair salon,Bedford,http://renzohairsalon.com/,,,GIFT CARDS,http://renzohairsalon.com/gift-cards,http://renzohairsalon.com/contact,CONTACT,MA,01730,beauty_salon
B Luxe,"165 Main St #208, Medway, MA 02053",Beauty salon,Medway,http://bluxehairandmakeup.com/,,,click to buy a b.LUXE gift certificate,http://bLUXE.snapcerts.com,https://bluxehairandmakeup.com/contact-us/,contact us,MA,02053,beauty_salon
MacMed Salon,"127 E Main St, Milford, MA 01757",Beauty salon,Milford,http://macmedspa.com/,,,Gift Cards,https://macmedspa.com/gift-cards/,,,MA,01757,beauty_salon
La Beautique,"329 Watertown St, Newton, MA 02458",Beauty salon,Newton,http://www.labeautiquesalon.com/,,,Online Booking & Gift Cards,https://phorest.com/book/salons/labeautiquesalon,http://labeautiquesalon.com/contact/,Contact,MA,02458,beauty_salon
Trend Setters,"380 Washington St, Taunton, MA 02780",Beauty salon,Taunton,http://www.trendsettershairsalon.com/,,,,http://www.trendsettershairsalon.com/hair-salon-taunton-ma-gift-cards.html,http://www.trendsettershairsalon.com/hair-salon-taunton-ma-contact-us.html,Contact Us,MA,02780,beauty_salon
Cala Renee Salon,"309 Rantoul St, Beverly, MA 01915",Beauty salon,Beverly,http://www.calareneesalon.net/,,,Purchase Gift Certificates Online,https://calarenee.salontarget.com/egift/?guestonly=guestonly,,,MA,01915,beauty_salon
Salon Noir,"1555 Main St, Tewksbury, MA 01876",Beauty salon,Tewksbury,http://www.salon-noir.com/,,,EGiftCards,https://squareup.com/gift/0VRFY7DDCXMPM/order,http://www.salon-noir.com/contact-us,Contact Us,MA,01876,beauty_salon
Evolution Hair Design & Day Spa,"1075 Westford St, Lowell, MA 01851",Beauty salon,Lowell,http://www.comeevolvewithus.com/,,," 
Purchase Gifts",https://www.salonbuilder.com/website/170718/giftcert.asp?func=R,https://www.salonbuilder.com/website/170718/contact.asp,Contact,MA,01851,beauty_salon
Tender Touch Massage & Holistic Therapy,"181 Main St, Blackstone, MA 01504",Massage therapist,Blackstone,http://www.tendertouchmassage.massagetherapy.com/,,,Gift Certificates,http://www.tendertouchmassage.massagetherapy.com/gift-certificates,http://www.tendertouchmassage.massagetherapy.com/contact-information,Contact Information,MA,01504,beauty_salon
Face To Nails Etc Day Spa,"600 Springfield St, Chicopee, MA 01013",Beauty salon,Chicopee,https://www.facetonails.com/,,,,https://www.facetonails.com/catalog/gift-certificates,https://www.facetonails.com/contact,Contact,MA,01013,beauty_salon
SkinCatering Spa,"1500 Main St #220, Springfield, MA 01115",Beauty salon,Springfield,http://www.skincatering.com/,,,GIFTS,https://www.secure-booker.com/skincatering2/ShopOnline/GiftCertificate.aspx,http://skincatering.com/our-team/contact-info/,HOURS/DIRECTIONS,MA,01115,beauty_salon
Amaci Salon,"230 Stuart Street South Cove Plaza, Boston, MA 02116",Beauty salon,Boston,http://www.amacisalon.com/,,,E-Gift Cards,https://amaci.salontarget.com/egift/?guestonly=guestonly,https://amacisalon.com/contact-us/,Contact,MA,02116,beauty_salon
Headquarters Hair Salon,"545 E Broadway, Boston, MA 02127",Beauty salon,Boston,http://www.headquartershairsalon.com/,,,,https://www.headquartershairsalon.com/wp-content/uploads/2014/05/hq-gift-card3.jpg,https://www.headquartershairsalon.com/contact/,Contact,MA,02127,beauty_salon
Adela's Hair Studio,"92b Pinckney St, Boston, MA 02114",Beauty salon,Boston,http://www.adelashairstudio.com/,,"Walk-ins are welcome at this bright, compact salon offering on-trend cuts, color & styles.",Schedule  Appointment / Buy Gift Card,http://www.AdelasHairStudio.com/appointment,http://www.adelashairstudio.com/locationdirections/,Contact Us/Directions,MA,02114,beauty_salon
Stilisti Salon,"116 Newbury St, Boston, MA 02116",Beauty salon,Boston,http://www.stilistiboston.com/,,,Gift Certificates,https://clients.mindbodyonline.com/classic/ws?studioid=276519&stype=42,http://www.stilistiboston.com/contact/,Contact Us,MA,02116,beauty_salon
RevealU Studio,"2277 State Rd h2, Plymouth, MA 02360",Beauty salon,Plymouth,http://www.revealustudio.com/,,,Gift Cards,https://squareup.com/gift/E63FR4T7J5YHJ/order,https://www.revealustudio.com/contact-us/,Contact Us,MA,02360,beauty_salon
The Beauty Lounge,"97 Great Rd, Acton, MA 01720",Hair salon,Acton,http://thebeautyloungeacton.com/,,,Gift Card,http://thebeautyloungeacton.com/gift-card,,,MA,01720,beauty_salon
Kentrina's Aesthetic Salon,"939 Salem St UNIT 9, Groveland, MA 01834",Beauty salon,Groveland,http://www.georgetownmassage.com/,,,Gift Cards,https://www.massagebook.com/Groveland~Massage~GeorgetownMassage?src=external#gift-certificates,http://www.georgetownmassage.com/contact/,Contact,MA,01834,beauty_salon
Simply You Salon,"1335 Englewood Dr, Slidell, LA 70458",Beauty salon,Slidell,http://www.simplyyousalon.net/,,,Gift Cards,https://go.booker.com/location/SimplyYouSalon/buy/gift-certificate,,,LA,70458,beauty_salon
Family Affair Salon & Barber Shop,"292 Main St, Groveland, MA 01834",Beauty salon,Groveland,http://www.familyaffairgroveland.com/,,,Gift Cards,https://familyaffairgroveland.millenniumegift.com/,https://www.familyaffairgroveland.com/contact-us-1,CONTACT US,MA,01834,beauty_salon
1604 Salon,"671 Washington St, Braintree, MA 02184",Beauty salon,Braintree,http://1604salonandspa.com/,,,"

PURCHASE A GIFT CERTIFICATE
",https://1604salonandspa.com/gift-certificates,https://1604salonandspa.com/contact,Contact,MA,02184,beauty_salon
The Salon 16 West,"16 West Rd, Orleans, MA 02653",Beauty salon,Orleans,http://www.thesalon16west.com/,,,Gift Card,https://www.thesalon16west.com/gift-card,https://www.thesalon16west.com/contact,Contact,MA,02653,beauty_salon
NYHair Co & Spa,"32 Main St, Orleans, MA 02653",Beauty salon,Orleans,http://nyhaircoandspa.com/,,,Gift Cards,https://nyhaircoandspa.com/gift-cards/,https://nyhaircoandspa.com/contact/,Contact,MA,02653,beauty_salon
Razoux and Co,"488 W Center St, West Bridgewater, MA 02379",Hair salon,West Bridgewater,http://www.razoux.com/,,,Gift Certificates,http://www.razoux.com/gift-certificates/,http://www.razoux.com/contact/,Contact,MA,02379,beauty_salon
SmartStyle Hair Salon,"3766 Broadway, New York, NY 10032",Beauty salon,New York,https://www.smartstyle.com/,,,Gift Cards,https://www.smartstyle.com/en-us/gift-cards.html,https://www.smartstyle.com/#,contact number link,NY,10032,beauty_salon
Simple Indulgence Day Spa,"598 Main St, Fiskdale, MA 01518",Day spa,Fiskdale,http://www.simpleindulgencedayspa.com/,,,GIFT CERTIFICATES,https://www.simpleindulgencedayspa.com/gift-certificates,https://www.simpleindulgencedayspa.com/contact,CONTACT,MA,01518,beauty_salon
Shan Hair,"169 Amory St, Brookline, MA 02446",Beauty salon,Brookline,http://www.shanhair.com/,,,BUY E-GIFT CARD,https://squareup.com/gift/DYJ2693H4DWJK/order,https://shanhair.com/contact/,Where?,MA,02446,beauty_salon
Deep Blue Hair Studio,"397 Washington St, Brookline, MA 02445",Hair salon,Brookline,http://www.deepbluehairstudio.com/,,,"
GIFT CARDS
",http://www.deepbluehairstudio.com/giftcards,http://www.deepbluehairstudio.com/contact,CONTACT,MA,02445,beauty_salon
Bellacquer,"1389 Beacon St, Brookline, MA 02446",Nail salon,Brookline,http://www.bellacquer.com/,,,eGift,https://go.booker.com/#/location/Bellacquer/buy/gift-certificate,https://bellacquer.com/contact-us,CONTACT US,MA,02446,beauty_salon
Salon 47,"675 Lowell St UNIT 10, Lexington, MA 02420",Hair salon,Lexington,http://www.salon47.org/,,,Buy Now,https://squareup.com/gift/Y2584FNT5Q1RH/order,http://www.salon47.org/tel:7818165147,(781) 816-5147,MA,02420,beauty_salon
Katana Salon & Spa,"618 Main St, Winchester, MA 01890",Beauty salon,Winchester,http://www.katanasalonandspa.com/,,,GIFT CARDS,http://www.katanasalonandspa.com/mind.html,http://www.facebook.com/KatanaSalonSpa,,MA,01890,beauty_salon
Hairmates Salon,"291 Main St, Stoneham, MA 02180",Beauty salon,Stoneham,http://www.hairmatesstoneham.com/,,,Gift Cards,https://booking.salonultimate.com/main/3f8c7d28-8621-4673-9cb9-8193618c630e#gift-cards?store=2810,https://hairmatesstoneham.com/contact/,Contact,MA,02180,beauty_salon
To Make Beautiful Skin Lashes Makeup,"468 Main St, Stoneham, MA 02180",Beauty salon,Stoneham,http://www.tomakebeautiful.com/,,,Retail Products – Gift Certificates,https://blog.tomakebeautiful.com/online-shopping/,https://blog.tomakebeautiful.com/contact-us-book-now-blog/,Contact Us /Book Now,MA,02180,beauty_salon
Revela Salon,"614 Main St, Cambridge, MA 02139",Beauty salon,Cambridge,https://www.revelasalon.com/,,,"
Gift Cards
",https://revelasalon.zenoti.com/webstoreNew/giftcards/1bff72e1-92f3-41fc-8273-4de72d42e421,,,MA,02139,beauty_salon
Corbu Cambridge,"5 Bennett St, Cambridge, MA 02138",Beauty salon,Cambridge,http://corbuspa.com/,,,"
        Gift Cards
      ",https://corbu.salonultimate.com/checkout/giftCard?store_id=8,http://corbuspa.com/contact-us,"
            Contact Us
          ",MA,02138,beauty_salon
Salon Michael Domenic,"1426 Cambridge St #1, Cambridge, MA 02139",Hair salon,Cambridge,http://www.salonmichaeldomenic.com/,,,Gift Card,https://squareup.com/gift/0PVSRW1SE7RPY/order,http://salonmichaeldomenic.com/contact/,Contact,MA,02139,beauty_salon
Estetika Spa,"370 Huron Ave #6828, Cambridge, MA 02138",Day spa,Cambridge,http://estetikaspa.com/,,,ORDER eGIFT CARD (NEW),https://squareup.com/gift/7DH83EMCS5RQ0/order,,,MA,02138,beauty_salon
Visions Salon,"16 Washington St, Canton, MA 02021",Nail salon,Canton,https://visionshaircanton.com/,,,,https://www.thegiftcardcafe.com/cart/index.php?storeID=11034,https://visionshaircanton.com/find-us/,find us,MA,02021,beauty_salon
Renew Skincare Centre & Spa,"1032 Turnpike St STE 302, Canton, MA 02021",Medical spa,Canton,http://renewskincarecentre.com/,,,Gift Cards,https://renewskincarecentre.com/gift-cards/,https://renewskincarecentre.com/contact-renew-skincare-centre-spa/,Contact,MA,02021,beauty_salon
Rejuvenis Spa,"50 Elm St, Southbridge, MA 01550",Massage spa,Southbridge,http://www.rejuvenisspa.com/,,,,https://www.rejuvenisspa.com/services/gift-cards-available/,,,MA,01550,beauty_salon
Spa at Chatham Bars Inn,"203 Seaview St, Chatham, MA 02633",Spa,Chatham,https://www.chathambarsinn.com/,,,"
									Gift Cards								",https://wwws-usa2.givex.com/cws4.0/chathambarsinn/,https://www.chathambarsinn.com/#,Contact Us,MA,02633,beauty_salon
Sol Spa,"212c Orleans Rd, North Chatham, MA 02650",Massage spa,North Chatham,http://www.solspacapecod.com/,,,CLICK HERE TO BUY GIFT CERTIFICATES  ONLINE,http://www.capecodgiftcertificate.com/merchant.php?id=108169863700002,http://www.solspacapecod.com/contact-us,Contact Us,MA,02650,beauty_salon
Indigo Salon & Day Spa,"7 Summer St, Chelmsford, MA 01824",Beauty salon,Chelmsford,http://www.indigosalon-dayspa.com/,,,  Gift Card,http://www.indigosalon-dayspa.com/index.php/giftcards.html/,http://www.indigosalon-dayspa.com/index.php/contacts/,  PRODUCTS,MA,01824,beauty_salon
Spa Victoria,"73 Princeton St, North Chelmsford, MA 01863",Waxing hair removal service,North Chelmsford,http://www.spavictoria.skincaretherapy.net/,,,Gift Certificates,http://www.spavictoria.skincaretherapy.net/gift-certificates,http://www.spavictoria.skincaretherapy.net/contact-information,Contact Information,MA,01863,beauty_salon
A Spa To Remember By Marsha Camillieri,"3 Littleton Rd, Westford, MA 01886",Beauty salon,Westford,http://www.aspatoremember.com/,,,Gift Cards,https://www.aspatoremember.com/gift-card,,,MA,01886,beauty_salon
InStyle Hair Designs Inc,"175 Littleton Rd, Westford, MA 01886",Beauty salon,Westford,http://www.instylehd.com/,,,E Gift Cards,http://www.instylehd.com/e-gift-cards,http://www.instylehd.com/contact-us,Contact Us,MA,01886,beauty_salon
EYEFUL Beauty,"33 Middle St, Lowell, MA 01852",Beauty salon,Lowell,http://eyefulbeauty.com/,,,Purchase Gift Certificates,https://www.eyefulbeauty.com/book-now,https://www.eyefulbeauty.com,CONTACT,MA,01852,beauty_salon
QuickBeauty,"617 Broadway, Everett, MA 02149",Beauty salon,Everett,http://www.quickbeautysalon.com/,,,,http://www.quickbeautysalon.com/gift-cards.html,http://www.quickbeautysalon.com/contact-us.html,Contact Us,MA,02149,beauty_salon
Skin For All Seasons,"351 Revere St, Revere, MA 02151",Beauty salon,Revere,http://www.skinforallseasons.com/,,,Gift Certificates,https://www.skinforallseasons.com/gift-certificates-2/,https://www.skinforallseasons.com/contact-us/,Contact Us,MA,02151,beauty_salon
Essencials Day Spa Inc,"75 North St, Pittsfield, MA 01201",Hair salon,Pittsfield,http://berkshirespas.com/,,,PURCHASE GIFTCARDS &  PRODUCTS HERE,https://mycloud.prosoinc.com/psgconline/gcmain.asp?cl=13672,https://www.berkshirespas.com/contact,CONTACT,MA,01201,beauty_salon
Roosters Men's Grooming Center,"5800 Northgate Dr #134, San Rafael, CA 94903",Beauty salon,San Rafael,http://www.roostersmgc.com/,,,GIFT CARDS,http://www.roostersmgc.com/gift-cards.html,http://www.roostersmgc.com/contact-us.html,CONTACT US,CA,94903,beauty_salon
Tuscan Sun Spa & Salon  Clarksburg,"482 Emily Dr, Clarksburg, WV 26301",Beauty salon,Clarksburg,http://tuscanspaandsalon.com/,,,Buy Gift Cards,https://tuscansunspa.millenniumegift.com,https://tuscanspaandsalon.com/contact-us/,,WV,26301,beauty_salon
MassageLuXe,"1581 Sloat Blvd, San Francisco, CA 94132",Massage spa,San Francisco,http://massageluxe.com/,,,Gift Certificates,https://massageluxe.com/giftcertificates/,https://massageluxe.com/contact-2/,Contact Us,CA,94132,beauty_salon
Salon 131,"13049 Park Blvd N, Seminole, FL 33776",Beauty salon,Seminole,http://www.salon131.com/,,,Buy a Gift Card,https://salon131fl.salontarget.com/egift,https://salon131.com/contacts/,Contact,FL,33776,beauty_salon
Drift Away Hair Studio,"28 New Driftway, Scituate, MA 02066",Beauty salon,Scituate,http://www.driftawayhairstudio.com/,,,GIFT CARDS,https://www.driftawayhairstudio.com/gift-card,https://www.driftawayhairstudio.com/contact,CONTACT,MA,02066,beauty_salon
Ambrosia Salon and Day Spa,"2053 Washington St, Hanover, MA 02339",Beauty salon,Hanover,http://www.ambrosiasalonnorwell.com/,,,Purchase an EGift Card,https://na0.meevo.com/EgiftApp/home?tenantId=101186,http://www.ambrosiasalonnorwell.com/contact,Contact,MA,02339,beauty_salon
NV The Salon,"335 Main St, Stoneham, MA 02180",Beauty salon,Stoneham,http://www.nvthesalon.com/,,,"
                Gift Cards
              ",https://na0.meevo.com/EgiftApp/home?tenantId=10114,,,MA,02180,beauty_salon
steller salon & apothecary,"206 Main St, Norfolk, MA 02056",Beauty salon,Norfolk,http://stellersalon.com/,,,"
            giftcards
          ",http://stellersalon.com/giftcards,http://stellersalon.com/contact-1,"
            contact
          ",MA,02056,beauty_salon
Hidden Gem Spa,"300 Baker Ave #300, Concord, MA 01742",Beauty salon,Concord,http://hiddengemspaconcord.com/,,,Buy Gift Card,https://go.booker.com/location/hiddengemspa/buy/gift-certificate,https://go.booker.com/location/hiddengemspa/contact,Book an Appointment,MA,01742,beauty_salon
ASkin Care Salon,"120 Seminole Ave, Waltham, MA 02451",Beauty salon,Waltham,http://www.a-salon.com/,,,Gift Certificates,http://www.a-salon.com/gift-certificates/,http://www.a-salon.com/contact-us/,Contact Us,MA,02451,beauty_salon
Whole Beauty Salon,"74 Langley Rd, Newton, MA 02459",Beauty salon,Newton,https://wholebeautysalon.com/,,,WE ARE PARTNERS WITH SPAWEEK.COM AND SPAFINDER.COM ACCEPTING  GIFT CARDS  ,https://wholebeautysalon.com/services-1,https://wholebeautysalon.com/contact-us,Contact Us,MA,02459,beauty_salon
Ma Jolie Salon & Spa,"2416 San Ramon Valley Blvd #200, San Ramon, CA 94583",Beauty salon,San Ramon,http://www.majoliesalon.com/,,,GIFT CARDS,https://burtonphillipsco.boomtime.com/lgift,https://www.majoliesalon.com/contact,CONTACT,CA,94583,beauty_salon
Ireland Beauty,"2 Cliveden St, Quincy, MA 02169",Beauty salon,Quincy,http://www.irelandbeautyspa.com/,,,Gift Card,https://irelandbeautyspa.com/gift-card/,https://irelandbeautyspa.com/contact/,Contact,MA,02169,beauty_salon
Krase Hair Salon,"400 Washington St # 2, Norwell, MA 02061",Beauty salon,Norwell,http://www.krasehairsalon.com/,,,Click Here to purchase e-gift certificates,https://krasehairsalon.salontarget.com/egift/?guestonly=guestonly,http://www.krasehairsalon.com/contact.html,CONTACT US,MA,02061,beauty_salon
Simply Erinn's Unisex Hair Salon,"268 Brookline St, Cambridge, MA 02139",Beauty salon,Cambridge,https://www.simplyerinns.com/,,,,https://simplyerinns.salontarget.com/egift/?guestonly=guestonly,https://www.simplyerinns.com/contact/,Contact,MA,02139,beauty_salon
PARLR,"14 River Way Suite 201, Framingham, MA 01701",Beauty salon,Framingham,http://www.theparlr.com/,,,Gift Cards,https://clients.mindbodyonline.com/ASP/main_shop.asp?studioid=152446&tg=&vt=&lvl=&stype=42&view=&trn=0&page=&catid=&prodid=&date=3%2f24%2f2020&classid=0&prodGroupId=&sSU=&optForwardingLink=&qParam=&justloggedin=&nLgIn=&pMode=2&loc=1,https://www.theparlr.com/contact,Book Services,MA,01701,beauty_salon
Bliss Nails Studio,"682 Rancho Shopping Ctr, Los Altos, CA 94024",Beauty salon,Los Altos,https://www.blisslosaltos.com/,,,"
Gift Certificates
",https://go.booker.com/location/BlissLosAltos/buy/gift-certificate,https://www.blisslosaltos.com/contact-us,"
Contact Us
",CA,94024,beauty_salon
Lena Harrington Therapeutic Massage & Wellness,"at The Stationery Factory, 63 Flansburg Ave, Dalton, MA 01226",Massage therapist,Dalton,http://lenaharrington.com/,,,Gift Certificates,http://lenaharrington.com/pages/gift-certificates,http://lenaharrington.com/pages/contact,Contact,MA,01226,beauty_salon
Therapeutic Massage & Wellness by Jessica St John LMT RN,"399 1/2 Main Street 2nd Floor, Ste. 2F, Dalton Ave, Dalton, MA 01226",Massage therapist,Dalton,http://jessica-st-john.massagetherapy.com/,,,Gift Certificates,http://jessica-st-john.massagetherapy.com/gift-certificates,,,MA,01226,beauty_salon
Elle Day Spa At The Crowne Plaza,"1 West St, Pittsfield, MA 01201",Day spa,Pittsfield,http://www.elledayspa.com/,,,GIFT CERTIFICATES,https://onlineservices.prosoinc.com/psgconline/gcmain.asp?cl=15364,http://www.elledayspa.com/contact.html,CONTACT,MA,01201,beauty_salon
Classic Faces Day Spa and Boutique,"215 Newbury St #210, Peabody, MA 01960",Beauty salon,Peabody,http://www.classicfaces.com/,,,Gift Cards,http://classicfaces.com/our-services/gift-cards-and-gifts/,http://classicfaces.com/our-location/contact-us/,Contact Us,MA,01960,beauty_salon
Elephant Salon and Spa,"141 Summit St suite a, Peabody, MA 01960",Beauty salon,Peabody,http://elephantsalonandspa.com/,,,"

",https://www.instagram.com/p/B-pP3w5AmLB/,,,MA,01960,beauty_salon
Maison Esthetique Christiane Bourque Spa,"94 High St, Danvers, MA 01923",Spa,Danvers,http://www.maisonesthetique.net/,,,Gift Cards,https://maisonesthetique.net/gift-cards/,,,MA,01923,beauty_salon
Salon Industria,"618 State Rd, Dartmouth, MA 02747",Hair salon,Dartmouth,http://salonindustria.com/,,,Gift Cards,https://squareup.com/gift/8N06SK2J6J36R/order,http://salonindustria.com/industria,Industria,MA,02747,beauty_salon
Celia's Face & Body,"74 State Rd, North Dartmouth, MA 02747",Facial spa,North Dartmouth,http://www.celias.skincaretherapy.net/,,,Gift Certificates,http://www.celias.skincaretherapy.net/gift-certificates,http://www.celias.skincaretherapy.net/contact-information,Contact Information,MA,02747,beauty_salon
188 Fine Men's Salons  Westwood MA,"143 University Ave, Westwood, MA 02090",Hair salon,Westwood,https://eighteeneight.com/,,,Purchase E-Gift Cards,https://eighteeneight.zenoti.com/webstore/GiftCards.aspx?WebstoreType=0&centerid=d9afcabf-04d7-4ffa-b989-c8549a6e4ed8,https://eighteeneight.com/westwood-ma/contact/,CONTACT,MA,02090,beauty_salon
Essential Advanced Skincare and Medspa,"358 Washington St #101, Dedham, MA 02026",Spa,Dedham,http://www.essentialmedspa.com/,,,"PURCHASE A GIFT CARD




",https://squareup.com/gift/9M6GCSZB6SZG5/order,,,MA,02026,beauty_salon
Lowish The Salon,"617 Central Ave, Deerfield, IL 60015",Beauty salon,Deerfield,https://renudayspa.com/,,,Gift Certificates,https://go.booker.com/location/renudayspa/buy/gift-certificate,https://renudayspa.com/contact-us/,Contact Us,IL,60015,beauty_salon
SBaba Skincare,"710 Main St, Yarmouth Port, MA 02675",Facial spa,Yarmouth Port,http://www.sbabaskincare.com/,,,"
				SB Shop / Contact Info
			",http://www.sbabaskincare.com/sb-gift-cards.html,http://www.sbabaskincare.com/sb-gift-cards.html,"
				SB Shop / Contact Info
			",MA,02675,beauty_salon
Solstice Day Spa,"408 Main St, Hyannis, MA 02601",Day spa,Hyannis,http://www.solsticedayspa.com/,,,"
				Gift Cards
			",http://www.solsticedayspa.com/gift-cards.html,http://www.solsticedayspa.com/contact.html,"
				Contact
			",MA,02601,beauty_salon
Cape Cod Body & Soul,"16 Sunset Pines Rd, South Yarmouth, MA 02664",Massage therapist,South Yarmouth,https://www.capecodbodyandsoul.com/,,,Gift Certificates,https://www.capecodbodyandsoul.com/shop-1,https://www.capecodbodyandsoul.com/contact,Contact,MA,02664,beauty_salon
Le Petite Day Spa Chatham,"35 Cross St, Chatham, MA 02633",Day spa,Chatham,http://www.thelepetitedayspa.com/,,,GIFT CERTIFICATES,https://www.thelepetitedayspa.com/gift-certificates,https://www.thelepetitedayspa.com/contact,CONTACT,MA,02633,beauty_salon
Four Elements Salon & Spa,"632 State Rd, Westport, MA 02790",Beauty salon,Westport,http://fourelementssalonandspa.com/,,,Gift Card,https://fourelements.boomtime.com/lgift,https://fourelementssalonandspa.com/contact/,Contact,MA,02790,beauty_salon
Inspiration Hair Studio and Day Spa,"278 N Main St, Uxbridge, MA 01569",Hair salon,Uxbridge,http://www.inspirationhairstudio-dayspa.com/,,,Gift Certificates,http://www.inspirationhairstudio-dayspa.com/gift-certificates,,,MA,01569,beauty_salon
Caterina Sorrenti LLC,"277 Linden St #203, Wellesley, MA 02482",Beauty salon,Wellesley,http://www.rina-studio.com/,,,,http://www.rina-studio.com/gift_certificate.html,http://www.rina-studio.com/contact.html,,MA,02482,beauty_salon
More Than Hair Day Spa,"1381 Bridge St, Dracut, MA 01826",Spa,Dracut,http://www.morethanhair.com/,,"Day spa offering hair styling, coloring & treatments, plus waxing, massages, facials & mani-pedis.","
Click here to send an Instant Gift Certificate
",https://morethan.boomtime.com/lgift,,,MA,01826,beauty_salon
Paula's Nail Designs & Spa,"184 Main St, Oxford, MA 01540",Nail salon,Oxford,https://paulasnaildesigns.ismynailpro.com/,,,Gift Certificates,https://paulasnaildesigns.ismynailpro.com/gift-certificates,https://paulasnaildesigns.ismynailpro.com/contact-information,Contact Information,MA,01540,beauty_salon
Color Trends Hair Salon,"25 Merrit Pkwy #5, Nashua, NH 03062",Beauty salon,Nashua,http://www.colortrendshairsalon.com/,,,"
Today is the day to pick up your retail curbside! 

",https://www.instagram.com/p/B-hT3UcAGJt/,http://colortrendshairsalon.com/contact-us-2/,Contact Us,NH,03062,beauty_salon
Serenity Spa & Salon,"Applewood Plaza, 315 Middlesex Rd STE 1, Tyngsborough, MA 01879",Beauty salon,Tyngsborough,http://www.serenityspaandsalon.com/,,,Gift Cards,http://www.serenityspaandsalon.com/uncategorized/gift-cards/,http://www.serenityspaandsalon.com/uncategorized/contact-2/,Contact,MA,01879,beauty_salon
Cassandra Salon & Spa,"225 Daniel Webster Hwy, Nashua, NH 03060",Beauty salon,Nashua,http://www.cassandrasalon.com/,,,Gift Cards,http://www.cassandrasalon.com/gift-cards/,http://www.cassandrasalon.com/contact-us/,Contact Us,NH,03060,beauty_salon
Natural Nails and Spa Tyngsborough,"22 Westford Rd, Tyngsborough, MA 01879",Nail salon,Tyngsborough,http://naturalnailsandspa.us/,,,E-Gift,http://naturalnailsandspa.us/gift-card,http://naturalnailsandspa.us/contactus,Contact Us,MA,01879,beauty_salon
Face Studio,"696 Plain St #2b, Marshfield, MA 02050",Day spa,Marshfield,https://www.facestudiomarshfield.com/,,,"
            Gift Cards
          ",https://www.facestudiomarshfield.com/gift-cards,https://www.facestudiomarshfield.com/contact-1,"
            Contact
          ",MA,02050,beauty_salon
Visual Changes Inc,"100 Shaker Rd, East Longmeadow, MA 01028",Beauty salon,East Longmeadow,http://www.visualchangesinc.com/,,,"

",http://www.visualchangesinc.com/gift_cards.html,http://www.visualchangesinc.com/contact.html,Contact,MA,01028,beauty_salon
Manee Massage,"28 Holyoke St, Easthampton, MA 01027",Massage therapist,Easthampton,http://themassageshoppe.massagetherapy.com/,,,Gift Certificates,http://themassageshoppe.massagetherapy.com/gift-certificates,,,MA,01027,beauty_salon
Paul Joseph's Hair & Nail Salon,"163 Washington St # 1, North Easton, MA 02356",Beauty salon,North Easton,http://www.pauljosephssalon.com/,,,E-Gift Cards,https://pauljosephssalon.salontarget.com/egift/?guestonly=guestonly,http://www.pauljosephssalon.com/hair-salon-washington-street-ma-contact.html,Contact,MA,02356,beauty_salon
Makeovers Salon  Spa,"594 Washington St, South Easton, MA 02375",Day spa,South Easton,http://www.makeoverssalon.com/,,,Gift Card,http://makeoverssalon.com/gift-card/,http://makeoverssalon.com/contact/,Contact,MA,02375,beauty_salon
Salon Safe,"1235 Tatamy Rd, Easton, PA 18045",Beauty salon,Easton,http://www.amarehairsalon.com/,,,e-Gift cards,http://www.squareup.com/gift/HPDT9R2AZQ4BW/order,https://www.amarehairsalon.com/contact,CONTACT,PA,18045,beauty_salon
Colonial House Day Spa,"142 Washington St, North Easton, MA 02356",Day spa,North Easton,http://www.colonialhousedayspa.com/,,,Instant Gift Certificates,http://www.colonialhousedayspa.com/instantgiftcertificates.html,http://www.colonialhousedayspa.com/contactus.html,Contact Us,MA,02356,beauty_salon
Sea Salt Luxury Spa Studio,"4 North Street, Mashpee, MA 02635",Hairdresser,Mashpee,http://seasaltsalonspa.com/,,,GIFT CERTIIFCATES,http://s.thegiftcardcafe.com/RuJ2oA,https://www.seasaltsalonspa.com/contact,CONTACT,MA,02635,beauty_salon
The Living Seed Yoga & Holistic Health Center,"521 Main St, New Paltz, NY 12561",Yoga studio,New Paltz,http://www.thelivingseed.com/,,,"
            Gift Cards
          ",http://www.thelivingseed.com/gift-cards,http://www.thelivingseed.com/connect,"
            Contact & Directions
          ",NY,12561,beauty_salon
Zinnia Skin and Body Care,"25 Main St #211, Northampton, MA 01060",Day spa,Northampton,http://www.zinniaskinandbodycare.com/,,,Buy Gift Certificate ,https://squareup.com/gift/TVZNP4V7XWBYC/order,http://www.zinniaskinandbodycare.com/contact-1,Contact,MA,01060,beauty_salon
Christie & Co Salon,"2364 Bell Blvd, Bayside, NY 11360",Beauty salon,Bayside,http://www.christiesalon.com/,,,GIFT CARDS,https://christiesalon.com/?page_id=97,https://christiesalon.com/?page_id=31,CONTACT,NY,11360,beauty_salon
Sundara Hair Studio,"37 Topsfield Rd, Ipswich, MA 01938",Beauty salon,Ipswich,http://www.sundarahairstudio.com/,,,Gift Certificates,http://www.sundarahairstudio.com/gift-certificates,http://www.sundarahairstudio.com/contact,Contact,MA,01938,beauty_salon
Dolce Vita Salon,"614 College Ave, Santa Rosa, CA 95404",Beauty salon,Santa Rosa,http://dolcevitasalon-sr.com/,,,Gift Certificates,https://dolcevitasalon-sr.com/gift-certificates/,https://dolcevitasalon-sr.com/contact-us/,Contact Us,CA,95404,beauty_salon
Laura Lanes Skin Care,"242 Essex St, Salem, MA 01970",Beauty salon,Salem,http://www.lauralanes.com/,,,Buy a Gift Card Now,http://www.lauralanes.com/gift-cards,http://www.lauralanes.com/contact-us/,Contact Us,MA,01970,beauty_salon
Angel Nails,"2632 Broadway, New York, NY 10025",Nail salon,New York,https://snailzapp.com/,,,Gift CardZ,https://snailzapp.com/gift-card,https://snailzapp.com/mailto:info@snailzapp.com,Contact Us,NY,10025,beauty_salon
Serenity In the City Salon & Spa,"269 Middlesex Ave, Medford, MA 02155",Beauty salon,Medford,http://serenityinthecitymedford.com/,,,"Gift Cards
",https://www.egiftcardexpress.com/live/6/,https://www.serenityinthecitymedford.com/index.php/contacts,"Contact
",MA,02155,beauty_salon
Soma Salon and Spa AVEDA,"471 Artisan Way, Somerville, MA 02145",Hair salon,Somerville,http://www.somaaveda.com/,,,GIFT CARDS,http://somasalon.salontarget.com/egift/?guestonly=guestonly,https://www.somaaveda.com/about/contact-us/,Contact Us,MA,02145,beauty_salon
Euphoria Day Spa,"145 Bridge St, Fairhaven, MA 02719",Day spa,Fairhaven,http://www.euphoriaday-spa.com/,,,,http://euphoriaday-spa.com/contact-directions-phone-hours/,http://euphoriaday-spa.com/contact-directions-phone-hours/,Contact,MA,02719,beauty_salon
The Indigo Spa Company,"26 S Water St c, New Bedford, MA 02740",Day spa,New Bedford,http://theindigospacompany.com/,,,Purchase Gift Card,https://www.secure-booker.com/indigospa/ShopOnline/GiftCards.aspx,https://www.theindigospacompany.com/contact,Contact,MA,02740,beauty_salon
BB Nails & spa salon,"469 Stafford Rd, Fall River, MA 02721",Beauty salon,Fall River,http://www.bbnail.com/,,,Buy Gift Card,http://www.bbnail.com/sell-giftcard,http://www.bbnail.com/contact-us,Contact Us,MA,02721,beauty_salon
Glow Hair Skin & Harmony,"1153 Wilbur Ave, Somerset, MA 02725",Hair salon,Somerset,http://www.glowhairskinandharmony.com/,,,BUY A GIFT CARD,https://go.booker.com/location/glowhairskinandharmony/buy/gift-certificate,,,MA,02725,beauty_salon
Bellezza Salon Medspa,"221 Main St, Falmouth, MA 02540",Hair salon,Falmouth,http://www.spabellezza.com/,,,Gift Cards,https://www.spabellezza.com/gift-cards/,https://www.spabellezza.com/contact/,Contact,MA,02540,beauty_salon
De Paris Nails,"1600 Falmouth Rd # 31, Centerville, MA 02632",Beauty salon,Centerville,https://deparisnails.com/,,,,https://deparisnails.com/Gift Certificates.htm,,,MA,02632,beauty_salon
Summerfield Spa,"800 Falmouth Rd STE 104A, Mashpee, MA 02649",Day spa,Mashpee,http://summerfieldspa.com/,,,Gift Cards,https://summerfieldspa.com/product/spa-gift-cards/,https://summerfieldspa.com/contact/,Contact,MA,02649,beauty_salon
Premier Hair & Body Care,"456 Lancaster St, Leominster, MA 01453",Beauty salon,Leominster,http://www.premierhairandbodycare.com/,,,Gift Cards,http://www.premierhairandbodycare.com/catalog.html,http://www.premierhairandbodycare.com/Contact_Us.html,Contacts,MA,01453,beauty_salon
Mia Bella Spa,"12 Main St, Leominster, MA 01453",Beauty salon,Leominster,http://www.miabellaspa.com/,,,Buy Instant Gift Certificate Now!,https://miabellaspa.boomtime.com/lgift,,,MA,01453,beauty_salon
Green Tangerine Spa & Salon,"238 Patriot Pl, Foxborough, MA 02035",Beauty salon,Foxborough,http://www.greentangerinespa.com/,,,"
        Gift Cards
      ",https://gt.salonultimate.com/checkout/giftCard?brand=1,http://www.greentangerinespa.com/contact,Contact,MA,02035,beauty_salon
Strand Salon & Spa,"272 Chauncy St, Mansfield, MA 02048",Beauty salon,Mansfield,http://www.strandsalonspa.com/,,,Gift Certificates,https://www.strandsalonspa.com/gift-certificates/,https://www.strandsalonspa.com/contact/,Contact,MA,02048,beauty_salon
Amore Hair Design,"1 Fowler St, Mansfield, MA 02048",Hair salon,Mansfield,http://amorehairdesign.com/,,,"
				Gift Cards & Products
			",http://amorehairdesign.com/giftcardsproducts.html,http://amorehairdesign.com/contact.html,"
				Contact
			",MA,02048,beauty_salon
Rectify Barbershop & Beauty Alcove,"90 Copeland Dr, Mansfield, MA 02048",Hair salon,Mansfield,http://www.rectifybba.com/,,,"PURCHASE A GIFT CARD




",https://gift-cards.phorest.com/salons/rectifybarbershopandbeautyalco,,,MA,02048,beauty_salon
Amazing Skin Care & Spa USA LLC,"60 Nicholas Rd Suite 4, Framingham, MA 01701",Facial spa,Framingham,http://www.amazingskincarespausa.com/,,,Gift Certficates,http://www.amazingskincarespausa.com/product-category/gift-certificates/,https://www.amazingskincarespausa.com/contact/,Contact,MA,01701,beauty_salon
Zinc Day Spa Med Spa Nails,"37 E Central St, Franklin, MA 02038",Skin care clinic,Franklin,http://www.zincspa.com/,,,Gift Certificates ,http://www.zincspa.com/shop.htm,http://www.zincspa.com/contact.htm,Contact,MA,02038,beauty_salon
Bellezza Day Spa Inc,"72 Grove St, Franklin, MA 02038",Day spa,Franklin,http://bellezzaspafranklin.com/,,,Gift Certificates,http://bellezzaspafranklin.com/Online_Gift_Certificates.html,http://bellezzaspafranklin.com/Contact_Us.html,Contact Us,MA,02038,beauty_salon
Lynne's Place Laser*SkinCare*Beauty,"863 County St, Somerset, MA 02726",Laser hair removal service,Somerset,http://lynnesplacespa.com/,,,Gift Cards,http://lynnesplacespa.com/gift-cards.html,,,MA,02726,beauty_salon
Relaxing Solutions Spa,"1167 Ashley Blvd, New Bedford, MA 02745",Massage therapist,New Bedford,https://www.relaxingsolutionsspa.com/,,,,https://www.relaxingsolutionsspa.com/INSTANT-GIFT-CERTIFICATES.html,https://www.relaxingsolutionsspa.com/Contact-Us.html,,MA,02745,beauty_salon
Origins,"Valley Fair Shopping Center, 2855 Stevens Creek Blvd #1050, Santa Clara, CA 95050",Cosmetics store,Santa Clara,http://www.origins.com/,,,"
    Gift Cards
  ",http://www.origins.com/giftcards,http://www.origins.com/customer-service-contact-us,Email Us,CA,95050,beauty_salon
Breeze Salon & Day Spa,"1019 W University Ave, Georgetown, TX 78628",Beauty salon,Georgetown,http://www.breezesalon.com/,,,Gift Cards,http://www.breezesalon.com/gift-cards/,https://breezesalon.com/about/contact-us/,Contact Us,TX,78628,beauty_salon
Salon Sarah,"400 Del Webb Blvd, Georgetown, TX 78633",Beauty salon,Georgetown,http://www.salonsarah.net/,,,Gift Certificates,http://stylenet.com/SalonSarah/gift-certificates,http://www.salonsarah.net/contact-us,"400 Del Webb Blvd #102 | Georgetown, TX 78633",TX,78633,beauty_salon
George at Four Seasons Salon,"2828 Pennsylvania Ave NW, Washington, DC 20007",Beauty salon,Washington,http://georgefourseasonssalon.com/,,,"
                        GIFT CARD
                      ",http://georgefourseasonssalon.com/#gift-card-section,,,DC,20007,beauty_salon
Salon Leau,"3240 P St NW, Washington, DC 20007",Beauty salon,Washington,https://salonleau.com/,,,Vouchers/Gift Certificates,https://salonleau.com/vouchers-gift-certificates/,https://salonleau.com/contact-us/,Contact Us,DC,20007,beauty_salon
Refresh Hair Design Studio,"901 Parkway Ave #3, Elkhart, IN 46516",Hair salon,Elkhart,http://www.refresh-hds.com/,,"Salon offering hair styling & coloring, plus extensions, waxing & makeup services.",gift cards,https://squareup.com/gift/AZA1YG8H1TM8X/order,http://www.refresh-hds.com/contacts.html,contact us,IN,46516,beauty_salon
LIVE Spa and Wellness,"302 S Main St, Goshen, IN 46526",Spa,Goshen,http://www.daylasolspa.com/,,,,http://www.daylasolspa.com/Gift-Cards.html,,,IN,46526,beauty_salon
Revive by Sarka,"11 Beach St, Vineyard Haven, MA 02568",Spa,Vineyard Haven,http://revivebysarka.com/,,,Gift Cards,http://revivebysarka.com/?page_id=1559,http://revivebysarka.com/?page_id=2799,Contact us,MA,02568,beauty_salon
Truth Organic Spa and Wellness Center,"55 N Main St, North Grafton, MA 01536",Day spa,North Grafton,http://www.truthorganicspa.com/,,,PURCHASEÂ AÂ GIFTÂ CARD,https://clients.mindbodyonline.com/classic/ws?studioid=116170&stype=42&sLoc=0&giftCardID=174,,,MA,01536,beauty_salon
LaFrance Glam Studio,"97 Main St, South Grafton, MA 01560",Beauty salon,South Grafton,https://www.lafranceglamartistry.com/,,,"

",https://www.instagram.com/p/B92_gdPgF5j/,https://www.lafranceglamartistry.com/contact,contact,MA,01560,beauty_salon
Rivkah's Hair Studio,"72 E Main St, Westborough, MA 01581",Beauty salon,Westborough,http://www.rivkahshairstudio.com/,,,Buy a Gift Card,https://rivkahs.salontarget.com/egift/?guestonly=guestonly,https://rivkahshairstudio.com/contact-us/,Contact,MA,01581,beauty_salon
Salon Richard Anthony,"12 Milford St, Upton, MA 01568",Beauty salon,Upton,http://www.salonrichardanthony.net/,,,E-Gift Cards,https://salonrichardanthony.salontarget.com/egift/?guestonly=guestonly,http://www.salonrichardanthony.net/javascript: void(0),Contact Us,MA,01568,beauty_salon
European Touch Beauty Salon,"43 E Oak St, Chicago, IL 60611",Beauty salon,Chicago,http://www.bentleyhb.com/,,,Gift Cards,https://go.booker.com/location/BentleyHairBeautySalon/buy/gift-certificate,https://bentleyhb.com/contact/,Contact,IL,60611,beauty_salon
DHotel Spa by SkinCatering,"1 Country Club Rd, Holyoke, MA 01040",Day spa,Holyoke,http://www.dhotelspa.com/,,,,https://www.secure-booker.com/SkinCateringDHotelspa/ShopOnline/GiftCertificate.aspx,https://dhotelspa.com/about/#contact,Contact,MA,01040,beauty_salon
Hairdresser On Fire LLC,"176 Broad St, Windsor, CT 06095",Hair salon,Windsor,http://www.hairdresseronfire.com/,,,Gift Certificates,http://clients.mindbodyonline.com/ws.asp?studioid=11831&stype=42,,,CT,06095,beauty_salon
Sole Salon,"5689 Bay St, Emeryville, CA 94608",Hair salon,Emeryville,http://www.solesalon.com/,,,"
              
                Gift Cards
              
            ",http://www.solesalon.com/collections/gift-cards,,,CA,94608,beauty_salon
Julie's Pure Bliss,"647 N Main St, Sheffield, MA 01257",Waxing hair removal service,Sheffield,https://www.jpurebliss.com/,,,"#mask-comp-jwjwmqa0img-svg * {fill: #fff; stroke: #fff; stroke-width: 0;}








",https://www.jpurebliss.com/shop,https://www.jpurebliss.com/contact,Contact,MA,01257,beauty_salon
California Skin Institute,"2100 Forest Ave Facial Room 1, San Jose, CA 95128",Skin care clinic,San Jose,https://californiaskininstitute.com/,,,,https://californiaskininstitute.com/gift-certificate,https://californiaskininstitute.com/general-inquiry/,Contact Us,CA,95128,beauty_salon
LoKs Salon,"172 Bridge St, Groton, CT 06340",Beauty salon,Groton,http://www.loks-salon.com/,,,Purchase eGift Card,https://squareup.com/gift/AJA78AQSYQM04/order,,,CT,06340,beauty_salon
Design Her Eyes,"3 Ferry St Suite 1, Haverhill, MA 01835",Beauty salon,Haverhill,http://designhereyes.com/,,,Buy Now,https://www.vagaro.com/designhereyes/gift-certificates,http://designhereyes.com/tel:9789146058,(978) 914-6058,MA,01835,beauty_salon
Insideout Health & Wellness,"162 Main St #9, Wenham, MA 01984",Day spa,Wenham,http://www.insideouthw.com/,,,Gift Certificates,https://www.secure-booker.com/insideouthw/ShopOnline/GiftCertificate.aspx,https://www.insideouthw.com/contact-us/,Contact,MA,01984,beauty_salon
Salon 124 Hamilton Mill,"3521 Braselton Hwy, Dacula, GA 30019",Beauty salon,Dacula,https://www.salon124.com/,,,Gift Cards,https://salon124.millenniumegift.com/,https://www.salon124.com/contact/,Contact,GA,30019,beauty_salon
Lavender Nail Spa,"355 Santana Row, San Jose, CA 95128",Beauty salon,San Jose,http://www.lavandenailspa.com/,,,,http://www.lavandenailspa.com/parties_gift_cards.html,http://www.lavandenailspa.com/contact_us.php,,CA,95128,beauty_salon
Deb's Shear Perfection,"560 Rte 20, New Lebanon, NY 12125",Beauty salon,New Lebanon,http://debsshearperfection.com/,,,Gift Certificates,http://debsshearperfection.com/gift-certificates/,,,NY,12125,beauty_salon
The Face Place & Spa,"1344 Washington St #1655, Hanover, MA 02339",Day spa,Hanover,http://faceplaceandspa.com/,,,BUY GIFT CARDS,https://www.secure-booker.com/thefaceplace/ShopOnline/GiftCards.aspx,,,MA,02339,beauty_salon
HaVy Nail & Beauty Bar,"2057 Washington St #300, Hanover, MA 02339",Nail salon,Hanover,http://www.havynailbeautybar.com/,,,Buy Gift Card,https://www.havynailbeautybar.com/shop,https://www.havynailbeautybar.com/contact,Contact Us,MA,02339,beauty_salon
Zona Salons Norwell,"10 Washington St, Norwell, MA 02061",Hair salon,Norwell,http://zonaprofessional.com/,,,SHOP GIFT CARDS HERE,http://www.zonaprofessional.com/gift-certificates,https://docs.google.com/forms/d/e/1FAIpQLSegPVcNCHWvu1B9lSUul6It3xIvjb1_KUTz3Aaka1DEQl-AHQ/viewform,CONTACTLESSRETAIL DELIVERY,MA,02061,beauty_salon
Shimmer Hair Designs [?],"1 E Main St, West Brookfield, MA 01585",Hair salon,West Brookfield,https://www.shimmerhairdesigns.com/,,,"  

ORDER GIFT CARD
",https://squareup.com/gift/KK50HNPYDCZB4/order,https://www.shimmerhairdesigns.com/#FINDUS," FIND US

",MA,01585,beauty_salon
Citrus Aveda Spa & Salon,"662 Revere Beach Blvd, Revere, MA 02151",Day spa,Revere,http://citrusspaboston.com/,,,Gift Certificates,https://citrusspaboston.com/gift-certificates/,https://citrusspaboston.com/contact/,Contact,MA,02151,beauty_salon
Masjah Studios,"181 MA-137, Harwich, MA 02645",Massage therapist,Harwich,http://www.themasjahcenter.com/,,,COLIV20 Gift Card donation for first responders,https://www.masjahstudios.com/plans-pricing,https://www.masjahstudios.com/contact-us,Contact us,MA,02645,beauty_salon
Smooth Affairs,"The Mill District, 68 Cowls Rd, Amherst, MA 01002",Spa,Amherst,http://www.smoothaffairs.com/,,,Gift Cards!,https://squareup.com/gift/Y8NDCAB6P5KNP/order,http://www.smoothaffairs.com/tel:4134754624,413-475-4624,MA,01002,beauty_salon
Thomas Michael's of Nyc,"1095 Texas Palmyra Hwy, Honesdale, PA 18431",Beauty salon,Honesdale,https://www.thomasmichaelsofnyc.com/,,,Gift Cards,https://www.thomasmichaelsofnyc.com/../giftcertificate.php?cat=3,https://www.thomasmichaelsofnyc.com/#,Contact Us,PA,18431,beauty_salon
Utopia Salon and Day Spa,"2557 US-6, Hawley, PA 18428",Beauty salon,Hawley,http://www.utopiasalonanddayspa.com/,,,Gift Certificates,http://www.utopiasalonanddayspa.com/gift-certificates,http://www.utopiasalonanddayspa.com/contact-us/,Contact Us,PA,18428,beauty_salon
Heath Hair Salon & Spa,"201 Hubbard Dr, Heath, TX 75032",Hair salon,Heath,http://www.heathhairsalonandspa.com/,,,"
                Perks & Gift Cards
              ",http://www.heathhairsalonandspa.com/perks,http://www.heathhairsalonandspa.com/contact,"
                  Contact Us
                ",TX,75032,beauty_salon
Fellow Barber  Market St,"973 Market St, San Francisco, CA 94103",Barber shop,San Francisco,http://www.fellowbarber.com/,,,"






",http://www.fellowbarber.com/collections/fellow/products/gift-card-for-in-store-services,http://www.fellowbarber.com/pages/contact,Contact us,CA,94103,beauty_salon
Studio Ten Hair Salon,"10 Sea St, Weymouth, MA 02191",Hair salon,Weymouth,http://www.studiotenhairsalon.com/,,,eGift Cards,https://squareup.com/gift/BGYHFHJAWHVXK/order,http://www.studiotenhairsalon.com/contact.html,Contact,MA,02191,beauty_salon
Littlefield Salon,"1187 Sea St, Quincy, MA 02169",Hair salon,Quincy,http://www.littlefield1187.com/,,,GIFT CARDS,https://squareup.com/store/littlefield1187,,,MA,02169,beauty_salon
Paul Conzo Day Spa and Hair Salon,"490 Shrewsbury St, Worcester, MA 01604",Day spa,Worcester,http://www.paulconzo.com/,,,Gift Cards,http://www.paulconzo.com/hair-salon-shrewsbury-street-ma-gift-cards.html,http://www.paulconzo.com/hair-salon-shrewsbury-street-ma-contact.html,Contact,MA,01604,beauty_salon
Bellisimo Med Spa and Laser Center,"372 Chandler St, Worcester, MA 01602",Medical spa,Worcester,https://www.bellisimospa.com/,,,Gift Cards,https://bellisimospa.com/product/gift-card/,https://bellisimospa.com/contact/,Contact Us,MA,01602,beauty_salon
Quinn Vise Hair Design & CO,"217 E 24th St Ste 120, Holland, MI 49423",Beauty salon,Holland,https://www.quinnvise.com/,,,Gift Cards,https://www.giftfly.com/shop/quinn-vise-hair-design,https://quinnvise.com/contact/,Contact,MI,49423,beauty_salon
Salon Cheveux,"226 S River Ave, Holland, MI 49423",Beauty salon,Holland,http://www.saloncheveuxhsb.com/,,,Gift Cards,http://www.saloncheveuxhsb.com/gift-cards,,,MI,49423,beauty_salon
Body Perfections Ltd,"11595 E Lakewood Blvd #40, Holland, MI 49424",Beauty salon,Holland,http://www.bodyperfectionsltd.com/,,,GIFT CERTIFICATES,https://www.bodyperfectionsltd.com/gift-certificates,https://www.bodyperfectionsltd.com/contact,Contact Us,MI,49424,beauty_salon
Lindsay Griffin  Co,"106 Bristol Rd, Somerville, MA 02144",Hair salon,Somerville,http://www.lindsaygriffin.com/,,,ORDER YOUR GIFT CERTIFICATE ONLINE!,https://gift-cards.phorest.com/salons/lindsaygriffinco,https://lindsaygriffin.com/contact/,Contact,MA,02144,beauty_salon
Tweed Barbers of Boston,"1313 Washington St, Boston, MA 02118",Barber shop,Boston,http://www.tweedbarbers.com/,,,,http://www.tweedbarbers.com/gift-certificates,https://tweedbarbers.com/contact/,Contact,MA,02118,beauty_salon
Salone de Bella,"416 Washington St, Holliston, MA 01746",Hair salon,Holliston,http://www.salonedebella.com/,,,Gift Certificates Available! ,http://www.salonedebella.com/gift-cards,http://www.salonedebella.com/new-page,"
            Contact Us
          ",MA,01746,beauty_salon
Dawn Fall Spa on Main,"169 W Main St, Hopkinton, MA 01748",Spa,Hopkinton,http://www.dfspaonmain.com/,,"Spa focusing on facials & other skin treatments, plus massage services, waxing & eyelash extensions.",GIFT CERTIFICATES,https://www.dfspaonmain.com/gift-certificate,https://www.dfspaonmain.com/contact,CONTACT,MA,01748,beauty_salon
Jessie Dillon Beauty,"258 Main St #111, Milford, MA 01757",Beauty salon,Milford,http://www.jessiedillonbeauty.com/,,,"
Gift Cards
",http://www.jessiedillonbeauty.com/gift-cards,http://www.jessiedillonbeauty.com/contact-us,"
Contact Us
",MA,01757,beauty_salon
Body Essentials,"9 Western Ave # 1, Milford, MA 01757",Hair removal service,Milford,http://bodyessentialsmilford.com/,,,Body Essentials Gift Card,http://bodyessentialsmilford.com/services-pricing.html,http://bodyessentialsmilford.com/contact.html,Contact,MA,01757,beauty_salon
Fire and Ice Spa,"Papa Gino’s Plaza 115 Eastern Avenue, Dedham, MA 02026",Spa and health club,Dedham,http://bostoncryospa.com/,,,Gift Certificates,https://squareup.com/gift/DKFH83V5FNAQ1/order,http://bostoncryospa.com/en/contacts,Contact Us,MA,02026,beauty_salon
Lindsay Taylor SPAtique,"71 E Main St, Westborough, MA 01581",Spa,Westborough,http://www.lindsaytaylorspatique.com/,,,"
        Gift Cards
      ",https://clients.mindbodyonline.com/classic/ws?studioid=253424&stype=42,http://www.lindsaytaylorspatique.com/contact,"
            Contact
          ",MA,01581,beauty_salon
The Body Fixx,"8 N Main St, Upton, MA 01568",Massage therapist,Upton,http://www.thebodyfixx.com/,,,Gift Certificates,https://www.vagaro.com/thebodyfixx/gift-certificates,,,MA,01568,beauty_salon
Rio Medical Aesthetics,"265 Washington St, Hudson, MA 01749",Beauty salon,Hudson,http://riomedical.net/,,,Gift Cards,https://riomedical.com/shop/,https://riomedical.com/contact-us/,Contact Us,MA,01749,beauty_salon
Silhouettes Hair Design,"75 54th St SW, Grand Rapids, MI 49548",Beauty salon,Grand Rapids,http://silhouetteshairdesign.com/,,,Gift Certificates,http://stylenet.com/SilhouettesHairDesign/gift-certificates/,http://stylenet.com/SilhouettesHairDesign/contact-us/,Contact Us,MI,49548,beauty_salon
Serene Scape Day Spa & Salon,"376 Maple St, Marlborough, MA 01752",Beauty salon,Marlborough,http://serene-scape.com/,,,Gift Certificates,https://www.serene-scape.com/gift-certificates/,https://www.serene-scape.com/contact/,Contact,MA,01752,beauty_salon
PhoRaya Thai Spa,"900 Huntington Ave, Boston, MA 02115",Thai massage therapist,Boston,http://www.phorayathaispa.com/,,,Gift Cards Available Here!! ,https://squareup.com/gift/JX4RVP0T6W2CD/order,https://www.phorayathaispa.com/contact-us,Contact Us,MA,02115,beauty_salon
Pax Massage,"146 High St # C, Ipswich, MA 01938",Massage spa,Ipswich,https://www.paxmassage.com/,,,Gift Certificate,https://go.booker.com/#/location/paxmassage/buy/gift-certificate,https://www.paxmassage.com/contact,Contact,MA,01938,beauty_salon
Susan Perry Skin Care Day Spa,"98 Court St, Plymouth, MA 02360",Day spa,Plymouth,http://www.susanperryskincare.com/,,,,http://www.susanperrybeauty.com/servlet/Categories?category=Gift+Cards,https://www.susanperrybeauty.com/category-s/1822.htm,,MA,02360,beauty_salon
Skin By Sarah,"345 Court St Ste. 302, Plymouth, MA 02360",Skin care clinic,Plymouth,http://skinbysarah.info/,,,Gift Cards,http://skinbysarah.info/gift-cards,,,MA,02360,beauty_salon
Creative Comforts Massage & Spa,"12 Harding St, Lakeville, MA 02347",Massage spa,Lakeville,https://www.creative-comforts.com/,,," Gift Cards

",https://www.creative-comforts.com/store,https://www.creative-comforts.com/contact," Contact

",MA,02347,beauty_salon
Eyebrow Threading & Henna Tattoo,"174 Dean Street second Floor, Taunton, MA 02780",Hair removal service,Taunton,http://www.threadingnheena.webs.com/,,Cozy day spa offering ornate henna tattoos & custom-threaded eyebrows (available for parties).,"


Order Gift Certificates





",http://www.threadingnheena.webs.com/cdn-cgi/l/email-protection#8bdfe3f9eeeaefe2e5eca6e5a6e3eeeee5eacbe3e4ffe6eae2e7a5e8e4e6,https://threadingnheena.webs.com/contact-us,Contact Us,MA,02780,beauty_salon
JUST THREADING,"17 Premium Outlet Blvd, Lee, MA 01238",Hair removal service,Lee,http://www.justthreading.com/,,,Gift Card,https://justthreading.com/gift-card/,https://justthreading.com/contact/,Contact,MA,01238,beauty_salon
A Petite Retreat,"305 N Main St #1, Andover, MA 01810",Beauty salon,Andover,http://www.apetiteretreatandover.com/,,,Gift Certificates,http://www.andoverhairandskincare.com/?page_id=35,http://www.andoverhairandskincare.com/?page_id=38,Contact Us,MA,01810,beauty_salon
Rhythms Massage & Bodywork,"55 Pittsfield Rd #8a, Lenox, MA 01240",Spa,Lenox,http://www.rhythmsmassage.net/,,,GIFT CARD,https://www.rhythmsmassage.net/gift-card,https://www.rhythmsmassage.net/contact,CONTACT US,MA,01240,beauty_salon
Dilaura Naturals,"2141 Boston Rd, Wilbraham, MA 01095",Hair salon,Wilbraham,http://www.dilauranaturals.com/,,,,http://itsonme.com/basket/add?productId=1750&back=/marketplace,http://www.dilauranaturals.com/wp/we-welcome-your-feedback/,Contact Us,MA,01095,beauty_salon
Butter Day Spa,"750 East Ave, Pawtucket, RI 02860",Day spa,Pawtucket,http://www.butterdayspa.com/,,,Gift Certificates,http://butterdayspa.com/shop/,,,RI,02860,beauty_salon
Beauty Box,"2131 N Broadway, Los Angeles, CA 90031",Beauty salon,Los Angeles,http://www.beautyboxla.com/,,,Purchase Gift Cards,https://www.beautyboxla.com/beauty-box-gift-cards/,https://www.beautyboxla.com/contact/,Contact,CA,90031,beauty_salon
The Whole Body Fitness Spa,"3 Littleton Rd, Suite 10C, 2nd Floor, Westford, MA 01886",Spa and health club,Westford,http://www.thewholebodyspa.com/,,,Spa Gift Card-  Instant ,http://www.thewholebodyspa.com/products/gift-card,,,MA,01886,beauty_salon
Yankee Clipper Barbershop,"287 Great Rd, Littleton, MA 01460",Barber shop,Littleton,http://www.yankeeclipperbarbershop.com/,,,Gift Certificates,https://yankeeclipperbarbershop.com/gc/,,,MA,01460,beauty_salon
Lauren Craig Salon,"25 Andrew Ave, Wayland, MA 01778",Beauty salon,Wayland,http://www.laurencraigsalon.com/,,,GIFT CARDS,https://www.laurencraigsalon.com,https://www.laurencraigsalon.com/contact,CONTACT,MA,01778,beauty_salon
All About the Massage LLC,"288 Littleton Rd # 4, Westford, MA 01886",Massage therapist,Westford,http://www.allaboutthemassage.com/,,,Gift Certificates,https://allaboutthemassage.com/gift-certificates/,https://allaboutthemassage.com/contact/,Contact Us,MA,01886,beauty_salon
Spa On the Green,"776 Longmeadow St, Longmeadow, MA 01106",Day spa,Longmeadow,http://www.drglenbrooks.com/,,,Gift Cards,https://www.drglenbrooks.com/about/patient-resources/gift-cards/,https://www.drglenbrooks.com/contact/,Contact,MA,01106,beauty_salon
The Art of Lashes,"58 Prescott St #C3, Lowell, MA 01852",Beauty salon,Lowell,http://www.theartoflashes.com/,,,"#mask-comp-jeiof39uimg-svg * {fill: #fff; stroke: #fff; stroke-width: 0;}








",https://squareup.com/gift/6SQAYW108XH4A/order,https://www.theartoflashes.com/contact,CONTACT,MA,01852,beauty_salon
Indulgence Aesthetics Wellness & Med Spa,"1075 Westford St suite 203, Lowell, MA 01851",Medical spa,Lowell,http://www.indulgencemedspa.net/,,,Giftcards,https://www.indulgencemedspa.net/giftcards-specials/,https://www.indulgencemedspa.net/contact-us/,Contact Us,MA,01851,beauty_salon
Stacy S Skin Care & Hair Salon,"5911 Kanan Rd, Agoura Hills, CA 91301",Hair salon,Agoura Hills,http://staciskincare.com/,,,,https://staciskincare.com/wp-content/uploads/2012/02/Spafinder-Wellness-365-gift-card.jpg,https://staciskincare.com/contact-location/,Contact / Location,CA,91301,beauty_salon
Moderno Salon & Organic Loft,"406 Main St, Melrose, MA 02176",Beauty salon,Melrose,http://modernosalon.com/,,,SHOP NOW,https://modernosalon.salontarget.com/egift/?guestonly=guestonly,http://modernosalon.com/contact-us-2/,Contact Us,MA,02176,beauty_salon
Sofia E Day Spa,"12 Salem St, Lynnfield, MA 01940",Beauty salon,Lynnfield,http://sofiaedayspa.com/,,,GIFT CARDS,https://www.sofiaedayspa.com/gift-card,https://www.sofiaedayspa.com/contact,CONTACT,MA,01940,beauty_salon
Wake Up Pretty,"139 Lynnfield St, Peabody, MA 01960",Beauty salon,Peabody,http://wakeuppretty.net/,,,Gift Cards,https://squareup.com/gift/826MY4Q2TG6KA/order,https://www.wakeuppretty.net,CONTACT,MA,01960,beauty_salon
Sobella Skin & Beauty Studio,"7 Kimball Ln, Lynnfield, MA 01940",Facial spa,Lynnfield,https://sobellaskinandbeauty.com/,,,Gift Cards,https://sobellaskinandbeauty.com/gift-cards,https://sobellaskinandbeauty.com/contact-us,Contact Us,MA,01940,beauty_salon
Boston Brow Studio,"422 Salem St, Medford, MA 02155",Beauty salon,Medford,http://www.bostonbrowstudio.com/,,,Purchase a gift card,https://squareup.com/gift/7D1S713XYJNCQ/order,http://www.bostonbrowstudio.com/contact,"
            Contact
          ",MA,02155,beauty_salon
Beverly Athletic Club,"7 Reservoir Rd, Beverly, MA 01915",Spa,Beverly,https://beverlyathletic.com/,,,GIFT CARDS,https://clients.mindbodyonline.com/classic/ws?studioid=2499&stype=42,https://beverlyathletic.com/contact-us/,CONTACT US,MA,01915,beauty_salon
Skin Studio,"697 Cambridge St #206, Brighton, MA 02135",Skin care clinic,Brighton,http://skinstudioboston.com/,,,Instant Gift Certificates,http://bit.ly/1zfU0DT,https://skinstudioboston.com/contact-us/,Contact Us,MA,02135,beauty_salon
Celestial Body Works Massage,"Upstairs From Out Of The Box, 8 Chestnut St, Marblehead, MA 01945",Massage therapist,Marblehead,http://www.celestialbodyworks.com/,,,GIFT CERTIFICATE,http://celestialrose.boomtime.com/lgift,http://www.celestialbodyworks.com/contact-1.html,CONTACT,MA,01945,beauty_salon
HVW Esthetics,"8 Spring St, Marblehead, MA 01945",Spa,Marblehead,http://hvwesthetics.com/,,,Gift Cards,https://clients.mindbodyonline.com/ASP/main_shop.asp?studioid=531012&tg=&vt=&lvl=&stype=42&view=&trn=0&page=&catid=&prodid=&date=11%2f17%2f2017&classid=0&prodGroupId=&sSU=&optForwardingLink=&qParam=&justloggedin=&nLgIn=&pMode=2&loc=1,https://hvwesthetics.com/contact/,Contact,MA,01945,beauty_salon
Dayle's European Skin Care,"261 Washington St, Marblehead, MA 01945",Day spa,Marblehead,http://www.daylesdayspa.com/,,,Gift Cards|,http://www.daylesmedspa.com/gift-cards/,http://www.daylesmedspa.com/contact-us/,Contact Us|,MA,01945,beauty_salon
LuxeBeautiQue,"410 Humphrey St, Swampscott, MA 01907",Day spa,Swampscott,http://www.luxebeautique.com/,,,GIFT CARDS,https://luxebeautique.salonultimate.com/clientWeb/appointment,http://www.luxebeautique.com/contact,Contact,MA,01907,beauty_salon
UK Nails & Spa,"525 Boston Post Rd, Sudbury, MA 01776",Nail salon,Sudbury,http://www.uknailsspa.com/,,," Gift Certificate

",http://www.uknailsspa.com/copy-of-home,http://www.uknailsspa.com/contact," Contact Us

",MA,01776,beauty_salon
Healing Hands Massage and Esthetics  Sudbury MA,"75 Union Ave UNIT 201, Sudbury, MA 01776",Facial spa,Sudbury,http://bestmassagesudbury.com/,,"Various massages, plus waxing, facials & spray tanning, offered in simple, charming surrounds.",GIFT CARD,https://www.bestmassagesudbury.com/gift-card,https://www.bestmassagesudbury.com,CONTACT,MA,01776,beauty_salon
Julie Hall Skin Care,"440 Plain St, Marshfield, MA 02050",Waxing hair removal service,Marshfield,http://www.juliehall.skincaretherapy.net/,,,Gift Certificates,http://www.juliehall.skincaretherapy.net/gift-certificates,http://www.juliehall.skincaretherapy.net/contact-us,Contact us,MA,02050,beauty_salon
Joli Medical Spa,"435 Furnace St, Marshfield, MA 02050",Day spa,Marshfield,https://www.lejolivisage.com/,,,Gift Certificates,https://www.lejolivisage.com/product-category/gift-certificates/,https://www.lejolivisage.com/contact-joli-medical-spa-marshfield/,Location,MA,02050,beauty_salon
Sarah Glover Skincare & Wellness Center,"23 W Bay Rd, Osterville, MA 02655",Facial spa,Osterville,http://www.sarahgloverskincare.com/,,,GIFT CERTIFICATES,https://www.sarahgloverskincare.com/gift-card,https://www.sarahgloverskincare.com/contact,CONTACT,MA,02655,beauty_salon
Simply Massage,"34 Barstow St, Mattapoisett, MA 02739",Massage therapist,Mattapoisett,http://www.simplymassage.me/,,,Gift Certificates,http://www.simplymassage.me/gift-certificates,,,MA,02739,beauty_salon
Essentials With TLC,"352 6th St, San Francisco, CA 94107",Facial spa,San Francisco,http://ensomasf.com/,,,"
            Gift Certificates
          ",http://ensomasf.com/gift-certificates,http://ensomasf.com/contact,"
            Contact
          ",CA,94107,beauty_salon
Divine Massage,"34 Barstow St, Mattapoisett, MA 02739",Massage spa,Mattapoisett,http://www.divinemassagema.com/,,," Gift Certificates

",http://s.thegiftcardcafe.com/nkoAu6,http://www.divinemassagema.com/#," Contact

",MA,02739,beauty_salon
Texture Salon Medfield,"14 B N Meadows Rd, Medfield, MA 02052",Hair salon,Medfield,http://www.texturesalonmedfield.com/,,"Chic local salon with haircuts & color treatments, plus facial waxing & makeup application.",Online Booking/Gift cards,https://app.salonrunner.com/customer/index.jsp?id=27163,https://www.texturesalonmedfield.com/contact-us-policies,Contact Us~Policies,MA,02052,beauty_salon
Nicholas Christies Day Spa,"77 North St, Medfield, MA 02052",Day spa,Medfield,http://www.nicholaschristiesdayspa.com/,,,Gift Cards,http://nicholaschristiesdayspa.com/day-spa-gift-certificates-metrowest-boston-ma/,http://nicholaschristiesdayspa.com/contact-us/,Contact ,MA,02052,beauty_salon
Marilyn James Health and Beauty,"34 College Ave, Somerville, MA 02144",Beauty salon,Somerville,http://www.marilynjameshb.com/,,,Buy Gift Certificates Here,https://squareup.com/gift/05DYEACR95NQ6/order,https://marilynjameshb.com/contact-us/,Contact,MA,02144,beauty_salon
Spa Gloss,"955 Main St, Melrose, MA 02176",Nail salon,Melrose,https://www.spagloss.com/,,,GIFT CERTIFICATES,https://www.spagloss.com/gift-certificates/,https://www.spagloss.com/contact/,CONTACT US,MA,02176,beauty_salon
House of Ivy,"699 E Broadway, Boston, MA 02127",Beauty salon,Boston,http://houseofivysb.com/,,,Online Store ,https://www.vagaro.com/houseofivy/gift-certificates,https://www.houseofivysb.com/book-online,CONTACT,MA,02127,beauty_salon
Haven Beauty,"14 Church St, Hopkinton, MA 01748",Beauty salon,Hopkinton,http://www.havenbeautyma.com/,,,"

",https://www.instagram.com/p/B_KggVlHLeL/,,,MA,01748,beauty_salon
FBT Medical Aesthetics,"165 Main St Suite 102, Medway, MA 02053",Medical spa,Medway,http://fbtmed.com/,,,Buy Gift Cards,https://go.booker.com/location/FBTMedicalAesthetics/buy/gift-certificate,https://www.fbtmed.com/contact/,Contact,MA,02053,beauty_salon
Kimberly Bruno Salon,"689 Main St, Melrose, MA 02176",Beauty salon,Melrose,https://www.kimberlybruno.com/,,,"

CLICK HERE TO
book an appointment
purchase gift certificates
purchase packages

",https://www.vagaro.com/kimberlybrunosalon,,,MA,02176,beauty_salon
Salon 345,"345 Central St, Saugus, MA 01906",Beauty salon,Saugus,http://www.bestsaugussalon.com/,,,Gift Cards,http://www.bestsaugussalon.com/salon-central-street-saugus-ma-gift-cards.html,,,MA,01906,beauty_salon
Eneida Vann Salon Spa Cosmetique,"3595 Mendon Rd, Cumberland, RI 02864",Spa,Cumberland,http://www.evsalonspa.com/,,," Shop Our Gift Cards
 

",http://www.evsalonspa.com/store,http://www.evsalonspa.com/contact," CONTACT

",RI,02864,beauty_salon
EG Hair Designs,"45 Osgood St. Located in the Elan Hair Studio. Free parking is located in the municipal lot near the UPS building, Methuen, MA 01844",Hair salon,Methuen,http://www.eghairdesigns.com/,,,gift certificates AVAILABLE!,https://www.eghairdesigns.com/gift-certificates,,,MA,01844,beauty_salon
Absolute Elegance,"34 Lowell Rd, Salem, NH 03079",Beauty salon,Salem,http://www.absoluteelegancesalon.com/,,,Gift Certificates,https://www.absoluteelegancesalon.com/gift-certificates/,http://www.absoluteelegancesalon.com/#,Contact,NH,03079,beauty_salon
Omaggio Salon & Spa,"130 Main St, Salem, NH 03079",Hair salon,Salem,http://www.omaggiosalem.com/,,,Gift Certificates,https://omaggiosalem.com/gift-cards/,https://omaggiosalem.com/contact/,Contact,NH,03079,beauty_salon
Relaxation Works Spa,"1253 Broadway, Raynham, MA 02767",Massage spa,Raynham,http://relaxation-works.com/,,,Buy Gift Certificate,https://relaxation-works.com/buy-a-gift-certificate/,https://relaxation-works.com/contact/,Contact,MA,02767,beauty_salon
LaRose Muscular Therapy,"114 Water Street Bld 1, Milford, MA 01757",Massage therapist,Milford,https://larosemusculartherapy.com/,,,Gift Certificates,https://larosemusculartherapy.com/product-category/gift-cards/,https://larosemusculartherapy.com/#footer2map,Contact Us,MA,01757,beauty_salon
Milton Nails & Spa,"450 Granite Ave, Milton, MA 02186",Nail salon,Milton,http://miltonnailsandspa.com/,,,Gift Cards,http://miltonnailsandspa.com/gift-cards/,http://miltonnailsandspa.com/contacts/,Contacts and Directions,MA,02186,beauty_salon
HunterDavid Salon,"1197 Adams St, Dorchester, MA 02124",Hair salon,Dorchester,https://square.com/,,,"
Buy now
",https://squareup.com/gift/DJWDYEAQXGJGW/order,,,MA,02124,beauty_salon
Lola Beauty Boutique,"393 Neponset Ave, Dorchester, MA 02122",Hair salon,Dorchester,http://lolabeautyboutique.com/,,,"
              E-GIFT CARDS
            ",https://lola.salontarget.com/egift/?guestonly=guestonly,,,MA,02122,beauty_salon
Aura Salon1155,"1155 Hancock St, Quincy, MA 02169",Beauty salon,Quincy,http://www.aurasalon1155.com/,,,Purchase Gift Certificate,https://aurasalon1155.salontarget.com/egift/?guestonly+guestonly,https://www.aurasalon1155.com,Contact,MA,02169,beauty_salon
Blu Water Salon,"110 S Monroe St, Monroe, MI 48161",Beauty salon,Monroe,http://www.bluwaterspasalon.com/,,,BUY GIFT CERTIFICATE,http://www.secure-booker.com/bluwater/ShopOnline/GiftCertificate.aspx,https://www.bluwaterspasalon.com,CONTACT,MI,48161,beauty_salon
Vault Salon,"6661 Stanford Ranch Rd L, Rocklin, CA 95677",Hair salon,Rocklin,http://thevaultsalon.com/,,,"
Thank you 🙏 to all of our health care workers! 
 
",https://www.instagram.com/p/B-f89KGJxBd/,http://thevaultsalon.com/contact/,Contact,CA,95677,beauty_salon
Doug's 2 SalonSpa Inc,"8131 Vaughn Rd, Montgomery, AL 36116",Beauty salon,Montgomery,http://www.dougs2.com/,,,Gift Cards,https://www.dougs2.com/gift-cards/,https://www.dougs2.com/about/contact-us/,Contact Us,AL,36116,beauty_salon
Phoenix Salon & Spa,"6311 Atlanta Hwy, Montgomery, AL 36117",Beauty salon,Montgomery,http://phoenixsalonskinandspa.com/,,,Gift Certificates,http://stylenet.com/PhoenixSalonSpa/gift-certificates/,http://stylenet.com/PhoenixSalonSpa/contact-us/,Contact Us,AL,36117,beauty_salon
Benzie Salon,"9727 Montgomery Rd, Montgomery, OH 45242",Beauty salon,Montgomery,http://www.benziesalon.com/,,,"
",http://www.benziehaircare.com/Gift-Certificates_c_34.html,,,OH,45242,beauty_salon
Bettye O Day Spa,"1424 E 53rd St #304, Chicago, IL 60615",Day spa,Chicago,http://www.bettyeodayspa.com/,,,Gift Certificates,https://www.bettyeodayspa.com/copy-of-home,,,IL,60615,beauty_salon
Salt Salon & Spa,"327 Eastbrooke Pointe Dr Suite 300, Mt Washington, KY 40047",Beauty salon,Mt Washington,http://www.saltmtw.com/,,,Gift Cards,https://www.saltmtw.com/product/salt-salon-spa-gift-card/,,,KY,40047,beauty_salon
Studio & Co,"1501 Sulgrave Ave, Baltimore, MD 21209",Beauty salon,Baltimore,https://www.studioandcosalon.com/,,,Gift Cards,https://www.studioandcosalon.com/giftcardstosalon,https://www.studioandcosalon.com/contact,Contact,MD,21209,beauty_salon
XO SALON,"124 Virginia Ave, Pittsburgh, PA 15211",Beauty salon,Pittsburgh,http://www.xosalonpgh.com/,,,"

",https://www.instagram.com/p/B9NdtY-hJWB/,http://www.xosalonpgh.com/#contact-us-section,"
                        CONTACT US
                      ",PA,15211,beauty_salon
Bruno's Barber Shop & Hairstyling of Natick,"17 Pond St, Natick, MA 01760",Hair salon,Natick,http://www.brunosbarbershopofnatick.com/,,,Buy a Gift Card,https://squareup.com/gift/7JYZZEYNW5DC3/order,https://www.brunosbarbershopofnatick.com,Contact,MA,01760,beauty_salon
Luxotic Nail Bar,"200 Linden St, Wellesley, MA 02482",Nail salon,Wellesley,http://www.luxoticnailbar.com/,,"Intimate outpost providing manicures, pedicures & waxing services in a sophisticated setting.",gift-card,http://www.luxoticnailbar.com/gift-cards/gift-card,,,MA,02482,beauty_salon
femiluxe nails bar wayland,"71 Andrew Ave, Wayland, MA 01778",Nail salon,Wayland,http://femiluxenailbar.com/,,,Buy a Gift Card,http://femiluxenailbar.com/contact,http://femiluxenailbar.com/contact,Buy a Gift Card,MA,01778,beauty_salon
Bella Sante Day Spa Med Spa,"190 Linden St, Wellesley, MA 02482",Beauty salon,Wellesley,http://www.bellasante.com/,,,Gift Cards,http://www.bellasante.com/collections/gift-cards,http://www.bellasante.com/pages/contact-bella-sante,Contact,MA,02482,beauty_salon
PureLuxe,"118 Needham St, Newton, MA 02464",Nail salon,Newton,http://www.pureluxenewton.com/,,,SHOP NOW,https://go.booker.com/location/Pureluxe/buy/gift-certificate,http://www.pureluxenewton.com/contact,Contact Us,MA,02464,beauty_salon
Davis Hairdressing,"26 Lincoln St, Newton Highlands, MA 02461",Beauty salon,Newton Highlands,http://www.davishairdressing.com/,,,Gift Cards,https://davishairdressing.com/dh-gifts/,https://davishairdressing.com/contact/,Contact,MA,02461,beauty_salon
Aer Nailbar,"47 Lincoln St, Newton, MA 02461",Nail salon,Newton,http://aernailbar.com/,,,Gift Cards,https://aernailbar.zenoti.com/webstoreNew/giftcards/0117b1f1-6cc2-4d49-8c6d-820ee49d46e6,https://aernailbar.com/contact/,Contact,MA,02461,beauty_salon
New Leaf Hair Studio,"18 State St, Bristol, RI 02809",Beauty salon,Bristol,http://www.newleafhairstudio.com/,,,"
                  GIFT CARDS
                ",http://www.newleafhairstudio.com/shop-1,,,RI,02809,beauty_salon
LiVi Laser Center,"13 Russells Mills Rd, South Dartmouth, MA 02748",Hair removal service,South Dartmouth,http://livilasercenter.com/,,,PROMOTIONS/GIFT CARDS,https://www.giftfly.com/shop/livi-laser-center,https://www.livilasercenter.com/contact,CONTACT,MA,02748,beauty_salon
Face & Body By Elizabeth,"100 8th St, New Bedford, MA 02740",Spa,New Bedford,http://www.faceandbodybyliz.com/,,,"
				Gift Certificates
			",http://www.faceandbodybyliz.com/gift-certificates.html,http://www.faceandbodybyliz.com/contact.html,"
				Contact
			",MA,02740,beauty_salon
Indigo Salon Spa & Boutique,"50545 Cherry Hill Rd, Canton, MI 48188",Beauty salon,Canton,http://www.indigosalonanddayspa.com/,,,Gift Certificates,https://indigosalonspa.boomtime.com/lgift,http://www.indigosalonanddayspa.com/#,Contact,MI,48188,beauty_salon
Jeanne Lee,"115 Newbury St, Boston, MA 02116",Beauty salon,Boston,http://www.jeannesalon.com/,,,gift certificate,http://www.jeannesalon.com/gift_certificate.html,http://www.jeannesalon.com/contact.html,contact,MA,02116,beauty_salon
Balans Organic Spa  Massage Facial Float Therapy,"216 Newbury St, Boston, MA 02116",Day spa,Boston,http://www.bostonbalans.com/,,,gift card,https://clients.mindbodyonline.com/classic/ws?studioid=29230&stype=42,,,MA,02116,beauty_salon
Darling Merrill Hair Company,"10-C Harris St, Newburyport, MA 01950",Hair salon,Newburyport,http://www.darlingmerrill.com/,,,Purchase Products and Gift Cards,https://darlingmerrillhaircompany.square.site/,,,MA,01950,beauty_salon
Spray,"2080 Curtner Ave, San Jose, CA 95124",Tanning salon,San Jose,https://www.spraytanbykathryn.com/,,,Buy Gift Cards,http://www.giftfly.com/shop/spray-tan-by-kathryn,https://www.spraytanbykathryn.com/contact/,Contact Us(408) 478-9912,CA,95124,beauty_salon
Pretty Please Hair Salon,"100, 1754, 319 Newburyport Turnpike, Rowley, MA 01969",Hair salon,Rowley,http://www.prettyplease-salon.com/,,,"
            Gift Certificates
          ",http://www.prettyplease-salon.com/gift-certificates,,,MA,01969,beauty_salon
Home Beauty Spa,"74 Ruane Rd, West Newton, MA 02465",Beauty salon,West Newton,http://homebeautyspa.net/,,,Gift Cards,https://squareup.com/gift/W30SP1PNGZ32T/order,http://homebeautyspa.net/#contact,Contact,MA,02465,beauty_salon
Sheila Reissfelder Master Laser Tech,"575 Boylston St #2740, Newton, MA 02459",Laser hair removal service,Newton,http://www.josepharussomd.com/,,,Gift Cards,https://squareup.com/gift/ZRVJCPH3AT2TE/order,https://josepharussomd.com/contact/,Contact,MA,02459,beauty_salon
Haven Salon and Spa,"403 W Norfolk Ave, Norfolk, NE 68701",Beauty salon,Norfolk,http://www.havensalonnorfolk.com/,,,"
        Gift Card
      ",https://gift-cards.phorest.com/salons/havensalonspa,http://www.havensalonnorfolk.com/https/phorestcom/book/salons/havensalonspa,"
            Contact
          ",NE,68701,beauty_salon
AOC Salon,"821 W 21st St #101, Norfolk, VA 23517",Beauty salon,Norfolk,http://www.aocsalon.com/,,,GET YOUR AOC SALON  GIFT CARD ONLINE                                 CLICK HERE,https://giftup.app/place-order/a71324e6-2b83-4961-849e-09ead00ecdb5?platform=Hosted,https://www.aocsalon.com/about-us/contact-us/,Contact Us,VA,23517,beauty_salon
Bebe Simone Professional Makeup Artist,"2 Cherry Tree Ln, Foxborough, MA 02035",Beauty salon,Foxborough,http://www.simonemakeup.com/,,,"
                    Gift Certificates
                ",https://www.bebemakeupartist.com/gift-certificates,https://www.bebemakeupartist.com/contact,"
                    Contact
                ",MA,02035,beauty_salon
Changes City Spa,"710 W 21st St, Norfolk, VA 23517",Day spa,Norfolk,http://www.changesaregood.com/,,,GIFT CARDS,http://changesaregood.com/gift-cards/,http://changesaregood.com/about-us/contact-us/,CONTACT US,VA,23517,beauty_salon
Avery Adams Massage & Boutique,"W Main St, North Adams, MA 01247",Massage therapist,North Adams,http://adamstherapeuticmassage.com/,,,Online Gift Card,https://squareup.com/gift/R05XTSXHQZC91/order,http://adamstherapeuticmassage.com/tel:4136524520,(413) 652-4520,MA,01247,beauty_salon
North Adams Yoga,"26 Holden St, North Adams, MA 01247",Yoga studio,North Adams,http://www.northadamsyoga.com/,,,"

			Gift Cards
		
",http://www.northadamsyoga.com/gift-cards.html,http://www.northadamsyoga.com/contact.html,"
				Contact
			",MA,01247,beauty_salon
Restoration Barber Shop,"28 High St, North Andover, MA 01845",Barber shop,North Andover,http://www.restorationbarbershop.com/,,,"In response to the overwhelming community outpouring of support, we have created a temporary online store to allow you to purchase gift cards for your future haircuts. Please click here for more information and to purchase.",https://www.restorationbarbershop.com/shop,,,MA,01845,beauty_salon
The Reiki Room,"1394 Cranford Ave, Lakewood, OH 44107",Massage,Lakewood,http://www.thereikiroom.info/,,,Gift Certificates,http://www.thereikiroom.info/gift_certificates,http://www.thereikiroom.info/contact_us,Contact Us,OH,44107,beauty_salon
Jennifer M Viveiros  Makeup Artist,"21 Park St, Attleboro, MA 02703",Beauty salon,Attleboro,http://www.jennifermviveiros.com/,,,Gift Cards,https://squareup.com/gift/E5V6PKVXM0QTP/order,http://www.jennifermviveiros.com/contact,Contact ,MA,02703,beauty_salon
Massage by Rebecca,"63 N Washington St #20, North Attleborough, MA 02760",Massage therapist,North Attleborough,http://becca3012.wixsite.com/,,,Gift Certificates,https://becca3012.wixsite.com/massage-by-rebecca/gift-certificates,https://becca3012.wixsite.com/massage-by-rebecca/contact,Contact,MA,02760,beauty_salon
J Michaels Salon,"2105 Ingersoll Ave, Des Moines, IA 50312",Beauty salon,Des Moines,http://www.jmichaelssalondsm.com/,,,"
                  Gift Cards
                ",http://www.jmichaelssalondsm.com/gift-cards,http://www.jmichaelssalondsm.com/contact-us,"
                Contact
              ",IA,50312,beauty_salon
Salon Fabiano Ltd,"159 Ash St, Reading, MA 01867",Beauty salon,Reading,http://www.salonfabianoltd.com/,,,Purchase an e-Gift Card,https://www.salonfabianoltd.com,https://www.salonfabianoltd.com,Contact,MA,01867,beauty_salon
Advanced Touch Massage,"286 Park St #4, North Reading, MA 01864",Massage therapist,North Reading,http://www.advancedtouchmassage.com/,,,purchase gift certificates,http://www.advancedtouchmassage.com/purchase-gift-certificates/,,,MA,01864,beauty_salon
Salon Metta,"70 Main St Suite 103, North Andover, MA 01845",Hair salon,North Andover,http://www.salonmetta.com/,,,Gift Cards,https://www.salonmetta.com/gift-cards/,https://www.salonmetta.com/contact-us/,Contact ,MA,01845,beauty_salon
East Heaven,"33 West St, Northampton, MA 01060",Spa,Northampton,http://eastheaven.com/,,,Instant-Print Gift Certificates,http://eastheaven.com/online-gift-certificates/,http://eastheaven.com/send-us-a-message/,Contact Us,MA,01060,beauty_salon
Nicholas Michaels Spa,"422 W Main St, Northborough, MA 01532",Massage spa,Northborough,http://nmspa.com/,,,Gift Cards,http://nmspa.com/gift-cards,http://nmspa.com/contact,Contact,MA,01532,beauty_salon
Bliss Massage and Facials,"203 Turnpike Rd, Westborough, MA 01581",Massage spa,Westborough,https://releasewellbeingcenter.com/,,,Memberships & Gift Cards,https://releasewellbeingcenter.com/membership/,https://releasewellbeingcenter.com/contact/,Contact,MA,01581,beauty_salon
Tom's Barber Shop,"831 Main St, Martinez, CA 94553",Barber shop,Martinez,http://www.rosesbarbershop.com/,,,"

",https://www.instagram.com/p/B6UW1PrnLGS/,https://www.yelp.com/biz/roses-barbershop-martinez-6,"



",CA,94553,beauty_salon
Impeccable Barber Co,"599 Washington St, Norwood, MA 02062",Barber shop,Norwood,http://www.impeccablebarber.com/,,,Gift Cards,http://www.impeccablebarber.com/#giftcards,http://impeccablebarber.co/#contact,Contact,MA,02062,beauty_salon
Webster Muscular Therapy,"45 Poland St, Webster, MA 01570",Massage therapist,Webster,http://www.wmtherapy.com/,,"Long-running bodywork center offering Swedish, reiki, hot-stone & deep-tissue massage, plus others.",Online Gift Certificates Here,http://webstermusculartherapy.fullslate.com/,http://www.wmtherapy.com/contact.htm,CONTACT,MA,01570,beauty_salon
Arcuri Moda,"108 June St, Worcester, MA 01602",Hair salon,Worcester,http://arcurimodasalon.com/,,,Gift Certificates,http://arcurimodasalon.com/gifts/gift-certificate/,http://arcurimodasalon.com/contact-us/,Contact Us,MA,01602,beauty_salon
Glistening Goddesses Spray Tanning,"622 Killingly St, Johnston, RI 02919",Beauty salon,Johnston,http://www.glisteninggoddesses.com/,,,Gift Cards,https://squareup.com/gift/2ACXMYMY702Q8/order,,,RI,02919,beauty_salon
Bah Bah State St,"31 State St, Boston, MA 02109",Hair salon,Boston,http://bahbahstatestreet.com/,,,"




      PURCHASE GIFT CARD
    ",https://squareup.com/gift/8ARMSTG4NERKA/order,,,MA,02109,beauty_salon
Nkd Waxing Lashes & Makeup,"301 Grove St, Worcester, MA 01605",Waxing hair removal service,Worcester,http://www.nkdworcester.com/,,, Gift Cards,https://www.vagaro.com/nkdworcester/gift-certificates,https://nkdworcester.com/contact,CONTACT US,MA,01605,beauty_salon
Simply Beautiful Skincare,"above UPS, 800 Main St, Holden, MA 01520",Skin care clinic,Holden,https://www.sbskincare.net/,,,Gift Certificates,https://squareup.com/gift/01K5HEJNEP28R/order,https://www.sbskincare.net/contact,Contact,MA,01520,beauty_salon
Jacqueline Jase Face & Body Center LLC,"108 June St, Worcester, MA 01602",Beauty salon,Worcester,http://www.jacquelinejase.com/,,,"
                          BUY NOW - Gift Certificates
                        ",https://go.booker.com/location/jacquelinejase/buy/gift-certificate,http://www.jacquelinejase.com/pages/contact-us,"
                          Contact Us
                        ",MA,01602,beauty_salon
Massage Therapy with Sarah Howe,"603 Pleasant St, Paxton, MA 01612",Massage therapist,Paxton,http://www.showe.massagetherapy.com/,,,Gift Certificates,http://www.showe.massagetherapy.com/gift-certificates,http://www.showe.massagetherapy.com/contact-information,Contact Information,MA,01612,beauty_salon
Luxe Beauty Med Spa,"47 Newbury St, Peabody, MA 01960",Medical spa,Peabody,http://luxebeautymedspa.com/,,,Purchase E-Gift Card,https://squareup.com/gift/CY3RXB6P1ZCB4/order,https://www.luxebeautymedspa.com,CONTACT,MA,01960,beauty_salon
Atlas Beauty Hammam Spa,"108 Newbury St, Peabody, MA 01960",Day spa,Peabody,http://atlasbeautyspa.com/,,,"
Gift Certificates 
",https://www.atlasbeautyspa.com/product/beanie/,https://www.atlasbeautyspa.com/contact/,Contact,MA,01960,beauty_salon
Supercuts,"150 Bridge St UNIT M, Pelham, NH 03076",Beauty salon,Pelham,http://supercuts.com/,,,"
												Gift Cards ",http://supercuts.com/gift-cards.html,http://supercuts.com/#,contact number link,NH,03076,beauty_salon
Nicholas Day Spa & Salon,"203 Wolfs Ln, Pelham, NY 10803",Beauty salon,Pelham,http://nicholasdayspa.com/,,,Nicholas gift certificates available.  Learn More »,http://nicholasdayspa.com/about/gift-certificate/,http://nicholasdayspa.com/visit/make-an-appointment/,Contact,NY,10803,beauty_salon
Pelham Med Spa,"49 Atwood Rd, Pelham, NH 03076",Medical spa,Pelham,https://www.pelhammedspa.com/,,,"  

Get Gift Certificate
",https://www.pelhammedspa.com/,https://www.pelhammedspa.com/contact," Contact
",NH,03076,beauty_salon
Headliners Salon and Spa,"359 Merrow Rd, Tolland, CT 06084",Hair salon,Tolland,http://headlinersinc.com/,,,Gift Certificate,https://www.headlinersinc.com/product/gift-certificate/,https://www.headlinersinc.com/contact-us/,Contact Us,CT,06084,beauty_salon
Sears Hair Studio,"Southland Mall, 660 W Winton Ave, Hayward, CA 94545",Beauty salon,Hayward,https://www.purebeauty.com/,,,,http://www.purebeauty.com/gifts/,https://www.purebeauty.com/contact-us/,Contact Us,CA,94545,beauty_salon
Zen Salon & Spa,"12337 Illinois Rte 59, Plainfield, IL 60585",Beauty salon,Plainfield,https://www.zensalonandspa.com/,,,Gift Certificates,https://www.zensalonandspa.com/gift-certificates,https://www.zensalonandspa.com/contact,Contact,IL,60585,beauty_salon
Design 1 Salon Spa Plainfield,"4485 Plainfield Ave NE #201, Grand Rapids, MI 49525",Beauty salon,Grand Rapids,http://www.design1.com/,,,GIFT CARDS,https://www.design1.com/gift-cards/,https://www.design1.com/contact/,CONTACT,MI,49525,beauty_salon
Red Inc Salon & Color Workshop,"3450 Mendon Rd, Cumberland, RI 02864",Hair salon,Cumberland,http://redincsalon.com/,,,Gift Certificates,http://redincsalon.com/gift-certificates/,http://redincsalon.com/contact-us/,Contact/Location,RI,02864,beauty_salon
Jacqui's Design GroupSalon,"280 Broadway, Arlington, MA 02474",Beauty salon,Arlington,http://jacquisdesigngroup.com/,,,GIFTCARDS,https://jacquis.salontarget.com/egift/?guestonly=guestonly,https://www.jacquisdesigngroup.com/contact/,Contact,MA,02474,beauty_salon
Radiant Remedies,"25 S Park Ave, Plymouth, MA 02360",Medical spa,Plymouth,http://www.radiantremediesma.com/,,,Gift Cards,https://squareup.com/gift/F427EA2APGY2E/order,https://www.radiantremediesma.com/contact-us-plymouth/,Contact Us,MA,02360,beauty_salon
KK's Massage,"45 Samoset St, Plymouth, MA 02360",Massage therapist,Plymouth,http://www.kksmassage.com/,,,Gift Certificates,http://s.thegiftcardcafe.com/jTFNeC,https://kksmassage.com/contact-us/,Contact Us,MA,02360,beauty_salon
Esthetics by Evette,"115 Bradford St, Provincetown, MA 02657",Facial spa,Provincetown,https://www.estheticsbyevette.com/,,,"
GIFT CARDS
",https://www.estheticsbyevette.com/gift-cards,https://www.estheticsbyevette.com/find-contact,"
FIND US & BOOK
",MA,02657,beauty_salon
Namaste Spa,"14 Johnson St, Provincetown, MA 02657",Day spa,Provincetown,http://www.namastespaptown.com/,,,"
                Gift Certificates
              ",http://www.namastespaptown.com/gift-cards,http://www.namastespaptown.com/contact,"
                  Contact
                ",MA,02657,beauty_salon
Anointed Hands Massage & Spa Essentials,"950 N Main St Suite 202, Randolph, MA 02368",Massage therapist,Randolph,https://www.massagebook.com/,,,"
                                                Gift Certificates
                                            ",https://www.massagebook.com/#gift-certificates,https://www.massagebook.com/#contact,"
                                            Contact
                                        ",MA,02368,beauty_salon
Kaylash Extensions,"161 Ash St, Reading, MA 01867",Beauty salon,Reading,http://www.kaylashextensions.com/,,,"
              GIFT CARDS
            ",https://www.vagaro.com/kaylash1/gift-certificates,http://www.kaylashextensions.com/contact,"
                Contact
              ",MA,01867,beauty_salon
The Hair Mansion,"56 General Way #16, Reading, MA 01867",Hair salon,Reading,http://www.thehairmansion.com/,,,Gift Cards,https://app.salonrunner.com/customer/index.jsp?id=35533,http://www.thehairmansion.com/contact,Contact,MA,01867,beauty_salon
Skin Sense,"6801 Falls of Neuse Rd #130, Raleigh, NC 27615",Day spa,Raleigh,http://www.skinsense.com/,,,"
              Gift Cards
            ",https://skinsense.zenoti.com/webstoreNew/giftcards,,,NC,27615,beauty_salon
Slo Spa & Salon,"1589 Fall River Ave, Seekonk, MA 02771",Beauty salon,Seekonk,http://www.slospa.salon/,,,Gift cards,https://na0.meevo.com/EgiftApp/order?tenantId=101125,,,MA,02771,beauty_salon
Elite Skin Rejuvenation Day Spa,"65 Barney Ave, Rehoboth, MA 02769",Day spa,Rehoboth,http://www.eliteskindayspa.com/,,,Purchase a GiftCard,http://thegiftcardcafe.com/cart/index.php?storeID=1648,http://eliteskindayspa.com/contact/,Contact,MA,02769,beauty_salon
Epidermis & Co,"260 Revere St, Winthrop, MA 02152",Facial spa,Winthrop,http://epidermisandco.com/,,,GIFT CARDS,https://squareup.com/gift/EFYY1JS4DY4RM/order,https://www.epidermisandco.com,CONTACT,MA,02152,beauty_salon
circle square salon,"305 N Robinson St, Richmond, VA 23220",Beauty salon,Richmond,http://circlesquaresalon.com/,,,"
              Gift Cards
            ",https://www.vagaro.com/circlesquaresalon/gift-certificates,http://circlesquaresalon.com/contact,"
                Contact
              ",VA,23220,beauty_salon
Salon 33,"4901 Libbie Mill E Blvd #120, Richmond, VA 23230",Beauty salon,Richmond,http://www.salon33rva.com/,,,"
                Gift Cards
              ",http://www.salon33rva.com/gift-cards,http://www.salon33rva.com/contact,"
              Contact Us
            ",VA,23230,beauty_salon
Lavender Hill SpaSalon,"2709 US-17 Suite 1A, Richmond Hill, GA 31324",Beauty salon,Richmond Hill,http://www.lavenderhillspasalon.com/,,,Gift Cards,http://lavenderhillspasalon.com/gift-cards/,http://lavenderhillspasalon.com/contact/,Contact,GA,31324,beauty_salon
Hair Studio 52 & Day Spa,"2300 Superior Dr NW #3, Rochester, MN 55901",Beauty salon,Rochester,http://www.hairstudio52.com/,,,Gift Cards,https://app.yiftee.com/gifts/egift_and_gift_cards/hair-studio-52-2,https://hairstudio52.com/contact/,Contact,MN,55901,beauty_salon
Kimi K Salon & Spa,"313 S Main St, Rochester, MI 48307",Beauty salon,Rochester,http://www.kimiksalon.com/,,,Gift Certificate,https://kimiksalon.com/gift-certificate/,https://kimiksalon.com/contact/,Contact,MI,48307,beauty_salon
Nikki's Creative Hair Design,"804 Main St, Rochester, IN 46975",Beauty salon,Rochester,http://www.rochesterhair.com/,,,Click here to purchase a gift card,https://www.rochesterhair.com/shop,https://www.rochesterhair.com/contact,CONTACT US,IN,46975,beauty_salon
Tru On Park,"603 Park Ave, Rochester, NY 14607",Beauty salon,Rochester,http://www.truonpark.com/,,,Gift Cards,https://truonpark.com/gift-cards/,https://truonpark.com/contact/,Contact Us,NY,14607,beauty_salon
Douglas J Salon  Rochester Hills,"230 Adams Rd, Rochester Hills, MI 48309",Beauty salon,Rochester Hills,http://www.douglasj.com/,,,Gift Cards,https://douglasj.zenoti.com/webstoreNew/giftcards/04314462-e155-4594-9a56-d0faf707bbb7,https://douglasj.com/contact,Contact Us,MI,48309,beauty_salon
The Black Tie Spa,"62 Accord Park Dr, Norwell, MA 02061",Spa,Norwell,http://www.blacktiespa.com/,,,"
              GIFT CARDS
            ",http://www.blacktiespa.com/gift,http://www.blacktiespa.com/contact,"
              Contact
            ",MA,02061,beauty_salon
OASIS DAY SPA,"108 Pleasant St, South Weymouth, MA 02190",Day spa,South Weymouth,https://relaxatoasis.com/,,,Gift Cards,https://relaxatoasis.com/shops/,https://relaxatoasis.com/contact/,Contact,MA,02190,beauty_salon
Mindful Massageworks,"306 Union St Unit #5, Rockland, MA 02370",Massage therapist,Rockland,http://www.mindfulmassageworks.com/,,,Gift Card,https://www.mindfulmassageworks.com/gift-card,https://www.mindfulmassageworks.com/contact,About/Contact,MA,02370,beauty_salon
Rowes Wharf Health Club and Spa,"70 Rowes Wharf, Boston, MA 02110",Fitness center,Boston,https://www.bhh.com/,,,Gift cards,https://www.privatelabelcard.com/?siteid=wwwbhhcom,https://www.bhh.com/cdn-cgi/l/email-protection#52303a3a3a37333e263a313e273012303a3a7c313d3f,"
                            Contact us
                        ",MA,02110,beauty_salon
The Spa at Briar Barn Inn,"101 Main St, Rowley, MA 01969",Spa,Rowley,https://www.briarbarninn.com/,,, Open ,https://scontent-ort2-1.cdninstagram.com/v/t51.2885-15/82739932_182787973036801_1443862406832675108_n.jpg?_nc_cat=104&_nc_sid=8ae9d6&_nc_ohc=k-UyI5IS6soAX8_1-oo&_nc_ht=scontent-ort2-1.cdninstagram.com&oh=9ebfb5c0f7ec3ba646b7d6c93f455a05&oe=5EC35F29,https://www.briarbarninn.com/contact/,Contact,MA,01969,beauty_salon
Healing Hands Nail Salon,"105 Grove St, Peterborough, NH 03458",Nail salon,Peterborough,http://healinghandsnailsalon.com/,,,"



Gift Certificates
Click to order a gift certificate
",http://www.secure-booker.com/hhnailsalon/ShopOnline/GiftCertificate.aspx,//www.healinghandsnailsalon.com/contact,Contact Us,NH,03458,beauty_salon
European Esthetics,"36 Grove St UNIT 1, Peterborough, NH 03458",Facial spa,Peterborough,http://www.european-esthetics.com/,,,  Purchase Gift Certificates   ,http://www.secure-booker.com/europeanesthetics/ShopOnline/GiftCertificate.aspx,http://www.european-esthetics.com/contact-us.html,Contact Us,NH,03458,beauty_salon
Envogue Salon & Day Spa,"10 Page St, Danvers, MA 01923",Hair salon,Danvers,https://www.envoguespa.com/,,,Order Gift Certificates,https://www.thegiftcardcafe.com/cart/index.php?storeID=11200,,Contact & Policies,MA,01923,beauty_salon
Hair_by_Yesenia at Sola Salon,"400 Highland Ave Suite 13, Salem, MA 01970",Hair salon,Salem,http://www.hairbyyesenia.com/,,,"
                        Buy now
                      ",https://squareup.com/gift/CR8WXT5Y16695/order,,,MA,01970,beauty_salon
Roshambo Hair Studio,"283 Main St, New Hartford, CT 06057",Hair salon,New Hartford,http://roshambohairstudio.com/,,,"
				Gift Certificates
			",https://go.booker.com/#/location/ROSHAMBOHairStudio/buy/gift-certificate,,,CT,06057,beauty_salon
MasterCuts,"Bayshore Mall, 3300 Broadway St #420, Eureka, CA 95501",Beauty salon,Eureka,https://www.mastercuts.com/,,,Gift Cards ,https://www.mastercuts.com/gift-cards.html,https://www.mastercuts.com/about-signature-style/contact-us.html,Contact Us,CA,95501,beauty_salon
His' N Hers,"7026 Santa Teresa Blvd #20, San Jose, CA 95139",Beauty salon,San Jose,http://www.hisandhershairbar.com/,,,Gift Certificates,http://hisandhershairbar.com/gift-certificates/,http://hisandhershairbar.com/contact/,Contact,CA,95139,beauty_salon
Adamo Day Spa,"114 Front St, Scituate, MA 02066",Day spa,Scituate,http://adamodayspa.com/,,,Online Gift Certificates,http://adamodayspa.com/index.php/online-gift-certificates/,http://adamodayspa.com/index.php/about/contact-us/,Contact Us,MA,02066,beauty_salon
Vinette Day Spa,"344 Gannett Rd, Scituate, MA 02066",Day spa,Scituate,https://www.vinettedayspa.com/,,,"
				Giftcards
			",https://www.vinettedayspa.com/giftcards.html,https://www.vinettedayspa.com/contact.html,"
				Contact
			",MA,02066,beauty_salon
Rocco's Barber Shop,"73 Cole Pkwy, Scituate, MA 02066",Barber shop,Scituate,http://www.roccosbarbershop.com/,,,"

Purchase eGift Cards

",https://squareup.com/gift/95HHC8RZ7MS8H/order,,,MA,02066,beauty_salon
Hair Salon Near Me  GreenProse Salon,"461 Angell St, Providence, RI 02906",Beauty salon,Providence,https://greenprosesalon.com/,,,Gift Cards,http://book.gettimely.com/giftvoucher/overlay/greenprose?x#http%3A%2F%2Fgreenprose.gettimely.com%2F,https://www.greenprosesalon.com/contact-us/,Contact Us,RI,02906,beauty_salon
Luminous Salon and Spa,"133 Pitman St, Providence, RI 02906",Hair salon,Providence,http://www.luminoussalonandspa.com/,,,Gift Cards,https://www.luminoussalonandspa.com/gift-cards,https://www.luminoussalonandspa.com/contact-us-first-time-clients,Contact Us,RI,02906,beauty_salon
Whole You Beauty Studio,"444 Angell St, Providence, RI 02906",Hair salon,Providence,http://www.wholeyoubeautystudio.com/,,,"
              Gift Cards
            ",https://checkout.square.site/pay/5df5c067000a4ba789cc4fa7608699f9,http://www.wholeyoubeautystudio.com/contact-us,"
                Contact Us
              ",RI,02906,beauty_salon
Avalon Hair,"65 Crescent Dr, Pleasant Hill, CA 94523",Hair salon,Pleasant Hill,http://mysalonavalon.com/,,,Gift Certificates,http://stylenet.com/SalonAvalon/gift-certificates/,http://mysalonavalon.com/contact-us,Contact Us,CA,94523,beauty_salon
Title City Barbers,"11 South Ave, Natick, MA 01760",Barber shop,Natick,http://www.titlecitybarbers.com/,,,Buy Gift Card,https://online.getsquire.com/brands/title-city,http://www.titlecitybarbers.com/contact/,Contact,MA,01760,beauty_salon
The Foundation of Beauty an aesthetics boutique,"415 Boston Turnpike, Shrewsbury, MA 01545",Spa,Shrewsbury,http://www.thefoundationofbeauty.com/,,,"
                Gift Cards
              ",https://squareup.com/gift/48PPZMJ3E6B7N/order,,,MA,01545,beauty_salon
Grace Riley Aesthetics,"409 Shrewsbury St, Worcester, MA 01604",Beauty salon,Worcester,http://www.gracerileyaesthetics.com/,,,GIFT CARDS,https://squareup.com/gift/CGB37Z1BVRNSY/order,http://www.gracerileyaesthetics.com/contact,CONTACT,MA,01604,beauty_salon
Sage & Grace an Organic Salon,"g, 2940, 232 Chandler St, Worcester, MA 01609",Hair salon,Worcester,http://www.sageandgracesalon.com/,,,GIFT CARDS,https://squareup.com/gift/XX1X3XSTAQJMW/order,https://www.sageandgracesalon.com/contact,CONTACT US,MA,01609,beauty_salon
Studio Lush,"172 County St, Somerset, MA 02726",Spa,Somerset,http://studiolushspa.com/,,,GIFT CARDS,https://www.studiolushspa.com/gift-cards,https://www.studiolushspa.com,CONTACT,MA,02726,beauty_salon
Clementine Hair Studio,"358 Somerville Ave A, Somerville, MA 02143",Hair salon,Somerville,http://clementinehairstudio.com/,,,Gift Cards,http://clementinehairstudio.com/gift-cards,http://clementinehairstudio.com/contact,Contact,MA,02143,beauty_salon
Razors Barbershop & Shave,"308 Highland Ave, Somerville, MA 02144",Barber shop,Somerville,http://www.razorsbarbershop.com/,,,"
                  Gift Cards
                ",https://squareup.com/gift/AAZ37SVB39M9Q/order,http://www.razorsbarbershop.com/contact,"
                Contact
              ",MA,02144,beauty_salon
Julia's Skin Care & Spa,"21 South St, Westborough, MA 01581",Beauty salon,Westborough,http://www.skincarebyjulia.com/,,,Gift cards,http://www.skincarebyjulia.com/spa-deals/gift-cards,http://www.skincarebyjulia.com/contact-us,Contact Us,MA,01581,beauty_salon
People's Barbershop,"133 Townsend St, San Francisco, CA 94107",Barber shop,San Francisco,http://www.peoplesbarber.com/,,,Gift Cards,https://peoplesbarber.com/gift-cards/,https://peoplesbarber.com/contact/,Contact,CA,94107,beauty_salon
Nails 2000 Plus Spa,"7668 El Camino Real #103, Carlsbad, CA 92009",Beauty salon,Carlsbad,http://nails2000pluscarlsbad.com/,,,E-Gift Cards,http://nails2000plus.fastboywebhosts.com/giftcards,,,CA,92009,beauty_salon
frank spa studio,"90 Elm St, Stoneham, MA 02180",Hair removal service,Stoneham,http://www.earthwaterspa.com/,,,"
              gift cards
            ",https://www.vagaro.com/earthwaterspa/gift-certificates,http://www.earthwaterspa.com/contact,"
                contact
              ",MA,02180,beauty_salon
Pure Skin Care,"10 Porter St, Stoughton, MA 02072",Skin care clinic,Stoughton,http://www.pureskincaresalon.com/,,,"



					Gift Certificates
				

",https://www.pureskincaresalon.com/gift-certificates/,https://www.pureskincaresalon.com/contact/,"



					Contact
				

",MA,02072,beauty_salon
Xhale Massage & Relaxation,"23 Gleasondale Rd, Stow, MA 01775",Massage spa,Stow,http://www.xhalemassage.com/,,,GIFT CARD,https://clients.mindbodyonline.com/classic/ws?studioid=420091&stype=42,https://xhalemassage.com/contact/,"



				Contact Us
			

",MA,01775,beauty_salon
SkinGlo Esthetics * A Skin Care Salon for Men & Women,"3885 N Brookfield Rd, Brookfield, WI 53045",Beauty salon,Brookfield,http://www.nerolisalonspa.com/,,,Purchase A Gift Card,http://www.nerolisalonspa.com/gift-cards,,,WI,53045,beauty_salon
In Vogue Spa,"730 Boston Post Rd # 22, Sudbury, MA 01776",Day spa,Sudbury,http://www.invoguespa.com/,,,In Vogue Gift Cards ,https://www.invoguespa.com/product/gift-cards,https://www.invoguespa.com/contact/,CONTACT,MA,01776,beauty_salon
White Orchid  Top Rated Massage in Sudbury,"10 Concord Rd, Sudbury, MA 01776",Massage therapist,Sudbury,http://whiteorchidgroup.com/,,,"
",http://whiteorchidgroup.com/giftcertificates.html,http://whiteorchidgroup.com/contactus.html,"
",MA,01776,beauty_salon
Elements Hot Tub Spa,"373 Main St, Amherst, MA 01002",Spa,Amherst,https://www.elementshottubspa.com/,,,Gift Cards,https://go.booker.com/location/ElementsHotTubSpa/buy/gift-certificate,,,MA,01002,beauty_salon
Bikram's Yoga College of India,"478 Santa Clara Ave #300, Oakland, CA 94610",Yoga studio,Oakland,http://www.oaklandyoga.com/,,,Buy a Gift Card,http://clients.mindbodyonline.com/ws.asp?studioid=454&stype=42,,,CA,94610,beauty_salon
TIFFANY'S MEN  Aveda Men Salon,"77 Maple Ave #3519, Barrington, RI 02806",Beauty salon,Barrington,http://tiffanyssalonandspa.com/,,,BOOK ONLINE/GIFT CARDS,http://tiffanyssalonandspa.com/book-online/,https://tiffanyssalonandspa.com/contact-us/,Contact Us,RI,02806,beauty_salon
All Things Skin Organic Skincare By Natasha Dias,"1251 Grand Army of the Republic Hwy, Swansea, MA 02777",Day spa,Swansea,http://www.allthingsskinorganic.net/,,,Gift Card,https://www.allthingsskinorganic.net/gift-card,https://www.allthingsskinorganic.net,Contact Us,MA,02777,beauty_salon
Vinyl Hair Studio,"1777 Main St Suite #16, Tewksbury, MA 01876",Hair salon,Tewksbury,https://www.facebook.com/,,,,https://www.facebook.com/vinylhairstudio/photos/pb.105034287509951.-2207520000../212082106805168/?type=3&eid=ARBSAa0_Fi7N7b2upoBlvOr3KiSg8cCIoA-zqkP29_Nql9WFlytM0SkjivxUQoUkDeSTGgRid0MoVYj9,,,MA,01876,beauty_salon
Balance Spa,"1788 Main St, Tewksbury, MA 01876",Spa,Tewksbury,http://www.balancespa.com/,,,,https://balancespa.boomtime.com/lgift,http://www.balancespa.com/contact,"


CONTACT

",MA,01876,beauty_salon
Oasis Day Spa,"2690 S White Rd #20, San Jose, CA 95148",Day spa,San Jose,http://www.secretoasisdayspa.com/,,,Gift Certificates,https://secretoasisdayspa.com/certificates/,https://secretoasisdayspa.com/contact/,Contact,CA,95148,beauty_salon
Solace Wellness Center & MedSpa,"1201 Main St building b2, Tewksbury, MA 01876",Spa,Tewksbury,http://www.foundsolace.com/,,,GIFT CERTIFICATES,https://foundsolace.com/gift-certificates/,https://foundsolace.com/contact-us/,CONTACT US,MA,01876,beauty_salon
Elle Nails,"23 Fieldstone Commons D, Tolland, CT 06084",Nail salon,Tolland,https://ellenails.wordpress.com/,,,,https://ellenails.files.wordpress.com/2012/04/tuscaloosa-photography-gift-certificates-available.jpg,,,CT,06084,beauty_salon
Contours Hair & Spa,"2 Bestor Ln, Bloomfield, CT 06002",Beauty salon,Bloomfield,http://contourshairandspa.com/,,,Gift Cards,https://contours.boomtime.com/lgift,https://contourshairandspa.com/contact/,Contact,CT,06002,beauty_salon
Absolutely Nail & Spa in Connecticut,"295 Hartford Turnpike, Vernon, CT 06066",Nail salon,Vernon,https://absolutelynailspa.com/,,,Gift Card,https://absolutelynailspa.com/page/gift-card,https://absolutelynailspa.com/contact-us,Contact Us,CT,06066,beauty_salon
Happy Nails,"48 Main St, Stafford Springs, CT 06076",Nail salon,Stafford Springs,http://www.happynailshaven.com/,,,,https://www.happynailshaven.com,http://www.happynailshaven.com/mailto:contact@happynailshaven.com?subject=Request for information,contact@happynailshaven.com,CT,06076,beauty_salon
A Touch Of Bliss Organic Spa,"86-88, Park Rd, West Hartford, CT 06119",Day spa,West Hartford,http://www.atouchofblissorganicspa.com/,,,Gift Certificates,https://atouchofblissorganicspa.com/appointments/#buy,https://atouchofblissorganicspa.com/contact/,Contact,CT,06119,beauty_salon
Matibo's Salon Inc,"12 Dracut Rd, Hudson, NH 03051",Hair salon,Hudson,http://www.matibossalon.com/,,,,https://matibossalon.com/gift-cards/,https://matibossalon.com/contact-us/,Contact Us,NH,03051,beauty_salon
Green Envy Salon & Spa,"381 Main St, Nashua, NH 03060",Beauty salon,Nashua,http://www.greenenvysalonandspa.com/,,,>>>> Gift cards now available for purchase online! Click/tap here for more info... <<<<,https://greenenvysalonandspa.salontarget.com/egift/?guestonly=guestonly,https://greenenvysalonandspa.com/contact-nashua-salon-spa/,Contact,NH,03060,beauty_salon
HairAHolics,"43 Lowell Rd, Hudson, NH 03051",Beauty salon,Hudson,http://www.hairaholicsnh.com/,,,Gift Cards,http://www.hairaholicsnh.com/gift-cards.html,http://www.hairaholicsnh.com/contact.html,Contact,NH,03051,beauty_salon
Steve's Barber Shop,"1707 Webster St, Oakland, CA 94612",Barber shop,Oakland,http://www.daxlees.com/,,,"

",https://www.instagram.com/p/B-kaCwWhyH7/,https://www.instagram.com/p/B8zvJSMBTWq/,"

",CA,94612,beauty_salon
serenity in the city salon and spa,"373 Main St, Stoneham, MA 02180",Hair salon,Stoneham,http://www.serenityinthecitymedford.com/,,,"Gift Cards
",https://www.egiftcardexpress.com/live/6/,https://www.serenityinthecitymedford.com/index.php/contacts,"Contact
",MA,02180,beauty_salon
Bella Mano Day Spa,"607 North Ave #14, Wakefield, MA 01880",Day spa,Wakefield,http://www.bellamanodayspa.com/,,,Gift Cards,https://bellamano.boomtime.com/lgift,http://www.bellamanodayspa.com/offers-and-contact,Specials & Contact,MA,01880,beauty_salon
Glo Tanning,"3570 Alameda de las Pulgas, Menlo Park, CA 94025",Tanning salon,Menlo Park,http://www.sambaglow.com/,,,Gift Card,https://sambaglow.com/gift/,https://sambaglow.com/contact/,contact us,CA,94025,beauty_salon
3D Medical Aesthetics,"500 Victory Rd, Quincy, MA 02171",Medical spa,Quincy,https://www.3dmedicalaesthetics.com/,,,"
                  Gift Cards
                ",https://www.3dmedicalaesthetics.com/#giftcards,https://www.3dmedicalaesthetics.com/contactus,Contact Us,MA,02171,beauty_salon
IN Sangee MRRX 07,"1399 Main St, Waltham, MA 02451",Beauty salon,Waltham,http://www.flowers.com/,,,eGift Cards,https://1800flowers.cashstar.com/store?ref=footer,http://www.flowers.com/contact-us,Contact Us,MA,02451,beauty_salon
The Body Mechanist,"45 Main St STE C1, Wareham, MA 02571",Sports massage therapist,Wareham,http://www.thebodymechanist.com/,,,,https://squareup.com/gift/A2B4S2B55JBJQ/order,http://www.thebodymechanist.com/contact.html,Contact Me,MA,02571,beauty_salon
Salon Evolution,"112 State Rd, Sagamore Beach, MA 02562",Beauty salon,Sagamore Beach,http://www.thesalonevolution.com/,,,Contact Us Gift Cards,http://www.thesalonevolution.com/contact-us-gift-cards.html,http://www.thesalonevolution.com/contact-us-gift-cards.html,Contact Us Gift Cards,MA,02562,beauty_salon
Glow Face & Body Spa,"585 Main St, Warren, RI 02885",Beauty salon,Warren,http://www.glowri.com/,,,Gift Certificates,http://www.glowri.com/id54.html,,,RI,02885,beauty_salon
The Arthur Company Salon,"3566 Post Rd, Warwick, RI 02886",Beauty salon,Warwick,http://www.thearthurcompanysalon.com/,,,Gift Cards,http://thearthurcompanysalon.com/gift-cards/,http://thearthurcompanysalon.com/contact-us/,Contact,RI,02886,beauty_salon
Blue Sky Spaworks,"80 Lambert Lind Hwy # 12, Warwick, RI 02886",Hair salon,Warwick,http://www.blueskyspaworks.com/,,,Purchase Gift Certificates,https://blueskyspaworks.boomtime.com/lgift,,,RI,02886,beauty_salon
Michael K Galvin Beauty & Business Academy,"379 Atwood Ave, Cranston, RI 02920",Hair salon,Cranston,http://www.mkgacademy.edu/,,,Gift Cards,http://www.mkgacademy.edu/gift-cards.html,http://www.mkgacademy.edu/contact-us.html,"

contact us

",RI,02920,beauty_salon
Salon Euphoria,"333 Washington St #221, Boston, MA 02108",Hair salon,Boston,http://www.saloneuphoria.com/,,,Gift Cards,https://squareup.com/gift/4387D3G6WXB70/order,http://www.saloneuphoria.com/tel:6177427951,(617) 742-7951,MA,02108,beauty_salon
SkinHealth Centers Wellesley Med Spa,"251 Washington St, Wellesley, MA 02481",Medical spa,Wellesley,http://www.skinhealthcenters.com/,,,Purchase Instant Gift Certificates,https://skinhealth.boomtime.com/lgift,https://www.skinhealthcenters.com/contact-us,Contact,MA,02481,beauty_salon
Alainn,"1 Louise St, Watertown, MA 02472",Hair salon,Watertown,http://alainn.org/,,,"E Gift Cards




",http://squareup.com/gift/S84XKZWPF825S/order,https://www.alainn.org/contact-us,Contact Info,MA,02472,beauty_salon
Renew Bodywork Center For Wellness,"69 Howard St, Watertown, MA 02472",Massage therapist,Watertown,http://www.renewbodywork.net/,,,CrossFit Cityline - $10.00 off all servicesCentral Rock - $10.00 off all services ,http://www.renewbodywork.net/gift-certificates.html,http://www.renewbodywork.net/contact.html,"
				Contact
			",MA,02472,beauty_salon
UniQlaser Center Watertown,"65 Watertown St, Watertown, MA 02472",Medical spa,Watertown,https://www.uniqlaser.com/,,,"
								Giftcards 
							",https://uniqlaser.zenoti.com/webstoreNew/giftcards/4ea2be0f-ebab-471a-bae0-5af15a397fb8,https://www.uniqlaser.com/contact-us/,"
								Contact Us
							",MA,02472,beauty_salon
The Littlest Spa,"45 S Main St, Natick, MA 01760",Day spa,Natick,http://www.thelittlestspa.com/,,,Instant Gift Certificate,https://thelittlestspa.boomtime.com/lgift,http://www.thelittlestspa.com/tel:5086532922,(508) 653-2922,MA,01760,beauty_salon
Pinky & Toes Nail Studio,"33 Boston Turnpike, Shrewsbury, MA 01545",Nail salon,Shrewsbury,http://www.pinkyandtoes.com/,,,Gift Cards,http://www.pinkyandtoes.com/giftcards.html,http://www.pinkyandtoes.com/contactus.html,Contact us,MA,01545,beauty_salon
ANEWU Medical Spa,"30 Daniel Webster Hwy #8, Merrimack, NH 03054",Laser hair removal service,Merrimack,http://www.anewumedicalspa.com/,,,Gift Cards,https://www.anewumedicalspa.com/product/gift-card/,https://www.anewumedicalspa.com/contact-us/,Contact Us,NH,03054,beauty_salon
Barber Walter's,"576b Washington St, Wellesley, MA 02482",Barber shop,Wellesley,http://www.barberwalters.com/,,,eGift Cards Available - Click here! ,https://squareup.com/gift/GRHGJM91T2CXP/order,https://www.barberwalters.com/contact-us,CONTACT,MA,02482,beauty_salon
Ciao Bella Skincare,"102 Bridge Rd, Salisbury, MA 01952",Beauty salon,Salisbury,http://ciaobellaskincare.com/,,,Gift Certificates,http://ciaobellaskincare.com/giftcertificates.php,http://ciaobellaskincare.com/contact/,Contact,MA,01952,beauty_salon
RISE Beauty Studio Co,"316 Newbury St 4th floor, Boston, MA 02115",Beauty salon,Boston,http://www.risebeautystudio.com/,,,Buy A Gift Certificate,https://www.vagaro.com/risebeautystudioco1/gift-certificates,http://risebeautystudio.com/contact/,CONTACT,MA,02115,beauty_salon
Mind Body & Skin,"117 River St, West Springfield, MA 01089",Day spa,West Springfield,http://www.mindbodyandskin.com/,,,"  

Buy a Gift Certificate
",http://www.secure-booker.com/mindbodyskin/ShippableGiftCard.aspx,,,MA,01089,beauty_salon
Kripalu Center For Yoga & Health,"57 Interlaken Rd, Stockbridge, MA 01262",Yoga studio,Stockbridge,https://kripalu.org/,,,Gift Cards,https://kripalu.org/gift-card,https://kripalu.org/about/kripalu/contact-us,Contact Us,MA,01262,beauty_salon
all about you,"23 Village Inn Rd, Westminster, MA 01473",Massage therapist,Westminster,http://www.allaboutyousolutions.com/,,,Purchase a Gift Card,https://www.allaboutyousolutions.com/shop,,,MA,01473,beauty_salon
ChicMed Laser & Esthetic Center,"251 Moody St, Waltham, MA 02453",Medical spa,Waltham,https://chicmed.com/,,,Gift Cards,https://www.chicmed.com/membership/gift-cards/,https://www.chicmed.com/contact-us/,Contact Us,MA,02453,beauty_salon
Sacred Lotus,"151 State Rd, Westport, MA 02790",Spa,Westport,http://www.sacredlotusofwestport.com/,,,Purchase Gift Card,https://www.vagaro.com/sacredlotusofwestport/gift-certificates,https://www.sacredlotusofwestport.com,Contact,MA,02790,beauty_salon
Lip Lab By BITE,"2132 Fillmore St, San Francisco, CA 94115",Cosmetics store,San Francisco,https://www.bitebeauty.com/,,,"


							
											Gift Cards
										

Gift Cards
",https://bitebeauty.cardfoundry.com/giftcards.php,,,CA,94115,beauty_salon
Salon Vivace Williamsburg,"5116 Center St, Williamsburg, VA 23188",Beauty salon,Williamsburg,http://www.salonvivace.com/,,,Gift Certificates,https://www.salonvivace.com/gc_buy.php,https://www.salonvivace.com/locations/,Locations | Services | Prices | Contact,VA,23188,beauty_salon
Shobha Brooklyn,"76 N 4th St, Brooklyn, NY 11249",Hair removal service,Brooklyn,http://www.myshobha.com/,,,Gift Cards,https://shobha.zenoti.com/webstoreNew/giftcards/fc4436d1-899f-49d6-8412-b0e71a1791fe,https://www.myshobha.com/contact-us/,Contact Us,NY,11249,beauty_salon
Rob Peetoom Williamsburg,"101 N 10th St, Brooklyn, NY 11249",Hair salon,Brooklyn,https://www.robpeetoom.nl/,,,Giftcard,https://www.robpeetoom.nl/#giftcard,https://www.robpeetoom.nl/NL/contact,Contact,NY,11249,beauty_salon
Salone Estetica,"6 Thompson St, Winchester, MA 01890",Hair salon,Winchester,http://www.saloneestetica.com/,,,,http://www.saloneestetica.com/gift-cards/,https://saloneestetica.com/about-us/contact/,Contact,MA,01890,beauty_salon
Salon Rosina,"601 Main St, Winchester, MA 01890",Hair salon,Winchester,http://www.salonrosina.com/,,,Gift Cards,https://salonrosina.com/product/gift-cards/,https://salonrosina.com/contact-us/,Contact Us,MA,01890,beauty_salon
Le Mani Day Spa,"63 Shore Rd #21, Winchester, MA 01890",Day spa,Winchester,http://www.lemanidayspa.com/,,,Spa Gift Cards,//www.secure-booker.com/lemanidayspa/ShopOnline/GiftCards.aspx,,,MA,01890,beauty_salon
Anupama Spa and Salon,"80 Winn St, Woburn, MA 01801",Beauty salon,Woburn,http://anupamaspaandsalon.com/,,,Order eGift Card,https://squareup.com/gift/AWQK2QSJ80SST/order,https://www.anupamaspaandsalon.com/contact,CONTACT,MA,01801,beauty_salon
Thesis Beauty,"48 Conwell Ave, Somerville, MA 02144",Beauty salon,Somerville,http://thesisbeauty.com/,,,Gift Cards💌,http://thesisbeauty.com/products/gift-card,http://thesisbeauty.com/pages/contact-us,Contact Us,MA,02144,beauty_salon
Philip Ciampa Salon & Day Spa,"395 Main St, Wakefield, MA 01880",Beauty salon,Wakefield,https://www.philipciampa.com/,,,"


ORDER A GIFT CARD


",https://www.philipciampa.com/shop,https://visitor.r20.constantcontact.com/d.jsp?llr=g9uq6geab&p=oi&m=1104038875974&sit=46dokgtfb&f=eeeb6229-a009-470f-bc2a-59c56085dde6,,MA,01880,beauty_salon
Mane Attraction Salon,"103 Carl St, San Francisco, CA 94117",Beauty salon,San Francisco,http://maneattractionsf.com/,,,"
            Gift Cards
          ",http://maneattractionsf.com/giftcards,http://maneattractionsf.com/contact,"
            Contact
          ",CA,94117,beauty_salon
Parisian Salon & Day Spa,"9 Berlin Rd, Cromwell, CT 06416",Beauty salon,Cromwell,http://parisiandayspa.net/,,,Gift Cards,https://www.parisiandayspa.net/gift-certificates/,https://www.parisiandayspa.net/contact/,Contact,CT,06416,beauty_salon
Elements of Design,"501 Evergreen Way Suite 501, South Windsor, CT 06074",Hair salon,South Windsor,http://www.elementsdesignsalon.com/,,,Gift Cards,https://go.booker.com/location/ElementsofDesign/buy/gift-certificate,https://www.elementsdesignsalon.com/contact-us/,Contact Us,CT,06074,beauty_salon
Cloud Nine Therapeutic Massage,"217 Lincoln St, Winthrop, MA 02152",Massage therapist,Winthrop,http://cloudnineeast.massagetherapy.com/,,,Gift Certificates,http://cloudnineeast.massagetherapy.com/gift-certificates,http://cloudnineeast.massagetherapy.com/contact-information,Contact Information,MA,02152,beauty_salon
CutSplice Seaport,"25 Drydock Ave, Boston, MA 02110",Hair salon,Boston,http://www.cut-splice.com/,,,"

",https://images.squarespace-cdn.com/content/v1/5372c7fae4b05ff1a0844592/1585710779669-M2XNLO7ED4KDFA64IIVC/ke17ZwdGBToddI8pDm48kMoKWkdr-TcIQRF6J0wkTxxZw-zPPgdn4jUwVcJE1ZvWQUxwkmyExglNqGp0IvTJZUJFbgE-7XRK3dMEBRBhUpxT2F2HAFAhBprvYBrVwU20cKSY4s7ZysfyZio4z0LnFqUXxcHoBc25v3yEOvKjMgc/image-asset.jpeg,http://www.cut-splice.com/contact-us,"
            Contact Us
          ",MA,02110,beauty_salon
Cherry Nails,"131 Highland St A, Worcester, MA 01609",Nail salon,Worcester,http://thecherrynails.com/,,,E-Gift,http://thecherrynails.com/gift-card,http://thecherrynails.com/contactus,Contact Us,MA,01609,beauty_salon
