name,address,type,place,website_url,menu_url,description,gift_card_txt,gift_card_website,contact_website,contact_txt,searched,state,zipcode,store_type
JC Fast Tailors & Dry cleaner,"1540 Bedford St, Abington, MA 02351",Clothing alteration service,Abington,http://www.jctailors.com/,,,,,https://www.jctailors.com/contact-us,Contact Us,1,MA,02351,clothing_store
Gould's Clothing,"Gould's Plaza, 260 Great Rd, Acton, MA 01720",Tuxedo shop,Acton,http://www.gouldsclothing.com/,,,,,http://www.gouldsclothing.com/contact.html,Contact Us,1,MA,01720,clothing_store
Cornerstone Thrift Shop Acton,"12 Concord Rd, Acton, MA 01720",Thrift store,Acton,https://actonc.org/,,,,,https://actonc.org/contact_us,Contact Us,1,MA,01720,clothing_store
Circa Vintage Wear,"204 Court St, New Bedford, MA 02740",Vintage clothing store,New Bedford,http://www.circavintage1986.com/,,,,,http://www.circavintage1986.com/contact,Contact,1,MA,02740,clothing_store
Baby Boudoir Bargain Outlet,"58 Conduit St, New Bedford, MA 02745",Baby store,New Bedford,https://www.babystorenewbedford.com/,,,,,https://www.babystorenewbedford.com/contactus/,contact,1,MA,02745,clothing_store
MacKimmie Co,"69 Church St, Lenox, MA 01240",Clothing store,Lenox,http://www.mackimmieco.com/,,,,,http://www.mackimmieco.com/contact-us,Contact Us,1,MA,01240,clothing_store
Steilmann European Fashion,"28 Walker St, Lenox, MA 01240",Clothing store,Lenox,https://steilmannusa.wordpress.com/,,,,,https://steilmannusa.wordpress.com/contact/,Contact,1,MA,01240,clothing_store
J J Fashions,"336 N Westfield St, Feeding Hills, MA 01030",Clothing store,Feeding Hills,http://jjssoftserve.com/,,,,,http://jjssoftserve.com/tel:4132099832,(413) 209-9832,1,MA,01030,clothing_store
Massachusetts Fire Technologies Inc,"57 York St, West Springfield, MA 01089",Formal wear store,West Springfield,http://www.hibu.com/,,,,,http://www.hibu.com/client-support,"





Client Support
",1,MA,01089,clothing_store
L & A Fine Men's Shop,"1394 Main St, Springfield, MA 01103",Men's clothing store,Springfield,http://lafinemensshop.com/,,,,,http://lafinemensshop.com/#contact,CONTACT,1,MA,01103,clothing_store
Trendsetters Boutique,"85 Main St, Amesbury, MA 01913",Boutique,Amesbury,http://www.trendsettersboutiquema.com/,,,,,https://trendsettersboutiquema.wordpress.com/contact/,Contact,1,MA,01913,clothing_store
Sew Sweet,"25 Macy St, Amesbury, MA 01913",Tailor,Amesbury,http://sewsweettailoring.com/,,,,,https://www.sewsweettailoring.com,CONTACT US,1,MA,01913,clothing_store
Andara Clothing,"50 Water St #303, Newburyport, MA 01950",Women's clothing store,Newburyport,https://www.andaraclothing.com/,,,,,https://www.andaraclothing.com/pages/contact-us,Contact,1,MA,01950,clothing_store
wild child tie dye,"33 Amherst Rd, Pelham, MA 01002",Clothing store,Pelham,http://www.wildchildtiedyes.com/,,,,,http://www.wildchildtiedyes.com/../contact.php?P=B:contact,Contact Us,1,MA,01002,clothing_store
Tulle Bridal,"342 N Main St, Andover, MA 01810",Bridal shop,Andover,http://www.tullebridals.com/,,"Upscale bridal shop carrying designer gowns, dresses, veils & accessories in a bright, lofty space.",,,http://www.tullebridals.com/common/contact-us,Contact Us,1,MA,01810,clothing_store
Brides Across America Outlet,"342 N Main St #100, Andover, MA 01810",Bridal shop,Andover,http://retail.bridesacrossamerica.com/,,,,,http://retail.bridesacrossamerica.com/common/contact,Contact Us,1,MA,01810,clothing_store
Chhabra Bridal Wear,"2400 Massachusetts Ave, Cambridge, MA 02140",Clothing store,Cambridge,http://www.chhabrabridal.com/,,"Imported Indian clothing for men & women, including wedding wear, plus jewelry & accessories.",,,http://www.chhabrabridal.com/contact.html,Contact Us,1,MA,02140,clothing_store
Drinkwater's Cambridge,"2067 Massachusetts Ave, Cambridge, MA 02140",Men's clothing store,Cambridge,http://www.drinkwaterscambridge.com/,,"This boutique offers stylish men's suits & casualwear, plus customized items with high-end fabrics.",,,http://www.drinkwaterscambridge.com/contact,"
            Contact
          ",1,MA,02140,clothing_store
Evans On the Common,"18 Highland St, Townsend, MA 01469",Clothing store,Townsend,http://www.evansonthecommon.com/,,"Retailer in an 1800s schoolhouse offering men's, women's & kids' shoes, outdoor gear, toys & gifts.",,,https://www.evansonthecommon.com/contact,CONTACT,1,MA,01469,clothing_store
Six 20 Six Fashion Consignment,"626 Main St, Clinton, MA 01510",Clothing store,Clinton,http://www.six20six.com/,,,,,http://www.six20six.com/contact,Contact,1,MA,01510,clothing_store
Anne's Bridal & Tux,"312 Central St, Gardner, MA 01440",Bridal shop,Gardner,http://annesbridalandtux.com/,,"Bridal salon with many wedding & bridesmaid gowns, plus elegant dresses for proms & quinceañeras.",,,http://annesbridalandtux.com/contact,Contact,1,MA,01440,clothing_store
Moldavite Dreams,"176 Main St, Greenfield, MA 01301",Clothing store,Greenfield,http://moldavitedreams.com/,,,,,https://moldavitedreams.com/contact/,Contact & Directions,1,MA,01301,clothing_store
NSFCONCEPTS,"84 S Franklin St, Holbrook, MA 02343",Clothing store,Holbrook,http://nsfconcepts.net/,,,,,http://nsfconcepts.net/nsf_concepts/Stores/Contact,Contact Us,1,MA,02343,clothing_store
Windward Trading Group,"77 SPARK St, Brockton, MA 02302",Clothing wholesaler,Brockton,http://windwardtrading.com/,,,,,http://windwardtrading.com/contact-us/,Contact Us,1,MA,02302,clothing_store
Upscale Resale Gallery,"386 Lindelof Ave, Stoughton, MA 02072",Clothing store,Stoughton,http://upscaleresalegallery.net/,,,,,http://upscaleresalegallery.net/contact.htm,Contact Us,1,MA,02072,clothing_store
Sunrise Boutique,"62 High St, Clinton, MA 01510",Women's clothing store,Clinton,http://www.sunriseboutique.com/,,,,,https://www.sunriseboutique.com/contact,CONTACT,1,MA,01510,clothing_store
Red Rover Clothing Co,"9 Vernon St # 1, Framingham, MA 01701",Clothing store,Framingham,https://redroverclothing.com/,,,,,https://redroverclothing.com/contact/,Contact,1,MA,01701,clothing_store
Country Soul,"605 Main St, Hyannis, MA 02601",Western apparel store,Hyannis,http://countrysoulclothing.com/,,,,,http://countrysoulclothing.com/pages/where-to-find-us,"
              WHERE TO FIND US
            ",1,MA,02601,clothing_store
Cape Cod Sweat & Tee Outlet,"500 Main St, Hyannis, MA 02601",Clothing store,Hyannis,http://www.hyannismainstreet.com/,,,,,http://www.hyannismainstreet.com/contact-us/,Contact Us,1,MA,02601,clothing_store
Plush & Plunder,"605 Main St, Hyannis, MA 02601",Vintage clothing store,Hyannis,http://www.plushandplunder.com/,,,,,http://www.plushandplunder.com/contact-us,Contact Us,1,MA,02601,clothing_store
Nat Falk,"64 Main St, Ware, MA 01082",Men's clothing store,Ware,http://www.natfalkmensclothing.com/,,,,,https://www.natfalkmensclothing.com/contact,CONTACT,1,MA,01082,clothing_store
Honey Crisp Clothing,"94 John Gilbert Rd, West Brookfield, MA 01585",Clothing store,West Brookfield,http://www.honeycrispclothing.com/,,,,,https://www.honeycrispclothing.com/contact-us,Contact Us,1,MA,01585,clothing_store
Herlihy's,"76 Maple St, Florence, MA 01062",Women's clothing store,Florence,http://herlihysclothing.com/,,,,,http://herlihysclothing.com/mailto:webmaster@herlihysclothing.com,Contact your hosting provider,1,MA,01062,clothing_store
Sassy Pants Vintage and Used Clothing,"2 Conz St # 42, Northampton, MA 01060",Vintage clothing store,Northampton,https://sassypantsvintage.shop/,,,,,https://sassypantsvintage.shop/contact,Contact,1,MA,01060,clothing_store
Grime,"356 Shrewsbury St, Worcester, MA 01604",Thrift store,Worcester,http://grimeworcester.com/,,,,,http://grimeworcester.com/contact,CONTACT,1,MA,01604,clothing_store
Alexis Bridal,"413 Chandler St, Worcester, MA 01602",Bridal shop,Worcester,http://alexisbridalformals.com/,,"Local salon with designer wedding gowns & other special-occasion fashions, plus on-site alterations.",,,http://alexisbridalformals.com/contact," Contact Us

",1,MA,01602,clothing_store
Graceful Threads,"PO Box 380, Otis, MA 01253",Women's clothing store,Otis,http://gracefulthreads.com/,,,,,http://gracefulthreads.com/crm.asp?action=contactus,Contact Us,1,MA,01253,clothing_store
The Yoga Shop Ludlow & lululemon,"185 Miller St, Ludlow, MA 01056",Clothing store,Ludlow,http://www.theyogashop.us/,,,,,https://theyogashop.us/contact-us/,Contact,1,MA,01056,clothing_store
Spallone & Son,"90 Main St, Milford, MA 01757",Men's clothing store,Milford,http://spalloneandson.webs.com/,,,,,https://www.spalloneandson.com/contact-us,Contact Us,1,MA,01757,clothing_store
Custom Apparel Inc,"135 Main St, Medway, MA 02053",Sportswear store,Medway,http://www.customapparelcai.com/,,,,,http://www.customapparelcai.com/contact,"
Contact Us
",1,MA,02053,clothing_store
Allegria Bridal,"285 Belmont St, Belmont, MA 02478",Bridal shop,Belmont,http://allegriabridal.com/,,High-end wedding-dress specialist offering bridal & bridesmaid gowns from renowned designers.,,,http://allegriabridal.com/style-search-contact-us.html,Style Search,1,MA,02478,clothing_store
Suphi Furs,"694 Mt Auburn St, Watertown, MA 02472",Women's clothing store,Watertown,https://www.suphifurs.com/,,"Veteran retailer of elegant fur coats & accessories, also offering design & restyling services.",,,https://www.suphifurs.com/contact," Contact

",1,MA,02472,clothing_store
Myron McLane Farrier Aprons,"49 Winter St, Somerset, MA 02726",Work clothes store,Somerset,http://myronmclaneaprons.com/,,,,,http://myronmclaneaprons.com/contact-us.html, Contact Us ,1,MA,02726,clothing_store
Alimah's Closet,"590 Berkley St, Berkley, MA 02779",Clothing store,Berkley,https://www.ancientartstudios.com/,,,,,https://www.ancientartstudios.com/contact/,CONTACT,1,MA,02779,clothing_store
Head for the Hills,"71 Kiana Way, Taunton, MA 02780",Clothing store,Taunton,http://www.hfthapparels.com/,,,,,http://www.hfthapparels.com/contact-us,"

                Contact Us
            
",1,MA,02780,clothing_store
Boomerang,"12 Elliot St #3208, Brattleboro, VT 05301",Clothing store,Brattleboro,http://www.boomerangvermont.com/,,"Colorful store selling a curated selection of new, used & vintage clothing for men & women.",,,https://www.boomerangvermont.com/location,FIND US,1,VT,05301,clothing_store
Morning Glorious Vintage,"484 Williams St #100, Brattleboro, VT 05301",Vintage clothing store,Brattleboro,http://www.morninggloriousvintage.com/,,,,,http://www.morninggloriousvintage.com/contact.html,"
								Contact
							",1,VT,05301,clothing_store
Port,"202 Main St, Northampton, MA 01060",Clothing store,Northampton,http://www.portnorthampton.com/,,,,,http://www.portnorthampton.com/contact,Contact,1,MA,01060,clothing_store
Linda's Closet,"43 Cypress St, Keene, NH 03431",Clothing store,Keene,http://www.lindascloset.org/,,,,,https://lindascloset.org/contact,Contact,1,NH,03431,clothing_store
Achieve O2,"59 Park St #3, Beverly, MA 01915",Clothing store,Beverly,https://achieve-o2.com/,,,,,https://achieve-o2.com/contact-us.html,Contact Us,1,MA,01915,clothing_store
TIEN 2,"20 Lothrop St, Beverly, MA 01915",Boutique,Beverly,http://www.tien2.com/,,,,,http://www.tien2.com/contact.html,"
								Contact
							",1,MA,01915,clothing_store
Beverly Bootstraps Thrift Shop,"198 Rantoul St, Beverly, MA 01915",Thrift store,Beverly,http://www.beverlybootstraps.org/,,,,,https://www.beverlybootstraps.org/about-us/#contact,Contact Us,1,MA,01915,clothing_store
J Mode,"17 Front St, Salem, MA 01970",Women's clothing store,Salem,http://www.jmodefashions.com/,,,,,http://www.jmodefashions.com/contactlocation.html,"
				CONTACT/LOCATION
			",1,MA,01970,clothing_store
Van Heusen,"1 Outlet Blvd, Wrentham, MA 02093",Clothing store,Wrentham,https://vanheusen.com/,,,,,https://help.vanheusen.partnerbrands.com/s/brand-form,Contact Us,1,MA,02093,clothing_store
Elie Tahari,"1 Outlet Blvd #275, Wrentham, MA 02093",Women's clothing store,Wrentham,https://www.elietahari.com/,,,,,https://www.elietahari.com/pages/contact-us,CONTACT US,1,MA,02093,clothing_store
K's Kloset,"239 Otis Stage Rd, Blandford, MA 01008",Clothing store,Blandford,http://www.kskloset.org/,,,,,http://www.kskloset.org/contact.html, Contact Us ,1,MA,01008,clothing_store
Promod,"50 Holyoke St, Holyoke, MA 01040",Clothing store,Holyoke,https://www.promod.eu/,,,,,https://www.promod.eu/help/write-to-us/categorie/09,Contact Us ,1,MA,01040,clothing_store
Just B Prom,"900 Allen St, Springfield, MA 01118",Dress store,Springfield,http://www.justbprom.com/,,,,,http://www.justbprom.com/pages/contact-us,Contact,1,MA,01118,clothing_store
Shoetown Threads,"34 Pope St, Hudson, MA 01749",Clothing store,Hudson,http://shoetownthreads.com/,,,,,http://shoetownthreads.com/contact,Contact,1,MA,01749,clothing_store
Corner Sports & Leisure Inc,"60 High St, Clinton, MA 01510",Clothing store,Clinton,https://cornersportsonline.com/,,,,,https://cornersportsonline.com/contact,Contact Us,1,MA,01510,clothing_store
Pole Hill Provisions,"683 Main St, Bolton, MA 01740",Gift shop,Bolton,http://www.polehillprovisions.com/,,,,,http://www.polehillprovisions.com/contact.html,"
				Contact
			",1,MA,01740,clothing_store
Ari BostonThe Men's Store,"15 Broad St, Boston, MA 02109",Men's clothing store,Boston,http://www.ariboston.com/,,"Tailored & made-to-measure men's suits, sport jackets, slacks, shirts, belts & accessories.",,,http://www.ariboston.com/contact.html,"

			Contact
		
",1,MA,02109,clothing_store
Riccardi,"116 Newbury St, Boston, MA 02116",Clothing store,Boston,http://www.riccardiboston.com/,,"Hip, bi-level boutique featuring brand-name luxury apparel, sportswear & jeans for men & women.",,,http://www.riccardiboston.com/mailto:riccardi@riccardiboston.com,riccardi@riccardiboston.com,1,MA,02116,clothing_store
Fox  Kit Children's Boutique,"4 Central Square, Mashpee, MA 02649",Children's clothing store,Mashpee,http://www.shopfoxandkit.com/,,,,,http://www.shopfoxandkit.com/pages/contact-us,Contact Us,1,MA,02649,clothing_store
Heart of Stone,"130 MA-6A, Sandwich, MA 02563",Gift shop,Sandwich,http://www.heartofstoneonline.com/,,,,,https://www.heartofstoneonline.com/contact,Contact,1,MA,02563,clothing_store
Freida B's Skating Apparel,"205 Walnut St, Framingham, MA 01702",Clothing store,Framingham,http://www.freidab.com/,,,,,https://www.freidab.com,Contact@FreidaB.com,1,MA,01702,clothing_store
Boston Glam Boutique,"594 Central St, Lowell, MA 01852",Clothing store,Lowell,http://www.bostonglam.com/,,,,,http://www.bostonglam.com/pages/contact,"
CONTACT US
",1,MA,01852,clothing_store
MillCity Clothing Co,"45 Bridge St, Lowell, MA 01852",Clothing store,Lowell,http://everythinglowell.com/,,,,,http://everythinglowell.com/contact,Contact Us,1,MA,01852,clothing_store
Vintage Vault,"14 E Main St, Georgetown, MA 01833",Vintage clothing store,Georgetown,http://www.vintagevaultma.com/,,,,,http://www.vintagevaultma.com/tel:9783523344,(978) 352-3344,1,MA,01833,clothing_store
North Shore Clothing Co,"670 Bay Rd, South Hamilton, MA 01982",Clothing store,South Hamilton,http://www.northshoreclothing.com/,,,,,https://www.northshoreclothing.com/contact,contact,1,MA,01982,clothing_store
Team & League Outfitters,"103 E Main St, Georgetown, MA 01833",Uniform store,Georgetown,http://www.athleticenterprises.net/,,,,,http://www.athleticenterprises.net/mailto:admin@athleticenterprises.net,Contact Us,1,MA,01833,clothing_store
dep slepwear Inc,"36 Assabet Dr, Northborough, MA 01532",Clothing store,Northborough,http://www.depslepwear.com/,,,,,http://www.depslepwear.com/pages/contact,Contact,1,MA,01532,clothing_store
Splendid,"33 Boylston St #3310, Chestnut Hill, MA 02467",Clothing store,Chestnut Hill,https://www.splendid.com/,,Retailer with comfort-focused casual fashions & shoes for adults & kids. Some in department stores.,,,https://www.splendid.com/contact-us/,Contact Us,1,MA,02467,clothing_store
Pelo Mar,"2007 Main St, Brewster, MA 02631",Boutique,Brewster,https://www.pelomarcapecod.com/,,,,,https://www.pelomarcapecod.com/contact-us,contact us,1,MA,02631,clothing_store
Savvy On Main,"50 Main St, Orleans, MA 02653",Women's clothing store,Orleans,http://savvyonmain.com/,,,,,http://savvyonmain.com/contact/,CONTACT,1,MA,02653,clothing_store
Frances Francis Design Studio,"12 Cove Rd, Orleans, MA 02653",Women's clothing store,Orleans,http://francesfrancisdesigns.com/,,,,,http://francesfrancisdesigns.com/index.php/contact,Contact,1,MA,02653,clothing_store
Odile Handpainted,"704 Main St, Harwich, MA 02645",Clothing store,Harwich,http://www.odiledesign.com/,,,,,http://www.odiledesign.com/contact-us,Contact Us,1,MA,02645,clothing_store
Our LadyThe Cape Thrift Shop,"11 MA-6A, Brewster, MA 02631",Thrift store,Brewster,http://www.ourladyofthecape.org/,,,,,http://www.ourladyofthecape.org/contact/,Contact,1,MA,02631,clothing_store
Keeping Pace With Multiple Miracles,"194 S Main St #4, West Bridgewater, MA 02379",Thrift store,West Bridgewater,http://www.keepingpace.org/,,,,,http://keepingpace.org/find-us/,Directions,1,MA,02379,clothing_store
GB Fashions & Ent,"Menlo St, Brockton, MA 02301",Clothing store,Brockton,http://www.gbfashions.com/,,,,,//www.hugedomains.com/contact.cfm,Contact Us,1,MA,02301,clothing_store
Green Acres,"66 Palmer Rd, Brimfield, MA 01010",Flea market,Brimfield,http://greenacresantiques.com/,,,,,https://www.greenacresantiques.com/category/Contact/c73,Contact,1,MA,01010,clothing_store
ALHANNAH ISLAMIC CLOTHING,"4 Holly Ln, Broad Brook, CT 06016",Clothing store,Broad Brook,https://www.alhannah.com/,,,,,https://www.alhannah.com/help-faqs/contact-us/,CONTACT FORM ,1,CT,06016,clothing_store
Globaltex Kids LLC,"370 Oak St, Brockton, MA 02301",Children's clothing store,Brockton,http://globaltexkids.com/,,,,,http://globaltexkids.com/en/contact-us/,Contact Us,1,MA,02301,clothing_store
3VS Cloth,"244 Liberty St, Brockton, MA 02301",Clothing store,Brockton,http://www.evscloth.com/,,,,,http://www.evscloth.com/#,"
                  Contact us
                ",1,MA,02301,clothing_store
L&M Bargain,"Points West Plaza, 21 Torrey St, Brockton, MA 02301",Uniform store,Brockton,http://www.bostonschooluniforms.com/,,,,,http://www.bostonschooluniforms.com/pages/contact-us,Contact Us,1,MA,02301,clothing_store
Volume Apparel,"49 Rose St, Stoughton, MA 02072",Clothing store,Stoughton,https://www.volumeapparel.com/,,,,,https://www.volumeapparel.com/mailto:info@volumeapparel.com?subject=Contact%20Us,Contact,1,MA,02072,clothing_store
Eye Candie Boutique,"26 Wyman St, Stoughton, MA 02072",Clothing store,Stoughton,http://www.eyecandieboutique.com/,,,,,http://www.eyecandieboutique.com/contact,Contact,1,MA,02072,clothing_store
SIZERUN SUPPLY,"355 Boylston St, Brookline, MA 02445",Men's clothing store,Brookline,https://www.sizerunsupply.com/,,,,,https://www.sizerunsupply.com/pages/contact-us,Contact Us,1,MA,02445,clothing_store
Fancy Pants,"383 Boylston St, Newton, MA 02459",Baby clothing store,Newton,http://www.fancypantsboston.com/,,"Resale & consignment shop featuring maternity wear & children's clothing, toys & equipment.",,,https://fancypantsboston.com/contact-us/,CONTACT US,1,MA,02459,clothing_store
Hey Chick,"75 Middlesex Turnpike Suite #1309, Burlington, MA 01803",Women's clothing store,Burlington,https://shopheychick.com/,,,,,https://shopheychick.com/pages/contact-us,Contact Us,1,MA,01803,clothing_store
Coldwater Creek,"6 Wayside Rd Suite 6M, Burlington, MA 01803",Women's clothing store,Burlington,http://www.coldwatercreek.com/,,,,,https://www.coldwatercreek.com/contact,Contact Us ,1,MA,01803,clothing_store
Childrens Clothing Exchange,"391 Evereteze Way, Cambridge, MA 02141",Clothing store,Cambridge,http://solutionsatwork.org/,,,,,http://solutionsatwork.org/contact/,Contact  ,1,MA,02141,clothing_store
Cambridge Nature's Way Dry Cleaners,"47 Mt Auburn St, Cambridge, MA 02138",Clothing store,Cambridge,http://drycleaners-in-harvard-square.com/,,,,,http://drycleaners-in-harvard-square.com/contact.html,"
				CONTACT
			",1,MA,02138,clothing_store
Fjallraven Cambridge,"63 Church St, Cambridge, MA 02138",Clothing store,Cambridge,http://www.fjallraven.us/,,,,,http://www.fjallraven.us/us/en-us/customer-service/contact,"
Contact Us
",1,MA,02138,clothing_store
CambridgeWear,"73 Leonard St, Belmont, MA 02478",Women's clothing store,Belmont,http://www.cambridgewear.net/,,,,,http://www.cambridgewear.net/new-page,"
Contact us
",1,MA,02478,clothing_store
Draper Therapies,"28 Draper Ln, Canton, MA 02021",Clothing store,Canton,http://drapertherapies.com/,,,,,https://www.drapertherapies.com/contact/,Contact Us,1,MA,02021,clothing_store
Amira LLC,"61 Broadway, Norwood, MA 02062",Clothing store,Norwood,http://www.myamira.com/,,,,,http://www.myamira.com/contact.html,,1,MA,02062,clothing_store
Bobby From Boston,"545 Washington St, Lynn, MA 01901",Vintage clothing store,Lynn,http://bobby-from-boston.com/,,Fixture for men's high-end vintage fashion & accessories with a small selection of women's clothing.,,,http://bobby-from-boston.com/a/contact/,"èç³»CONTACT
",1,MA,01901,clothing_store
Smita's Boutique,"120 Cambridge St, Burlington, MA 01803",Boutique,Burlington,http://www.smitas.com/,,"Cozy boutique stocking vibrant Indian apparel, including bridal wear, jewelry & accessories.",,,http://www.smitas.com/#contact,Contact,1,MA,01803,clothing_store
Fine Fit Fashion and Tailoring,"101 Cambridge St #270, Burlington, MA 01803",Tailor,Burlington,http://www.thefinefit.com/,,,,,http://www.thefinefit.com/contactus.php,Contact,1,MA,01803,clothing_store
Sondra Celli,"144 Moody St, Waltham, MA 02453",Boutique,Waltham,http://sondracelli.com/,,Designer women's boutique showcasing creative formalwear & accessories adorned with crystals.,,,http://sondracelli.com/#menu-contact,Contact,1,MA,02453,clothing_store
alphabroder,"154 Campanelli Dr, Middleborough, MA 02346",Clothing store,Middleborough,http://www.alphabroder.com/,,,,,http://www.alphabroder.com/#,E-Mail & Fax Signup,1,MA,02346,clothing_store
Pickwell's Barn,"22B W Main St, Wilmington, VT 05363",Gift shop,Wilmington,http://www.pickwellsbarn.com/,,,,,https://www.pickwellsbarn.com/contact,Contact,1,VT,05363,clothing_store
Starline Fashions,"147 Pleasant St, Worcester, MA 01609",Clothing store,Worcester,http://www.starlinefashions.com/,,,,,http://box2125.temp.domains/~starliv6/home/,Contact,1,MA,01609,clothing_store
Southern Tide Chatham,"634 Main St, Chatham, MA 02633",Clothing store,Chatham,http://southerntidenantucket.com/,,,,,http://southerntidenantucket.com/contact-us/,Contact Us,1,MA,02633,clothing_store
Lowell MBTA Pickup,"145 Thorndike St, Lowell, MA 01852",Clothing store,Lowell,http://lrta.com/,,,,,http://lrta.com/contact/,Contact the LRTA,1,MA,01852,clothing_store
Darel Co Inc,"140 Eastern Ave # 1C, Chelsea, MA 02150",Clothing store,Chelsea,https://www.gerarddarel.com/,,,,,https://www.gerarddarel.com/fr_us/contacts/,Nous contacter,1,MA,02150,clothing_store
fasteasymorecom,"169 Grove St, Adams, MA 01220",Outdoor clothing and equipment shop,Adams,http://www.berkshireoutfitters.com/,,,,,http://www.berkshireoutfitters.com/contact.html,- Contact Us,1,MA,01220,clothing_store
Elam's Widow,"20 Wilder Pl, Florence, MA 01062",Clothing store,Florence,http://elamswidow.com/,,,,,https://elamswidow.com/contact/,contact,1,MA,01062,clothing_store
Phineas Gage,"29 S High St, West Chester, PA 19382",Clothing store,West Chester,http://phineas-gage.com/,,,,,http://phineas-gage.com/index.php/contact/,Contact,1,PA,19382,clothing_store
Malena's Vintage Boutique,"101 W Gay St, West Chester, PA 19380",Boutique,West Chester,http://www.malenasboutique.com/,,"Laid-back women's boutique with an evolving selection of vintage clothing, jewelry & accessories.",,,https://www.malenasboutique.com/contact-us/,Contact,1,PA,19380,clothing_store
VK VERUZKA,"113 N High St, West Chester, PA 19380",Boutique,West Chester,http://www.veruzka.com/,,,,,http://www.veruzka.com/contacts,Contact Us,1,PA,19380,clothing_store
Polgold Jewelers,"63 Cabot St, Chicopee, MA 01013",Jewelry store,Chicopee,https://www.polgoldjewelers.com/,,,,,https://www.polgoldjewelers.com/contacts,"
Contacts
",1,MA,01013,clothing_store
Fine Design Corporation,"1044 Chicopee St, Chicopee, MA 01013",Sportswear store,Chicopee,https://finedesigns.com/,,,,,https://finedesigns.com/contact/,CONTACT,1,MA,01013,clothing_store
MV ALLSTON,"15 Circuit Ave, Oak Bluffs, MA 02557",Women's clothing store,Oak Bluffs,http://www.mvallston.com/,,,,,http://www.mvallston.com/pages/contact-directions,GET HERE,1,MA,02557,clothing_store
Edgar,"6 Kelly St, Edgartown, MA 02539",Clothing store,Edgartown,https://www.kelley-house.com/,,,,,https://www.kelley-house.com/contact-information.htm,Contact,1,MA,02539,clothing_store
Haberdash,"138 Green St #2, Worcester, MA 01604",Clothing store,Worcester,http://haberdashhudson.com/,,,,,http://haberdashhudson.com/contact-1,"
                  Contact
                ",1,MA,01604,clothing_store
Giving Circle Thrift Shop,"3 Sugarloaf St, South Deerfield, MA 01373",Thrift store,South Deerfield,http://www.thecarecollaborative.org/,,,,,http://www.thecarecollaborative.org/contact,Contact,1,MA,01373,clothing_store
Mr Hamdi's Tailoring & Tuxedo,"367 Main St, Greenfield, MA 01301",Tailor,Greenfield,http://mrhamdis.com/,,,,,http://mrhamdis.com/mailto:Email Us: contact@mrhamdis.com,Email Us: contact@mrhamdis.com,1,MA,01301,clothing_store
Revolutionary Concord,"32 Main St, Concord, MA 01742",Gift shop,Concord,https://www.revolutionaryconcord.com/,,,,,https://visitor.r20.constantcontact.com/d.jsp?llr=fwkoivzab&p=oi&m=1127068674757&sit=bdq6zyhlb&f=73f076c3-d943-483f-a9f4-083e41ec786a,,1,MA,01742,clothing_store
Sonias DressmakingAlteration,"1628 Massachusetts Ave, Lexington, MA 02420",Dressmaker,Lexington,http://soniasdressmaking.com/,,,,,http://soniasdressmaking.com/sonia.vcf,Add to Contacts,1,MA,02420,clothing_store
Maynard Outdoor Store,"24 Nason St, Maynard, MA 01754",Sporting goods store,Maynard,http://www.maynardoutdoor.net/,,,,,http://www.maynardoutdoor.net/contact-us/,Contact Us,1,MA,01754,clothing_store
Fancy Feet Plus,"67 East St, Ludlow, MA 01056",Shoe store,Ludlow,http://www.fancyfeetplus.com/,,,,,http://www.fancyfeetplus.com/contact-us," Contact Us

",1,MA,01056,clothing_store
Glitterati Prom Dress Outlet,"100 Independence Way w113, Danvers, MA 01923",Women's clothing store,Danvers,https://www.glitteratistyle.com/,,,,,https://www.glitteratistyle.com/t8/contact-us.html,,1,MA,01923,clothing_store
Strollie  By The Duvet Company,"P216 PO Box, South Dartmouth, MA 02748",Baby store,South Dartmouth,http://www.strollie.com/,,,,,//www.hugedomains.com/contact.cfm,Contact Us,1,MA,02748,clothing_store
247 Rapid Water Damage Service,"1476 Purchase St, New Bedford, MA 02740",Clothing store,New Bedford,https://www.servprodartmouthnewbedfordsouth.com/,,,,,https://www.servprodartmouthnewbedfordsouth.com/contact/contactus,CONTACT US,1,MA,02740,clothing_store
James Arnold Co,"127 Chestnut St, New Bedford, MA 02740",Uniform store,New Bedford,http://www.jamesarnoldco.com/,,,,,http://www.jamesarnoldco.com/UMSS.cfm?page=page-index.cfm&template_code=Contact.Us,CONTACT US,1,MA,02740,clothing_store
Katelynn's Closet,"33 N Main St, South Yarmouth, MA 02664",Clothing store,South Yarmouth,http://www.katelynns-closet.org/,,,,,http://www.katelynns-closet.org/wp-login.php?itsec-hb-token=mylogin&redirect_to=http%3A%2F%2Fwww.katelynns-closet.org%2Fcontact%2F,,1,MA,02664,clothing_store
PrepstR Goods,"537 MA-28 Suite 1D, Harwich Port, MA 02646",Clothing store,Harwich Port,http://www.capecodprepstr.com/,,,,,https://www.instagram.com/p/B-mo6nOHOu0/,"

",1,MA,02646,clothing_store
Irene's Fashions,"253 Columbia St, Fall River, MA 02721",Children's clothing store,Fall River,http://www.irenes-fashions.com/,,,,,https://www.irenes-fashions.com/copy-of-contact,CUSTOMER CARE,1,MA,02721,clothing_store
New York Lace Store Ltd,"89 Main St, Taunton, MA 02780",Bridal shop,Taunton,http://newyorklacecouture.com/,,"Established retailer offering designer wedding gowns, plus bridesmaid, cocktail & prom dresses.",,,http://newyorklacecouture.com/contact-us,"

                                        CONTACT
                                    


",1,MA,02780,clothing_store
Bridals By Rochelle,"32A S Main St, Uxbridge, MA 01569",Bridal shop,Uxbridge,http://bridalsbyrochelle.com/,,,,,http://bridalsbyrochelle.com/contact/,Contact,1,MA,01569,clothing_store
Elizabeth Ann's Bridal Boutique,"275 Oxford St N, Auburn, MA 01501",Bridal shop,Auburn,http://www.elizabethannsbridal.com/,,"By-appointment boutique featuring designer wedding, bridesmaid & prom gowns, plus accessories.",,,http://www.elizabethannsbridal.com/contact-us,Contact us 508-832-8188,1,MA,01501,clothing_store
Dior Corporation,"2949 Hartford Ave, Johnston, RI 02919",Clothing store,Johnston,https://www.dior.com/,,"Luxury label's designer fashion store, also selling cosmetics, jewelry & other accessories.",,,https://www.dior.com/en_us/contact-choice,Contact Us,1,RI,02919,clothing_store
Brown & Hopkins Country Store,"1179 Putnam Pike, Chepachet, RI 02814",Gift shop,Chepachet,http://www.brownandhopkins.com/,,,,,http://www.brownandhopkins.com/./contact.htm,,1,RI,02814,clothing_store
Grafton Flea Market Inc,"296 Upton Street Rt 140, Grafton, MA 01519",Flea market,Grafton,http://www.graftonflea.com/,,,,,http://www.graftonflea.com/contact-us/,Contact Us,1,MA,01519,clothing_store
EA Davis & Company,"579 Washington St, Wellesley, MA 02482",Clothing store,Wellesley,https://eadavisshop.com/,,,,,https://eadavisshop.com/contact/,Contact,1,MA,02482,clothing_store
Anna Nieman Couture,"550 Washington St, Wellesley, MA 02482",Clothing store,Wellesley,http://www.annanieman.com/,,,,,http://www.annanieman.com/pages/contact-us-boston,Contact,1,MA,02482,clothing_store
Donnelly's School Location,"101 Broadway Rd UNIT 8, Dracut, MA 01826",Uniform store,Dracut,http://www.donnellysclothing.com/,,,,,http://www.donnellysclothing.com/Shop/contact-us/,CONTACT US,1,MA,01826,clothing_store
Safe Beginnings Childproofing,"66 Homefield Ave, Dracut, MA 01826",Baby store,Dracut,http://sbchildproofing.com/,,,,,http://www.sbchildproofing.com/contact-us/,Contact Us,1,MA,01826,clothing_store
All Sports Heroes,"18 1st St, Lowell, MA 01850",Uniform store,Lowell,https://www.allsportsapparelpromotions.com/,,"Sporty, laid-back store selling athletic clothing & equipment, plus uniforms & tactical products.",,,https://www.allsportsapparelpromotions.com/contact.php,Contact,1,MA,01850,clothing_store
Sweet Tales Cake Boutique,"106 Arlington Ave, Dracut, MA 01826",Wedding bakery,Dracut,http://www.sweettalescakeboutique.com/,,,,,https://www.sweettalescakeboutique.com/bookings,Contact Me,1,MA,01826,clothing_store
Dracut Jewelry Repair & Design,"316 Pleasant St, Dracut, MA 01826",Jewelry store,Dracut,http://www.dracutjewelry.com/,,,,,https://www.dracutjewelry.com/contact,Contact,1,MA,01826,clothing_store
Hems Plus The Tailoring Shop,"91 Mill St #4, Dracut, MA 01826",Clothing alteration service,Dracut,http://hemsplusma.com/,,,,,http://hemsplusma.com/contact#content,Contact Us,1,MA,01826,clothing_store
Eddies Footwear and Shoe Repair,"16 W Main St, Dudley, MA 01571",Shoe store,Dudley,https://eddiesfootwear.com/,,,,,https://eddiesfootwear.com/contact-us/,Contact Us,1,MA,01571,clothing_store
Rocco's Gentlemen's Clothing,"315 Park Ave, Worcester, MA 01609",Men's clothing store,Worcester,http://www.roccothetailor.com/,,,,,http://www.roccothetailor.com/contact,Contact,1,MA,01609,clothing_store
Serene Comfort,"70 James St Suite 213, Worcester, MA 01603",Women's clothing store,Worcester,http://www.serenecomfort.com/,,,,,http://www.serenecomfort.com/Serene-Comfort-Customer-Service-.aspx,Customer Service,1,MA,01603,clothing_store
Final Touch With Class Boutique,"17 Warren St, Boston, MA 02119",Women's clothing store,Boston,http://www.finaltouchwithclass.com/,,,,,"http://maps.google.com/?q=17th Warren Street Dudley Square, Boston, MA 02119",,1,MA,02119,clothing_store
Bess Boutique Inc,"722 Dudley St, Dorchester, MA 02125",Women's clothing store,Dorchester,http://www.besshair.com/,,,,,https://www.besshair.com/social-buzz,CONTACT,1,MA,02125,clothing_store
Mabruuk Fashion,"37 Roxbury St, Roxbury, MA 02119",Clothing store,Roxbury,http://mabruukstore.com/,,,,,http://mabruukstore.com/contactus.html,Contact Us,1,MA,02119,clothing_store
Austrian Ski Hats,"170 Pleasant St #137, Dunstable, MA 01827",Clothing store,Dunstable,http://www.austrianskihats.com/,,,,,http://www.austrianskihats.com/contactus.html,Contact Us,1,MA,01827,clothing_store
Caution Wear Corporation,"#3-F, 1 Chestnut St, Nashua, NH 03060",Clothing store,Nashua,http://www.cautionwearcorp.com/,,,,,http://www.cautionwearcorp.com/contact_us.html,Contact Us,1,NH,03060,clothing_store
Competitive Edge SkiBike Inc,"19 North St, Easthampton, MA 01027",Clothing store,Easthampton,http://compedgeskibike.com/,,,,,https://www.compedgeskibike.com/storelocator/,Contact,1,MA,01027,clothing_store
Parson's Closet,"116 Main St, Easthampton, MA 01027",Thrift store,Easthampton,http://theparsonscloset.tumblr.com/,,,,,http://theparsonscloset.tumblr.com/Contact, Contact Us ,1,MA,01027,clothing_store
blake & co,"47 Main St, Orleans, MA 02653",Jewelry designer,Orleans,http://blakeorleans.com/,,,,,http://blakeorleans.com/contact,contact,1,MA,02653,clothing_store
Women of Wisdom,"118 Washington St, North Easton, MA 02356",Gift shop,North Easton,https://www.womenofwisdominc.com/,,,,,https://www.womenofwisdominc.com/contact.html,Contact,1,MA,02356,clothing_store
Forever Young,"200 Westgate Dr, Brockton, MA 02301",Women's clothing store,Brockton,http://foreveryoungma.com/,,,,,http://foreveryoungma.com/mailto:webmaster@foreveryoungma.com,Contact your hosting provider,1,MA,02301,clothing_store
Richard Lewis Formal wear & Kevin Michaels Men's Fine Clothing,"626 Washington St, Canton, MA 02021",Men's clothing store,Canton,http://rltux.com/,,,,,https://richardlewisformalwear.com/contact/,Contact Us!,1,MA,02021,clothing_store
Stephen Allen Jewelers & Diamonds,"35 Maple St, East Longmeadow, MA 01028",Jewelry store,East Longmeadow,https://stephenallenjewelers.com/,,,,,https://stephenallenjewelers.com/contacts/,Contact,1,MA,01028,clothing_store
Sayegh Jewelers,"60 Shaker Rd, East Longmeadow, MA 01028",Jeweler,East Longmeadow,http://www.sayeghjewelers.com/,,,,,http://www.sayeghjewelers.com/contact,"
            Contact
          ",1,MA,01028,clothing_store
Davriel Jewelers,"37 Harkness Ave # D, East Longmeadow, MA 01028",Jeweler,East Longmeadow,http://www.davrielpromotions.com/,,,,,http://www.davrielpromotions.com/page/page/1668196.htm,Contact Info,1,MA,01028,clothing_store
Army Barracks Inc,"1053 Riverdale St D, West Springfield, MA 01089",Clothing store,West Springfield,http://armybarracks.com/,,"Army/Navy surplus store carrying military-style clothing, survival gear, flags & other merchandise.",,,https://armybarracks.com/contact/,Contact Us,1,MA,01089,clothing_store
School Store,"1089 State St, Springfield, MA 01109",Uniform store,Springfield,http://www.springfieldpublicschools.com/,,,,,http://www.springfieldpublicschools.com/about/contact,Contact,1,MA,01109,clothing_store
Maria Fili Dressmaker,"1433 Wilbraham Rd, Springfield, MA 01119",Custom tailor,Springfield,https://www.mariafilidressmaker.com/,,,,,https://www.mariafilidressmaker.com/contact,Contact,1,MA,01119,clothing_store
Michael Szwed Jewelers LLC,"807 Williams St, Longmeadow, MA 01106",Jewelry store,Longmeadow,http://www.michaelszwedjewelers.com/,,,,,http://www.michaelszwedjewelers.com/javascript:void(0),Contact,1,MA,01106,clothing_store
Stefanie Wolf Designs,"12 N Water St, Edgartown, MA 02539",Jewelry store,Edgartown,http://stefaniewolf.com/,,,,,http://stefaniewolf.com/pages/contact-the-studio,"
          Contact",1,MA,02539,clothing_store
Shire Glass,"87 Railroad St, Great Barrington, MA 01230",Clothing store,Great Barrington,http://shireglass.com/,,,,,https://shireglass.com/contact/,Contact,1,MA,01230,clothing_store
Kissy's,"50 & 54 Elm St, Pittsfield, MA 01202",Women's clothing store,Pittsfield,http://www.shopkissysfineapparel.com/,,,,,http://www.shopkissysfineapparel.com/pages/contact-us,Contact Us,1,MA,01202,clothing_store
Rewraps,"32 Main St # 3, Chatham, NY 12037",Thrift store,Chatham,http://ps21chatham.org/,,,,,https://ps21chatham.org/contact-us/,Contact,1,NY,12037,clothing_store
Olly Ltd,"17 Woodward Ave, Gloucester, MA 01930",Men's clothing store,Gloucester,http://www.ollyltd.com/,,,,,https://ollyltd.com/contact/,Contact,1,MA,01930,clothing_store
US Polo Assn,"4 S Market St, Boston, MA 02109",Clothing store,Boston,https://www.uspoloassn.com/,,,,,https://uspoloassn.com/pages/contact-us,Contact Us,1,MA,02109,clothing_store
GIADA,"308 Boylston St, Boston, MA 02116",Clothing store,Boston,http://www.giada.com/,,,,,http://www.giada.com/explore/contact,Contact,1,MA,02116,clothing_store
Haven Boston,"5 Shipway Pl, Boston, MA 02129",Boutique,Boston,http://www.havenboston.com/,,Boho-chic clothes & accessories offered at a stylish boutique with some vegan-friendly goods.,,,http://www.havenboston.com/contact.html,"
				Contact
			",1,MA,02129,clothing_store
Place & Gather,"26 Common St, Charlestown, MA 02129",Boutique,Charlestown,http://www.placeandgather.com/,,,,,https://www.placeandgather.com/contact-us/,Contact Us,1,MA,02129,clothing_store
Sea Witch,"36 Main St, Fairhaven, MA 02719",Gift shop,Fairhaven,http://theseawitchgifts.com/,,,,,http://theseawitchgifts.com/tel:+15089963126,Contact us,1,MA,02719,clothing_store
Folia,"354 Elm St, South Dartmouth, MA 02748",Clothing store,South Dartmouth,http://www.folia.biz/,,,,,http://www.folia.biz/contact.html,CONTACT,1,MA,02748,clothing_store
Clean Uniforms and More,"355 Church St, New Bedford, MA 02745",Uniform store,New Bedford,http://www.cleanuniforms.com/,,,,,https://www.cleanuniforms.com/contact-us/,CONTACT,1,MA,02745,clothing_store
Humbertos Gifts,"672 Bedford St, Fall River, MA 02720",Clothing store,Fall River,https://humbertosgifts.com/,,,,,https://humbertosgifts.com/contact-us/,Contact US,1,MA,02720,clothing_store
Company Store,"657 Quarry St, Fall River, MA 02723",Uniform store,Fall River,http://www.companystoreuniforms.com/,,This uniform store sells discounted pieces ranging from medical & nursing scrubs to chef coats.,,,http://www.companystoreuniforms.com/pages/contact-us,"
            Contact
            

+



-

",1,MA,02723,clothing_store
Golden Touch Naturals,"645 Sanford Rd, Westport, MA 02790",Clothing store,Westport,http://goldentouchnaturals.us/,,,,,http://goldentouchnaturals.us/contact-1,Contact Us,1,MA,02790,clothing_store
Grasmere,"6 Franklin St, Bristol, RI 02809",Boutique,Bristol,http://www.grasmeretheshop.com/,,,,,https://grasmeretheshop.com/contact/,Contact & Hours,1,RI,02809,clothing_store
Fatima's Bridal,"53 Main St, Fairhaven, MA 02719",Boutique,Fairhaven,http://fatimasbridal.com/,,,,,http://fatimasbridal.com/contact/,Contact,1,MA,02719,clothing_store
Little Anchor Boutique,"424 E Falmouth Hwy, East Falmouth, MA 02536",Clothing store,East Falmouth,https://little-anchor-boutique.myshopify.com/,,,,,https://little-anchor-boutique.myshopify.com/pages/contact-us,Contact Us,1,MA,02536,clothing_store
Hand in hand Thrift Shop,"141 Sandwich Rd, East Falmouth, MA 02536",Thrift store,East Falmouth,http://www.falmouthservicecenter.org/,,,,,http://www.falmouthservicecenter.org/contact-and-directions.html,Contact ,1,MA,02536,clothing_store
Blast From The Past,"315 Main St, Falmouth, MA 02540",Gift shop,Falmouth,http://www.blastfromthepastma.com/,,,,,http://www.blastfromthepastma.com/CONTACT%20US.htm,,1,MA,02540,clothing_store
Buckle Works,"4701 Falmouth Rd, Cotuit, MA 02635",Clothing store,Cotuit,http://www.buckleworks.net/,,,,,https://www.buckleworks.net/contact,CONTACT,1,MA,02635,clothing_store
Third World Trading Co,"52 Circuit Ave, Oak Bluffs, MA 02557",Clothing store,Oak Bluffs,http://thirdworldtrading.com/,,,,,https://www.thirdworldtrading.com/contact.htm,Contact,1,MA,02557,clothing_store
MBL Gift Shop,"100 Water St, Woods Hole, MA 02543",Gift shop,Woods Hole,http://www.mbl.edu/,,,,,http://www.mbl.edu/pages/contact-us,"
            Shop Hours
          ",1,MA,02543,clothing_store
SolaBryn Walker,"21 Kelly St, Edgartown, MA 02539",Women's clothing store,Edgartown,http://www.brynwalker.com/,,,,,http://www.brynwalker.com/contact,"
            Contact
          ",1,MA,02539,clothing_store
East Coast Custom Apparel,"197 Mill St, Leominster, MA 01453",Clothing store,Leominster,http://www.eastcoastca.com/,,,,,http://www.eastcoastca.com/contact.html,Contact,1,MA,01453,clothing_store
Rene's Formal Wear,"120 2nd St, Leominster, MA 01453",Tuxedo shop,Leominster,http://www.renesformalwear.com/,,,,,http://www.renesformalwear.com/mailto:denis@renesformalwear.com,Contact Denis,1,MA,01453,clothing_store
Acts,"106 Carter St, Leominster, MA 01453",Costume rental service,Leominster,http://actscostumes.com/,,,,,http://new.actscostumes.com/contact,Contact,1,MA,01453,clothing_store
LBD Country Shop,"24 Wall St, Foxborough, MA 02035",Gift shop,Foxborough,http://www.lbdcountryshop.com/,,,,,http://www.lbdcountryshop.com/#contact,Contact,1,MA,02035,clothing_store
Ellassay,"1245 Worcester St #3055, Natick, MA 01760",Women's clothing store,Natick,http://www.ellassay.com/,,,,,http://www.ellassay.com/contact,联系方式,1,MA,01760,clothing_store
Leggings La Moda,"1245 Worcester St, Natick, MA 01760",Women's clothing store,Natick,https://www.leggingslamoda.com/,,,,,https://www.leggingslamoda.com/contact-us,CONTACT US,1,MA,01760,clothing_store
LonesomeGrk,"43 Park St Unit 138, Framingham, MA 01704",Clothing store,Framingham,https://www.ebay.com/,,,,,https://ocsnext.ebay.com/ocs/home, Help & Contact,1,MA,01704,clothing_store
Commercial Painting Company Interior Exterior Painting Services,"100 Concord St #1CR, Framingham, MA 01702",Bridal shop,Framingham,http://www.trustpainting.com/,,,,,http://www.trustpainting.com/contact_painter.php,Contact,1,MA,01702,clothing_store
Bristol Clothing,"340 Singletary Ln, Framingham, MA 01702",Custom tailor,Framingham,http://www.bristol-clothing.com/,,,,,http://www.bristol-clothing.com/#contactus,Contact Us,1,MA,01702,clothing_store
Aria Couture,"1245 Worcester St, Natick, MA 01760",Bridal shop,Natick,http://www.ariacouture.net/,,"Women's boutique with designer special-occasion attire, including evening gowns & bridal dresses.",,,https://www.ariacouture.net,Contact Us,1,MA,01760,clothing_store
Post Road Clothier,"8 Concord Rd, Sudbury, MA 01776",Men's clothing store,Sudbury,http://www.postroadclothier.com/,,,,,http://postroadclothier.com/contact/,Contact,1,MA,01776,clothing_store
John's Sport Shop,"38 Main St, Gardner, MA 01440",Sporting goods store,Gardner,http://www.johnssport.com/,,,,,http://johnssport.com/contact-us/,Contact and Directions,1,MA,01440,clothing_store
Dow Shoe Store,"220 West St, Gardner, MA 01440",Shoe store,Gardner,http://www.dowshoe.com/,,,,,https://dowshoe.com/contact-us/,Contact,1,MA,01440,clothing_store
Tanguay Jewelers,"19 Connors St, Gardner, MA 01440",Jewelry store,Gardner,http://tanguayjewelers.com/,,,,,http://tanguayjewelers.com/contact/,CONTACT,1,MA,01440,clothing_store
Sparkle Gear,"939 Salem St #1, Groveland, MA 01834",Clothing store,Groveland,https://sparklegear.com/,,,,,https://sparklegear.com/contact-us/,Contact Us,1,MA,01834,clothing_store
Bridal ConnectionsBridal Salon,"118 Main St #2, Shelburne Falls, MA 01370",Bridal shop,Shelburne Falls,http://bridal-connections.webnode.com/,,,,,http://bridal-connections.webnode.com/contact/,Contact,1,MA,01370,clothing_store
Miller BrothersNewton,"105 Main St, Keene, NH 03431",Men's clothing store,Keene,http://www.mbnmenswear.com/,,,,,https://millerbrosnewton.com/contact-us/,Contact Us,1,NH,03431,clothing_store
Second Glance,"2 Pond Rd # 1, Gloucester, MA 01930",Thrift store,Gloucester,http://www.foodpantry.org/,,,,,http://www.foodpantry.org/04b_Contact_Us/index.html,Contact Us,1,MA,01930,clothing_store
Sample This,"116 Main St, Gloucester, MA 01930",Clothing store,Gloucester,http://www.samplethisclothing.com/,,,,,http://www.samplethisclothing.com/contact-us,Contact Us,1,MA,01930,clothing_store
Snyder's Men's Shop,"930 E University Dr, Granger, IN 46530",Men's clothing store,Granger,http://esnyders.com/,,,,,https://esnyders.com/index.php/contact-us/,Contact Us,1,IN,46530,clothing_store
Liberty House,"89 Water St, Woods Hole, MA 02543",Clothing store,Woods Hole,http://libertyhousecapecod.com/,,,,,http://libertyhousecapecod.com/contact-us/,Contact Us,1,MA,02543,clothing_store
Angel Hair Alpacas,"66 Wesson St, North Grafton, MA 01536",Clothing store,North Grafton,http://www.alpacanation.com/,,,,,http://www.alpacanation.com/contact/NL_contact.aspx,Help?,1,MA,01536,clothing_store
LARP Box,"7 Depot St, South Grafton, MA 01560",Costume store,South Grafton,http://www.larpbox.com/,,,,,https://larpbox.com/contact/,General Contact,1,MA,01560,clothing_store
Grafton Country Store,"2 Grafton Common, Grafton, MA 01519",Gift shop,Grafton,http://www.graftoncountrystore.net/,,,,,http://www.graftoncountrystore.net/contact/,Contact,1,MA,01519,clothing_store
QLook Bridal,"1219 Main St, Worcester, MA 01603",Bridal shop,Worcester,http://www.qlookbridalonline.com/,,Formalwear boutique specializing in modern & classic gowns for mothers of the bride & groom.,,,http://www.qlookbridalonline.com/sub.php?Page=Text&PT=ContactUs,Contact Us,1,MA,01603,clothing_store
Lucente Jewelers,"1 Hollywood Dr #4, North Grafton, MA 01536",Jeweler,North Grafton,http://lucentejewelers.com/,,,,,http://lucentejewelers.com/?page_id=365,Contact Us,1,MA,01536,clothing_store
Gazebo,"14 Center St, Northampton, MA 01060",Lingerie store,Northampton,https://www.the-gazebo.com/,,"Brand-name & custom lingerie & accessories are the draw at this long-standing, independent boutique.",,,https://www.the-gazebo.com/contact-us-2/,Get in Touch,1,MA,01060,clothing_store
Bridal Corner,"720 Memorial Dr #5065, Chicopee, MA 01020",Bridal shop,Chicopee,http://bridal-corner.com/,,"Three-floor bridal boutique with a selection of dresses, gowns & accessories, plus tuxedos.",,,http://bridal-corner.com/about-us,Contact Us,1,MA,01020,clothing_store
Kev's Barn Yard Flea Market,"185 W State St, Granby, MA 01033",Flea market,Granby,http://www.kevsbarnyard.com/,,,,,http://www.kevsbarnyard.com/contact.htm,"
Contact Us",1,MA,01033,clothing_store
Laurel Grove,"339 Boston Post Rd, Sudbury, MA 01776",Clothing store,Sudbury,http://www.laurelgroveshop.com/,,,,,http://www.laurelgroveshop.com/pages/visit-us,Contact Us,1,MA,01776,clothing_store
Kenver,"39 Main Street South Egremont, MA 01258, Egremont, MA 01230",Clothing store,Egremont,http://www.kenver.com/,,,,,https://www.kenver.com/contact-2/,contact,1,MA,01230,clothing_store
Berkshire Gold & Silversmith,"152 Main St, Great Barrington, MA 01230",Jeweler,Great Barrington,http://www.berkshiregoldandsilversmith.com/,,,,,http://www.berkshiregoldandsilversmith.com/contact-us/,Hours & Info,1,MA,01230,clothing_store
Van Heusen  IZOD Company Store,"560 Premium Outlet Blvd, Lee, MA 01238",Clothing store,Lee,http://vanheusen.com/,,,,,https://help.vanheusen.partnerbrands.com/s/brand-form,Contact Us,1,MA,01238,clothing_store
Elements Jill Schwartz,"343 Main St, Great Barrington, MA 01230",Jewelry designer,Great Barrington,http://www.elementsjillschwartz.com/,,,,,http://www.elementsjillschwartz.com/pages/contact,Contact,1,MA,01230,clothing_store
Aliber's Bridal,"18 Federal St, Greenfield, MA 01301",Bridal shop,Greenfield,http://www.alibersbridal.com/,,"Long-running shop for designer bridal gowns,  bridesmaid dresses & accessories, plus tuxedo rentals.",,,https://www.alibersbridal.com/contact-us, BOOK,1,MA,01301,clothing_store
Denim Skirt Store,"262 Middlesex St, Lowell, MA 01852",Women's clothing store,Lowell,http://www.denimskirtstore.com/,,,,,http://www.denimskirtstore.com/pages/contact-us,"
              Contact us
            ",1,MA,01852,clothing_store
1000 Degrees Express,"250 Granite St, Braintree, MA 02184",Men's clothing store,Braintree,https://1000degreesexpress.com/,,,,,https://policies.google.com/privacy,Privacy Policy,1,MA,02184,clothing_store
Curtsy,"10 Front St, Salem, MA 01970",Boutique,Salem,http://www.shopcurtsy.com/,,,,,http://www.shopcurtsy.com/contact-us.html,"
				Contact Us
			",1,MA,01970,clothing_store
Andover Shop,"127 Main St, Andover, MA 01810",Clothing store,Andover,http://www.theandovershop.com/,,,,,https://theandovershop.com/contacts/,"Contact
",1,MA,01810,clothing_store
The Last Resort,"48 Bearskin Neck, Rockport, MA 01966",Clothing store,Rockport,http://www.thelastresortrkpt.com/,,,,,http://www.thelastresortrkpt.com/contact,Contact,1,MA,01966,clothing_store
Double J Western Store,"1472 Riverdale St, West Springfield, MA 01089",Western apparel store,West Springfield,http://www.doublejwestern.com/,,,,,"http://maps.google.com/?q=1472%20Riverdale%20Street,%20WestSpringfield,%20MA",FInd Us on Google Maps,1,MA,01089,clothing_store
Against All Odds Usa,"50 Holyoke St, Holyoke, MA 01040",Clothing store,Holyoke,http://aao-usa.com/,,,,,http://aao-usa.com/pages/contact-us,"
              Contact Us
              
            ",1,MA,01040,clothing_store
Twice as Nice,"46 Columbia Rd, Pembroke, MA 02359",Women's clothing store,Pembroke,http://www.2xnice.com/,,,,,http://www.2xnice.com/contact.html,get directions,1,MA,02359,clothing_store
Hafta Havit,"160 Schoosett St, Pembroke, MA 02359",Gift shop,Pembroke,http://www.haftahavit.com/,,,,,http://www.haftahavit.com/pages/about-us-contact,"
              About Us & Contact
            ",1,MA,02359,clothing_store
Locally Yours formerly sixteen twenty,"Village Landing Marketplace, 170 Water St, Plymouth, MA 02360",Clothing store,Plymouth,http://www.shoplocallyyours.com/,,,,,http://www.shoplocallyyours.com/pages/contact-visit,"

          
          contact/visit
          
        
",1,MA,02360,clothing_store
The Yard Sale Store,"24 North St, Randolph, MA 02368",Thrift store,Randolph,http://theyardsalestore.org/,,,,,http://theyardsalestore.org/contact-us,Contact Us,1,MA,02368,clothing_store
Zinnia Jewelry,"1300 Massachusetts Ave, Cambridge, MA 02138",Jewelry store,Cambridge,http://www.ilovezinnia.com/,,"Quaint corner storefront featuring handcrafted earrings, necklaces, rings & more by local artisans.",,,http://visitor.r20.constantcontact.com/d.jsp?llr=dm6omhcab&p=oi&m=1101907064195&sit=k5566e8cb&f=1ab8455d-74e7-4a65-a574-8040e1149547,News & Deals,1,MA,02138,clothing_store
Corner Thrift Shop,"697 Main St, Harwich, MA 02645",Thrift store,Harwich,http://www.firstchurchofharwich.org/,,,,,http://www.firstchurchofharwich.org/contact/,Contact,1,MA,02645,clothing_store
Lexaco LLC,"537 Main Street @, Sea St, Harwich Port, MA 02646",Jewelry store,Harwich Port,http://lexaco.com/,,,,,https://www.facebook.com/lexacoharwichport/,Find us on Facebook,1,MA,02646,clothing_store
Mermaids on Cape Cod Boutique,"Main Street, 855 MA-28, West Dennis, MA 02670",Gift shop,West Dennis,http://www.mermaidsoncapecod.com/,,,,,http://www.mermaidsoncapecod.com/pages/contact-us,Contact Us,1,MA,02670,clothing_store
The Koza Clothing Company,"149 Washington St, Haverhill, MA 01832",Clothing store,Haverhill,http://www.kozykoza.com/,,,,,http://www.kozykoza.com/pages/contact-us,"
              Contact Us
            ",1,MA,01832,clothing_store
Ruth's House Inc,"111 Lafayette Square, Haverhill, MA 01832",Thrift store,Haverhill,https://www.ruthsthriftshop.com/,,,,,https://www.ruthsthriftshop.com/contact-us/,Contact Us,1,MA,01832,clothing_store
Acquire Good,"132 North St, Hingham, MA 02043",Boutique,Hingham,http://acquiregood.com/,,,,,http://acquiregood.com/pages/contact-us,Contact Us,1,MA,02043,clothing_store
Northeast Surfing Bikes & Board Rentals,"99 Hull Shore Dr, Hull, MA 02045",Clothing store,Hull,http://www.northeastsurfing.com/,,,,,https://www.northeastsurfing.com/contact,CONTACT,1,MA,02045,clothing_store
fig a,"102 North St, Hingham, MA 02043",Boutique,Hingham,https://www.fig-a.com/,,,,,https://www.fig-a.com/pages/contact,Contact,1,MA,02043,clothing_store
The Whitney Gordon's Jewelers,"39 Main St, Hingham, MA 02043",Jeweler,Hingham,http://www.whitneygordons.com/,,,,,https://whitneygordons.com/about-2/contacts/,Contacts,1,MA,02043,clothing_store
Artisans In the Square,"63 South St, Hingham, MA 02043",Gift shop,Hingham,http://www.artisansinthesquare.com/,,,,,http://www.artisansinthesquare.com/contact.html,"
				Contact
			",1,MA,02043,clothing_store
Hingham Jewelers,"35 Whiting St, Hingham, MA 02043",Jeweler,Hingham,http://www.hinghamjewelers.com/,,"Family-owned merchant since 1948 with fine jewelry & designer watches, plus custom pieces & repairs.",,,http://www.hinghamjewelers.com/contact,Contact Us,1,MA,02043,clothing_store
Flair Boston,"140 Newbury St #202, Boston, MA 02116",Bridal shop,Boston,http://www.flairbridesmaid.com/,,"Shabby-chic bridal boutique featuring couture wedding gowns, bridesmaids' dresses & accessories.",,,http://www.flairbridesmaid.com/contact,CONTACT,1,MA,02116,clothing_store
Elegance African Fashions Inc,"54 Mt Everett St, Dorchester, MA 02125",Clothing store,Dorchester,http://www.eleganceafricanfashions.com/,,,,,http://www.eleganceafricanfashions.com/contact-us,Contact Us,1,MA,02125,clothing_store
Tuxedo Time,"8 Elm St, Braintree, MA 02184",Tuxedo shop,Braintree,http://tuxedotime.com/,,,,,https://tuxedotime.com/contact/,CONTACT,1,MA,02184,clothing_store
Piesco Sporting Goods Inc,"130 Washington St, North Easton, MA 02356",Uniform store,North Easton,http://piescosports.com/,,,,,http://www.piescosports.com/contact/,Contact,1,MA,02356,clothing_store
Holden Jewelers,"808 Main St, Holden, MA 01520",Jeweler,Holden,https://holdenjewelers.net/,,,,,https://holdenjewelers.net/contact.htm,,1,MA,01520,clothing_store
US Sports and Apparel,"276 W Main St, Northborough, MA 01532",Sporting goods store,Northborough,https://ussportsandapparel.com/,,,,,https://ussportsandapparel.com/contact,Contact,1,MA,01532,clothing_store
Bene Vintage Clothes,"95 Washington St, Holliston, MA 01746",Vintage clothing store,Holliston,http://benevintage.com/,,,,,http://benevintage.com/contact/,Contact,1,MA,01746,clothing_store
Aladco Linen Services,"504 Pleasant St, Holyoke, MA 01040",Uniform store,Holyoke,http://aladcoservices.com/,,,,,http://aladcoservices.com/contact,Contact,1,MA,01040,clothing_store
Cottage,"1615 Northampton St, Holyoke, MA 01040",Gift shop,Holyoke,http://thecottagegifts.com/,,,,,http://thecottagegifts.com/contact,Contact,1,MA,01040,clothing_store
Walt's Clothing Inc,"837 Cumberland Hill Rd, Woonsocket, RI 02895",Clothing store,Woonsocket,http://www.waltsclothing.com/,,,,,http://www.waltsclothing.com/tel:4017657582,(401) 765-7582,1,RI,02895,clothing_store
Stephanie G Jewelers,"77 Main St, Hopkinton, MA 01748",Jeweler,Hopkinton,http://www.stephaniegjewelers.com/,,,,,http://www.stephaniegjewelers.com/contact.htm,Contact,1,MA,01748,clothing_store
Bottom Drawers,"13 Richards Rd, Princeton, MA 01541",Clothing store,Princeton,http://www.bottomdrawers.com/,,,,,http://www.bottomdrawers.com/contactus.htm,Contact Us,1,MA,01541,clothing_store
Serendipity,"63 Main St, Hudson, MA 01749",Gift shop,Hudson,http://www.serendipityinhudson.com/,,,,,http://www.serendipityinhudson.com/hours-directions-contact-us,"Hours, Directions, Contact Us",1,MA,01749,clothing_store
Fabletics,"1245 Worcester St space 2078, Natick, MA 01760",Sportswear store,Natick,http://fabletics.com/,,,,,https://www.fabletics.com/faq,"
				Help & Contact
			",1,MA,01760,clothing_store
Boston Thrifter,"532 Nantasket Ave, Hull, MA 02045",Thrift store,Hull,http://bostonthrifter.com/,,,,,http://bostonthrifter.com/pages/contact-us,CONTACT US,1,MA,02045,clothing_store
Viola Lovely,"1409 Washington St, Boston, MA 02118",Clothing store,Boston,http://violalovely.com/,,Fashion-forward clothing boutique with a low-key vibe despite featuring goods from edgy designers.,,,http://violalovely.com/pages/contact,"
							Contact
						",1,MA,02118,clothing_store
Carousel & Chips,"205 Nantasket Ave, Hull, MA 02045",Clothing store,Hull,http://www.paragoncarousel.com/,,,,,http://www.paragoncarousel.com/contact-us/,Contact Us,1,MA,02045,clothing_store
Pumpkin Vines LLC,"174 High St #105, Ipswich, MA 01938",Baby store,Ipswich,http://www.pumpkinvines.com/,,,,,http://www.pumpkinvines.com/contactus.html,Contact Us,1,MA,01938,clothing_store
Central Shoe Repair,"50 Central St, Ipswich, MA 01938",Shoe store,Ipswich,http://centralshoe.com/,,,,,http://www.centralshoe.com/contact.html, Contact Us,1,MA,01938,clothing_store
Panache,"150 Summer St, Kingston, MA 02364",Boutique,Kingston,https://panacheconsignment.com/,,,,,https://panacheconsignment.com/#05cf31b8-3c3d-4c5d-ab33-c6c28ee588f7,Contact  Us,1,MA,02364,clothing_store
Eco Chic Gift Boutique,"117 Main St, Kingston, MA 02364",Gift shop,Kingston,http://www.ecochicgiftsonline.com/,,,,,http://www.ecochicgiftsonline.com/tel:7747739967,774-773-9967,1,MA,02364,clothing_store
Premier Jewelers Inc,"187 Summer St Ste 1, Kingston, MA 02364",Jewelry store,Kingston,https://www.premierjewelersinc.com/,,,,,https://www.premierjewelersinc.com/contact," Contact

",1,MA,02364,clothing_store
Reynolds Flowers,"410 Plymouth St, Middleborough, MA 02346",Clothing store,Middleborough,http://www.reynoldsflowers.net/,,,,,http://www.reynoldsflowers.net/page/contact-us,Contact Us,1,MA,02346,clothing_store
Berkshire Wedding Associates,"313 North St, Pittsfield, MA 01201",Bridal shop,Pittsfield,http://www.berkshirebride.com/,,,,,http://www.berkshirebride.com/contact-us,Contact Us,1,MA,01201,clothing_store
Halloween Headquarters,"33 S Broadway, Lawrence, MA 01843",Costume store,Lawrence,http://www.halloweenheadquarterslawrence.com/,,,,,http://www.halloweenheadquarterslawrence.com/contact/3609480,CONTACT,1,MA,01843,clothing_store
Lazarus House,"121 Essex St, Lawrence, MA 01840",Thrift store,Lawrence,https://lazarushouse.org/,,,,,https://lp.constantcontactpages.com/su/YPoVpTM,Newsletter,1,MA,01840,clothing_store
Army Barracks,"234 Essex St, Salem, MA 01970",Clothing store,Salem,http://www.armybarracks.com/,,"Army/Navy surplus store carrying military-style clothing, survival gear, flags & other merchandise.",,,https://armybarracks.com/contact/,Contact Us,1,MA,01970,clothing_store
Brazabra Corporation,"8 Run Way, Lee, MA 01238",Fashion designer,Lee,https://braza-bra.com/,,,,,https://www.braza-bra.com/where-to-find-us,Where to Find Us,1,MA,01238,clothing_store
Pumpkin Patch Quilts,"43 Main St, Lee, MA 01238",Clothing store,Lee,http://www.pumpkinpatchquilts.com/,,,,,http://www.pumpkinpatchquilts.com/contact_us,click here for driving directions ,1,MA,01238,clothing_store
Ben's,"68 Main St, Lee, MA 01238",Shoe store,Lee,http://www.bensinlee.com/,,,,,http://www.bensinlee.com/contact,"
              Contact Us
            ",1,MA,01238,clothing_store
Family Footwear Center,"444 Pittsfield Rd, Lenox, MA 01240",Shoe store,Lenox,https://www.familyfootwearcenter.com/,,,,,https://www.facebook.com/FamilyFootwearCenterLenoxMA/,,1,MA,01240,clothing_store
Steven Valenti Clothing for Men,"157 North St, Pittsfield, MA 01201",Clothing store,Pittsfield,http://www.stevenvalenticlothing.com/,,,,,http://www.stevenvalenticlothing.com/./contact.htm,,1,MA,01201,clothing_store
Laurie Donovan Designs,"63 Church St, Lenox, MA 01240",Jewelry designer,Lenox,http://www.lauriedonovan.com/,,,,,https://www.lauriedonovan.com/the-gallery/costomer-services/,Contact Us,1,MA,01240,clothing_store
Lynns Alterations,"106 Carter St suite 19, Leominster, MA 01453",Clothing alteration service,Leominster,http://ladyslipperbridaloutlet.ecrater.com/,,,,,https://ladyslipperbridaloutlet.ecrater.com/contact.php,contact,1,MA,01453,clothing_store
Crowne Jewelers,"12 Lindell Ave, Leominster, MA 01453",Jeweler,Leominster,http://www.crownejewelers.com/,,,,,https://crownejewelers.com/contact/,CONTACT,1,MA,01453,clothing_store
Swimwear Mania Inc,"95 Hayden Ave, Lexington, MA 02421",Swimwear store,Lexington,http://swimwearmania.com/,,,,,https://www.swimwearmania.com/contact,Contact,1,MA,02421,clothing_store
jug,"15 Elm St, Waltham, MA 02453",Formal wear store,Waltham,http://www.formalwearltd.com/,,,,,http://www.formalwearltd.com/#contact,CONTACT,1,MA,02453,clothing_store
Armani Exchange,"100 Cambridgeside Pl Space W - 116, Cambridge, MA 02141",Clothing store,Cambridge,http://www.armaniexchange.com/,,Fashion retailer selling high-end apparel & accessories from the namesake designer.,,,https://www.armaniexchange.com/system/web/custom/hp/email.jsp,"
                        Contact Us
                    ",1,MA,02141,clothing_store
art effect,"934 W Armitage Ave, Chicago, IL 60614",Women's clothing store,Chicago,http://www.shoparteffect.com/,,"Eclectic boutique selling women's fashion, designer jewelry & a unique rotating selection of gifts.",,,http://www.shoparteffect.com/visit-us,"
            Contact Us
          ",1,IL,60614,clothing_store
Sew Be Crafty,"510 King St #10, Littleton, MA 01460",Sewing shop,Littleton,http://www.sewbecrafty.com/,,,,,http://www.sewbecrafty.com/contact.html,"
							Contact
						",1,MA,01460,clothing_store
Milele Fashions,"776 Main St, West Springfield, MA 01089",Clothing store,West Springfield,http://milelefashions.com/,,,,,http://www.milelefashions.com/boutiques-contact-us,Contact Us,1,MA,01089,clothing_store
The Eclectic Peacock,"74 Palomba Dr J, Enfield, CT 06082",Clothing store,Enfield,http://www.eclecticpeacock.com/,,,,,https://www.eclecticpeacock.com/contact/,Contact,1,CT,06082,clothing_store
Marry & Tux Bridal,"100 Daniel Webster Hwy, Nashua, NH 03060",Bridal shop,Nashua,http://www.marryandtuxbridal.com/,,"Longstanding shop offering both off-the-rack & special-order wedding dresses, plus tuxedo rentals.",,,http://www.marryandtuxbridal.com/tel:6038836999,"

",1,NH,03060,clothing_store
Uni Tech Services Group Inc,"295 Parker St, Indian Orchard, MA 01151",Uniform store,Indian Orchard,http://www.unitechus.com/,,,,,https://www.unitechus.com/contact-us/,Contact Us,1,MA,01151,clothing_store
Ettezus Trendy Clothing,"603 Sumner Ave, Springfield, MA 01108",Clothing store,Springfield,http://www.ettezustrendyclothing.com/,,,,,http://www.ettezustrendyclothing.com/mailto:webmaster@ettezustrendyclothing.com,Contact your hosting provider,1,MA,01108,clothing_store
Peak Performance Bicycles,"77 W State St, Granby, MA 01033",Clothing store,Granby,https://peakbikes.com/,,,,,https://peakbikes.com/tel:4134672453,(413) 467-2453,1,MA,01033,clothing_store
Southern Tide Lynnfield,"685 Market St, Lynnfield, MA 01940",Clothing store,Lynnfield,http://www.southerntideboston.com/,,,,,https://www.southerntideboston.com/contact,CONTACT,1,MA,01940,clothing_store
Pennyworth's of Lynn,"137 Boston St, Lynn, MA 01904",Clothing store,Lynn,http://pennyworthslynn.com/,,"Store selling footwear for men, women & children, plus a selection of casual clothing.",,,https://visitor.r20.constantcontact.com/d.jsp?llr=xv7u8c7ab&p=oi&m=1129672503991&sit=954chccmb&f=72e8ab45-51d3-443c-959d-dbfd2bcf71c3,Sign Up For Email Specials,1,MA,01904,clothing_store
Couture Planet,"271 Western Ave, Lynn, MA 01904",Clothing store,Lynn,https://www.coutureplanet.com/,,,,,https://www.coutureplanet.com/contact,CONTACT,1,MA,01904,clothing_store
Vintage Victorian,"64 Maolis Rd, Nahant, MA 01908",Vintage clothing store,Nahant,http://www.vintagevictorian.com/,,,,,http://www.vintagevictorian.com/#contact,        Contact,1,MA,01908,clothing_store
EMPORIUM 32,"6 Central St, Salem, MA 01970",Clothing store,Salem,http://www.emporium32.com/,,,,,http://www.emporium32.com/contact.html,"
										Contact
									",1,MA,01970,clothing_store
Sin City Cycles,"356 Central St, Saugus, MA 01906",Clothing store,Saugus,http://sincitycycles.com/,,,,,http://sincitycycles.com/tel:7815999844,-(781) 599-9844,1,MA,01906,clothing_store
Grogan Marciano Sporting Goods,"363 N Main St, Mansfield, MA 02048",Sporting goods store,Mansfield,http://www.groganmarciano.com/,,,,,https://groganmarciano.com/contact-us/,Contact Us,1,MA,02048,clothing_store
Boston Team Sports,"450 Chauncy St STE 5, Mansfield, MA 02048",Sporting goods store,Mansfield,http://bostonteamsports.com/,,,,,http://bostonteamsports.com/contact.html,Contact Us,1,MA,02048,clothing_store
Right Foot Shoes,"333 School St b130, Mansfield, MA 02048",Shoe store,Mansfield,http://www.rightfootshoes.com/,,,,,http://www.rightfootshoes.com/contact,Contact,1,MA,02048,clothing_store
Hefez & Sons Jewelers,"106 N Main St, Mansfield, MA 02048",Jeweler,Mansfield,http://www.hefezandsonsjewelers.com/,,,,,https://www.hefezandsonsjewelers.com/contact/,Contact,1,MA,02048,clothing_store
Chryssie's Bridal,"636 Washington St, Canton, MA 02021",Bridal shop,Canton,http://www.chryssies.com/,,"Bridal salon offering designer wedding gowns, bridesmaid dresses & alteration services since 1984.",,,https://chryssies.com/contact/,BOOK AN APPOINTMENT,1,MA,02021,clothing_store
Bus Stop,"85 Washington St, Marblehead, MA 01945",Women's clothing store,Marblehead,http://www.busstopclothing.com/,,,,,http://www.busstopclothing.com/contact-us-10.html,Contact Us,1,MA,01945,clothing_store
Reality Snatcher,"6 Mooney Rd, Salem, MA 01970",Clothing store,Salem,http://realitysnatcher.com/,,,,,http://realitysnatcher.com/contact-us,Contact Us,1,MA,01970,clothing_store
Marblehead Sport Shop,"26 Hawkes St, Marblehead, MA 01945",Sporting goods store,Marblehead,http://marbleheadsportshop.com/,,,,,http://marbleheadsportshop.com/mailto:sales@marbleheadsportshop.com,contact us by email,1,MA,01945,clothing_store
Aasma's Dream,"210 Andover St, Peabody, MA 01960",Clothing store,Peabody,http://www.aasmasdream.com/,,,,,https://www.aasmasdream.com/contect,Contact Us,1,MA,01960,clothing_store
Sweetwater Trading Company,"33 Atlantic Ave, Marblehead, MA 01945",Gift shop,Marblehead,http://sweetwaterandco.com/,,,,,https://www.sweetwaterandco.com/contact,Directions & Contact Us,1,MA,01945,clothing_store
Buzzards Bay Botanicals,"45 Main St, Buzzards Bay, MA 02532",Gift shop,Buzzards Bay,http://www.buzzardsbaybotanicals.com/,,,,,https://www.buzzardsbaybotanicals.com/contact-us/,Contact Us,1,MA,02532,clothing_store
Wings N' Things,"61 Fairhaven Rd, Mattapoisett, MA 02739",Gift shop,Mattapoisett,http://wingsnthingsgifts.com/,,,,,https://wingsnthingsgifts.com/contact/,Contact,1,MA,02739,clothing_store
Lulabelle,"222 Webster St, Hanover, MA 02339",Lingerie store,Hanover,http://mylulabelle.com/,,"Women's boutique offering refined contemporary European lingerie, sleepwear & swimwear.",,,http://mylulabelle.com/contact,"
            Contact
          ",1,MA,02339,clothing_store
Encore 9703,"681 Falmouth Rd, Mashpee, MA 02649",Clothing store,Mashpee,http://www.encore9703.com/,,,,,http://www.encore9703.com/#contact,Contact,1,MA,02649,clothing_store
Unique Boutique,"22 North Street, Mashpee, MA 02649",Jeweler,Mashpee,https://www.uniqueboutiquejewelry.com/,,,,,https://www.uniqueboutiquejewelry.com/contact-us/,,1,MA,02649,clothing_store
Kind Goods,"85 Main St, Maynard, MA 01754",Gift shop,Maynard,http://www.kindgoodsmarket.com/,,,,,https://www.kindgoodsmarket.com/copy-of-contact,Contact,1,MA,01754,clothing_store
Richard Goddard Goldsmith Designer,"149 Main St A, Maynard, MA 01754",Jeweler,Maynard,http://goddardgoldsmiths.com/,,,,,https://www.goddardgoldsmiths.com/contact,Contact,1,MA,01754,clothing_store
Sassy,"1472 High St, Westwood, MA 02090",Boutique,Westwood,https://sassywestwood.com/,,,,,https://sassywestwood.com/contact-us/,Contact,1,MA,02090,clothing_store
Angela's Bridal,"1526 VFW Pkwy, West Roxbury, MA 02132",Bridal shop,West Roxbury,https://www.angelas-bridal.com/,,"Strip-mall bridal salon displaying dresses for weddings, proms, pageants & other special occasions.",,,https://www.facebook.com/angelasbridalandspecialoccasion,,1,MA,02132,clothing_store
Costume Works,"36 Alston St, Somerville, MA 02143",Costume store,Somerville,http://www.costumeworksinc.com/,,,,,http://www.costumeworksinc.com/contact.html,CONTACT,1,MA,02143,clothing_store
Medway Jewelers,"74 Main St #13, Medway, MA 02053",Watch store,Medway,http://medwayjewelers.com/,,,,,http://medwayjewelers.com/contact/,CONTACT,1,MA,02053,clothing_store
Enchanted Fox,"174 Main St, Medway, MA 02053",Gift shop,Medway,http://enchantedfox.com/,,,,,http://enchantedfox.com/contact-us,Contact Us,1,MA,02053,clothing_store
Trinity Church Thrift Shop,"131 W Emerson St, Melrose, MA 02176",Thrift store,Melrose,http://trinitymelrose.org/,,"Veteran thrift shop supporting Trinity Church selling used clothing, home goods & books since 1978.",,,https://trinitymelrose.org/contact-us/,Contact Us,1,MA,02176,clothing_store
Stardust Jewelers of Mendon,"12 Uxbridge Rd, Mendon, MA 01756",Jewelry store,Mendon,http://www.stardustmendon.com/,,,,,http://stardustmendon.apps-1and1.com/contact-us,Read More,1,MA,01756,clothing_store
Green Label Boutique,"3335 Mendon Rd suite 6, Cumberland, RI 02864",Clothing store,Cumberland,http://www.greenlabelboutiqueri.com/,,,,,http://www.greenlabelboutiqueri.com/index.php?main_page=contact_us,Info & Contatti,1,RI,02864,clothing_store
Bridals BY Rochelle,"110 Church St, Whitinsville, MA 01588",Bridal shop,Whitinsville,http://www.bridalsbyrochelle.com/,,"Established bridal shop carrying designer gowns & bridesmaid dresses, plus in-house alterations.",,,http://bridalsbyrochelle.com/contact/,Contact,1,MA,01588,clothing_store
Grand View,"6 Nipmuc Dr, Mendon, MA 01756",Wedding venue,Mendon,http://grand-view.com/,,,,,http://grand-view.com/#,Contact,1,MA,01756,clothing_store
Leeward Light Thrift Store,"126 Bridge Rd, Salisbury, MA 01952",Thrift store,Salisbury,http://www.leewardindustries.org/,,,,,http://www.leewardindustries.org/contact.html,"
				CONTACT
			",1,MA,01952,clothing_store
Mountain Dogs Ski & Sport,"12 Plaistow Rd, Plaistow, NH 03865",Clothing store,Plaistow,https://www.mountaindogsinc.com/,,,,,https://www.mountaindogsinc.com/#contact,CONTACT,1,NH,03865,clothing_store
Annie's Hallmark Baldoria,"203 S Broadway #5, Salem, NH 03079",Boutique,Salem,http://annieshallmark.com/,,,,,http://annieshallmark.com/contact-us#Londonderry,Directions,1,NH,03079,clothing_store
House of Fashion,"31 Center St, Middleborough, MA 02346",Clothing store,Middleborough,http://www.houseoffashion.boutique/,,,,,http://www.houseoffashion.boutique/tel:5084096109,508-409-6109,1,MA,02346,clothing_store
Goal Line Pro Shop,"1568 Broadway, Raynham, MA 02767",Sportswear store,Raynham,https://www.goallineproshop.com/,,,,,https://www.goallineproshop.com/contact-us,Contact Us,1,MA,02767,clothing_store
AmeriPride an Aramark Company,"15-B Sylvan St, Middleton, MA 01949",Uniform store,Middleton,https://www.aramarkuniform.com/,,,,,https://www.aramarkuniform.com/industries/food-service,Food Service,1,MA,01949,clothing_store
Cardsmart,"230D S Main St, Middleton, MA 01949",Gift shop,Middleton,http://www.northshorecardsmart.com/,,,,,http://www.northshorecardsmart.com/Contact,Contact,1,MA,01949,clothing_store
ICU Sexy,"216 West St, Hopedale, MA 01747",Dress store,Hopedale,http://www.icusexy.com/,,,,,https://icusexy.com/pages/contact,Contact Information,1,MA,01747,clothing_store
Bolio's Sporting Goods,"194 West St STE 5, Milford, MA 01757",Sporting goods store,Milford,http://www.boliosportinggoods.com/,,,,,http://www.boliosportinggoods.com/index.php?option=com_content&view=article&id=73&Itemid=195,Contact,1,MA,01757,clothing_store
The Blessing Barn Bargain Basement,"5 Hastings St, Mendon, MA 01756",Thrift store,Mendon,http://compassionne.com/,,,,,http://compassionne.com/#!contact,Contact,1,MA,01756,clothing_store
Janee's Originals,"117 Jerrold St, Holliston, MA 01746",Dressmaker,Holliston,http://www.janeesoriginals.com/,,,,,http://www.janeesoriginals.com/mailto:jsoriginals@verizon.net?subject=Saw your website and I'd like more information,Contact me!,1,MA,01746,clothing_store
Kangaroo Crossing Team Sports,"154 Blithewood Ave, Worcester, MA 01604",Sporting goods store,Worcester,http://www.kangarooteamsports.com/,,,,,http://www.kangarooteamsports.com/contact-us.html,Contact Us,1,MA,01604,clothing_store
Bethany House Hope Chest,"1134 Main St, Millis, MA 02054",Thrift store,Millis,http://bethanyhouseministry.com/,,,,,http://www.bethanyhouseministries.org/contact-us/,Contact Us,1,MA,02054,clothing_store
Quality Cleaners Millis,"969 Main St # 1, Millis, MA 02054",Tailor,Millis,http://www.qualitycleanersmillis.com/,,,,,https://qualitycleanersmillis.com/contact-quality-cleaners/,Contact Us,1,MA,02054,clothing_store
Blackbirds Consignment Shop,"1800 Mineral Spring Ave, North Providence, RI 02904",Clothing store,North Providence,http://www.blackbirdsconsignment.com/,,,,,https://www.blackbirdsconsignment.com/contact-us,contact us,1,RI,02904,clothing_store
Boston Fire Apparel,"659 Gallivan Blvd, Boston, MA 02124",Clothing store,Boston,http://bosfireapparel.com/,,,,,http://bosfireapparel.com/#contact-form,Contact,1,MA,02124,clothing_store
Archangel Boutique,"1166 Washington St, Boston, MA 02124",Boutique,Boston,http://www.archangelboutique.com/,,,,,http://www.archangelboutique.com/pages/contact-us,Shipping & Returns,1,MA,02124,clothing_store
I AM FASHION,"1737 Dorchester Ave, Boston, MA 02124",Men's clothing store,Boston,http://www.iamfashionmens.com/,,,,,https://www.iamfashionmens.com,Contact,1,MA,02124,clothing_store
Grono & Christie Jewelers,"536 Adams St, Milton, MA 02186",Jeweler,Milton,http://www.gronoandchristie.com/,,,,,http://www.gronoandchristie.com/contact,Contact,1,MA,02186,clothing_store
Pebble Beach,"660 Cannery Row, Monterey, CA 93940",Clothing store,Monterey,http://www.pebblebeach.com/,,,,,http://www.facebook.com/PebbleBeachResorts,,1,CA,93940,clothing_store
Grace Lifestyle Boutique,"461 Alvarado St, Monterey, CA 93940",Clothing store,Monterey,http://www.gracelifestyleboutique.com/,,,,,http://www.gracelifestyleboutique.com/contact,"  

Visit Us
",1,CA,93940,clothing_store
Habitat,"349 Lenox St, Norwood, MA 02062",Clothing store,Norwood,https://www.habitatclothes.com/,,,,,https://habitatclothes.com/contact/,Contact,1,MA,02062,clothing_store
Artists & Revolutionaries,"445 Warren St, Hudson, NY 12534",Women's clothing store,Hudson,http://artistsandrevolutionaries.com/,,,,,http://artistsandrevolutionaries.com/pages/contact-us,Contact Us,1,NY,12534,clothing_store
White Horse Collection,"28 Main St, Millerton, NY 12546",Boutique,Millerton,http://www.whitehorsecollection.com/,,,,,http://www.whitehorsecollection.com/events/contact,Contact Us,1,NY,12546,clothing_store
source adage fragrances,"314 Warren St, Hudson, NY 12534",Perfume store,Hudson,http://www.sourceadage.com/,,,,,http://www.sourceadage.com/contact,Contact,1,NY,12534,clothing_store
Simons Uniforms,"329 Lynnway, Lynn, MA 01901",Uniform store,Lynn,http://www.simonsuniforms.com/,,"Veteran supplier (since 1885) of professional uniforms, with embroidering & tailoring services.",,,http://www.simonsuniforms.com/find-us-13.html,Find Us,1,MA,01901,clothing_store
JackRabbit,"430 Paradise Rd, Swampscott, MA 01907",Men's clothing store,Swampscott,http://www.jackrabbit.us/,,,,,http://www.jackrabbit.us/contact,Contact,1,MA,01907,clothing_store
Murray's Toggery Shop,"62 Main St, Nantucket, MA 02554",Clothing store,Nantucket,http://www.nantucketreds.com/,,"Long-running store selling Nantucket Reds clothing & other apparel, plus gifts & accessories.",,,http://www.nantucketreds.com/pages/contact,Contact Us,1,MA,02554,clothing_store
Serenella Nantucket,"9B S Beach St, Nantucket, MA 02554",Clothing store,Nantucket,http://www.serenellausa.com/,,,,,http://www.serenellausa.com/contact,"
            CONTACT
          ",1,MA,02554,clothing_store
Haul Over Nantucket,"7 Salem St, Nantucket, MA 02554",Outdoor clothing and equipment shop,Nantucket,http://www.haulovernantucket.com/,,,,,http://haulovernantucket.com/contact/,CONTACT,1,MA,02554,clothing_store
Nantucket Whaler,"7 Old South Wharf, Nantucket, MA 02554",Clothing store,Nantucket,http://www.nantucketwhaler.com/,,,,,http://www.nantucketwhaler.com/pages/contact-us,Customer Service,1,MA,02554,clothing_store
gypsy,"20 Federal St, Nantucket, MA 02554",Clothing store,Nantucket,http://www.gypsyusa.com/,,,,,http://visitor.r20.constantcontact.com/d.jsp?llr=vbkvjscab&p=oi&m=1102273226805&sit=q4t9grtdb&f=264b380c-bb99-4792-a198-56c3167042ce,CLICK HERE TO,1,MA,02554,clothing_store
David Chase,"60 Main St, Nantucket, MA 02554",Clothing store,Nantucket,http://www.davidchaseus.com/,,,,,http://www.davidchaseus.com/#contact,contact,1,MA,02554,clothing_store
Nantucket Boat Basin Authentic Shop,"33 Straight Wharf, Nantucket, MA 02554",Clothing store,Nantucket,http://shop.nantucketboatbasin.com/,,,,,http://shop.nantucketboatbasin.com/pages/help,Contact Us,1,MA,02554,clothing_store
University of Nantucket Clothing Store,"14 S Water St, Nantucket, MA 02554",Clothing store,Nantucket,http://www.uofnantucket.com/,,,,,http://www.uofnantucket.com/pages/contact-us,Contact Us,1,MA,02554,clothing_store
WOW,"14 Needham St, Newton Highlands, MA 02461",Fashion accessories store,Newton Highlands,http://www.shopatwow.com/,,"Local, contemporary boutique offering trendy clothing for women of all sizes, accessories & jewelry.",,,http://www.shopatwow.com/contact-us.html,Contact Us,1,MA,02461,clothing_store
Aribella Collection,"1005 Boylston St, Newton, MA 02461",Children's clothing store,Newton,https://aribellacollection.com/,,,,,https://aribellacollection.com/pages/contact-us,Contact Us,1,MA,02461,clothing_store
Tina's European Fashions,"30 State St, Newburyport, MA 01950",Clothing store,Newburyport,https://www.tinaseuropeanfashions.com/,,,,,https://www.tinaseuropeanfashions.com/pages/contact-us,Contact Us,1,MA,01950,clothing_store
Farley's,"47 State St, Newburyport, MA 01950",Men's clothing store,Newburyport,http://farleysofnewburyport.com/,,,,,http://farleysofnewburyport.com/pages/contact,contact us,1,MA,01950,clothing_store
Vintage Chic,"31R Pleasant St, Newburyport, MA 01950",Gift shop,Newburyport,http://vintagechicanew.com/,,,,,http://vintagechicanew.com/contact.html,"
				Contact
			",1,MA,01950,clothing_store
Joie,"141A Newbury St, Boston, MA 02116",Women's clothing store,Boston,http://www.joie.com/,,,,,https://www.joie.com/customer-care/,Contact Us,1,MA,02116,clothing_store
Betsy Jenney,"59 Union St, Newton, MA 02459",Clothing store,Newton,https://www.betsyjenney.com/,,,,,https://www.betsyjenney.com/contact,Contact Us,1,MA,02459,clothing_store
Sharon Samuels,"32 Lincoln St, Newton, MA 02461",Clothing store,Newton,http://sharonsamuels.com/,,,,,https://www.sharonsamuels.com,Contact,1,MA,02461,clothing_store
Yelena Couture,"11 John St, Newton, MA 02459",Clothing store,Newton,http://www.yelenacouture.com/,,"Custom tailoring & alterations for gowns & formalwear, located within the Mall at Chestnut Hill.",,,http://www.yelenacouture.com/contact.html,"
				Contact
			",1,MA,02459,clothing_store
Truly Rhe,"1 Broadway, Troy, NY 12180",Women's clothing store,Troy,http://www.trulyrhe.com/,,,,,http://www.trulyrhe.com/contact-us," CONTACT US
",1,NY,12180,clothing_store
Guy Cotten Inc,"383 S Front St, New Bedford, MA 02744",Clothing store,New Bedford,https://www.guycottenusa.com/,,,,,https://www.guycottenusa.com/contacts-us/,Contacts Us,1,MA,02744,clothing_store
First Unitarian Church Thrift Shop,"71 8th St, New Bedford, MA 02740",Thrift store,New Bedford,http://uunewbedford.org/,,,,,https://uunewbedford.org/?page_id=77,Contact,1,MA,02740,clothing_store
Art in Gold,"411 Bolton St, New Bedford, MA 02740",Jewelry store,New Bedford,http://www.artingold.org/,,,,,https://www.facebook.com/Art-In-Gold-103735753003507/,,1,MA,02740,clothing_store
Glass Slipper,"1721 Acushnet Ave, New Bedford, MA 02746",Shoe store,New Bedford,http://www.glassslippernb.com/,,,,,http://www.glassslippernb.com/GlassSlipper_Contact.aspx,,1,MA,02746,clothing_store
Toby's Winter Wear,"444 Lower Rd, Gilbertville, MA 01031",Clothing store,Gilbertville,http://www.hardwickfarmers.net/,,,,,http://www.hardwickfarmers.net/contact.html,Contact,1,MA,01031,clothing_store
Trolley Depot,"191 Essex St, Salem, MA 01970",Gift shop,Salem,https://www.trolleydepot.com/,,,,,https://www.trolleydepot.com/pages/contact-us,"
        Contact Us
      ",1,MA,01970,clothing_store
Salemdipity,"86 Wharf St C, Salem, MA 01970",Gift shop,Salem,https://www.salem.org/,,,,,https://visitor.r20.constantcontact.com/d.jsp?llr=iivo5kcab&p=oi&m=1102026593544&sit=dgve6gddb&f=93b8be47-3f30-48ed-9ac1-8f1ea8717488,"

Join Our List  
",1,MA,01970,clothing_store
The Marble Faun Books & Gifts,"102 Wharf St, Salem, MA 01970",Gift shop,Salem,http://themarblefaunbooksandgifts.com/,,,,,http://themarblefaunbooksandgifts.com/pages/contact-us,Contact Us,1,MA,01970,clothing_store
RJ Coins and Jewelry,"68 Wharf St, Salem, MA 01970",Jewelry store,Salem,http://www.rjcoinsjewelry.com/,,"Modest store offering gold, sterling & estate jewelry, collectible coins & watches, plus repairs.",,,https://rjcoinsjewelry.com/homepage/contact-page/,Contact,1,MA,01970,clothing_store
Fragrance Outlet,"1 Premium Outlet Blvd # 365, Wrentham, MA 02093",Perfume store,Wrentham,https://www.fragranceoutlet.com/,,,,,https://www.fragranceoutlet.com/pages/contact-us,Contact Us,1,MA,02093,clothing_store
Northampton Jewelers,"104 Main St, Northampton, MA 01060",Jewelry store,Northampton,http://www.northamptonjewelersinc.com/,,,,,http://www.northamptonjewelersinc.com/contact,Contact,1,MA,01060,clothing_store
Sugarplums,"36 N Main St, North Grafton, MA 01536",Boutique,North Grafton,http://www.danceitup.com/,,,,,http://www.danceitup.com/mailto:danceitup@danceitup.com?subject=Contact Us,danceitup@danceitup.com,1,MA,01536,clothing_store
Clothes Closet,"600 Water St S, Northfield, MN 55057",Clothing store,Northfield,http://communityactioncenter.org/,,,,,https://communityactioncenter.org/contact/,Contact,1,MN,55057,clothing_store
Minnesota Soulstice,"310 Division St S, Northfield, MN 55057",Clothing store,Northfield,http://www.minnesotasoulstice.com/,,,,,http://www.minnesotasoulstice.com/contact," CONTACT

",1,MN,55057,clothing_store
My Best Friend's Closet Northfield,"8316 Northfield Blvd #1635, Denver, CO 80238",Clothing store,Denver,http://www.mybestfriendsclosetcolorado.com/,,"Simple consignment store selling an assortment of women's clothing, shoes & other items.",,,http://www.mybestfriendsclosetcolorado.com/contact.html,Contact,1,CO,80238,clothing_store
Dani Kaye,"85 Main St, North Andover, MA 01845",Women's clothing store,North Andover,http://www.danikaye.com/,,,,,http://www.danikaye.com/pages/contact-us,Contact Us,1,MA,01845,clothing_store
Jarfette,"9 Bartlet St, Andover, MA 01810",Clothing store,Andover,https://jarfette.com/,,,,,https://jarfette.com/contact/,Contact,1,MA,01810,clothing_store
Whirlaway Sports Center,"500 Merrimack St, Methuen, MA 01844",Sporting goods store,Methuen,http://www.whirlawaysports.com/,,,,,http://whirlawaysports.com/contact/,Contact Us,1,MA,01844,clothing_store
Aria Bridal & Formal,"999 S Washington St, North Attleborough, MA 02760",Bridal shop,North Attleborough,https://www.ariacouture.net/,,,,,https://www.ariacouture.net,Contact Us,1,MA,02760,clothing_store
Tower Square Jewelers,"93 Commonwealth Ave, North Attleborough, MA 02763",Jewelry store,North Attleborough,http://towersquarejewelers.com/,,,,,http://towersquarejewelers.com/contact-us/,Contact Us,1,MA,02763,clothing_store
Joker's Wild North Reading,"204 Main St, North Reading, MA 01864",Costume store,North Reading,http://thejokerswild.com/,,,,,http://thejokerswild.com/?page_id=34,Contact Us,1,MA,01864,clothing_store
The Jewelry Vault,"4 Lowell Rd, North Reading, MA 01864",Jewelry store,North Reading,http://www.thejewelryvault.com/,,,,,http://www.thejewelryvault.com/contactus.html,Contact Us,1,MA,01864,clothing_store
Abbott Shoe Store,"254 Main St, North Reading, MA 01864",Shoe store,North Reading,http://www.abbottshoestore.com/,,,,,https://www.abbottshoestore.com/contact,Contact,1,MA,01864,clothing_store
Tuxtowne By Bejarano,"40 Main St, Taunton, MA 02780",Clothing store,Taunton,http://tux-towne.com/,,,,,http://tux-towne.com/contact/,Contact,1,MA,02780,clothing_store
Bassy's Tailoring,"320 W Main St, Norton, MA 02766",Tailor,Norton,https://www.bassystailoring.com/,,,,,https://www.bassystailoring.com/contact-bassy.html,Contact Bassy,1,MA,02766,clothing_store
River Rover Farm,"152 River St, Norwell, MA 02061",Outdoor clothing and equipment shop,Norwell,http://www.theriverrover.com/,,,,,http://www.theriverrover.com/contact,"
                  Contact
                ",1,MA,02061,clothing_store
New England Comfort Shoes Inc,"263 Washington St, Norwell, MA 02061",Orthopedic shoe store,Norwell,http://www.newenglandcomfortshoes.com/,,,,,http://www.newenglandcomfortshoes.com/styled-2/index.html,Contact Us,1,MA,02061,clothing_store
Attitudes Boutique,"61 Endicott St, Winsmith Mill, Bldg 23, Norwood, MA 02062",Boutique,Norwood,http://www.attitudesscoop.com/,,,,,http://www.attitudesscoop.com/,Contact Us,1,MA,02062,clothing_store
CHELALA JEWELRY&GIFTS,"696 Washington St, Norwood, MA 02062",Jeweler,Norwood,http://chelalajewelers.com/,,,,,http://chelalajewelers.com/about-us-%2F-contact,About Us / Contact,1,MA,02062,clothing_store
Sandro Bloomingdales Ma Chestnut Hill  Temporarily Closed,"225 Boylston St, Chestnut Hill, MA 02467",Clothing store,Chestnut Hill,https://us.sandro-paris.com/,,,,,https://us.sandro-paris.com/en/contactus,Contact Us,1,MA,02467,clothing_store
DawsonForte Cashmere Co,"8 Pleasant St S # A, Natick, MA 01760",Clothing store,Natick,http://www.kinrosscashmere.com/,,,,,https://www.kinrosscashmere.com/contact-kinross-cashmere/,Contact,1,MA,01760,clothing_store
Cottage Haven Interiors,"18 Beach St, Vineyard Haven, MA 02568",Clothing store,Vineyard Haven,http://www.cottagehaveninteriors.com/,,,,,http://www.cottagehaveninteriors.com/pages/contact-us,Contact Us,1,MA,02568,clothing_store
Salty Crown Boutique,"39 Main St, Orleans, MA 02653",Fashion accessories store,Orleans,https://www.saltycrownboutique.com/,,,,,https://www.saltycrownboutique.com/contact,Contact,1,MA,02653,clothing_store
St Joan of Arc ChurchThrift Shop,"Canal Rd, Orleans, MA 02653",Thrift store,Orleans,http://joanarc.org/,,,,,http://www.joanarc.org/contact_us.htm,"Contact 
Us",1,MA,02653,clothing_store
Stephen Gallant Jewelers,"34 Main St, Orleans, MA 02653",Jewelry store,Orleans,http://www.gallantjewelers.com/,,,,,http://www.gallantjewelers.com/contact.php,Contact,1,MA,02653,clothing_store
Chatham Works,"323 Orleans Rd, North Chatham, MA 02650",Clothing store,North Chatham,http://www.chathamworks.com/,,,,,https://chathamworks.com/contact,Contact Us,1,MA,02650,clothing_store
The Black Squirrel,"75 Blair Rd, Blandford, MA 01008",Clothing store,Blandford,http://theblacksquirrel.com/,,,,,http://theblacksquirrel.com/contact.html,"
				Contact
			",1,MA,01008,clothing_store
Friend To Friend Thrift Shop,"32 Spoonville Rd, East Granby, CT 06026",Thrift store,East Granby,http://www.friendtofriendeg.com/,,,,,http://www.friendtofriendeg.com/contact.html,"
		    Contact
		  ",1,CT,06026,clothing_store
Palmer Pro Bike Inc,"1438 N Main St, Palmer, MA 01069",Sporting goods store,Palmer,http://palprobike.com/,,,,,http://palprobike.com/#contact,Contact,1,MA,01069,clothing_store
Elizabeth Ann's OfftheRack,"340 Highland St, Worcester, MA 01602",Bridal shop,Worcester,http://www.elizabethannsofftherack.com/,,,,,http://www.elizabethannsofftherack.com/mailto:elizabethannbridalboutique@yahoo.com,elizabethannbridalboutique@yahoo.com,1,MA,01602,clothing_store
New England for Trump Hats Tshirts & More,"134 Newbury St, Peabody, MA 01960",Clothing store,Peabody,http://nefortrump.com/,,,,,https://nefortrump.com/contact/,Contact,1,MA,01960,clothing_store
Joker's Wild,"85 Andover St, Danvers, MA 01923",Costume store,Danvers,http://www.thejokerswild.com/,,,,,http://thejokerswild.com/?page_id=34,Contact Us,1,MA,01923,clothing_store
Karnow Brothers GlovesWork,"147 Summit St STE 3D, Peabody, MA 01960",Hat shop,Peabody,http://karnowbros.com/,,,,,http://karnowbros.com/contact-us-2.html,Contact Us,1,MA,01960,clothing_store
Events by Pamela Joy,"18 Boyden Rd, Pelham, MA 01002",Wedding planner,Pelham,https://eventsbypamelajoy.weebly.com/,,,,,https://eventsbypamelajoy.weebly.com/contact-me.html,"
								Contact Me
							",1,MA,01002,clothing_store
Frank's Sports Shop,"430 E Tremont Ave, The Bronx, NY 10457",Sporting goods store,The Bronx,https://www.frankssports.com/,,"Large sporting goods shop stocking athletic wear & equipment, plus outdoor & military gear.",,,https://www.frankssports.com/ContactUs.aspx, Contact Us ,1,NY,10457,clothing_store
Bellestar Jewelry,"95 Church St, Pembroke, MA 02359",Jewelry store,Pembroke,http://bellestarjewelry.com/,,,,,https://www.bellestarjewelry.com/contact,CONTACT,1,MA,02359,clothing_store
Annie Selke Outlet,"125 Pecks Rd, Pittsfield, MA 01201",Linens store,Pittsfield,https://outlet.annieselke.com/,,,,,https://annieselke.com/contact,Help and Info,1,MA,01201,clothing_store
Central Berkshire Habitat For Humanity ReStore,"399 Hubbard Ave, Pittsfield, MA 01201",Thrift store,Pittsfield,https://berkshirehabitat.org/,,,,,https://berkshirehabitat.org/about-us/contact-us,Contact Us,1,MA,01201,clothing_store
St Vincent de Paul Society,"173 Washington St, Plainville, MA 02762",Thrift store,Plainville,http://www.svdpboston.com/,,,,,http://www.svdpboston.com/contact.php,Contact Us,1,MA,02762,clothing_store
instyle fragrances,"101 Independence Mall Way, Kingston, MA 02364",Perfume store,Kingston,https://www.instylefragrances.com/,,,,,https://www.instylefragrances.com/pages/contact-us,Contact,1,MA,02364,clothing_store
Active Soles,"318 Court St, Plymouth, MA 02360",Shoe store,Plymouth,http://www.activesoles.com/,,,,,https://www.activesoles.com/contact-us/,Contact Us,1,MA,02360,clothing_store
3 Daughters Jewelry,"114 Water St, Plymouth, MA 02360",Jewelry store,Plymouth,http://www.3daughtersjewelry.com/,,,,,https://3daughtersjewelry.com/contact/,Contact,1,MA,02360,clothing_store
Whimsical Wishes,"170 Water St # 18, Plymouth, MA 02360",Gift shop,Plymouth,http://whimsicalwishesplymouth.com/,,,,,http://whimsicalwishesplymouth.com/contact/,Contact,1,MA,02360,clothing_store
Reliable Cleaners,"30 Sandwich St, Plymouth, MA 02360",Clothing alteration service,Plymouth,https://www.reliablecleanersplymouth.com/,,,,,https://www.reliablecleanersplymouth.com/contact-us,"
            Contact Us
          ",1,MA,02360,clothing_store
Vintage In Vogue,"237-241 Commercial St, Provincetown, MA 02657",Vintage clothing store,Provincetown,https://www.vintageinvogue.com/,,,,,https://www.vintageinvogue.com/contact,CONTACT,1,MA,02657,clothing_store
Kenneth Scott,"331 Commercial St, Provincetown, MA 02657",Clothing store,Provincetown,http://www.kenneth-scott.com/,,,,,http://www.kenneth-scott.com/contact-us,Contact Us,1,MA,02657,clothing_store
Grandasia Bridal Prom & Fashion Emporium,"1259 Hancock St, Quincy, MA 02169",Women's clothing store,Quincy,https://www.grandasia.com/,,"Intimate bridal shop showcasing high-end formalwear,  including traditional Chinese wedding gowns.",,,https://www.grandasia.com/pages/contact-us,Contact us,1,MA,02169,clothing_store
OnTrend Consignment,"152 Franklin St, Quincy, MA 02169",Fashion accessories store,Quincy,http://www.ontrendconsignment.com/,,,,,http://www.ontrendconsignment.com/contact-us/4490902,CONTACT US,1,MA,02169,clothing_store
Zamforia Global Threads,"188 Sea St, Quincy, MA 02169",Clothing store,Quincy,http://www.zamforia.com/,,,,,http://www.zamforia.com/pages/contact-us,Contact Us,1,MA,02169,clothing_store
MommaMe Boutique,"32 Skyline Dr, Braintree, MA 02184",Children's clothing store,Braintree,http://www.mommamefashion.com/,,,,,http://www.mommamefashion.com/pages/contact-us,Contact Us,1,MA,02184,clothing_store
The Bureau Drawer Thrift Shop,"105 Adams St, Quincy, MA 02169",Thrift store,Quincy,http://interfaithsocialservices.org/,,,,,https://interfaithsocialservices.org/contact-us/,Contact Us,1,MA,02169,clothing_store
I Do Wedding Dresses and Photography,"283 Tremont St, Boston, MA 02116",Bridal shop,Boston,https://www.idowedding.co/,,"Salon selling & renting bridal gowns. Photography, makeup & styling services are also available.",,,"http://maps.google.com/?q=283A Tremont Street, Boston, MA 02116",,1,MA,02116,clothing_store
Winding River Clothing,"137 Bay State Dr, Braintree, MA 02184",Clothing store,Braintree,https://www.windingriverclothing.com/,,,,,https://www.windingriverclothing.com/contact,Contact Us,1,MA,02184,clothing_store
Pink Shoe Lounge & Boutique,"1294 Blue Hill Avenue, Boston, MA 02126",Boutique,Boston,https://www.shoeboutiqueboston.com/,,,,,https://www.shoeboutiqueboston.com/contact,"

                                Contact Us
                            
",1,MA,02126,clothing_store
Raynham Flea Market,"480 S St W, Raynham, MA 02767",Flea market,Raynham,http://www.raynhamflea.com/,,"Decades-old, weekend destination with merchants of new & used items, from clothing to collectibles.",,,http://www.raynhamflea.com/contact-us/,Contact,1,MA,02767,clothing_store
J B Pride Uniforms,"39 Cummings Park Dr, Woburn, MA 01801",Uniform store,Woburn,http://www.jbprideuniforms.com/,,,,,https://www.jbprideuniforms.com/uniforms/content/contact-us,Contact,1,MA,01801,clothing_store
Gianna's Bridal & Boutique,"4 Franklin St, Stoneham, MA 02180",Bridal shop,Stoneham,http://www.giannabridal.com/,,Long-running shop offering both off-the-rack & special-order gowns for brides & bridal parties.,,,http://www.giannabridal.com/contactus.html,,1,MA,02180,clothing_store
Simms Jewelers Inc,"648 Main St, Reading, MA 01867",Jeweler,Reading,http://simmsjewelers.net/,,,,,https://simmsjewelers.net/contact/,CONTACT,1,MA,01867,clothing_store
Silver Willow,"54 Fall River Ave, Rehoboth, MA 02769",Gift shop,Rehoboth,http://www.thesilverwillow.com/,,,,,http://www.thesilverwillow.com/Contact/,Contact,1,MA,02769,clothing_store
Ana's Bridal Boutique,"456 Warren Ave, East Providence, RI 02914",Bridal shop,East Providence,http://www.anasbridal.com/,,"Family-owned formalwear boutique carrying dresses for weddings, proms & pageants, plus tuxedos.",,,http://www.anasbridal.com/contact-us,"Contact us
    ",1,RI,02914,clothing_store
Your Sister's Boutique,"207B Squire Rd, Revere, MA 02151",Boutique,Revere,http://yoursistersboutiqueonline.com/,,,,,https://www.yoursistersboutiqueonline.com,Contact,1,MA,02151,clothing_store
Lavilla Jeweler,"10227 S De Anza Blvd, Cupertino, CA 95014",Jewelry store,Cupertino,https://vardys.com/,,"Local shop specializing in diamonds & wedding rings, baubles, stone cutting, engraving & repairs.",,,https://www.vardys.com/contact-us/,Contact Us,1,CA,95014,clothing_store
Need Supply Co,"3100 W Cary St, Richmond, VA 23221",Clothing store,Richmond,http://needsupply.com/,,"Sleek, modern boutique offering trendy men's & women's clothing & shoes, plus home accessories.",,,https://needsupply.com/need-contact.html,Contact Us,1,VA,23221,clothing_store
Bygones Vintage Clothing,"2916 W Cary St, Richmond, VA 23221",Vintage clothing store,Richmond,http://www.bygonesvintage.com/,,1900–1969 clothes & accessories for men & women are the specialty at this long-running boutique.,,,http://www.bygonesvintage.com/pages/contact-us,"
            Contact Us
            
          ",1,VA,23221,clothing_store
Richmond Hood Company,"827 Castleton Ave, Staten Island, NY 10310",Clothing store,Staten Island,http://www.richmondhood.com/,,,,,https://www.richmondhood.com/contact/,Contact,1,NY,10310,clothing_store
Artisan Bake Shop,"265 Walnut Plain Rd, Rochester, MA 02770",Wedding bakery,Rochester,http://www.artisanbakeshop.com/,,,,,http://www.artisanbakeshop.com/contact.htm,Contact Us,1,MA,02770,clothing_store
Slade Formal Wear Inc,"331 State Rd, North Dartmouth, MA 02747",Tuxedo shop,North Dartmouth,http://www.sladeformalwear.com/,,,,,https://www.tuxedobysarno.com/contact/,Contact Us,1,MA,02747,clothing_store
Statement Boutique,"370 Park Ave, Rochester, NY 14607",Clothing store,Rochester,http://www.shopatstatement.com/,,,,,http://www.shopatstatement.com/contact,"
                Contact
              ",1,NY,14607,clothing_store
The Naut shore,"6 Dock Square, Rockport, MA 01966",Clothing store,Rockport,http://nautshore.boston/,,,,,http://nautshore.boston/contact-us,Contact Us,1,MA,01966,clothing_store
Carol Lee's Cottage,"24 Bearskin Neck, Rockport, MA 01966",Gift shop,Rockport,https://carolleescottage.com/,,,,,https://carolleescottage.com/contact-carol-lees-cottage/#hours,Hours,1,MA,01966,clothing_store
La Provence,"4 Main St, Rockport, MA 01966",Gift shop,Rockport,http://www.laprov.com/,,,,,http://www.laprov.com/contact,Contact,1,MA,01966,clothing_store
Lynn's Vintage Flair,"244 Newburyport Turnpike, Rowley, MA 01969",Thrift store,Rowley,http://www.lynnsvintageflair.com/,,,,,http://www.lynnsvintageflair.com/Contact,Contact,1,MA,01969,clothing_store
Sunburst Trading,"160 Newburyport Turnpike, Rowley, MA 01969",Jewelry store,Rowley,http://www.sunbursttrading.com/,,,,,https://www.sunbursttrading.com/contact-us,CONTACT US,1,MA,01969,clothing_store
Peabody Essex Museum Shop,"161 Essex St, Salem, MA 01970",Clothing store,Salem,http://pemshop.com/,,"Gift shop at the Peabody Essex Museum selling ship models, prints, stationery & apparel.",,,http://pemshop.com/mailto:contactus@pem.org,Contact Uscontactus@pem.org978-542-1633978-542-1619,1,MA,01970,clothing_store
Todd Farm Flea Market,"283 Main St, Rowley, MA 01969",Flea market,Rowley,http://www.toddfarm.com/,,,,,http://www.toddfarm.com/#contact,Contact,1,MA,01969,clothing_store
SANDY'S FLEA MARKET,"31 Main St, Rowley, MA 01969",Flea market,Rowley,http://facebook.com/,,,,,http://facebook.com/#,Contact The Antiques Cottage on Messenger,1,MA,01969,clothing_store
Little League Store,"539 US-15, Williamsport, PA 17702",Clothing store,Williamsport,http://www.littleleaguestore.net/,,,,,https://www.littleleaguestore.net/contacts/,Contact Us,1,PA,17702,clothing_store
Camille's Experienced Clothing,"44 Merchants Row, Rutland, VT 05701",Costume store,Rutland,http://camillesvermontcostume.com/,,,,,http://camillesvermontcostume.com/contact-us.html,"
								Contact Us
							",1,VT,05701,clothing_store
The Felt Fanatic,"41 Mason St #6, Salem, MA 01970",Vintage clothing store,Salem,http://thefeltfanatic.com/,,,,,http://thefeltfanatic.com/contact-us/,CONTACT US,1,MA,01970,clothing_store
A Beautiful Corset,"10 Derby Square, Salem, MA 01970",Clothing store,Salem,http://www.abeautifulcorset.com/,,,,,http://www.abeautifulcorset.com/contact-us,Contact Us,1,MA,01970,clothing_store
Serendipity Boutique and Gallery,"3AA and 3BB, West St, Litchfield, CT 06759",Vintage clothing store,Litchfield,http://www.serendipityoflitchfield.com/,,,,,https://serendipityoflitchfield.com/contact/,Contact,1,CT,06759,clothing_store
Stephanie's,"132 MA-6A, Sandwich, MA 02563",Gift shop,Sandwich,https://stephaniescapecod.net/,,,,,https://stephaniescapecod.net/contact-us,Contact Us ,1,MA,02563,clothing_store
Cape Cod Gold & Silver,"101 MA-6A, Sandwich, MA 02563",Jewelry buyer,Sandwich,http://capecodgoldandsilver.com/,,,,,https://capecodgoldandsilver.com/contact-us/,Contact Us,1,MA,02563,clothing_store
Stylish Unique,"P.O.BOX 905, Saugus, MA 01906",Clothing store,Saugus,http://www.stylishunique.com/,,,,,//www.hugedomains.com/contact.cfm,Contact Us,1,MA,01906,clothing_store
Rahoo Baby,"15 Maple Ave, Scituate, MA 02066",Baby store,Scituate,http://rahoobaby.com/,,,,,http://rahoobaby.com/pages/contact-us,"
CONTACT US
",1,MA,02066,clothing_store
Welch Company,"132 Front St, Scituate, MA 02066",Gift shop,Scituate,http://www.welchcompany.com/,,,,,http://www.welchcompany.com/contact,Contact,1,MA,02066,clothing_store
Joye,"196 Front St #1330, Scituate, MA 02066",Gift shop,Scituate,http://www.joyegifts.com/,,,,,http://www.joyegifts.com/contact-us,"
Contact Us
",1,MA,02066,clothing_store
Amanda Catherine Custom Design,"44 Kane Dr, Scituate, MA 02066",Wedding service,Scituate,http://amandacatherinecustomdesign.com/,,,,,https://www.amandacatherinecustomdesign.com/contact,Contact,1,MA,02066,clothing_store
Maverick The Collection  Jennifer,"34 Captain John Jacobs Rd, East Providence, RI 02914",Women's clothing store,East Providence,https://jennifer.maverickthecollection.com/,,,,,https://jennifer.maverickthecollection.com/contact,Contact Me,1,RI,02914,clothing_store
Thrifty Goose Thrift Shop,"50 Orchard Ave, Providence, RI 02906",Clothing store,Providence,http://stmartinsprov.org/,,,,,http://stmartinsprov.org/#,Contact,1,RI,02906,clothing_store
Milan Clothiers,"178 Wayland Ave, Providence, RI 02906",Men's clothing store,Providence,https://www.milanclothiers.com/,,,,,https://milanclothiers.com/contact/,Contact,1,RI,02906,clothing_store
SPECTRUMINDIA,"252 Thayer St, Providence, RI 02906",Clothing store,Providence,http://www.spectrumindiastore.com/,,"Store featuring an eclectic selection of bohemian & Indian-style clothing, plus home decor & gifts.",,,http://www.spectrumindiastore.com/contact-us,Contact Us,1,RI,02906,clothing_store
Celina's Tailoring Stoughton,"4 Porter St, Stoughton, MA 02072",Custom tailor,Stoughton,http://www.celinastailoringstoughton.com/,,,,,http://www.celinastailoringstoughton.com/contact-us.html,Contact Us,1,MA,02072,clothing_store
Denise Hajjar,"304 Marina Dr, Quincy, MA 02171",Fashion designer,Quincy,http://www.denisehajjar.com/,,,,,https://www.denisehajjar.com/contact-us,Contact Us,1,MA,02171,clothing_store
Osgood Textile Company,"333 Park St, West Springfield, MA 01089",Fabric store,West Springfield,http://www.osgoodtextile.com/,,"Large, family-owned warehouse space showcasing a large collection of fabrics, blinds & accessories.",,,http://www.osgoodtextile.com/contact_us.html,Contact Us,1,MA,01089,clothing_store
Gerry Cosby & Co Inc,"11 Pennsylvania Plaza, New York, NY 10001",Sporting goods store,New York,http://www.cosbysports.com/,,"Institution for Knicks & Rangers apparel, plus sports equipment, with a focus on hockey & football.",,,http://cosbysports.com/contact-us,CONTACT US,1,NY,10001,clothing_store
St Anne's Human Services,"130 Boston Turnpike, Shrewsbury, MA 01545",Thrift store,Shrewsbury,http://www.stannesparish.org/,,,,,http://www.stannesparish.org/contactus.php,Contacts and Hours,1,MA,01545,clothing_store
Sneakerama,"12 Lake Ave, Worcester, MA 01604",Shoe store,Worcester,http://sneakerama.com/,,,,,http://sneakerama.com/content/find-us,Find Us,1,MA,01604,clothing_store
Pierce Jewelers,"255 County St # 1, Somerset, MA 02726",Jeweler,Somerset,http://www.jewelconnect.com/,,,,,http://www.jewelconnect.com/store/contact.php?storeid=5086753443,Contact,1,MA,02726,clothing_store
Sonya's Clothing,"766 Oaklawn Ave, Cranston, RI 02920",Formal wear store,Cranston,http://sonyasclothing.com/,,"Spacious, funky women's boutique selling a variety of designer formalwear & casualwear.",,,http://sonyasclothing.com/./t4/contact-us.html,Contact Us,1,RI,02920,clothing_store
NRO Boston,"39 Charles St, Boston, MA 02114",Women's clothing store,Boston,http://www.nroco.com/,,"Plaids, tweeds & other New England classics for all ages, plus resortwear, footwear & accessories.",,,https://www.nroco.com/contact,CONTACT,1,MA,02114,clothing_store
Magpie,"416 Highland Ave, Somerville, MA 02144",Gift shop,Somerville,https://magpie-store.com/,,"Compact shop specializing in local, handmade crafts, including  jewelry, cards, stationery & gifts.",,,https://magpie-store.com/pages/contact-us,Contact Us,1,MA,02144,clothing_store
Colesce Couture,"6 Bluemer Rd, Southampton, MA 01073",Clothing store,Southampton,http://www.lingeriepartybiz.com/,,,,,http://www.lingeriepartybiz.com/contact.htm,"contact 
        us",1,MA,01073,clothing_store
Yellow Bear Market,"642 College Hwy, Southwick, MA 01077",Flea market,Southwick,http://yellowbearmarket.com/,,,,,http://yellowbearmarket.com/contact-us/,"
                                    Contact Us
                                ",1,MA,01077,clothing_store
Zukas Hilltop Barn,"89 Smithville Rd, Spencer, MA 01562",Wedding venue,Spencer,https://www.zukas.com/,,,,,https://www.zukas.com/directions/,Contact Us,1,MA,01562,clothing_store
The Builders Fashion Club,"Main St, Springfield, MA 01103",Clothing store,Springfield,https://the-builders-fashion-club-1.ueniweb.com/,,,,,https://the-builders-fashion-club-1.ueniweb.com/#contact_us,Contact Us,1,MA,01103,clothing_store
White's,"41 Maple St, East Longmeadow, MA 01028",Clothing store,East Longmeadow,http://shopwhites.com/,,,,,https://shopwhites.com/contact-directions/,Contact & Directions,1,MA,01028,clothing_store
Andre's West Side Sport Shop,"645 Westfield St #101, West Springfield, MA 01089",Sporting goods store,West Springfield,http://andreswestsidesportshop.com/,,,,,http://andreswestsidesportshop.com/contactus/,Contact Us ,1,MA,01089,clothing_store
Marquis Jewelers,"80 Winchester St, Newton, MA 02461",Jeweler,Newton,http://www.marquisjewelers.com/,,"Big store offering jewelry & watches plus upscale gifts like crystal, clocks, pens & picture frames.",,,http://www.marquisjewelers.com/about-uscontact.html,"

			About Us/Contact
		
",1,MA,02461,clothing_store
Sidetracks,"8 Elm St, Stockbridge, MA 01262",Gift shop,Stockbridge,https://stockbridgechamber.org/,,,,,https://stockbridgechamber.org/contact/,Contact,1,MA,01262,clothing_store
Stoneham Sports Center,"9 Central St, Stoneham, MA 02180",Sporting goods store,Stoneham,http://www.mainstreetsportswear.com/,,,,,http://www.mainstreetsportswear.com/contact-us.html,Contact Us,1,MA,02180,clothing_store
SoleAmour,"17 Thompson St, Winchester, MA 01890",Women's clothing store,Winchester,https://www.soleamour.com/,,,,,https://www.soleamour.com/contact/,CONTACT,1,MA,01890,clothing_store
Precious Metals Sudbury,"353 Boston Post Rd Suite 1, Sudbury, MA 01776",Jewelry designer,Sudbury,https://www.preciousmetalssudbury.com/,,,,,https://www.preciousmetalssudbury.com/contact,C O N T A C T,1,MA,01776,clothing_store
Date & Time,"5 Concord Rd, Sudbury, MA 01776",Watch store,Sudbury,http://dateandtimema.com/,,,,,http://dateandtimema.com/pages/contact,SERVICE & SUPPORT,1,MA,01776,clothing_store
Miles to Go Sports,"160 Worcester-Providence Turnpike, Sutton, MA 01590",Clothing store,Sutton,http://www.milestogosports.com/,,,,,http://www.milestogosports.com/contact-us,Contact Us,1,MA,01590,clothing_store
Vaillancourt Folk Art,"9 Main St #1h, Sutton, MA 01590",Gift shop,Sutton,https://valfa.com/,,,,,https://valfa.com/corporate/collector-services/,Contact Us,1,MA,01590,clothing_store
Plante Jewelers,"207 Swansea Mall Dr #160, Swansea, MA 02777",Jeweler,Swansea,https://www.plantejewelers.com/,,,,,https://www.plantejewelers.com/pages/contact-us,Contact Us,1,MA,02777,clothing_store
Great Finds Yours and Mine,"1243 Mineral Spring Ave, North Providence, RI 02904",Clothing store,North Providence,https://greatfindsyoursmineri.com/,,,,,https://greatfindsyoursmineri.com/contact-us,Contact Us,1,RI,02904,clothing_store
St Pierre's Shoes,"77 Main St, Taunton, MA 02780",Shoe store,Taunton,http://www.stpierreshoe.com/,,,,,http://www.stpierreshoe.com/contact.php,Contact,1,MA,02780,clothing_store
UniT,"122 Western Ave, Lowell, MA 01851",Gift shop,Lowell,http://www.westernavenuestudios.com/,,"Industrial 5-story space featuring open artists' studios & vendors, with many classes available.",,,https://westernavenuestudios.com/contact/,Contact,1,MA,01851,clothing_store
Bernard Jewelers,"1099 Main St, Tewksbury, MA 01876",Jeweler,Tewksbury,http://bernardjewelerstewksbury.com/,,,,,https://bernardjewelerstewksbury.com/contact/,Contact,1,MA,01876,clothing_store
Head Over Heels Bridal Boutique,"52 Market St, Mashpee, MA 02649",Bridal shop,Mashpee,http://www.hohbridal.com/,,"Airy, shabby-chic showroom for stylish, sophisticated bridal gowns & handmade wedding favors.",,,http://www.hohbridal.com/contact,Contact Us,1,MA,02649,clothing_store
K M Hudson Ltd,"29 Steeple St, Mashpee, MA 02649",Lingerie store,Mashpee,http://katherinemhudson.com/,,,,,https://katherinemhudson.com/contact-us/,Contact Us,1,MA,02649,clothing_store
Child's Replay,"328 Main St #28, Winsted, CT 06098",Children's clothing store,Winsted,https://www.childsreplay.com/,,,,,https://www.childsreplay.com/contact-us,Contact,1,CT,06098,clothing_store
Willowdale Estate,"24 Asbury St, Topsfield, MA 01983",Wedding venue,Topsfield,http://www.willowdaleestate.com/,,,,,https://www.willowdaleestate.com/contact/,Contact,1,MA,01983,clothing_store
The Commons 1854,"4 N Common St, Topsfield, MA 01983",Wedding venue,Topsfield,http://www.thecommons1854.com/,,,,,http://www.thecommons1854.com/contact,"
              Contact | Book tour
            ",1,MA,01983,clothing_store
Squirrel Eze & Friends,"18 Highland St, Townsend, MA 01469",Gift shop,Townsend,http://www.squirreleze.com/,,,,,https://www.squirrelezeshop.com/index.php?route=information/contact,,1,MA,01469,clothing_store
Cape Tip Sportswear,"224 Commercial St, Provincetown, MA 02657",Sportswear store,Provincetown,http://capetipsports.com/,,,,,http://capetipsports.com/contact-us.php,Contact Us,1,MA,02657,clothing_store
Loveland Bohemian Marine,"120 Commercial St, Provincetown, MA 02657",Clothing store,Provincetown,https://www.lovelandbohemianmarine.com/,,,,,https://www.lovelandbohemianmarine.com/contact,CONTACT,1,MA,02657,clothing_store
Naturino,"440 Middlesex Rd, Tyngsborough, MA 01879",Shoe store,Tyngsborough,http://www.naturinooutlet.com/,,,,,http://www.naturinooutlet.com/en_en/contact-us/,"
Contact Us
",1,MA,01879,clothing_store
Santarella,"75 Main Rd, Lee, MA 01238",Wedding venue,Lee,http://santarella.us/,,,,,http://santarella.us/contact-3/,Contact,1,MA,01238,clothing_store
Wakefield Gold & Silver Exchange,"364 Main St, Wakefield, MA 01880",Jewelry repair service,Wakefield,http://www.wakefieldjewelers.com/,,,,,https://wakefieldjewelers.com/contact/,Contact,1,MA,01880,clothing_store
Monique Rancourt Artisan Gallery,"289 Moody St, Waltham, MA 02453",Clothing store,Waltham,http://moniquerancourt.com/,,,,,http://moniquerancourt.com/contact,"
Contact
",1,MA,02453,clothing_store
Descar Jewelry Design LTD,"49 River St, Waltham, MA 02453",Jeweler,Waltham,http://www.descar.com/,,"Family-run store providing fine jewelry, including custom & estate pieces, plus repair services.",,,https://descar.com/contact-us/,Contact Us,1,MA,02453,clothing_store
Talk of the Town,"85 Main St, Ware, MA 01082",Gift shop,Ware,http://www.talkofthetownwarema.com/,,,,,http://www.talkofthetownwarema.com/contact,Contact,1,MA,01082,clothing_store
Soka European Boutique,"308A Watertown St, Newton, MA 02458",Dress store,Newton,http://www.sokaeuropeanboutique.com/,,,,,http://www.sokaeuropeanboutique.com/#contact-us,contact us,1,MA,02458,clothing_store
Designers Circus Corporation,"1 Braintree St, Allston, MA 01234",Women's clothing store,Allston,http://www.designerscircus.com/,,,,,http://www.designerscircus.com/contact.html,IN STORE SERVICES,1,MA,01234,clothing_store
BLING,"104 Main St, Watertown, MA 02472",Jewelry store,Watertown,http://www.blingstrong.com/,,,,,http://www.blingstrong.com/pages/contact-us,Contact Us,1,MA,02472,clothing_store
Closet to Closet Kids,"92 Park Ave, Natick, MA 01760",Children's clothing store,Natick,https://natickconsignmentshop.com/,,,,,https://natickconsignmentshop.com/contact,"

                                Contact Us
                            
",1,MA,01760,clothing_store
Wayland Depot,"1 Cochituate Rd, Wayland, MA 01778",Gift shop,Wayland,http://www.thewaylanddepot.com/,,,,,http://thewaylanddepot.com/about-us/contact/,Contact,1,MA,01778,clothing_store
Closet Classics,"131 E Main St, Webster, MA 01570",Thrift store,Webster,http://life-skillsinc.org/,,,,,https://life-skillsinc.org/contact/,Contact,1,MA,01570,clothing_store
A&L Marketplace,"130 Main Street, Putnam, CT 06260",Boutique,Putnam,http://www.alcorganics.com/,,,,,http://www.alcorganics.com/contact,"
            Contact
          ",1,CT,06260,clothing_store
FootStock,"33 Central St, Wellesley, MA 02482",Shoe store,Wellesley,http://www.footstockshoes.com/,,,,,http://visitor.r20.constantcontact.com/d.jsp?llr=lpgz9voab&p=oi&m=1115276745195&sit=yvafibhib&f=453e0755-474a-4e18-b705-6cd23779300b,Join our email list!,1,MA,02482,clothing_store
Pine Straw,"466 Washington St, Wellesley, MA 02482",Gift shop,Wellesley,http://www.livegivepinestraw.com/,,,,,http://www.livegivepinestraw.com/contactus,Contact,1,MA,02482,clothing_store
European Manor,"556 Washington St, Wellesley, MA 02482",Gift shop,Wellesley,http://europeanmanor.com/,,,,,https://visitor.r20.constantcontact.com/d.jsp?llr=okh7gggab&p=oi&m=1106162621774&sit=9wpfm7cgb&f=a36e34fa-c44d-4f0b-ab58-5a78e81e10f6,"
Join Our Mailing List
",1,MA,02482,clothing_store
Lux Bond & Green  Official Rolex(c) Jeweler,"60 Central St, Wellesley, MA 02482",Jeweler,Wellesley,https://www.lbgreen.com/,,,,,https://www.lbgreen.com/customer-service/contact-us,Customer Service,1,MA,02482,clothing_store
Joel Bagnal Goldsmith,"101 Central St, Wellesley, MA 02482",Jeweler,Wellesley,https://www.joelbagnal.com/,,,,,https://www.joelbagnal.com/contact,"
            Contact
          ",1,MA,02482,clothing_store
Periwinkle,"25 Bank St, Wellfleet, MA 02667",Gift shop,Wellfleet,http://periwinklewellfleet.com/,,,,,http://periwinklewellfleet.com/contact.html,Contact,1,MA,02667,clothing_store
Wellfleet Marine Corporation,"25 Holbrook Ave, Wellfleet, MA 02667",Gift shop,Wellfleet,http://www.wellfleetmarine.com/,,,,,http://www.wellfleetmarine.com/pages/contact,"
                          Contact
                        ",1,MA,02667,clothing_store
Steele Active,"296 Commercial St, Provincetown, MA 02657",Clothing store,Provincetown,http://steeleactive.com/,,,,,https://www.steeleactive.com/contact/,Contact,1,MA,02657,clothing_store
Viola,"148 Main St, Wenham, MA 01984",Shoe store,Wenham,http://www.violalovely.com/,,,,,http://www.violalovely.com/pages/contact,"
							Contact
						",1,MA,01984,clothing_store
Sports Stop,"67 Main St, Wenham, MA 01984",Sporting goods store,Wenham,http://www.sportsstopwenham.com/,,,,,http://visitor.r20.constantcontact.com/d.jsp?llr=ac96ilcab&p=oi&m=1102037575744&sit=lagiadedb&f=a636a152-5e40-4dbf-836a-36a3472a33aa,"
",1,MA,01984,clothing_store
PR Running,"18 Lyman St, Westborough, MA 01581",Shoe store,Westborough,http://www.myprrun.com/,,,,,http://myprrun.com/contact-us/,Contact Us,1,MA,01581,clothing_store
Towne & Country Jewelers,"164 Milk St #5, Westborough, MA 01581",Jeweler,Westborough,http://www.towneandcountryjewelers.com/,,,,,http://www.towneandcountryjewelers.com/contact,Contact,1,MA,01581,clothing_store
Jimmy's,"167 Main St, Westhampton Beach, NY 11978",Boutique,Westhampton Beach,http://jimmysnewyork.com/,,,,,http://jimmysnewyork.com/contacts.html,Contacts,1,NY,11978,clothing_store
Garden of Silver,"124 Main St, Westhampton Beach, NY 11978",Boutique,Westhampton Beach,https://www.gardenofsilver.com/,,,,,https://www.gardenofsilver.com/pages/contact,CONTACT,1,NY,11978,clothing_store
Appleberry Fabrics,"23 Village Inn Rd, Westminster, MA 01473",Fabric store,Westminster,http://www.quilterstudio.com/,,,,,http://www.quilterstudio.com/ContactUSQuilterStudio.htm,"
		Contact Us",1,MA,01473,clothing_store
Thrifty Bear,"2 Main St UNIT 3, Jaffrey, NH 03452",Clothing store,Jaffrey,http://thethriftybear.weebly.com/,,,,,http://thethriftybear.weebly.com/contact-us.html,Contact Us,1,NH,03452,clothing_store
Tula's Tailoring,"588 Boston Post Rd, Weston, MA 02493",Tailor,Weston,http://www.tulastailoring.com/,,,,,http://www.tulastailoring.com/contact.html,"
        					Contact
        				",1,MA,02493,clothing_store
Hanover Sport,"230 Central St # 1, Auburndale, MA 02466",Gift shop,Auburndale,http://www.hanoversport.com/,,,,,http://www.hanoversport.com/mailto:jacqui@hanoversport.com,"
",1,MA,02466,clothing_store
Village Kids,"35 Lincoln St # A, Newton, MA 02461",Children's clothing store,Newton,http://www.villagekids.com/,,,,,http://www.villagekids.com/pages/contact-us,Contact Us,1,MA,02461,clothing_store
Averill's Sharper Uniforms Store,"159 Overland Rd, Waltham, MA 02451",Uniform store,Waltham,https://www.sharperuniforms.com/,,,,,https://www.sharperuniforms.com/contact-us.html,Contact Us,1,MA,02451,clothing_store
Deni's Closet,"937 Main Rd, Westport, MA 02790",Boutique,Westport,http://deniscloset.com/,,,,,http://deniscloset.com/?page_id=46,contact,1,MA,02790,clothing_store
The Angel Shop,"956 Sodom Rd, Westport, MA 02790",Gift shop,Westport,http://www.flowersthatlast.net/,,,,,http://www.flowersthatlast.net/contact-us.php,Contact Us,1,MA,02790,clothing_store
Amys Fabric Treasures,"1032 American Legion Hwy, Westport, MA 02790",Fabric store,Westport,https://amysfabrictreasures.com/,,,,,https://amysfabrictreasures.com/contact-us/,Contact Us,1,MA,02790,clothing_store
Covet  Lou,"947 Great Plain Ave, Needham, MA 02492",Clothing store,Needham,http://covetandlou.com/,,,,,http://covetandlou.com/pages/contact,CONTACT,1,MA,02492,clothing_store
Dolabany Jewelers,"145 University Ave, Westwood, MA 02090",Jewelry store,Westwood,http://www.dolabany.com/,,,,,http://www.dolabany.com/javascript:void(0),Contact,1,MA,02090,clothing_store
Maje Bloomingdales Chestnut Hill  Temporarily Closed,"225 Boylston St, Chestnut Hill, MA 02467",Women's clothing store,Chestnut Hill,https://us.maje.com/,,,,,https://us.maje.com/en/contact-us/contactus.html,here,1,MA,02467,clothing_store
Direct Premium Buys LLC,"153 Washington St # 10, East Walpole, MA 02032",Sporting goods store,East Walpole,http://www.surplusnation.com/,,,,,http://www.surplusnation.com/pages/contact-us,Contact Us,1,MA,02032,clothing_store
Baby's 1st Cake,"302 Providence Hwy, Westwood, MA 02090",Wedding bakery,Westwood,http://www.dessertworks.net/,,,,,https://www.dessertworks.net/contact-us/,,1,MA,02090,clothing_store
The Thrift Shop of Boston,"33 Corinth St, Roslindale, MA 02131",Clothing store,Roslindale,http://www.thriftshopofboston.org/,,,,,https://thriftshopofboston.org/contact/,Contact,1,MA,02131,clothing_store
Classy Lady Boutique,"194 Ingleside Ave #2, Worcester, MA 01604",Women's clothing store,Worcester,https://classy-lady-boutique.ueniweb.com/,,,,,https://classy-lady-boutique.ueniweb.com/#contact_us,Contact Us,1,MA,01604,clothing_store
The hodgepodge,"21 Myron St, West Springfield, MA 01089",Women's clothing store,West Springfield,http://www.boutiquego.myshopify.com/,,,,,http://www.boutiquego.myshopify.com/pages/contact-us,Contact,1,MA,01089,clothing_store
Wedding Dreams,"311 Elm St, West Springfield, MA 01089",Bridal shop,West Springfield,http://www.weddingdreams.store/,,,,,http://www.weddingdreams.store/contact.html,Contact,1,MA,01089,clothing_store
Stevens Diamond Jewelers,"1501 Elm St, West Springfield, MA 01089",Jeweler,West Springfield,http://www.stevensjewelers.com/,,"Upscale jeweler known for its diamond rings, studs & pendants, plus custom pieces & repair services.",,,http://stevensjewelers.com/contact/,Contact,1,MA,01089,clothing_store
Le Bonnton,"5 Old S St, Northampton, MA 01060",Gift shop,Northampton,http://lebonnton.com/,,,,,http://lebonnton.com/pages/contact,"
              Contact
            ",1,MA,01060,clothing_store
Menard Jewelers,"31 South Ave #2049, Whitman, MA 02382",Jeweler,Whitman,http://menardjewelers.com/,,,,,http://menardjewelers.com/contact.html,Contact,1,MA,02382,clothing_store
Smoochie Baby,"110 Berry St, Brooklyn, NY 11249",Children's clothing store,Brooklyn,http://www.smoochiebaby.com/,,"Sunny, chic store stocking a large array of children's apparel, toys & other items.",,,http://www.smoochiebaby.com/pages/contact-us,Contact Us,1,NY,11249,clothing_store
MASS MOCA by Design,"50 Spring St, Williamstown, MA 01267",Gift shop,Williamstown,https://shop.massmoca.org/,,,,,https://shop.massmoca.org/pages/contact-us,CONTACT US,1,MA,01267,clothing_store
NAWEARS  Recovery Store,"109 2nd Ave, Troy, NY 12180",Clothing store,Troy,http://www.nawears.com/,,,,,http://www.nawears.com/pages/contact-us,"
                    Contact Us
                  ",1,NY,12180,clothing_store
Fresh & Fly Clothing,"13 S Pearl St, Albany, NY 12207",Clothing store,Albany,http://freshandflyinc.com/,,,,,https://freshandflyinc.com/contact/,Contact,1,NY,12207,clothing_store
Lapels Dry Cleaning on Main Street,"209 Main St, Wilmington, MA 01887",Clothing alteration service,Wilmington,http://www.lanslapels.com/,,,,,https://lanslapels.com/wilmington/,Contact,1,MA,01887,clothing_store
Pattie's Jewelry Inc,"15 Central St, Winchendon, MA 01475",Jewelry store,Winchendon,https://pattiesjewelryinc.com/,,,,,https://pattiesjewelryinc.com/contact-us/,Contact Us,1,MA,01475,clothing_store
Joseph's Coat,"32 Grove St, Peterborough, NH 03458",Clothing store,Peterborough,http://www.jocoat.com/,,,,,http://www.jocoat.com/contact,Contact,1,NH,03458,clothing_store
Ballistic Bath LLC,"172 Ash St, Winchendon, MA 01475",Clothing store,Winchendon,http://winchendon.org/,,,,,https://winchendon.org/contact/,Contact,1,MA,01475,clothing_store
The Winton Gift Shop,"41 Highland Ave, Winchester, MA 01890",Gift shop,Winchester,http://www.winchesterhospital.org/,,,,,https://www.winchesterhospital.org/about-us/contact-us/contact-us,Contact Us,1,MA,01890,clothing_store
Studio on the Common,"22 Church St, Winchester, MA 01890",Gift shop,Winchester,http://www.studioonthecommon.com/,,,,,http://www.studioonthecommon.com/contact,"
            Contact
          ",1,MA,01890,clothing_store
Simms II Jewelers,"550 Main St, Winchester, MA 01890",Jeweler,Winchester,http://simmsiijewelers.com/,,"Long-standing vendor offering diamonds, watches, repair services & certification.",,,http://simmsiijewelers.com/contact/,Contact,1,MA,01890,clothing_store
Robin's Nest Boutique & Fine Gifts,"79 Jefferson St, Winthrop, MA 02152",Clothing store,Winthrop,http://www.robinsnestwinthrop.com/,,,,,https://www.robinsnestwinthrop.com/contact,Contact & Hours,1,MA,02152,clothing_store
Handsome Boy Clothing Co,"239 Causeway St, Boston, MA 02114",Clothing store,Boston,https://www.handsomeboyclothing.com/,,,,,https://www.handsomeboyclothing.com/pages/contact,"
              CONTACT
            ",1,MA,02114,clothing_store
Tungsten Fashions,"50 Franklin St, Boston, MA 02110",Clothing store,Boston,http://www.tungstenfashions.com/,,,,,http://www.tungstenfashions.com/crm.asp?action=contactus,Contact Us,1,MA,02110,clothing_store
L'elite occasions,"14 Newbury St 3rd floor, Boston, MA 02116",Bridal shop,Boston,http://www.lelite.com/,,Upscale women's formalwear store offering a selection of designer dresses & accessories.,,,https://www.lelite.com/about-lelite/contact/,Join Mailing List,1,MA,02116,clothing_store
Luxury Resale Network,"359 Newbury St 5th floor, Boston, MA 02115",Clothing store,Boston,http://www.luxuryresale.net/,,,,,https://luxuryresale.net/pages/online-luxury-consignment,Contact,1,MA,02115,clothing_store
Bikini Pilot,"553 Cambridge St, Worcester, MA 01610",Swimwear store,Worcester,http://www.bikinipilot.com/,,,,,http://www.bikinipilot.com/pages/contact-us,"
            Contact Us
          ",1,MA,01610,clothing_store
Selah's Boutique,"27 Alsada Dr, Worcester, MA 01603",Boutique,Worcester,https://selahs-boutique.ueniweb.com/,,,,,https://selahs-boutique.ueniweb.com/#contact_us,Contact Us,1,MA,01603,clothing_store
K Sense Co,"152 Green St, Worcester, MA 01604",Boutique,Worcester,http://www.ksenseco.com/,,,,,http://www.ksenseco.com/pages/contact-us,"
Contact Us
",1,MA,01604,clothing_store
Abby's House Thrift Shop,"52 High Street Basement Level, Worcester, MA 01609",Thrift store,Worcester,https://abbyshouse.org/,,,,,https://abbyshouse.org/contact/,Contact Us,1,MA,01609,clothing_store
Mr Perry's Tux,"343 North St, Hyannis, MA 02601",Tuxedo shop,Hyannis,https://www.mrperrystux.com/,,,,,https://www.mrperrystux.com/contact,CONTACT,1,MA,02601,clothing_store
Fisherman's House Thrift Shop,"324 Old Main St, South Yarmouth, MA 02664",Thrift store,South Yarmouth,http://syumc.org/,,,,,http://syumc.org/contact-us/,Contact Us,1,MA,02664,clothing_store
Robin's Toffee by the Sea,"12 Whites Path, South Yarmouth, MA 02664",Gift shop,South Yarmouth,http://robinstoffeebythesea.com/,,,,,http://robinstoffeebythesea.com/contact,Contact Us,1,MA,02664,clothing_store
