name,address,type,place,description,website_url,menu_url,gift_card_website,contact_website,gift_card_txt,contact_txt,searched,state,zipcode,store_type
Crossroads Florist,"1 International Blvd #204, Mahwah, NJ 07495",Florist,Mahwah,,https://www.crossroadsflorist.com/,,,https://www.crossroadsflorist.com/page/contact-us,,Contact,1,NJ,07495,florist
Centerpiece Central,"1 International Blvd, Mahwah, NJ 07495",Florist,Mahwah,,http://www.centerpiece-central.com/,,,http://www.centerpiece-central.com/page/contact-us,,Contact,1,NJ,07495,florist
Robyn Rohslers Floral Designs,"100 Franklin Turnpike #2231, Allendale, NJ 07401",Florist,Allendale,,http://www.robynrohslersfloraldesigns.com/,,,http://robynrohslersfloraldesigns.com/contact/,,CONTACT,1,NJ,07401,florist
Flowers By Joan,"22 W Prospect St, Waldwick, NJ 07463",Florist,Waldwick,,http://www.flowersbyjoan.net/,,,https://flowersbyjoan.net/contacts,,"
About Us
",1,NJ,07463,florist
Schweinfurth Florist,"85 Hillside Ave, Midland Park, NJ 07432",Florist,Midland Park,,http://www.schweinfurthflorist.com/,,,http://www.schweinfurthflorist.com/contact-us/,,Contact,1,NJ,07432,florist
Creations by Fran Flowers & More,"14 Central Ave, Midland Park, NJ 07432",Florist,Midland Park,,http://www.creationsbyfran.com/,,,http://www.creationsbyfran.com/contact.html,," 
  
",1,NJ,07432,florist
Olivia Floral Designs,"681 Lawlins Rd #10b, Wyckoff, NJ 07481",Florist,Wyckoff,,https://www.oliviafloraldesigns.com/,,,https://www.oliviafloraldesigns.com/#contact,,Contact,1,NJ,07481,florist
Waterford Gardens,"74 E Allendale Rd, Saddle River, NJ 07458",Florist,Saddle River,,http://waterford-gardens.com/,,,http://waterford-gardens.com/contact.php,,Contact Us,1,NJ,07458,florist
Forever Yours Flowers & Gifts,"10 Welcher Ave, Peekskill, NY 10566",Florist,Peekskill,,https://www.foreveryoursflowersngifts.com/,,,https://www.foreveryoursflowersngifts.com/contact_us.php,,Contact Us,1,NY,10566,florist
Danker Florist,"658 Central Ave, Albany, NY 12206",Florist,Albany,,http://www.dankerflorist.com/,,,http://www.dankerflorist.com/support/faqs/category.cfm?typID=9,,"







",1,NY,12206,florist
Swan Street Florist,"16 Swan St, Salamanca, NY 14779",Florist,Salamanca,,https://www.swanstreetflorist.com/,,,https://www.swanstreetflorist.com/contact_us.php,,Contact Us,1,NY,14779,florist
Proper's Florist & Greenhouse,"350 W Washington St, Bradford, PA 16701",Florist,Bradford,,http://www.propersfloristandgreenhouse.com/,http://www.propersfloristandgreenhouse.com/shop.html,,http://www.propersfloristandgreenhouse.com/contact.html,,"



Contact

",1,PA,16701,florist
Events by Jess,"124 Hazelmere Ave, Machias, NY 14101",Florist,Machias,,http://www.eventsbyjess124.com/,,,http://www.eventsbyjess124.com/tel:7169136529,,(716) 913-6529,1,NY,14101,florist
Always & Forever Flowers,"358 Main St, Arcade, NY 14009",Florist,Arcade,,https://www.alwaysandforeverflowersny.com/,,,https://www.alwaysandforeverflowersny.com/contact_us.php,,Contact Us,1,NY,14009,florist
Lakeview Gardens Flower Shop,"1259 N Main St, Jamestown, NY 14701",Florist,Jamestown,,http://www.lakeviewgardens-ny.com/,,,http://www.lakeviewgardens-ny.com/page/contact-us,,Contact us,1,NY,14701,florist
Girton's Flowers & Gifts Inc,"1519 Washington St, Jamestown, NY 14701",Florist,Jamestown,,http://www.girtons.com/,,,http://girtonsflowers@facebook.com,," 
",1,NY,14701,florist
Dogwood Floral Company,"142 Main St, Dansville, NY 14437",Florist,Dansville,,https://www.dogwoodfloralcompany.com/,,,https://www.facebook.com/Dogwood-Floral-Company-203176538941/,," 
",1,NY,14437,florist
House of Flowers  Corning,"44 E Market St #101, Corning, NY 14830",Florist,Corning,,http://www.houseofflowerscorning.com/,,,https://www.facebook.com/houseofflowerscorning/,," 
",1,NY,14830,florist
Pleasant Valley Greenhouses & Nursery Inc,"2871 NY-16, Olean, NY 14760",Garden center,Olean,,http://pleasantvalleygreenhouse.com/,,,http://pleasantvalleygreenhouse.com/contactus.php3,,Contact Us,1,NY,14760,florist
Loefflers Flower Shop,"207 Chestnut St, Meadville, PA 16335",Florist,Meadville,,http://www.loefflersflowers.com/,,,http://www.facebook.com/loefflersflowers/,," 
",1,PA,16335,florist
St Agnes Floral Shop Inc,"2123 South Ave, Syracuse, NY 13207",Florist,Syracuse,,http://www.stagnesfloral.com/,,,https://www.facebook.com/stagnesflowershop/,," 
",1,NY,13207,florist
Flowers etc,"2 Union Pl, Buffalo, NY 14213",Florist,Buffalo,,http://www.flowersbuffalo.com/,,,http://www.flowersbuffalo.com/contact2.html,,,1,NY,14213,florist
Simply Stunning Floral Design & Event Studio,"1048 Little E Neck Rd, West Babylon, NY 11704",Florist,West Babylon,,https://www.simplystunningfloraldesign.com/,,,https://www.simplystunningfloraldesign.com/contact_us.php,,Contact Us,1,NY,11704,florist
wild and birch wantagh florist,"3366 Park Ave, Wantagh, NY 11793",Florist,Wantagh,,http://www.wildandbirch.com/,,,http://www.wildandbirch.com/contactus,,Contact ,1,NY,11793,florist
MDS Florist Majestic Design,"10 E Huntington Dr suite a, Arcadia, CA 91006",Florist,Arcadia,,http://www.mdsflorist.com/,,,https://mdsflorist.com/contact/,,Contact Us,1,CA,91006,florist
Zuzu's Petals,"57 Bonita St, Arcadia, CA 91006",Florist,Arcadia,"Full-service florist offering flower arrangements, plants & gift baskets for all occasions.",http://www.zuzuspetalsarcadia.com/,,,https://www.zuzuspetalsarcadia.com/contact_us.aspx?sid=k0qoemyldxiubogxllzvpw3r&searchwords=&viewedpreviously=,,CONTACT US,1,CA,91006,florist
The Only Roses,"11711 Clark St #102, Arcadia, CA 91006",Florist,Arcadia,,https://theonlyroses.com/,,,https://theonlyroses.com/pages/contact-us-new,,"

                              Contact Us ",1,CA,91006,florist
Aquafuzion Events and Floral Design,"517 S Myrtle Ave #100, Monrovia, CA 91016",Florist,Monrovia,,https://aquafuzion.com/,,,https://aquafuzion.com/contact-us/,,Contact,1,CA,91016,florist
Flowers On First,"353 E 53rd St, New York, NY 10022",Florist,New York,"Time-tested shop delivering floral arrangements, gift baskets & green plants since 1979.",http://flowersonfirst.com/,,,http://flowersonfirst.com/pages/contact-us,,Contact Us,1,NY,10022,florist
Ode a la Rose,"120 W 28th St, New York, NY 10001",Florist,New York,,http://www.odealarose.com/,,,http://www.odealarose.com/info/contact-us,,Contact us,1,NY,10001,florist
Tarry Grove,"513 Whitney Rd, Ontario, NY 14519",Florist,Ontario,,http://tarrygrove.com/,,,http://tarrygrove.com/contact,,CONTACT,1,NY,14519,florist
Flowers by Giorgie,"45-17 Greenpoint Ave, Sunnyside, NY 11104",Florist,Sunnyside,,http://www.flowersbygiorgie.com/,,,https://www.facebook.com/flowersbygiorgie/,," 
",1,NY,11104,florist
Michael George Flowers,"199 Avenue B, New York, NY 10009",Florist,New York,"Sophisticated florist specializing in contemporary, monochromatic arrangements & wedding flowers.",http://www.michaelgeorgeflowers.com/,,,http://www.michaelgeorgeflowers.com/contact,,Contact,1,NY,10009,florist
Shaw & Boehler Florists,"142 Dunning Ave, Auburn, NY 13021",Florist,Auburn,,http://shawandboehler.com/,,,https://www.facebook.com/shawandboehlerfloristsauburn,," 
",1,NY,13021,florist
Fingerlakes Florist,"7200 Main St, Ovid, NY 14521",Florist,Ovid,,http://www.fingerlakesflorist.com/,,,https://www.fingerlakesflorist.com/product/dc1000120/no-contact-delivery,,"

",1,NY,14521,florist
Sinicropi Florist,"64 Fall St, Seneca Falls, NY 13148",Florist,Seneca Falls,,http://www.sinicropiflorist.com/,,,https://sinicropiflorist.com/contact-us/,,"



				Contact Us
			

",1,NY,13148,florist
Folls Flower Farm,"4396 Harter Rd, Auburn, NY 13021",Florist,Auburn,,http://www.follsflowers.com/,,,http://www.follsflowers.com/contact-us,,"
              Contact Us
            ",1,NY,13021,florist
Van Scoter Florist,"7209 NY-54, Bath, NY 14810",Florist,Bath,,http://www.vanscoterflorist.com/,,,https://www.vanscoterflorist.com/contact_us.php,,Contact Us,1,NY,14810,florist
Fresh,"27 E Main St, Springville, NY 14141",Florist,Springville,,http://www.freshfloralandgifts.com/,,,https://freshfloralandgifts.com/contacts,,"
Contact Us
",1,NY,14141,florist
AAA Flowers of New York,"333 E 38th St, New York, NY 10016",Florist,New York,"Family-run florist offering a variety of design styles, corporate services & free local delivery.",http://www.aaaflowerstore.com/,,,http://www.aaaflowerstore.com/contact-us/,,Contact us,1,NY,10016,florist
Botanica Inc,"245 W 29th St Suite 1101, New York, NY 10001",Florist,New York,Floral designer specializing in unique arrangements for large corporate events & weddings.,http://www.botanicainc.com/,,,http://www.botanicainc.com/contact,,"
            Contact
          ",1,NY,10001,florist
Ivy League Flowers & Gifts,"56475 Main Rd, Southold, NY 11971",Florist,Southold,,https://www.ivyleagueflowersandgifts.com/,,,https://www.ivyleagueflowersandgifts.com/../contact-us/contact-us.html,,Contact Us,1,NY,11971,florist
Simple Elegance Floral,"13692 E Alameda Ave, Aurora, CO 80012",Florist,Aurora,Family-owned flower shop that also offers decoration rentals for weddings & parties.,https://www.simpleeleganceflorist.com/,,,https://www.simpleeleganceflorist.com/flowers/mothers-day-designer-bouquet?splash-name=nocontactmomday_desktop&splash-id1247&click_source=desktop-promo_banner,,,1,CO,80012,florist
The Fresh Flower Market,"6616 S Parker Rd #102, Aurora, CO 80016",Florist,Aurora,Florist specializing in weddings & event design offers large variety of fresh cut flowers & plants.,http://www.thefreshflowermarket.com/,,,http://thefreshflowermarket.com/contact.html,,Contact Us,1,CO,80016,florist
Bonnie Brae Flowers Inc,"5595 E Evans Ave, Denver, CO 80222",Florist,Denver,This florist has been offering traditional floral designs & custom flower arrangements since 1941.,http://www.bonniebraeflowers.com/,,,https://www.google.com/maps/place/?q=place_id:ChIJN2pQiu59bIcRM_CH2eg8tDs,,Find us,1,CO,80222,florist
AC Wilson,"60 Cormack Ct, Babylon, NY 11702",Florist,Babylon,,http://www.acwflowers.com/,,,http://www.acwflowers.com/html/contactus.asp,,Contact,1,NY,11702,florist
Victorian Flower & Gift Shoppe,"686 Long Island Ave, Deer Park, NY 11729",Florist,Deer Park,,http://www.victorianflower.com/,,,http://www.victorianflower.com/contact-us.html,,"
CONTACT US
",1,NY,11729,florist
RNG Floral Inc,"519 Acorn St # 1, Deer Park, NY 11729",Florist,Deer Park,,http://www.withlovenregards.com/,,,http://www.withlovenregards.com/contact-us.html,,Contact us,1,NY,11729,florist
King Lily Floral,"1010 Grand Blvd, Deer Park, NY 11729",Florist,Deer Park,,http://www.kinglilyfloralny.com/,,,https://www.kinglilyfloraldesign.com/contact,,Contact,1,NY,11729,florist
Caroline's Flower Shoppe,"341 Main St, Islip, NY 11751",Florist,Islip,,https://www.shopcarolinesflowershoppe.com/,,,https://www.shopcarolinesflowershoppe.com/contact_us.php,,Contact Us,1,NY,11751,florist
Tiger Lily Flowers and Gifts,"102 Carleton Ave, Islip Terrace, NY 11752",Flower designer,Islip Terrace,,http://www.selinasflowers.com/,,,http://www.selinasflowers.com/service/contact/,,"

 Contact
",1,NY,11752,florist
Country Village Florist and Gifts Inc,"212 E Main St, East Islip, NY 11730",Florist,East Islip,,http://www.countryvillageflorist.com/,,,https://www.countryvillageflorist.com/contact_us.php,,Contact Us,1,NY,11730,florist
Michelle's Baskets & Bows & Gifts,"15 Culvert St, Phoenix, NY 13135",Florist,Phoenix,,https://www.michellesflowersny.com/,,,https://www.michellesflowersny.com/contact_us.php,,Contact Us,1,NY,13135,florist
Becky's Custom Creations,"7575 Buckley Rd Ste 104, North Syracuse, NY 13212",Florist,North Syracuse,,https://www.beckysflorist.com/,,,https://www.facebook.com/beckysflorist/,," 
",1,NY,13212,florist
Flowers Down Under,"4176 Milton Ave, Camillus, NY 13031",Florist,Camillus,,http://camillusflowersdownunder.com/,,,https://camillusflowersdownunder.com/contacts,,"
Contact Us
",1,NY,13031,florist
DG Lawn's Flower Shop,"137 1st St, Liverpool, NY 13088",Florist,Liverpool,,http://www.dglawnsflowershop.com/,,,http://www.dglawnsflowershop.com/contactus.html,,Contact Us,1,NY,13088,florist
The Floral Gardens,"8390 Brewerton Rd, Cicero, NY 13039",Florist,Cicero,,https://www.thefloralgardens.com/,,,https://www.facebook.com/TheFloralGardens/,," 
",1,NY,13039,florist
Wegmans Floral Department,"3325 W Genesee St, Syracuse, NY 13219",Florist,Syracuse,,http://www.wegmans.com/,,,https://www.wegmans.com/service/contact-us/,,Ways We Can Help,1,NY,13219,florist
Rao's Mattydale Flower Shop Inc,"901 Teall Ave, Syracuse, NY 13206",Florist,Syracuse,,http://raosmattydaleflowers.com/,,,//www.raosmattydaleflowers.com/contactus.html,,Contact Us,1,NY,13206,florist
F R Brice Florist,"901 Teall Ave, Syracuse, NY 13206",Florist,Syracuse,,https://www.frbriceflorist.com/,,,//www.frbriceflorist.com/contactus.html,,Contact Us,1,NY,13206,florist
James Flowers LTD,"374 S Midler Ave, Syracuse, NY 13206",Florist,Syracuse,,https://www.jamesflowersny.com/,,,https://www.jamesflowersny.com/contact_us.php,,Contact Us,1,NY,13206,florist
Marge Polito Florist & Gifts,"2116 Teall Ave, Syracuse, NY 13206",Florist,Syracuse,,http://www.margepolitoflorist.com/,,,//www.margepolitoflorist.com/contactus.html?source=header,,"
Contact Us
",1,NY,13206,florist
Devine Designs By Gail,"200 E Broadway, Fulton, NY 13069",Florist,Fulton,,http://www.dvinedesign.com/,,,https://www.dvinedesign.com/contact_us.php,,Contact Us,1,NY,13069,florist
Westcott Florist,"548 Westcott St, Syracuse, NY 13210",Florist,Syracuse,,http://www.westcottflorist.com/,,,http://www.facebook.com/pages/Westcott-Florist/146581655365561,," 
",1,NY,13210,florist
The Country Florist,"225 Kingsley Rd, Burnt Hills, NY 12027",Florist,Burnt Hills,,http://www.burnthillsflorist.com/,,,https://www.burnthillsflorist.com/product/5e784910c8f144.78945/same-day-no-contact-delivery,,"


",1,NY,12027,florist
Forever Floral,"66 Oak Hill Rd, Barton, NY 13734",Florist,Barton,,http://www.forever-floral.com/,,,http://www.forever-floral.com/contact-us,,Contact Us                                                    ,1,NY,13734,florist
Jayne's Flowers and Gifts,"429 Fulton St, Waverly, NY 14892",Florist,Waverly,,http://www.jaynesflowershop.com/,,,https://facebook.com/jaynesflowersandgifts/,," 
",1,NY,14892,florist
Valley Flower Shoppe,"201 Broad St, Waverly, NY 14892",Florist,Waverly,,https://valleyflowershoppeny.com/,,,https://valleyflowershoppeny.com/post.php?pid=16,,Contacts/Directions,1,NY,14892,florist
Plants N Things,"107 W Packer Ave, Sayre, PA 18840",Florist,Sayre,,https://www.sayreplantsnthings.com/,,,https://www.sayreplantsnthings.com/contact_us.php,,Contact Us,1,PA,18840,florist
Little Flower House,"20 Oyster Bay Road, Locust Valley, NY 11560",Florist,Locust Valley,,http://www.thelittleflowerhouse.com/,,,http://www.thelittleflowerhouse.com/contact-us.html,,"
				Contact Us
			",1,NY,11560,florist
Feriani Floral Decorators,"601 W Jericho Turnpike, Huntington, NY 11743",Florist,Huntington,,http://www.ferianifloral.com/,,,http://ferianifloral.com/contact/,,Contact,1,NY,11743,florist
Flowers By Burton,"426 Old Walt Whitman Rd, Melville, NY 11747",Florist,Melville,,http://www.flowersbyburton.com/,,,https://flowersbyburton.com/contact-us/,,Contact Us,1,NY,11747,florist
MrBokayWeddings,"141 S Regent St, Port Chester, NY 10573",Florist,Port Chester,,http://www.mrbokayweddings.com/,,,https://mrbokayweddings.com/contact-us/,,Contact,1,NY,10573,florist
Long Island Stork Signs,"3 Barnett Pl, East Northport, NY 11731",Florist,East Northport,,http://lawnstorksigns.com/,,,http://lawnstorksigns.com/storkbusinessinfo.html,,,1,NY,11731,florist
ChrisDian Florist,"279 Broadway, Newburgh, NY 12550",Florist,Newburgh,,http://www.chris-dianflorist.com/,,,https://www.chris-dianflorist.com/contact,,contact us,1,NY,12550,florist
Lucille's Florist,"17 Church St, Fishkill, NY 12524",Florist,Fishkill,,https://www.lucillesfloralfishkill.com/,,,https://www.lucillesfloralfishkill.com/contact_us.php,,Contact Us,1,NY,12524,florist
Bedford Village Flower Shoppe,"641 Old Post Rd, Bedford, NY 10505",Florist,Bedford,,https://bedfordvillageflowershoppe.com/,,,https://bedfordvillageflowershoppe.com/,,"
",1,NY,10505,florist
Hedgerow,"70 Westchester Ave, Pound Ridge, NY 10576",Florist,Pound Ridge,,http://www.hedgerowandco.com/,,,http://www.hedgerowandco.com/#contact-section,,"
                        Contact
                      ",1,NY,10576,florist
Hudson Valley Floral,"P.O. box 864 pleasant valley my 12569, Pleasant Valley, NY 12569",Florist,Pleasant Valley,,http://hudsonvalleyfloral.com/,,,http://hudsonvalleyfloral.com/contact-us,,"
            Contact us
          ",1,NY,12569,florist
Rosemary Flower Shoppe,"2758 W Main St, Wappingers Falls, NY 12590",Florist,Wappingers Falls,,http://www.rosemaryflowershoppe.com/,,,//www.rosemaryflowershoppe.com/contactus.html,,Contact Us,1,NY,12590,florist
1800flowers Bouquets by Christine,"792 NY-82, Hopewell Junction, NY 12533",Florist,Hopewell Junction,,http://www.hopewellflowers.com/,,,https://checkout.bloomnetcommerce.com/service/contact/?s=V8rWVkFXYikyO32nxjzUgySHPLyb3nW%2FtKq3O6AszyM%3D,,"

 Contact
",1,NY,12533,florist
Petersen's Patterson Greenhouses,"1169 NY-311, Patterson, NY 12563",Florist,Patterson,,http://petersengreenhouses.com/,,,http://petersengreenhouses.com/contact/4511503,,CONTACT,1,NY,12563,florist
Floralium by Louise Neves,"69 Ball Pond Rd, Danbury, CT 06811",Florist,Danbury,,http://www.floralium.com/,,,http://www.floralium.com/contact-us,,Contact,1,CT,06811,florist
Beckman's Florist,"364 Larkfield Rd, East Northport, NY 11731",Florist,East Northport,,http://www.beckmansflorist.com/,,,https://www.facebook.com/Beckmans-Florist-120209834658240/,," 
",1,NY,11731,florist
Perriwater Ltd,"960 1st Avenue, New York, NY 10022",Florist,New York,,http://www.perriwaterflowers.com/,,,http://www.perriwaterflowers.com/contact.php,,CONTACT,1,NY,10022,florist
Designs By Ahn,"242 5th Ave # 2, New York, NY 10001",Florist,New York,,http://www.designsbyahn.com/,,,http://www.designsbyahn.com/#,,CONTACT,1,NY,10001,florist
Main Street Florist & Gift,"447 Main St, Ridgefield, CT 06877",Florist,Ridgefield,,http://www.mainstreetfloristridgefield.com/,,,https://www.mainstreetfloristridgefield.com/contact_us.php,,Contact Us,1,CT,06877,florist
Konstantino's Floral Decorators,"1502 Avenue J, Brooklyn, NY 11230",Florist,Brooklyn,,http://www.louiskonstantinos.com/,,,http://louiskonstantinos.com/contact_m/,,Contact,1,NY,11230,florist
Palmer's Market,"264 Heights Rd, Darien, CT 06820",Florist,Darien,,http://www.palmersdarien.com/,,,https://www.palmersdarien.com/contact/,,Contact,1,CT,06820,florist
Apple Blossom Florist,"2807 Telegraph Ave, Oakland, CA 94609",Florist,Oakland,"Flower shop preparing a variety of modern & traditional arrangements, plus plants & gift baskets.",https://www.floristinoaklandca.com/,,,https://www.floristinoaklandca.com/contact-us,,Contact Us,1,CA,94609,florist
Country Rose Florist,"2275 Schoenersville Rd, Bethlehem, PA 18017",Florist,Bethlehem,,http://www.countryroseflorist.com/,,,http://null,," 
",1,PA,18017,florist
Flower Divas Of Montour Falls,"Flower Divas, 314 W Main St, Montour Falls, NY 14865",Florist,Montour Falls,,http://flowerdivasofmontourfalls.com/,,,https://www.facebook.com/divakessler/,," 
",1,NY,14865,florist
Renaissance Floral Gallery,"199 Main St, Binghamton, NY 13905",Florist,Binghamton,,https://www.renaissancefloralgallery.net/,,,https://www.renaissancefloralgallery.net/contact_us.php,,Contact Us,1,NY,13905,florist
Secret Garden Florist Wedding EventPlanning,"1092 NY-17K, Montgomery, NY 12549",Florist,Montgomery,,http://secretgardenfloristny.com/,,,https://www.secretgardenfloristny.com/contact,,Contact Us,1,NY,12549,florist
Lily's of the Valley,"285 Main St, Highland Falls, NY 10928",Florist,Highland Falls,,http://www.lilysofthevalleyhf.com/,,,http://www.lilysofthevalleyhf.com/contact.html,,"
				Contact
			",1,NY,10928,florist
Smiths Floral Boutique,"68 Lake Region Blvd, Monroe, NY 10950",Florist,Monroe,,http://smithsfloralboutique.webstarts.com/,,,http://smithsfloralboutique.webstarts.com/contact.html,,Contact,1,NY,10950,florist
Blooming Flowers,"72-30 Main St, Flushing, NY 11367",Florist,Flushing,,https://bloomingflowersny.com/,,,https://bloomingflowersny.com/tel:7182613310,,(718) 261-3310,1,NY,11367,florist
Hither Brook Floral and Gift Boutique,"438 Lake Ave, St James, NY 11780",Florist,St James,,http://hitherbrook.com/,,,https://www.hitherbrook.com/contact_us.php,,Contact Us,1,NY,11780,florist
Sunnywoods Florist,"251 Main St, Chatham, NJ 07928",Florist,Chatham,,http://www.sunnywoods.com/,,,https://www.sunnywoods.com/contact_us.php,,Contact Us,1,NJ,07928,florist
S & N  Eileen's,"29 N Cascade Dr, Springville, NY 14141",Florist,Springville,,http://sneileensflorist.com/,,,https://www.facebook.com/Ludemas#!/pages/S-N-Eileens-Greenhouse-Flower-Shoppe-Inc/168318599169,," 
",1,NY,14141,florist
Monaco Garden Center,"7040 S Abbott Rd, Hamburg, NY 14075",Garden center,Hamburg,,http://www.monacogardencenter.com/,,,https://www.monacoenterprisesinc.com/contact-us,,Contact Us,1,NY,14075,florist
Lotus Floral Designs LLC,"977 Tremont St, Boston, MA 02120",Florist,Boston,"Seasonal & tropical floral arrangements, plants, gift baskets, wedding flowers & custom designs.",http://www.lotusdesignsflorist.com/,,,https://lotusdesignsflorist.com/contacts,,"
Contact Us
",1,MA,02120,florist
Vickies Flowers,"16150 Geneva Ct, Brighton, CO 80602",Florist,Brighton,"Independent, family-owned florist specializing in weddings & funerals, plus everyday deliveries.",https://vickiesflowers.com/,,,https://vickiesflowers.com/contact-us/,,Contact Us,1,CO,80602,florist
Thorn Creek Flowers,"3855 E 151st Ave, Brighton, CO 80602",Florist,Brighton,,https://www.thorncreekflowers.com/,,,https://thorncreekflowers.com/contact/,,Contact,1,CO,80602,florist
Sam Gregorio's Florist,"814 Forest Ave, Staten Island, NY 10310",Florist,Staten Island,"Small flower shop creating colorful bouquets for a variety of occasions, including weddings.",http://www.samgregoriosflorist.com/,,,https://www.facebook.com/sam.florist,," 
",1,NY,10310,florist
McNutt's Abbey Flower Shoppe,"1090 3rd Ave, New Brighton, PA 15066",Florist,New Brighton,,http://www.newbrightonflorist.com/,,,https://www.newbrightonflorist.com/contact_us.php,,Contact Us,1,PA,15066,florist
Ribbons & Roses Florist,"763 Horseblock Road, Farmingville, NY 11738",Florist,Farmingville,,https://www.ribbonsnrosesny.com/,,,https://www.ribbonsnrosesny.com/contact_us.php,,Contact Us,1,NY,11738,florist
Platinum Floral Weddings,"372 Middle Country Rd, Middle Island, NY 11953",Florist,Middle Island,,http://www.platinumfloralweddings.com/,,,https://platinumfloralweddings.com/contact/,,Contact,1,NY,11953,florist
Flowers by Liz  Weddings and Events Floral designer and Flower farmer,"600 Lincoln Ave, Sayville, NY 11782",Florist,Sayville,,http://www.flowersbyliz.com/,,,http://www.flowersbyliz.com/contact.php,,Contact,1,NY,11782,florist
Something Blue Floral Events,"70 Browns River Rd, Sayville, NY 11782",Florist,Sayville,,http://www.somethingblueflorals.com/,,,http://www.somethingblueflorals.com/contact,,contact,1,NY,11782,florist
Calverton Floral Design & Gift Shoppe,"157 Middle Country Rd, Ridge, NY 11961",Florist,Ridge,,http://www.calvertonfloraldesign.webs.com/,,,https://www.calvertonfloraldesign.com/contactusonwebsite.htm,,Contact Us On Website,1,NY,11961,florist
Moriches Main Street Flowers,"78 Montauk Hwy Suite 6, East Moriches, NY 11940",Florist,East Moriches,,https://morichesflowers.com/,,,https://morichesflowers.com/contact/,,Contact,1,NY,11940,florist
Malkmes Florists & Ghses,"70 Oakland Ave, Port Jefferson Station, NY 11776",Florist,Port Jefferson Station,,http://www.malkmesflorists.com/,,,https://www.malkmesflorists.com/contact_us.php,,Contact Us,1,NY,11776,florist
Port Jefferson Florist,"408 Main St, Port Jefferson, NY 11777",Florist,Port Jefferson,,http://www.portjeffersonflorist.net/,,,http://www.portjeffersonflorist.net/page/contact-us,,Contact us,1,NY,11777,florist
Calluna Flora,"499 Main St, Eastport, NY 11941",Florist,Eastport,,http://www.callunaflora.com/,,,http://www.callunaflora.com/contact,,Contact,1,NY,11941,florist
Roots Flowers & Treasures,"17 N Country Rd, Port Jefferson, NY 11777",Florist,Port Jefferson,,http://www.rootsflowersandtreasures.net/,,,http://www.rootsflowersandtreasures.net/Contact-Roots-Florist-portjefferson-ny.html,,Contact Us,1,NY,11777,florist
Hardts and Flowers,"14 E Broadway, Port Jefferson, NY 11777",Florist,Port Jefferson,,https://hardtsandflowers.com/,,,https://hardtsandflowers.com/contact/,,Contact,1,NY,11777,florist
Sayville House of Flowers,"156 Lakeland Ave, Sayville, NY 11782",Florist,Sayville,,http://www.sayvillehouseofflowers.com/,,,http://www.sayvillehouseofflowers.com/page/contact-us,,Contact Us,1,NY,11782,florist
Colonial Flower Shop NY,"304 Hawkins Ave, Lake Ronkonkoma, NY 11779",Florist,Lake Ronkonkoma,,http://www.colonialflowershoplr.com/,,,https://www.colonialflowershoplr.com/Contact,,Contact,1,NY,11779,florist
The Flower & Garden Shoppe of Sayville,"229 N Main St, Sayville, NY 11782",Florist,Sayville,,http://www.anchorflowerandgardenshoppe.com/,,,http://www.anchorflowerandgardenshoppe.com/landscape-design-contact-us/,,Contact,1,NY,11782,florist
Perry's Florist,"239 Hawkins Ave, Lake Ronkonkoma, NY 11779",Florist,Lake Ronkonkoma,,http://www.perrysflorist.com/,,,http://www.perrysflorist.com/contact.cfm,,Contact Us,1,NY,11779,florist
Towers Flowers,"246 Smithtown Blvd #6, Nesconset, NY 11767",Florist,Nesconset,,http://flowersbytowers.com/,,,//www.flowersbytowers.com/contactus.html?source=header,,"
Contact Us
",1,NY,11767,florist
Village Florist and Events,"135 Main St, Stony Brook, NY 11790",Florist,Stony Brook,,http://www.stonybrookflorist.com/,,,https://www.stonybrookflorist.com/contact_us.php,,Contact Us,1,NY,11790,florist
Reliable Garden & Ponds,"315 Middle Country Rd, Middle Island, NY 11953",Florist,Middle Island,,http://www.reliablegarden.com/,,,https://www.reliablegarden.com/contact/,,Contact,1,NY,11953,florist
Griffin Greenhouse Supplies Inc,"2165 Montauk Hwy #9528, Brookhaven, NY 11719",Garden center,Brookhaven,,http://www.griffins.com/,,,https://visitor.r20.constantcontact.com/d.jsp?llr=rvmyeneab&p=oi&m=1104247796401&sit=ugnlskwfb&f=87c7f571-1b2f-4d24-b526-e1cf7e89ef0b,,"

",1,NY,11719,florist
Wittendale's Florist & Greenhouse's,"89 Newtown Ln, East Hampton, NY 11937",Florist,East Hampton,,http://www.wittendalesflorist.com/,,,http://www.wittendalesflorist.com/tel:6313247160,,(631) 324-7160,1,NY,11937,florist
Wick's Florist Fruitera & Greenhouse,"2170 Grand Ave, Baldwin, NY 11510",Florist,Baldwin,,https://www.wicksflorists.com/,,,https://www.facebook.com/wicksflorist,," 
",1,NY,11510,florist
Classic Floral Inc,"15 Frowein Rd, Center Moriches, NY 11934",Wholesale florist,Center Moriches,,http://www.classicfloralinc.com/,,,http://www.classicfloralinc.com/contact,,Contact,1,NY,11934,florist
Perri Farms Wholesale,"44 Rajon Rd, Bayport, NY 11705",Wholesale florist,Bayport,,https://www.perrifarms.com/,,,https://www.perrifarms.com/Home/ContactUs,,Contact Us,1,NY,11705,florist
Wise Originals Florist,"3541 Concord Rd, Aston, PA 19014",Florist,Aston,,http://www.wiseoriginals.com/,,,https://www.facebook.com/pages/Wise-Originals-Florist-and-Gifts/103846249698460,," 
",1,PA,19014,florist
Flower World,"83 3rd St, Troy, NY 12180",Florist,Troy,,https://www.flowerworldtroy.com/,,,https://www.flowerworldtroy.com/contact_us.php,,Contact Us,1,NY,12180,florist
Flower Scout,"137 2nd St, Troy, NY 12180",Florist,Troy,,http://www.flower-scout.com/,,,http://www.flower-scout.com/contact,,contact,1,NY,12180,florist
Laurel Florals,"736 3rd Ave, Watervliet, NY 12189",Florist,Watervliet,,http://www.laurelsflowershop.com/,,,https://www.laurelsflowershop.com/contact_us.php,,Contact Us,1,NY,12189,florist
Florals By Design,"Mailing Address Only, 279 Troy Rd, Rensselaer, NY 12144",Florist,Rensselaer,,http://www.florals-by-design.com/,,,http://www.florals-by-design.com/contact-us.html,,Contact Us,1,NY,12144,florist
Parisi Designs & Co Floristdelivery to Rensselaer County Towns,"11 Oak Way, Stephentown, NY 12168",Florist,Stephentown,,http://www.parisidesignsco.com/,,,http://www.parisidesignsco.com/contact.php,,"
        Find Out More
    ",1,NY,12168,florist
Angels Trumpet Flowers & Gifts,"4 West St, New Lebanon, NY 12125",Florist,New Lebanon,,https://www.angelstrumpetflorist.com/,,,https://angelstrumpetflorist.com/contacts,,"
Local Delivery
",1,NY,12125,florist
Cottage Rose Flowers,"332 Co Rd 32, Valatie, NY 12184",Flower designer,Valatie,,http://www.cottageroseflowers.com/,,,http://www.cottageroseflowers.com/contact.html,,"
				Contact
			",1,NY,12184,florist
Mount Williams Greenhouses inc,"1090 State Rd, North Adams, MA 01247",Florist,North Adams,,https://www.mtwilliamsgreenhouses.com/,,,https://www.mtwilliamsgreenhouses.com/contact_us.php,,Contact Us,1,MA,01247,florist
The Florist at Mandy's Spring Nursery,"1637a Co Rd 28, Granville, NY 12832",Florist,Granville,,http://www.floristatmandys.com/,,,https://www.floristatmandys.com/contact_us.php,,CONTACT US,1,NY,12832,florist
Christy's Florist,"415 NJ-18 Suite 12, East Brunswick, NJ 08816",Florist,East Brunswick,,https://www.christysflorist.com/,,,http://null,," 
",1,NJ,08816,florist
Hybl Fannin Design,"508 State Rd, North Adams, MA 01247",Flower designer,North Adams,,http://www.hyblfannindesign.com/,,,http://www.hyblfannindesign.com/wedding-event-,,contact,1,MA,01247,florist
Fort Plain Florist,"2 Canal St, Fort Plain, NY 13339",Florist,Fort Plain,,http://www.fortplainflorist.com/,,,https://www.fortplainflorist.com/contact_us.php,,Contact Us,1,NY,13339,florist
Forever Flowers,"568 New Brunswick Ave, Fords, NJ 08863",Florist,Fords,,http://foreverflowersnj.com/,,,//www.foreverflowersnj.com/contactus.html?source=header,,,1,NJ,08863,florist
Sidney Flowers & Gifts,"67 Main St, Sidney, NY 13838",Florist,Sidney,,https://www.sidneyflowers.net/,,,https://www.sidneyflowers.net/contact_us.php,,CONTACT US,1,NY,13838,florist
Allure Floral Design,"1 3rd St, East Brunswick, NJ 08816",Florist,East Brunswick,,http://www.weddingflowersdesign.com/,,,http://www.weddingflowersdesign.com/CONTACT_US.html,,CONTACT US,1,NJ,08816,florist
Dee's Flowers & Gifts,"1626 US-130, North Brunswick Township, NJ 08902",Florist,North Brunswick Township,,http://www.deesfloristgifts.com/,,,https://www.deesfloristgifts.com/contact_us.aspx?sid=hyinvtxz5gs4a5arsleqtvsf&searchwords=&viewedpreviously=,,CONTACT US,1,NJ,08902,florist
Brandywine Floral Design Inc,"27 W Prospect St # B, East Brunswick, NJ 08816",Florist,East Brunswick,,http://www.brandywinefloraldesign.com/,,,http://www.brandywinefloraldesign.com/contact/,,contact,1,NJ,08816,florist
Dan Engwer Wholesale Florist,"8620 Miller Hill Rd, Averill Park, NY 12018",Wholesale florist,Averill Park,,https://danengwerwholesaleflorist.com/,,,https://danengwerwholesaleflorist.com/contact/,,Contact,1,NY,12018,florist
Pauline's Bloomers,"153 Park Row, Brunswick, ME 04011",Florist,Brunswick,,http://paulinesbloomers.com/,,,//www.paulinesbloomers.com/contactus.html?source=header,,,1,ME,04011,florist
Heavenly Florist,"135-01 Cross Bay Blvd, Queens, NY 11417",Florist,Queens,,http://www.heavenlyfloristny.com/,,,https://www.heavenlyfloristny.com/contact_us.php,,Contact Us,1,NY,11417,florist
Bill Doran Company,"45 Industrial Park Rd, Albany, NY 12206",Wholesale florist,Albany,,http://billdoran.com/,,,http://billdoran.com/contact.asp,,Contact Us,1,NY,12206,florist
Miss Laura's Place,"129 W Main St, Sherman, NY 14781",Florist,Sherman,,http://www.misslaurasflowers.com/,,,https://www.misslaurasflowers.com/contact_us.php,,Contact Us,1,NY,14781,florist
BW Wholesale Florists,"223 Fluvanna Ave, Jamestown, NY 14701",Wholesale florist,Jamestown,,http://www.bwwholesaleflorist.com/,,,http://www.bwwholesaleflorist.com/Home/Contact_Us,,Contact Us,1,NY,14701,florist
Segelin's Florist,"10664 Carnegie Ave, Cleveland, OH 44106",Florist,Cleveland,,https://www.segelinsflowers.com/,,,https://www.facebook.com/segelins/,," 
",1,OH,44106,florist
Stems Brooklyn,"96 Knickerbocker Ave #109, Brooklyn, NY 11237",Florist,Brooklyn,,http://www.stemsbrooklyn.com/,,,https://www.stemsbrooklyn.com/contact/,,Contact,1,NY,11237,florist
Rosery Flower Shop,"128 Green St, Hudson, NY 12534",Florist,Hudson,,http://www.roseryflowers.com/,,,https://www.roseryflowers.com/contact-information/,,Contact Us,1,NY,12534,florist
Athabold Flowers,"214 Main St, Germantown, NY 12526",Florist,Germantown,,http://www.athabold.com/,,,https://www.instagram.com/p/B_sPXtmDSvb/,,"

",1,NY,12526,florist
Dancing Tulip Floral Boutique,"114 Partition St, Saugerties, NY 12477",Florist,Saugerties,,http://www.dancingtulipfloral.com/,,,http://www.dancingtulipfloral.com/contact-about,,"
              Contact
            ",1,NY,12477,florist
Linda Baldwin Flowers,"149 Mill Hill Rd, Pine Plains, NY 12567",Florist,Pine Plains,,http://www.lindabaldwinflowers.com/,,,http://lindabaldwin.com/contact/,,Contact,1,NY,12567,florist
Marsh Meadow Farm,"113 Lasher Ave, Germantown, NY 12526",Florist,Germantown,,http://www.marshmeadowfarmherbary.com/,,,https://checkout.bloomnetcommerce.com/contact/?s=PDozFynmyhCYIPE8s8vPghIzMeqCZMVwWUJiSqs1meQ%3D,,"

 Contact Us
",1,NY,12526,florist
Catskill Mountain Florist,"5312 NY-23, Windham, NY 12496",Florist,Windham,,http://www.catskillmountainflorist.com/,,,http://www.catskillmountainflorist.com/contact,,"
            Contact
          ",1,NY,12496,florist
Spruce Ridge Landscape & Garden Center,"4004 Erieville Rd, Cazenovia, NY 13035",Florist,Cazenovia,,http://www.spruceridgelandscape.com/,,,http://spruceridgelandscape.com/contact/,,Contact Us,1,NY,13035,florist
Olive Branch Flower & Gift Shoppe Inc,"214 Genesee St, Chittenango, NY 13037",Florist,Chittenango,,https://www.olivebranchflowerandgifts.com/,,,https://www.olivebranchflowerandgifts.com/product/dc1000120/no-contact-delivery,,"


",1,NY,13037,florist
Coleman Florist Inc,"4000 E Genesee St, Syracuse, NY 13214",Florist,Syracuse,,http://www.colemanflorist.com/,,,https://colemanflorist.com/contact/,,Contact,1,NY,13214,florist
Heather,"1878 New York 26, Georgetown, NY 13072",Florist,Georgetown,,http://heatherfloralstudio.com/,,,https://www.facebook.com/heatherfloralstudio/,," 
",1,NY,13072,florist
MerriRose Florist,"109 W Main St, Waterville, NY 13480",Florist,Waterville,,http://www.watervilleflowers.com/,,,https://www.watervilleflowers.com/contact_us.php,,Contact Us,1,NY,13480,florist
Gaetano Florist Inc,"1212 Broadway, Hewlett, NY 11557",Florist,Hewlett,,http://www.gaetanofloristandgardens.com/,,,http://www.gaetanofloristandgardens.com/contact.html,,Contact Info,1,NY,11557,florist
Estebelle Flowers,"33-48 Bay Ct, Far Rockaway, NY 11691",Flower designer,Far Rockaway,,http://www.estebelleflowers.com/,,,http://www.estebelleflowers.com/pages/contact-us,,"
            Contact us
          ",1,NY,11691,florist
Charmayne's Florist & Cake,"240-01 Linden Blvd, Elmont, NY 11003",Florist,Elmont,,http://www.charmaynesflorist.com/,,,https://www.facebook.com/MsCharmsFlowers/,," 
",1,NY,11003,florist
Duryea's Flower Shop,"70 Guy Lombardo Ave A, Freeport, NY 11520",Florist,Freeport,,http://www.duryeasflorist.com/,,,https://www.duryeasflorist.com/contact_us.php,,Contact Us,1,NY,11520,florist
Forest Hills Lilies of the Valley,"105-16 Metropolitan Ave, Forest Hills, NY 11375",Florist,Forest Hills,,http://www.foresthillsliliesofthevalley.com/,,,https://www.foresthillsliliesofthevalley.com/contact_us.php,,Contact Us,1,NY,11375,florist
Roosevelt Flower Shop,"5410 Roosevelt Ave, Queens, NY 11377",Florist,Queens,,http://www.rooseveltflowershop.com/,,,http://www.rooseveltflowershop.com/contact-us.html,,Contact Us,1,NY,11377,florist
Plaza Flowers,"944 Lexington Ave, New York, NY 10021",Florist,New York,"Upscale, family-owned florist creating unique floral arrangements for more than 90 years.",http://www.plazaflowersnyc.com/,,,http://www.plazaflowersnyc.com/contact-me.html,,CONTACT US,1,NY,10021,florist
Nelly's Flower Shop,"501 Broadway, Brooklyn, NY 11211",Florist,Brooklyn,"Unfussy stalwart offering special-occasion arrangements, plus plants, fruit baskets & balloons.",http://www.nellysflowershop.com/,,,https://nellysflowershop.com/contact,,Contact,1,NY,11211,florist
Petals on Page Florist,"303C Page Ave, Staten Island, NY 10307",Florist,Staten Island,,http://www.petalsonpage.com/,,,https://www.google.com/maps/place/?q=place_id:ChIJST4BQZ_Kw4kRGCYoihtdLlI,,Find us,1,NY,10307,florist
Autumn Bloom's Forever Flowers,"495 Flint Rd, Binghamton, NY 13905",Florist,Binghamton,,http://www.facebook.com/,,,http://www.facebook.com/#,,Contact Autumn Bloom's Forever Flowers on Messenger,1,NY,13905,florist
Country Side Blossoms,"3112 US-11, Lisle, NY 13797",Florist,Lisle,,https://www.countrysideblossoms.com/,,,https://www.countrysideblossoms.com/contact_us.php,,Contact Us,1,NY,13797,florist
Petal Garden,"219 Corporate Dr, Binghamton, NY 13904",Florist,Binghamton,,https://www.petalgarden.com/,,,https://www.petalgarden.com/w-contact.htm,,Wholesale,1,NY,13904,florist
Port Chester Florist,"141 S Regent St, Port Chester, NY 10573",Florist,Port Chester,,https://www.portchesterflorist.com/,,,https://www.portchesterflorist.com/#,,Contact,1,NY,10573,florist
Tom's Greenhouses and Florist,"123 Montgomery St, Goshen, NY 10924",Florist,Goshen,,http://www.tomsgreenhousesandflorist.com/,,,https://www.facebook.com/tomsgreenhousesandflorist/,," 
",1,NY,10924,florist
Absolutely Flowers,"430 Rt 211 E, Middletown, NY 10940",Florist,Middletown,,https://www.absolutelyflowers.net/,,,https://www.absolutelyflowers.net/contact_us.php,,Contact Us,1,NY,10940,florist
Flowers And Flowers by Adam Manjuck,"876 Post Rd, Darien, CT 06820",Florist,Darien,,https://flowersandflowers.com/,,,https://flowersandflowers.com/contact-us/,,CONTACT US,1,CT,06820,florist
Kati Mac Floral Designs,"36 S High St, West Chester, PA 19382",Florist,West Chester,,http://www.katimacfloraldesigns.com/,,,//www.katimacfloraldesigns.com/contactus.html,,Contact Us,1,PA,19382,florist
Floral Cottage Weddings & Events,"84 Stefanyk Rd, Glen Spey, NY 12737",Florist,Glen Spey,,https://floralcottageweddings.com/,,,https://www.floralcottageweddings.com/contact,,Contact Us,1,NY,12737,florist
Lorgus Flower Shop,"704 W Nields St A, West Chester, PA 19382",Florist,West Chester,,http://www.lorgusflowers.com/,,,https://www.facebook.com/lorgusflowers/,," 
",1,PA,19382,florist
Chester Hometown Florist,"135 Main St, Chester, NY 10918",Florist,Chester,,http://chesterhometownflower.com/,,,http://chesterhometownflower.com/contact,,"
              Contact
            ",1,NY,10918,florist
Creative Gardens,"755 Chestnut Ridge Rd, Spring Valley, NY 10977",Garden center,Spring Valley,,http://suprememulch.com/,,,http://suprememulch.com/contact-us.html,,"
				Contact Us
			",1,NY,10977,florist
Flora2000,"33 W 19th St, New York, NY 10011",Flower delivery,New York,,https://www.flora2000.com/,,,https://www.flora2000.com/contactus.asp,,CONTACT US,1,NY,10011,florist
Shannon Florist & Nursery,"3380 Fort Hamilton Pkwy, Brooklyn, NY 11218",Florist,Brooklyn,"Established florist specializing in bouquets for all occasions, plus plants & gardening accessories.",http://www.shannonflorist.com/,,,http://www.facebook.com/upgradeaccount.php#!/pages/Brooklyn-NY/Shannon-Florist-and-Nursery/147826925263045,," 
",1,NY,11218,florist
National Floral Design,"448 Middle Country Rd, Ridge, NY 11961",Florist,Ridge,,http://www.nationalfloraldesign.com/,,,http://www.nationalfloraldesign.com/Flower-Arrangements-contact.html,,Contact,1,NY,11961,florist
Zaccagnini Morgantown Florist,"735 Chestnut Ridge Rd Suite E, Morgantown, WV 26505",Florist,Morgantown,,http://www.zaccagninis.com/,,,https://www.google.com/maps/place/?q=place_id:ChIJxdRVnX17NYgRpmQOXW80Ezk,,Find us,1,WV,26505,florist
Flowers On Chestnut,"1 Chestnut St, Nantucket, MA 02554",Florist,Nantucket,,http://www.flowersonchestnut.com/,,,http://www.flowersonchestnut.com/contact-1,,"
            Contact
          ",1,MA,02554,florist
Country Crossroads of Marilla,"700 Two Rod Rd, East Aurora, NY 14052",Florist,East Aurora,,http://www.countrycrossroadsflorist.com/,,,https://www.countrycrossroadsflorist.com/contact_us.php,,Contact Us,1,NY,14052,florist
Barone Gardens,"9437, 6200 S Bay Rd, Cicero, NY 13039",Florist,Cicero,,http://www.bgardens.com/,,,http://www.bgardens.com/directions.html,,How To Find Us,1,NY,13039,florist
Sieck Wholesale Florist,"3257 Walden Ave, Depew, NY 14043",Wholesale florist,Depew,,http://www.sieckfloraldistributing.com/,,,http://www.sieckfloraldistributing.com/Home/Contact,,contact,1,NY,14043,florist
Red Hill Nursery,"241 S Little Tor Rd, New City, NY 10956",Garden center,New City,,http://redhillnurseryinc.com/,,,https://www.redhillnurseryinc.com/contact-us,,CONTACT US,1,NY,10956,florist
Brown's Florist,"248 Plaza Rd, Kingston, NY 12401",Florist,Kingston,,https://brownsfloristny.com/,,,https://brownsfloristny.com/contacts,,"
Contact Us
",1,NY,12401,florist
Suburban Garden Center Inc,"15 Horseshoe Dr, New City, NY 10956",Garden center,New City,"Garden center offering plants, trees & shrubs, plus pavers, stones & other landscape supplies.",http://www.suburbangc.net/,,,http://SuburbanGC.net/contact/,,Contact,1,NY,10956,florist
Dom Gallo Florist,"1601 State St, Schenectady, NY 12304",Florist,Schenectady,,http://www.frankgallo.com/,,,https://www.frankgallo.com/about-us/contact-us/,,Contact Us,1,NY,12304,florist
The Flower Garden,"3164 Rte 9W, Saugerties, NY 12477",Florist,Saugerties,,https://www.theflowergardensaugerties.com/,,,https://www.theflowergardensaugerties.com/contact_us.php,,Contact Us,1,NY,12477,florist
Bliss Wedding Florist,"5910, 3710 Mitchell Dr #114, Fort Collins, CO 80525",Florist,Fort Collins,,https://www.blissweddingflorist.com/,,,https://www.blissweddingflorist.com/contact-bliss/,,Call: (970) 449-0175,1,CO,80525,florist
Nila's Flowers,"6636 Collins Ave, Miami Beach, FL 33141",Florist,Miami Beach,"Traditional flower shop offering a variety of bouquets & plants, plus balloons & gift baskets.",http://www.nilasflowers.com/,,,http://www.nilasflowers.com/../orders.html,,Place Order/Contact Us,1,FL,33141,florist
Wild Blossom Hollow,"2299 Straight Rd, Forestville, NY 14062",Flower designer,Forestville,,http://www.wildblossomhollow.com/,,,http://www.wildblossomhollow.com/wedding-contact,,Wedding Contact,1,NY,14062,florist
All A Bloom Florist and Gifts 247,"116 N Collins St, Plant City, FL 33563",Florist,Plant City,,http://www.allabloomtampa.com/,,,https://dossflowers.com/contacts,,"
Contact Us
",1,FL,33563,florist
Sugar Magnolias,"8 Stony Brook Ave, Stony Brook, NY 11790",Florist,Stony Brook,,http://sugarmagnoliasflowers.com/,,,http://sugarmagnoliasflowers.com/#ShowHidden,,Contact,1,NY,11790,florist
Trias Flowers & Gifts,"6520 SW 40th St, Miami, FL 33155",Florist,Miami,Elegant floral shop provides unique arrangements & gifts in a light-filled space with high ceilings.,https://www.triasflowers.com/,,,https://www.triasflowers.com/support/faqs/category.cfm?typID=9&faqID=78,,"







",1,FL,33155,florist
Bill O'Shea's Florist & Gifts  Hasbrouck Heights and Northern NJ Florist,"231 Boulevard, Hasbrouck Heights, NJ 07604",Florist,Hasbrouck Heights,,http://www.osheasflowers.com/,,,https://osheasflowers.com/contacts,,"
Local Delivery
",1,NJ,07604,florist
From You Flowers,"483 10th Ave 6th Floor, New York, NY 10018",Flower delivery,New York,,https://www.fromyouflowers.com/,,,https://www.fromyouflowers.com/contact.htm,,Contact Us,1,NY,10018,florist
Blossoms N Treasures,"13452 Strykersville Rd, South Wales, NY 14139",Florist,South Wales,,http://blossomsntreasures.com/,,,http://blossomsntreasures.com/contact.php,,,1,NY,14139,florist
McAteer florist,"7623 3rd Ave, Brooklyn, NY 11209",Florist,Brooklyn,,https://www.mcateerfloristbrooklynny.com/,,,https://www.mcateerfloristbrooklynny.com/contact_us.php,,Contact Us,1,NY,11209,florist
D McLeod Inc,"49 S State St, Concord, NH 03301",Florist,Concord,,https://www.dmflowers.com/,,,https://www.facebook.com/search/top/?q=d.%20mcleod%20florist,," 
",1,NH,03301,florist
Park Floral Company,"1055 Morris Park Ave, The Bronx, NY 10461",Florist,The Bronx,,http://www.parkfloralbx.com/,,,https://www.parkfloralbx.com/contact_us.php,,Contact Us,1,NY,10461,florist
LV Flower Events,"6331 Avenue N, Brooklyn, NY 11234",Florist,Brooklyn,,https://www.lvflowersnyc.com/,,,https://lvflowersnyc.com/about-us/,,Contact,1,NY,11234,florist
The Cortland Flower Shop,"11 N Main St, Cortland, NY 13045",Florist,Cortland,,http://www.cortlandflowershop.com/,,,https://www.cortlandflowershop.com/contact_us.php,,Contact Us,1,NY,13045,florist
Flowers By Lynn,"77 Sullivan St, Wurtsboro, NY 12790",Florist,Wurtsboro,,http://www.wurtsboroflorist.com/,,,https://checkout.bloomnetcommerce.com/contact/?s=Ynpf6FC9J3oaljyIs9rr73c9wEIMD0Yf58SH0113OXs%3D,,"

 Contact Us
",1,NY,12790,florist
Jeff's Garden Shop,"400 Avenue M, Matamoras, PA 18336",Garden center,Matamoras,,http://jeffsgardenshop.com/,,,http://jeffsgardenshop.com/contact.html,,Contact,1,PA,18336,florist
Everything's Blooming,"3076 Driftwood Dr, San Jose, CA 95128",Florist,San Jose,"This florist offers custom bouquets, arrangements & gift baskets, with delivery service available.",https://www.everythingsbloomingsanjose.com/,,,https://www.everythingsbloomingsanjose.com/contact_us.php,,Contact Us,1,CA,95128,florist
Alex's Flower Shop,"287 W A St, Hayward, CA 94541",Florist,Hayward,,https://www.alexsflowershophayward.com/,,,https://www.alexsflowershophayward.com/contact_us.php,,Contact Us,1,CA,94541,florist
Country Gardeners Florist,"5 Railroad Plaza, Millerton, NY 12546",Florist,Millerton,,http://www.countrygardenersflorist.com/,,,https://countrygardenersflorist.com/contacts,,"
Contact Us
",1,NY,12546,florist
Ruth Chase Flowers,"19 Church St, New Milford, CT 06776",Florist,New Milford,,http://ruthchaseflowers.com/,,,https://www.ruthchaseflowers.com/contact_us.php,,Contact Us,1,CT,06776,florist
Hugs & Kisses,"2957 Church St, Pine Plains, NY 12567",Florist,Pine Plains,,https://www.hugsandkissesflowershop.com/,,,https://www.hugsandkissesflowershop.com/contact.html,,"
							Contact
						",1,NY,12567,florist
Golden Carriage Flower & Gift Shop,"28 N Main St #1210, Dover, PA 17315",Florist,Dover,,https://www.goldencarriageflowershop.com/,,,https://www.goldencarriageflowershop.com/product/dc1000120/no-contact-delivery,,"


",1,PA,17315,florist
Plant Flower & Garden Shop Dover,"909 N Walnut St unit b, Milford, DE 19963",Florist,Milford,,https://www.doverflorist.net/,,,https://www.flowershopnetwork.com/contactus,,Contact FSN,1,DE,19963,florist
5th Avenue Flowers and Events,"1 Fifth Ave, Village of Pelham, NY 10803",Florist,Village of Pelham,,http://www.5thavenueflowersandevents.com/,,,http://www.5thavenueflowersandevents.com/contact/,,Contact,1,NY,10803,florist
Flowers By Kary & Gift Shop,"1096 Bergen St, Brooklyn, NY 11216",Florist,Brooklyn,Simple store specializing in plants & custom floral arrangements for all occasions.,http://www.barbarasflowershop.net/,,,http://www.facebook.com/pages/TaraSimone-for-BARBARAS-FLOWERS/318882042865,," 
",1,NY,11216,florist
Hamptons Weddings & Events,"69 Main St Suit 1, East Hampton, NY 11937",Florist,East Hampton,,http://www.hamptonsweddingsandevents.com/,,,https://www.hamptonsweddingsandevents.com/contact-us,,Book a Consultation,1,NY,11937,florist
Anchor & Bloom Floral Design East Hampton,"530 Montauk Hwy, East Hampton, NY 11937",Florist,East Hampton,,http://anchorandbloomflowers.com/,,,http://anchorandbloomflowers.com/contact,,"
            Contact
          ",1,NY,11937,florist
Buckley's Flower Shop,"75 Montauk Hwy, Wainscott, NY 11975",Florist,Wainscott,,http://buckleysfarm.com/,,,https://buckleysfarm.com/?page_id=18,,Contact Us,1,NY,11975,florist
Sag Harbor Florist,"3 Bay St, Sag Harbor, NY 11963",Florist,Sag Harbor,,http://www.sagharborflorist.net/,,,http://www.sagharborflorist.net/contact-us.html,,"
				Contact Us
			",1,NY,11963,florist
Bespoke Flowers Inc,"210 David Whites Ln unit b, Southampton, NY 11968",Florist,Southampton,,https://www.bespokeflowers.co/,,,https://bespokeflowers.co/florist-southampton-ny/contactus/,,Contact Us,1,NY,11968,florist
Greenleaf & Bloom Inc,"1353 Old Northern Blvd, Roslyn, NY 11576",Florist,Roslyn,,http://www.greenleafandbloom.com/,,,http://www.greenleafandbloom.com/Contact us.html,,CONTACT US,1,NY,11576,florist
Flowers By Brian Event Design,"138 Liberty Ave, Mineola, NY 11501",Florist,Mineola,,http://www.flowersbybrian.com/,,,http://www.flowersbybrian.com/contact-us,,"
        
        Contact
      ",1,NY,11501,florist
Westbury Florist Inc,"53 Post Ave, Westbury, NY 11590",Florist,Westbury,,http://westburyflorist.com/,,,https://www.westburyflorist.com/service.htm,,Contact Us,1,NY,11590,florist
Treemendous Florists Ltd,"323 Nassau Blvd, Garden City South, NY 11530",Florist,Garden City South,,http://www.treemendousflorist.com/,,,https://www.treemendousflorist.com/contact_us.php,,Contact Us,1,NY,11530,florist
Flowers By Voegler,"1171 Merrick Ave, Merrick, NY 11566",Florist,Merrick,,http://www.flowersbyvoegler.com/,,,https://www.facebook.com/pages/category/Gift-Shop/Flowers-By-Voegler-140391722679457/,," 
",1,NY,11566,florist
116 Flowers,"232 E 116th St, New York, NY 10029",Florist,New York,,http://the116flowers.com/,,,https://checkout.bloomnetcommerce.com/service/contact/?s=UOy%2FhbAx834vUwgzUkPRa5fCVNV0uk3s9NPQt8awq6M%3D,,"

 Contact
",1,NY,10029,florist
Luxury Dreams Events & Decor,"1570 Old Country Rd, Westbury, NY 11590",Flower designer,Westbury,,https://www.luxurydreamsdecor.com/,,,https://www.luxurydreamsdecor.com/contact,,Contact,1,NY,11590,florist
Gardenia Flower Shop,"2691 Atlantic Ave, Brooklyn, NY 11207",Florist,Brooklyn,,https://thegardeniaflowershop.com/,,,https://thegardeniaflowershop.com/contacts,,"
Contact Us
",1,NY,11207,florist
3rd Avenue Garden,"1616 3rd Ave, New York, NY 10128",Florist,New York,,http://places.singleplatform.com/,http://places.singleplatform.com/third-avenue-garden/menu?ref=google,,http://www.singleplatform.com/menu-lp?ref=google&sp_source=publisher&sp_campaign=google&sp_channel=viral,,,1,NY,10128,florist
Fioravanti Florist,"2279 Clifford Ave, Rochester, NY 14609",Florist,Rochester,,http://www.fioravantiflorist.com/,,,https://www.facebook.com/fioravanti.florist/,," 
",1,NY,14609,florist
The Flower Basket Ltd,"9141 Baltimore National Pike Ste 1, Ellicott City, MD 21042",Florist,Ellicott City,,http://www.theflowerbasketltd.com/,,,https://www.facebook.com/The-Flower-Basket-Ltd-224401324422345/,," 
",1,MD,21042,florist
Flowers By Judy,"8659 Baltimore National Pike, Ellicott City, MD 21043",Florist,Ellicott City,,http://www.flowersbyjudy.com/,,,https://www.flowersbyjudy.com/contact-us/,,Contact Us,1,MD,21043,florist
Endicott Florist,"119 Washington Ave, Endicott, NY 13760",Florist,Endicott,,http://www.endicottfloristonline.com/,,,https://www.google.com/maps/place/?q=place_id:ChIJ4SAiK4zs2okRVqWtgxfk2Zg,,Find us,1,NY,13760,florist
The Rainbow Rose,"117 W Main St, Elkland, PA 16920",Florist,Elkland,,http://www.therainbowrose.com/,,,https://www.facebook.com/rainroseflorist/?eid=ARBqFF8oETIzmo5R4B3now_tyqhzenfggFVpDpnsijdRJ9pBP2r59MnYTSh_WQJo3dori098SpZMCZI5,," 
",1,PA,16920,florist
Roca Floral,"272 Hasbrouck Ave, Kingston, NY 12401",Florist,Kingston,,http://www.rocafloral.net/,,,https://checkout.bloomnetcommerce.com/contact/?s=p55zmEzCsTwg4pWKRqROx1j8X21r7Df9oZZFsfohfgc%3D,,"

 Contact Us
",1,NY,12401,florist
Floral Fantasies By Sara,"6797 U.S. 9, Rhinebeck, NY 12572",Florist,Rhinebeck,,https://www.floralfantasiesbysara.com/,,,https://www.floralfantasiesbysara.com/contact,,Contact,1,NY,12572,florist
Adams Flower Shop,"1560 Ulster Ave, Lake Katrine, NY 12449",Florist,Lake Katrine,,http://adamsfarms.com/,,,https://adamsfarms.com/contact/,,Contact,1,NY,12449,florist
Jarita's Florist,"17 Tinker St, Woodstock, NY 12498",Florist,Woodstock,,https://www.jaritas.com/,,,https://www.facebook.com/Jaritas-Florist-169766063065376/,," 
",1,NY,12498,florist
Elderberry,"2406 NY-212, Woodstock, NY 12498",Florist,Woodstock,,http://www.elderberrydesignandflowers.com/,,,https://www.elderberrydesignandflowers.com/contact-2/,,Contact Us,1,NY,12498,florist
Hudson Valley Blooms,"5 Ann Dr, Rhinebeck, NY 12572",Florist,Rhinebeck,,http://www.hudsonvalleyblooms.com/,,,http://www.hudsonvalleyblooms.com/pricing-contact/,,pricing & contact,1,NY,12572,florist
PETALS AND MOSS STUDIO IN THE GARDEN,"11 Hewlett Rd, Red Hook, NY 12571",Flower designer,Red Hook,,http://petalsandmossflorals.com/,,,https://www.petalsandmossflorals.com/contact,,Visit Us,1,NY,12571,florist
Twin Ponds Flowers,"37-39 Red Tail Rd, Rhinebeck, NY 12572",Flower market,Rhinebeck,,http://twinpondsnursery.wordpress.com/,,,http://twinpondsnursery.wordpress.com/#panel4,,Contact Us,1,NY,12572,florist
Bella Terra Greenhouse,"8607 N Main St, Angola, NY 14006",Garden center,Angola,,http://bellaterragreenhouse.com/,,,http://bellaterragreenhouse.com/contact/,,Contact Info,1,NY,14006,florist
Taida Orchids Ny Inc,"156 Dubois St, Pine Bush, NY 12566",Wholesale florist,Pine Bush,,http://www.taidaorchidsny.com/,,,https://www.taidaorchidsny.com/contact,,CONTACT,1,NY,12566,florist
Springvale Flowers,"489 Main St, Springvale, ME 04083",Florist,Springvale,,https://springvaleflowers.net/,,,https://www.bloomnation.com/contact-us/,,Contact Us,1,ME,04083,florist
In Full Bloom Florist,"70 Motor Ave, Farmingdale, NY 11735",Florist,Farmingdale,,http://infullbloomny.com/,,,https://www.infullbloomny.com/service.htm,,Contact Us,1,NY,11735,florist
firefly floral & design,"4137 Maple Street Rd, Lyons, NY 14489",Florist,Lyons,,https://www.fireflyfloralanddesign.com/,,,https://www.fireflyfloralanddesign.com/contact,,"
                Contact
              ",1,NY,14489,florist
Stems by Stacy,"2797 High Ridge Blvd, High Ridge, MO 63049",Florist,High Ridge,,http://www.stemsbystacy.com/,,,http://www.facebook.com/stemsbystacy,," 
",1,MO,63049,florist
FENTON FLOWERS & GIFTS,"17185 Silver Pkwy, Fenton, MI 48430",Florist,Fenton,,https://www.fentonflowershop.com/,,,https://www.fentonflowershop.com/contact_us.php,,Contact Us,1,MI,48430,florist
Wallflowers,"207 NJ-71, Spring Lake, NJ 07762",Florist,Spring Lake,,https://www.wallflowersnj.com/,,,https://www.facebook.com/pages/Wallflowers-Florist/254255594703803,," 
",1,NJ,07762,florist
Gerych's Innovative Event & Floral Design,"713 W Silver Lake Rd, Fenton, MI 48430",Florist,Fenton,,http://gerychsdesign.com/,,,http://gerychsdesign.com/new-page,,"
              CONTACT
            ",1,MI,48430,florist
Village Floral,"27 Genesee St, New Hartford, NY 13413",Florist,New Hartford,,http://www.villageflorals.net/,,,http://null,," 
",1,NY,13413,florist
Central Market Florist,"48 Center Market St, Brooklyn, NY 11236",Florist,Brooklyn,,http://www.gittofoods.com/,,,https://gittofoods.com/contact-us,,"
		  Contact us
		",1,NY,11236,florist
The Flower Cottage,"21122 South La Grange Road, Frankfort, IL 60423",Florist,Frankfort,,http://www.frankfortflowercottage.com/,,,https://www.facebook.com/frankfortflowercottage,," 
",1,IL,60423,florist
Gould's Flowers & Gifts,"83 Locust St, Lockport, NY 14094",Florist,Lockport,,http://www.gouldsflowers.com/,,,https://www.facebook.com/GouldsFlowers,," 
",1,NY,14094,florist
Louise's Flowerland,"1134 US-127, Frankfort, KY 40601",Florist,Frankfort,,http://www.louisesflowerland.com/,,,https://www.louisesflowerland.com/product/dc1000120/no-contact-delivery,,"


",1,KY,40601,florist
Benson's Farm & Garden,"8400 Clark Mills Rd, Whitesboro, NY 13492",Florist,Whitesboro,,http://www.bensonsfarmandgarden.com/,,,http://www.bensonsfarmandgarden.com/contact.html,,"
						Contact
					",1,NY,13492,florist
Grossman's Florist,"400 Atlantic Ave, Oceanside, NY 11572",Florist,Oceanside,,http://aplantdepot.com/,,,http://aplantdepot.com/contact-us.html,,Contact Us,1,NY,11572,florist
Best in Bloom Inc,"6181 Thompson Rd #401, Syracuse, NY 13206",Wholesale florist,Syracuse,,http://www.bestinbloominc.com/,,,http://www.bestinbloominc.com/Articles.asp?ID=257,,Contact Us,1,NY,13206,florist
Sacandaga Flowers,"2424 NY-30, Mayfield, NY 12117",Florist,Mayfield,,http://www.sacandagaflowersny.com/,,,https://checkout.bloomnetcommerce.com/contact/?s=4R9vAeVQQc%2F8zTWlJ5xhdd2rz2FMhF2PVE6mGMROZ6g%3D,,"

 Contact Us
",1,NY,12117,florist
Balet Flowers & Design LLC,"5041 Nelson Ave Ext, Ballston Spa, NY 12020",Florist,Ballston Spa,,http://www.baletflowers.com/,,,https://www.baletflowers.com/contact-us/,,Contact,1,NY,12020,florist
The Flower Barn,"132 Division St, Northville, NY 12134",Florist,Northville,,https://www.flowerbarnandgifts.com/,,,https://www.flowerbarnandgifts.com/contact_us.php,,Contact Us,1,NY,12134,florist
Blooms Floral Design,"1023 NY-29, Greenwich, NY 12834",Florist,Greenwich,,http://bloomsfloraldesign.com/,,,https://bloomsfloraldesign.com/contact-us/,,CONTACT US,1,NY,12834,florist
Peck's Flowers,"105 N Main St, Gloversville, NY 12078",Florist,Gloversville,,http://www.pecksflowersny.com/,,,https://www.pecksflowersny.com/contact_us.php,,Contact Us,1,NY,12078,florist
The Long Stem Flower Shoppe,"3 Turkey Hills Rd m, East Granby, CT 06026",Florist,East Granby,,http://www.longstemflower.com/,,,http://www.longstemflower.com/contact-us,,Contact Us ,1,CT,06026,florist
Dragonfly Event Inc,"134 Day St, Granby, CT 06035",Florist,Granby,,http://www.dragonflyevent.com/,,,//www.hugedomains.com/contact.cfm,,Contact Us,1,CT,06035,florist
Bloom's Flower Shop Florists,"139 S Main St, Albion, NY 14411",Florist,Albion,,http://www.bloomsflowershop.net/,,,https://www.bloomsflowershop.net/contact-hours,,CONTACT US,1,NY,14411,florist
Everyday Flowers,"200 Main St, Poultney, VT 05764",Florist,Poultney,,http://www.everydayflowersvt.com/,,,https://www.everydayflowersvt.com/contact_us.php,,Contact Us,1,VT,05764,florist
Laura's Garden and The Flower Shop  Laura's Garden,"207 N Main St, Salem, NY 12865",Florist,Salem,,http://www.laurasgardensite.com/,,,http://www.laurasgardensite.com/tel:5188543833,,(518) 854-3833,1,NY,12865,florist
Rebecca's Florist & Country Store LLC,"3984 Main St, Warrensburg, NY 12885",Florist,Warrensburg,,http://www.rebeccasfloristandcountrystore.com/,,,http://rebeccasfloristandcountrystore.com/find-us/,,Find Us,1,NY,12885,florist
The Lily of the Valley Florist,"6326 Main St, Manchester Center, VT 05255",Florist,Manchester Center,,http://www.lilyofthevalleyflorist.com/,,,https://www.facebook.com/lilyofthevalleyfloristvt/,," 
",1,VT,05255,florist
Blossoms 'n More Florist,"191 Columbian Ave, Rutland, VT 05701",Florist,Rutland,,http://www.hncblossomsnmore.com/,,,https://www.hncblossomsnmore.com/contact_us.php,,Contact Us,1,VT,05701,florist
A & B Floral,"225 W 35th St 6th fl, New York, NY 10001",Florist,New York,,http://www.bfloral.com/,,,http://www.bfloral.com/contact,,"
            Contact
          ",1,NY,10001,florist
Victoria Flower Wholesale,"1832 127th St, Flushing, NY 11356",Wholesale florist,Flushing,,http://www.hansaflowers.com/,,,http://www.hansaflowers.com/Home/Contact,,Contact Us,1,NY,11356,florist
Garland of Divinity's Love,"15810 84th Dr, Jamaica, NY 11432",Florist,Jamaica,,https://www.garlandofdivinityslove.com/,,,https://www.garlandofdivinityslove.com/contact,,Contact,1,NY,11432,florist
Metro Floral Decorators,"4116 30th Ave, Astoria, NY 11103",Florist,Astoria,Source for modern floral decorations & lighting designs for weddings & other special occasions.,http://www.flowersbymetro.com/,,,http://www.flowersbymetro.com/contact.html,,,1,NY,11103,florist
Weaver Gardens,"144 Weaver St, Larchmont, NY 10538",Florist,Larchmont,,http://weavergardens.com/,,,http://weavergardens.com/contact-weaver-gardens-larchmont-ny,,"
            Contact
          ",1,NY,10538,florist
Rainbow Florist,"2134 Westchester Ave, The Bronx, NY 10462",Florist,The Bronx,,http://www.rainbowflorals.com/,,,//www.rainbowflorals.com/contactus.html,,Contact Us,1,NY,10462,florist
Greenfield Flower Shop,"2628 W Greenfield Ave, Milwaukee, WI 53204",Florist,Milwaukee,,http://www.greenfieldflowershop.com/,,,http://www.greenfieldflowershop.com/milwaukee_florist_contact.htm,,,1,WI,53204,florist
Fountain Florist Inc,"108 NE 6th St, Greenfield, IA 50849",Florist,Greenfield,,http://www.greenfieldiowa.com/,,,http://www.greenfieldiowa.com/contact,,Contact,1,IA,50849,florist
Beautiful Beginnings Floral Shop,"925 W Main St, Greenfield, IN 46140",Florist,Greenfield,,http://www.flowershopgreenfieldin.com/,,,https://www.flowershopgreenfieldin.com/contact_us.php,,Contact Us,1,IN,46140,florist
Floral Affairs,"324 Deerfield St, Greenfield, MA 01301",Florist,Greenfield,,http://www.floralaffairsofgreenfield.com/,,,https://www.floralaffairsofgreenfield.com/contact_us.php,,Contact Us,1,MA,01301,florist
Bel Aire Flower Shop,"11222 W Greenfield Ave, West Allis, WI 53214",Florist,West Allis,,http://www.belaireflowersmilwaukee.com/,,,http://www.belaireflowersmilwaukee.com/ContactFlorists#main,,Contactor Visit Us,1,WI,53214,florist
Barb's Green House Florist,"5645 S 108th St, Hales Corners, WI 53130",Florist,Hales Corners,,http://www.barbsgreenhouseflorist.com/,,,https://www.facebook.com/Barbs-Green-House-Florist-154741049333/,," 
",1,WI,53130,florist
Bel Aire Flowers,"N85 W16150 Appleton Ave, Menomonee Falls, WI 53051",Florist,Menomonee Falls,,https://www.belaireflowersmilwaukee.com/,,,https://www.belaireflowersmilwaukee.com/ContactFlorists#main,,Contactor Visit Us,1,WI,53051,florist
Shadeland Flower Shop,"6935 Lake Plaza Dr b10, Indianapolis, IN 46220",Florist,Indianapolis,,https://www.shadelandflowershop.com/,,,https://www.shadelandflowershop.com/contact_us.php,,Contact Us,1,IN,46220,florist
Paul's Flowers & Gifts,"5365 E Washington St, Indianapolis, IN 46219",Florist,Indianapolis,,http://www.myfsn.com/,,,https://www.paulsflowersandgiftsindianapolis.com/contact_us.php,,Contact Us,1,IN,46219,florist
Simcox's Flowers LLC,"1561 Kuser Rd, Hamilton Township, NJ 08690",Florist,Hamilton Township,,https://simcoxsflowers.com/,,,https://simcoxsflowers.com/contacts,,"
Contact Us
",1,NJ,08690,florist
Ben's Florist,"9518 4th Ave, Brooklyn, NY 11209",Florist,Brooklyn,,http://www.bensfloristnyc.com/,,,https://www.facebook.com/bensfloristny,," 
",1,NY,11209,florist
Phoebe Floral Shop,"2102 Hamilton St, Allentown, PA 18104",Florist,Allentown,,http://www.phoebefloral.com/,,,https://www.phoebefloral.com/contact_us,,Contact Us,1,PA,18104,florist
MAGNAFLORA DESIGN  EVENTS,"411 3rd Ave, Brooklyn, NY 11215",Florist,Brooklyn,,http://www.magnafloranyc.com/,,,http://magnafloranyc.com/contact,,Contact,1,NY,11215,florist
Joseph's Flowers,"3100 Quakerbridge Rd, Trenton, NJ 08619",Florist,Trenton,,http://josephsflowers.com/,,,http://josephsflowers.com/contact,," Contact

",1,NJ,08619,florist
Mak Floral Design,"1334 39th street, ground floor, Brooklyn, NY 11218",Flower designer,Brooklyn,,http://www.makfloraldesign.com/,,,https://makfloraldesign.com/contact/,,Contact Page,1,NY,11218,florist
Designs By Linda,"11 Main St, New Egypt, NJ 08533",Florist,New Egypt,,http://www.designsbylindaflorist.com/,,,https://designsbylindaflorist.com/contact/,,Lets Connect,1,NJ,08533,florist
In Bloom Flowers & Gifts,"1128 Old York Rd Rear Entrance, Abington, PA 19001",Florist,Abington,,https://www.inbloomabington.com/,,,https://www.inbloomabington.com/service/contact/,,"

 Contact
",1,PA,19001,florist
Perna's Plant and Flower Shop,"189 Washington Rd, Princeton, NJ 08540",Florist,Princeton,,https://www.flowersofprinceton.com/,,,https://www.flowersofprinceton.com/contact_us.php,,Contact Us,1,NJ,08540,florist
Countryside Floral And Greenhouses,"129 Mt Cobb Hwy, Lake Ariel, PA 18436",Florist,Lake Ariel,,http://www.countrysidefloral.org/,,,https://www.facebook.com/Countryside-Floral-and-Greenhouses-280327475358848/,," 
",1,PA,18436,florist
Roberts Flowers of Hanover,"44 Main St, Hanover, NH 03755",Florist,Hanover,,http://www.robertsflowersofhanover.com/,,,http://robertsflowersofhanover.com/contact-us/,,Contact Us,1,NH,03755,florist
Gabriela Wakeham Floral Design,"120 W 28th St Studio 4G, New York, NY 10001",Florist,New York,,https://www.gabrielawakeham.com/,,,https://www.gabrielawakeham.com/contact.shtml,,Contact,1,NY,10001,florist
Angelica Flowers & Events,"436 Hudson St, New York, NY 10014",Flower designer,New York,Sophisticated florist in a vibrant storefront creating unique designs for events & elegant bouquets.,http://www.angelicaflowersandevents.com/,,,https://angelicaflowersandevents.com/contact-us/,,Contact Us,1,NY,10014,florist
Shearer's Florist & Gifts,"121 Centennial Ave, Hanover, PA 17331",Florist,Hanover,,http://www.shearersflorist.com/,,,http://www.shearersflorist.com/tel:717-637-6281,,"

717-637-6281
",1,PA,17331,florist
Pressell's Florist,"100 Carlisle St, Hanover, PA 17331",Florist,Hanover,,http://www.pressellsfloristpa.com/,,,https://www.pressellsfloristpa.com/contact_us.aspx?sid=cvjio3qmhirgtrnhguktn2to&searchwords=&viewedpreviously=,,CONTACT US,1,PA,17331,florist
Vintage Garden Florist,"7093 York Rd, Abbottstown, PA 17301",Florist,Abbottstown,,http://www.thevintagegardenflorist.com/,,,https://checkout.bloomnetcommerce.com/service/contact/?s=%2FgvNaxqPXLbw7DAryBarLlD6HtPT2ZpXol3L4HILj7s%3D,,"

 Contact
",1,PA,17301,florist
The Bloom Room,"3210 Middletown Rd, The Bronx, NY 10465",Florist,The Bronx,,http://www.theblissfulbloom.com/,,,https://theblissfulbloom.com/contact/,,Contact,1,NY,10465,florist
CamFlor Inc,"2364 Riverside Rd, Watsonville, CA 95076",Wholesale florist,Watsonville,,http://www.camflor.com/,,,http://www.camflor.com/contact-us/,,Contact Us,1,CA,95076,florist
Schaefer Wholesale Florist,"2635 Springwood Rd, York, PA 17402",Wholesale florist,York,,http://www.swflorist.com/,,,https://www.swflorist.com/contact-us,,Contact,1,PA,17402,florist
The Flower Shoppe,"1 Hanover Ave, Pawtucket, RI 02861",Florist,Pawtucket,,https://www.theflowershopperi.com/,,,https://www.theflowershopperi.com/contact_us.php,,Contact Us,1,RI,02861,florist
CONROY'S FLORIST AND TUXEDO,"28 E Hanover Ave, Morris Plains, NJ 07950",Florist,Morris Plains,,http://www.conroysfloristandtuxedo.com/,,,http://conroysfloristandtuxedo.com/#contact,,Contact Us,1,NJ,07950,florist
Country Hearth Flower & Gift,"309 W King St, East Berlin, PA 17316",Florist,East Berlin,,http://www.countryhearthflowers.com/,,,https://www.facebook.com/Country-Hearth-Flower-and-Gift-Shop-150330801800637/,," 
",1,PA,17316,florist
Something Borrowed Blooms,"102 Max Dr, Lafayette, LA 70507",Florist,Lafayette,,http://www.somethingborrowedblooms.com/,,,http://www.somethingborrowedblooms.com/Contactus,,Contact,1,LA,70507,florist
Summit Hills Florist,"789 Springfield Ave, Summit, NJ 07901",Florist,Summit,,http://summithillsflorist.com/,,,https://summithillsflorist.com/contacts,,"
Contact Us
",1,NJ,07901,florist
HooverFisher Florist,"16 University Blvd E, Silver Spring, MD 20901",Florist,Silver Spring,"Long-standing corner florist offering flower arrangements, balloons & gifts plus delivery options.",https://www.hooverfisherflorist.com/,,,https://www.hooverfisherflorist.com/contact/,,Contact Us,1,MD,20901,florist
DVFlora Jessup MD,"7587 Montevideo Rd, Jessup, MD 20794",Wholesale florist,Jessup,,http://www.dvflora.com/,,,http://www.dvflora.com/index.php/contact-us/,,Contact Us,1,MD,20794,florist
Glamurosa Event & Floral Design,"Phone & Online orders Only, 1611 Springfield Ave, Maplewood, NJ 07040",Florist,Maplewood,,http://www.glamurosadesigns.com/,,,https://glamurosadesigns.com/contacts,,"
Contact Us
",1,NJ,07040,florist
Fordham Flowers,"81 W Fordham Rd, The Bronx, NY 10468",Florist,The Bronx,,http://www.fordhamflowers.com/,,,https://www.fordhamflowers.com/contact_us.php,,Contact Us,1,NY,10468,florist
USA Bouqet Co,"160 Broadway, Cresskill, NJ 07626",Florist,Cresskill,,http://www.usabq.com/,,,http://www.usabq.com/index.php/contact-us,,,1,NJ,07626,florist
Paul Anthony Designs,"8 Union Ave, Cresskill, NJ 07626",Florist,Cresskill,,http://www.paulanthonydesigns.com/,,,http://www.paulanthonydesigns.com/page4.html,,CONTACT,1,NJ,07626,florist
White Plains Florist,"28 Westchester Ave, White Plains, NY 10601",Florist,White Plains,,http://www.whiteplainsflorists.com/,,,https://www.whiteplainsflorists.com,,CONTACT,1,NY,10601,florist
Blooming Buds,"58 Halstead Ave, Harrison, NY 10528",Florist,Harrison,,http://www.bloomingbudsflowers.com/,,,https://bloomingbudsflowers.com/contacts,,"
Local Delivery
",1,NY,10528,florist
Flowers By Philip,"1311 Lexington Ave, New York, NY 10128",Florist,New York,Independently owned flower shop with custom & premade arrangements using seasonal & exotic blooms.,https://flowersbyphilip.com/,,,https://flowersbyphilip.com/contact-us/,,Contact Us,1,NY,10128,florist
Jerome Florists,"1379 Madison Ave, New York, NY 10128",Florist,New York,Enduring retailer offering flowers from all over & elegant floral arrangements for any occasion.,http://www.jeromeflorists.com/,,,https://www.jeromeflorists.com,,Contact  Now!,1,NY,10128,florist
Greenworks Flowers,"341 E 76th St, New York, NY 10021",Florist,New York,"Compact shop offering a variety of floral arrangements & plants for all occasions, with delivery.",https://www.greenworksflowersny.com/,,,https://www.greenworksflowersny.com/contact_us.php,,Contact Us,1,NY,10021,florist
Bettys Total Events,"94-33 Corona Ave., Queens, NY 11373",Florist,Queens,,http://www.bettystotalevents.com/,,,http://www.bettystotalevents.com/#ContactUs,,Contact Us,1,NY,11373,florist
Party Creations and More Corp,"627 Melrose Ave, The Bronx, NY 10455",Florist,The Bronx,,https://partycreationsandmore.com/,,,https://www.bloomnation.com/contact-us/,,Contact Us,1,NY,10455,florist
Petite Florist Bellmore Florist Inc,"2701 Pettit Ave, Bellmore, NY 11710",Florist,Bellmore,,http://www.petiteflorist.net/,,,http://www.facebook.com/pages/Petite-Florist/191643487633390?fref=ts,," 
",1,NY,11710,florist
Flowers By Silvestri,"452 San Bruno Ave W, San Bruno, CA 94066",Florist,San Bruno,"Veteran family-owned florist offering unique floral arrangements, plants & gifts in a sunlit space.",http://www.flowersbysilvestri.com/,,,https://www.google.com/maps/place/?q=place_id:ChIJP85F29p5j4ARxjku9PznSmI,,Find us,1,CA,94066,florist
Guignard Florist,"6420 NY-31, Cicero, NY 13039",Florist,Cicero,,http://www.guignardflorist.com/,,,https://www.facebook.com/Guignardflorist,," 
",1,NY,13039,florist
In The Garden,"69 Waterwitch Ave, Highlands, NJ 07732",Florist,Highlands,,http://inthegardennj.com/,,,https://inthegardennj.com/about-us/,,Contact,1,NJ,07732,florist
McShan Florist,"10311 Garland Rd, Dallas, TX 75218",Florist,Dallas,"Floral designer with fruit & gourmet baskets, plus plants, balloons, corsages & boutonnieres.",https://mcshan.com/,,,https://mcshanflorist.com/about-us/,,Contact Us,1,TX,75218,florist
Robert's Florals,"114 Raritan Ave, Highland Park, NJ 08904",Florist,Highland Park,,http://www.roberts-florals.com/,,,http://www.roberts-florals.com/events,,"
              About Us/Contact
            ",1,NJ,08904,florist
Mostly Flowers Ltd,"4879 S Archer Ave, Chicago, IL 60632",Florist,Chicago,"Mom-&-pop shop providing contemporary arrangements, custom wedding bouquets, plants & gifts.",https://www.mostlyflowersltd.net/,,,https://www.mostlyflowersltd.net/contact_us.php,,Contact Us,1,IL,60632,florist
The Tuscan Sunflower,"318 North St, Bennington, VT 05201",Florist,Bennington,,http://thetuscansunflower.net/,,,https://thetuscansunflower.net/contacts,,"
Contact Us
",1,VT,05201,florist
Florals of Haven Hill Farm,"20 Stevenson Rd, Greenwich, NY 12834",Florist,Greenwich,,http://floralsofhavenhillfarm.com/,,,http://floralsofhavenhillfarm.com/contact-us/,,Contact Us,1,NY,12834,florist
The Gift Garden,"431 Main St, Bennington, VT 05201",Florist,Bennington,,https://thegiftgardenvt.com/,,,https://www.facebook.com/The-Gift-Garden-136610576436248/?ref=br_rs,," 
",1,VT,05201,florist
B K's Boutique Florist,"26 Greenwood St, Canisteo, NY 14823",Florist,Canisteo,,http://www.bkboutiqueflorist.com/,,,https://www.facebook.com/bkboutiqueflorist,," 
",1,NY,14823,florist
Berry Vine Creations,"16 Main St, Arkport, NY 14807",Florist,Arkport,,http://www.berryvinecreations.com/,,,https://www.berryvinecreations.com/contact-us,,Contact us,1,NY,14807,florist
Fleurissimo NYC,"133 New York Ave suite c, Huntington, NY 11743",Florist,Huntington,,https://www.fleurissimonyc.com/,,,https://www.fleurissimonyc.com/contact-us,,Contact Us,1,NY,11743,florist
The Florist at Decker's Nursery previously Greenlawn Florist,"841 Pulaski Rd, Greenlawn, NY 11740",Florist,Greenlawn,,https://florist.deckers-nursery.com/,,,https://florist.deckers-nursery.com/pages/contact-us,,"
          Contact Us
        ",1,NY,11740,florist
FLOWERS & GIFTS IN HAUPPAUGEOAKDALE FLOWERS,"110 Motor Pkwy, Hauppauge, NY 11788",Florist,Hauppauge,,http://hauppaugeflowers.com/,,,https://www.hauppaugeflowers.com/contact_us.php,,Contact Us,1,NY,11788,florist
Posh Floral Designs,"1280 Montauk Hwy, Oakdale, NY 11769",Florist,Oakdale,,http://www.poshfloraldesignsinc.com/,,,https://www.poshfloraldesignsinc.com/contact_us.php,,Contact Us,1,NY,11769,florist
Gina's Enchanted Flower Shoppe,"1250 Old Nichols Rd, Islandia, NY 11749",Florist,Islandia,,https://www.enchantedflowers.com/,,,https://www.facebook.com/pages/Ginas-Enchanted-Flower-Shoppe/126653834095079,," 
",1,NY,11749,florist
farmhouse flowers,"678 N Salem Rd, Ridgefield, CT 06877",Florist,Ridgefield,,http://www.farmhouseflowersct.com/,,,//www.farmhouseflowersct.com/contact-a-florist-in-fairfield-county,,Contact,1,CT,06877,florist
Carriage Barn Florals & Gifts,"389 Smith Ridge Rd, South Salem, NY 10590",Florist,South Salem,,https://www.carriagebarnfloralsgifts.com/,,,https://www.carriagebarnfloralsgifts.com/contact,,Contact,1,NY,10590,florist
Hayfields,"1 Bloomer Rd, North Salem, NY 10560",Florist,North Salem,,http://www.hayfieldsmarket.com/,http://hayfieldsmarket.com/wp-content/uploads/2016/03/Menu2017.pdf,,https://hayfieldsmarket.com/contact-us/,,Contact Us,1,NY,10560,florist
Wild Roses and Blooms,"782 Ridgefield Rd, Wilton, CT 06897",Florist,Wilton,,https://wildrosesandblooms.com/,,,https://wildrosesandblooms.com/contact/,,Contact,1,CT,06897,florist
hanato,"240 Kent Ave #1, Brooklyn, NY 11249",Florist,Brooklyn,,http://hanatonyc.com/,,,http://hanatonyc.com/mailto:contact@hanatonyc.com,,contact@hanatonyc.com,1,NY,11249,florist
Kent Countryside Nursery & Landscaping,"61 Ludington Ct, Carmel Hamlet, NY 10512",Garden center,Carmel Hamlet,,https://www.kentcountryside.com/,,,https://www.kentcountryside.com/contact,,CONTACT,1,NY,10512,florist
Acorn & Evergreen Floral Studio of Kent,"1109 S Water St, Kent, OH 44240",Florist,Kent,,https://acornandevergreen.com/,,,https://acornandevergreen.com/contacts,,"
Contact Us
",1,OH,44240,florist
Tiny Hearts Farm Flower Shop,"2643 NY-23, Hillsdale, NY 12529",Florist,Hillsdale,,https://tinyheartsfarm.com/,,,https://tinyheartsfarm.com/contact/,,Contact,1,NY,12529,florist
Boston and Burke Floral Design,"128 Schroon River Rd, Warrensburg, NY 12885",Florist,Warrensburg,,http://www.bostonandburke.com/,,,https://bostonandburke.com/contact/,,Check Availability,1,NY,12885,florist
Gardenworks Farm,"1055 County Rte 30, Salem, NY 12865",Florist,Salem,,http://gardenworksfarm.com/,,,http://gardenworksfarm.com/contact,,Contact,1,NY,12865,florist
Hickory Hollow Nursery and Garden Center,"713 NY-17, Tuxedo Park, NY 10987",Garden center,Tuxedo Park,,http://hickoryhollownursery.com/,,,https://www.hickoryhollownursery.com/contact-us/,,Contact,1,NY,10987,florist
Carol's Plant Shed,"196 Smithtown Blvd #1859, Nesconset, NY 11767",Florist,Nesconset,,http://www.carolsplantshed.com/,,,http://www.carolsplantshed.com/contact-us.html,,Contact Us,1,NY,11767,florist
Selden Florist,"1000 Middle Country Rd, Selden, NY 11784",Florist,Selden,,https://www.seldensflorist.com/,,,https://www.seldensflorist.com/flowers/mothers-day-designer-bouquet?splash-name=mother'sday_desktop&splash-id1109&click_source=desktop-promo_banner,,,1,NY,11784,florist
Long Island Flower Delivery,"1070 Middle Country Rd, Selden, NY 11784",Florist,Selden,,http://www.longislandflowerdelivery.com/,,,https://www.longislandflowerdelivery.com/contact-us/,,Contact Us,1,NY,11784,florist
Long Island Floral,"134-1 Remington Blvd, Ronkonkoma, NY 11779",Florist,Ronkonkoma,,https://www.longislandflorals.com/,,,https://www.longislandflorals.com/service/contact/,,"

 Contact
",1,NY,11779,florist
Royal Rose Florist,"4610 Sunrise Hwy, Oakdale, NY 11769",Florist,Oakdale,,http://www.royalroseflorist.com/,,,https://checkout.bloomnetcommerce.com/service/contact/?s=bcklkkv05kpbq43YpBHcb6LUE5ezF0xfAd8dktU2Xpg%3D,,"

 Contact
",1,NY,11769,florist
The Garden Dept,"3672 NY-112, Coram, NY 11727",Garden center,Coram,,http://www.gardendept.com/,,,http://www.gardendept.com/#,,Contact,1,NY,11727,florist
Flower Cart Florist,"3159 U, U.S. 9, Old Bridge Township, NJ 08857",Florist,Old Bridge Township,,http://flowercartnj.com/,,,http://flowercartnj.com/contact-us.html,,"
											Contact Us
										",1,NJ,08857,florist
Bonny Doon Garden Company,"4286 Bonny Doon Rd, Santa Cruz, CA 95060",Florist,Santa Cruz,,http://www.bonnydoongardenco.com/,,,http://www.bonnydoongardenco.com/pages/contact-us,,Contact,1,CA,95060,florist
Lancaster Florist,"1825 W Ave J #105, Lancaster, CA 93534",Florist,Lancaster,,http://www.palmdalelancasterflorist.com/,,,https://www.palmdalelancasterflorist.com/product/dc1000120/no-contact-delivery,,"


",1,CA,93534,florist
Gonzalez Flower Shop,"344 W Ave I, Lancaster, CA 93534",Florist,Lancaster,,https://www.gonzalezflowershop.com/,,,https://www.gonzalezflowershop.com/contact_us.php,,Contact Us,1,CA,93534,florist
El Jardin Flower & Garden Room,"258 N Queen St, Lancaster, PA 17603",Florist,Lancaster,,https://www.eljardinflowerandgarden.com/,,,https://www.eljardinflowerandgarden.com/contact_us.php,,Contact Us,1,PA,17603,florist
Chatham Flowers and Gifts,"2117 NY-203, Chatham, NY 12037",Florist,Chatham,,http://www.chathamflowersandgifts.com/,,,https://www.facebook.com/ChathamFlowersandGifts,," 
",1,NY,12037,florist
Millton Ally Agway,"2003 NY-82, Lagrangeville, NY 12540",Garden center,Lagrangeville,,http://www.agway.com/,,,http://www.agway.com/contact,,"
                                Contact
                            ",1,NY,12540,florist
Robinson Florist & Gifts,"3020 McConnellsville Rd, Blossvale, NY 13308",Florist,Blossvale,,http://www.robinsonfloristny.com/,,,https://www.robinsonfloristny.com/contact_us.php,,Contact Us,1,NY,13308,florist
Violet's Florist,"476 Main St, Fort Lee, NJ 07024",Florist,Fort Lee,,http://violets-florist.com/,,,http://violets-florist.com/mailto:violeta@violets-florist.com,, violeta@violets-florist.com,1,NJ,07024,florist
Peonia Atelier,"1550 Lemoine Ave #110, Fort Lee, NJ 07024",Florist,Fort Lee,,http://peoniaatelier.com/,,,https://www.peoniaatelier.com/contact-us,,CONTACT US,1,NJ,07024,florist
VISIONS Events Flowers Decor,"120 W 28th St, New York, NY 10001",Florist,New York,,http://www.visions-decor.com/,,,http://www.visions-decor.com/contact-visions-decor-nyc.html,,Contact,1,NY,10001,florist
Wildflowers Florist,"620 S Main St, Great Barrington, MA 01230",Florist,Great Barrington,,http://www.ewildflowersflorist.com/,,,http://www.ewildflowersflorist.com/../contact-us/contact-us.html,,Contact Us,1,MA,01230,florist
Noble's Farm Stand and Flower Shop,"390 E New Lenox Rd, Pittsfield, MA 01201",Florist,Pittsfield,,http://www.noblesfarmstandandflowershop.com/,,,https://www.noblesfarmstandandflowershop.com/contact_us.php,,Contact Us,1,MA,01201,florist
Jodi Zimmerman Designs,"1466 1st Avenue # 2B, New York, NY 10075",Florist,New York,,http://jodizimmermandesigns.com/,,,http://jodizimmermandesigns.com/contactus.html,,,1,NY,10075,florist
Crocus Hale,"4 Hynes St, Lenox, MA 01240",Florist,Lenox,,http://crocushale.com/,,,http://crocushale.com/contact,,"
              Contact
            ",1,MA,01240,florist
Sbk Associates Inc,"3 E 63rd St # 1C, New York, NY 10065",Florist,New York,,http://sbkeventdesign.com/,,,http://sbkeventdesign.com/contact,,Contact,1,NY,10065,florist
Posies,"366 Amsterdam Ave, New York, NY 10024",Florist,New York,"Stylish flower shop offering fresh bunches, classic bouquets & custom designs plus classes.",http://www.posiesnyc.com/,,,http://visitor.constantcontact.com/d.jsp?m=1102296509905&p=oi,,Join our mailing list,1,NY,10024,florist
Bella Flora,"760 S Main St, Great Barrington, MA 01230",Florist,Great Barrington,,https://bellafloraberkshires.com/,,,https://bellafloraberkshires.com/#contact,,CONTACT,1,MA,01230,florist
A and Z Flowers Boutique,"36-18 Broadway, Astoria, NY 11103",Florist,Astoria,,http://www.astoriaflowersboutique.com/,,,http://www.astoriaflowersboutique.com/contact/,,"

 Contact Us
",1,NY,11103,florist
Rosehip Social Florist,"381A Graham Ave, Brooklyn, NY 11211",Florist,Brooklyn,,http://www.rosehipsocial.com/,,,http://www.rosehipsocial.com/floral-design-studio,,Contact Us,1,NY,11211,florist
Plant Le Bacle Horticultural Design Inc,"33 E 60th St, New York, NY 10022",Florist,New York,,http://www.plantslebacle.com/,,,https://plantslebacle.com/contact/,,Contact,1,NY,10022,florist
Flowers By Lili,"1 Grand Ave, Englewood, NJ 07631",Florist,Englewood,,http://flowersbylili.com/,,,http://flowersbylili.com/page/contact-us,,Contact Us,1,NJ,07631,florist
Englewood Florist Inc,"47 E Palisade Ave, Englewood, NJ 07631",Florist,Englewood,,https://www.englewoodfloristinc.com/,,,https://www.google.com/maps/place/?q=place_id:ChIJ08mmQxjxwokRi1WwTgaoAUY,,Find us,1,NJ,07631,florist
Damselfly Designs,"475 Smith Ridge Rd, South Salem, NY 10590",Florist,South Salem,,http://www.damselflydesigns.net/,,,https://www.damselflydesigns.net/contact/,,Contact us,1,NY,10590,florist
Annabel Green Flowers,"28 Cannon Rd, Wilton, CT 06897",Florist,Wilton,,http://www.annabelgreen.com/,,,http://www.annabelgreen.com/contact-us,,At Historic Cannon Crossing,1,CT,06897,florist
Flower Girl,"14 W Branchville Rd, Ridgefield, CT 06877",Florist,Ridgefield,,http://flowergirlct.com/,,,https://flowergirlct.com/contacts,,"
Contact Us
",1,CT,06877,florist
Richard's Flowers Inc,"454 Main Ave, Norwalk, CT 06851",Florist,Norwalk,,http://www.richardsflowersnorwalk.com/,,,http://www.richardsflowersnorwalk.com/mothers-day/cat4400090,,  ,1,CT,06851,florist
Forever Yours Flowers And Gifts Inc,"76 West St, Danbury, CT 06810",Florist,Danbury,,http://www.foreveryoursflowersandgifts.com/,,,//www.foreveryoursflowersandgifts.com/contactus.html?source=header,,,1,CT,06810,florist
Confetti LLC,"830 Danbury Rd, Wilton, CT 06897",Florist,Wilton,,http://www.confetti-events.com/,,,https://confetti-events.com/contact/,,Contact Us,1,CT,06897,florist
Old Greenwich Flower Shop,"1 Treadwell Ave, Westport, CT 06880",Florist,Westport,,http://www.oldgreenwichflowershop.com/,,,http://www.oldgreenwichflowershop.com/mothers-day/cat4400090,,  ,1,CT,06880,florist
Silk Touch,"5 Main St, Norwalk, CT 06851",Florist,Norwalk,,http://www.thesilktouch.com/,,,http://www.thesilktouch.com/contact/index.html,,"
CONTACT
",1,CT,06851,florist
Verde Galerie Flower Shop & Cafe,"79 Atlantic St, Stamford, CT 06901",Flower designer,Stamford,,https://www.verdegalerie.com/,,,https://www.verdegalerie.com/contacts,,Contact,1,CT,06901,florist
Stamford Florist,"625 Bedford St, Stamford, CT 06901",Florist,Stamford,,http://www.stamfordflorist.com/,,,https://www.facebook.com/stamford.florist.1,," 
",1,CT,06901,florist
Mr Red Rose,"56 Main St, Norwalk, CT 06851",Florist,Norwalk,,http://www.mrredrose.com/,,,https://checkout.bloomnetcommerce.com/contact/?s=eMRSDqebO%2B1z9SfTbh9AsM13UXSAfQWBy%2FABSZm4I3Y%3D,,"

 Contact Us
",1,CT,06851,florist
East Coast Wholesale Flowers,"30 Muller Ave #10A, Norwalk, CT 06851",Wholesale florist,Norwalk,,http://www.eastcoastwholesaleflowers.com/,,,http://www.eastcoastwholesaleflowers.com/contactus.aspx,,Contact Us,1,CT,06851,florist
Palmer's Flowers,"264 Heights Rd, Darien, CT 06820",Florist,Darien,,http://www.palmersflowers.com/,,,https://www.palmersdarien.com/contact/,,Contact,1,CT,06820,florist
KD&J Botanica Floral Design Studio,"215 Post Rd W, Westport, CT 06880",Florist,Westport,,http://www.kdjbotanica.com/,,,http://www.kdjbotanica.com/contact-connecticut-florist,,"
            CONTACT
          ",1,CT,06880,florist
Pound Ridge Nursery & Garden Center,"6 Pound Ridge Rd, Pound Ridge, NY 10576",Garden center,Pound Ridge,,http://www.poundridgenursery.com/,,,https://poundridgenursery.com/contact/,,Contact,1,NY,10576,florist
Allen's Florist & Pottery Shop,"1092 Coffeen St, Watertown, NY 13601",Florist,Watertown,,http://www.allensfloristandpotteryshop.com/,,,https://www.allensfloristandpotteryshop.com/contact_us.php,,CONTACT US,1,NY,13601,florist
Jakes Garden Center,"17940 US-11, Watertown, NY 13601",Garden center,Watertown,,http://jakesgardencenter.com/,,,https://jakesgardencenter.com/contact-jakes-garden-center-watertown-ny/,,CONTACT,1,NY,13601,florist
Flour LA Inc,"120 W 28th St, New York, NY 10001",Florist,New York,,http://www.flourla.com/,,,http://www.flourla.com/contact-us.html,,"
				Contact Us
			",1,NY,10001,florist
MerriCraft Florist,"13955 Merriman Rd, Livonia, MI 48154",Florist,Livonia,,http://www.flowersfrommerricraft.com/,,,https://www.merricraftflorist.com/contact_us.php,,Contact Us,1,MI,48154,florist
Julie's Floral and Gift,"6146 S Livonia Rd, Conesus, NY 14435",Florist,Conesus,,http://www.juliesfloralshop.com/,,,https://www.juliesfloralshop.com/contact_us.php,,Contact Us,1,NY,14435,florist
Ponto's Greenhouses,"1420 Conners Rd, Baldwinsville, NY 13027",Wholesale florist,Baldwinsville,,http://www.pontosgreenhouses.com/,,,http://www.pontosgreenhouses.com/maps.html,,How To Find Us,1,NY,13027,florist
Wayside Garden Center Rochester NY,"124 Pittsford-Palmyra Rd, Macedon, NY 14502",Garden center,Macedon,,https://www.waysidegardencenter.com/,,,https://www.waysidegardencenter.com/Contact/,,Contact,1,NY,14502,florist
Fountains Enchanted Florist,"1487 Co Hwy 25, Malone, NY 12953",Florist,Malone,,http://fountainsenchantedfloristandevents.com/,,,http://fountainsenchantedfloristandevents.com/contact-us,,CONTACT US,1,NY,12953,florist
Mamaroneck Flowers,"615 E Boston Post Rd, Mamaroneck, NY 10543",Florist,Mamaroneck,,https://www.mamaroneckflowers.net/,,,https://www.mamaroneckflowers.net/flowers/mothers-day-designer-bouquet?splash-name=mom'sday_desktop&splash-id1114&click_source=desktop-promo_banner,,,1,NY,10543,florist
Harrison Flower Mart  Open for Delivery,"279 Halstead Ave, Harrison, NY 10528",Florist,Harrison,,http://www.harrisonflowermart.com/,,,http://null,," 
",1,NY,10528,florist
Northern Blvd Florist,"82-09 Northern Blvd, Jackson Heights, NY 11372",Florist,Jackson Heights,"Florist offering custom arrangements for weddings, funerals, holiday & other occasions.",http://northernblvdflorist.com/,,,https://www.northernblvdflorist.com/contact-us/,,Contact Us,1,NY,11372,florist
Guerrero's Flower Shop,"4419 Broadway, New York, NY 10040",Florist,New York,,http://guerreroflowers.com/,,,http://guerreroflowers.com/hot-deals#0e50f04b-2f1c-412e-a44e-dd9d7081ec42,,Contact Us,1,NY,10040,florist
RIVERAS FLOWER SHOP,"2359 Westchester Ave, The Bronx, NY 10462",Florist,The Bronx,,https://www.riverasflowers.com/,,,https://www.riverasflowers.com/contact_us.php,,Contact Us,1,NY,10462,florist
SUTTON FLORIST,"726 Morris Park Ave, The Bronx, NY 10462",Florist,The Bronx,,http://www.suttonfloristny.com/,,,//www.suttonfloristny.com/contactus.html,,Contact Us,1,NY,10462,florist
Polished Petals Florist,"537 E 3rd St, Mt Vernon, NY 10553",Flower designer,Mt Vernon,,https://polishedpetalsflorist.com/,,,https://polishedpetalsflorist.com/contact-us/,,Contact the Flower Shop,1,NY,10553,florist
Alta Floristeria,"1114 Westchester Ave, The Bronx, NY 10459",Florist,The Bronx,,https://www.altafloristeria.com/,,,https://www.altafloristeria.com/contact_us.php,,Contact Us,1,NY,10459,florist
All Flowers,"1040 S Broadway #16, Hicksville, NY 11801",Florist,Hicksville,,http://www.allflowerstore.com/,,,https://allflowerstore.com/contact-us/,,Contact Us,1,NY,11801,florist
800rosebig Florist,"2554 Merrick Rd, Bellmore, NY 11710",Florist,Bellmore,,http://800rosebig.com/,,,//www.800rosebig.com/contactus.html,,Contact UsDirections,1,NY,11710,florist
Abby's Parkside Nursery & Florist Inc,"3333 Merrick Rd, Wantagh, NY 11793",Garden center,Wantagh,,http://www.abbysnursery.com/,,,https://www.google.com/maps/place/?q=place_id:ChIJ63oikSF_wokRNAcyRKUNMuE,,Find us,1,NY,11793,florist
Verville's Flowers,"235 E Orvis St, Massena, NY 13662",Florist,Massena,,http://www.vervillesflowers.com/,,,http://vervillesflowers.com/contact-us/,,Contact Us,1,NY,13662,florist
Downtown Florist,"67 Andrews St, Massena, NY 13662",Florist,Massena,,http://www.downtownfloristofmassena.com/,,,http://www.downtownfloristofmassena.com/florists-massena-ny-contact.asp,,Contact Us,1,NY,13662,florist
Village Greenery & Flowers,"2301 University Blvd, Houston, TX 77005",Florist,Houston,"Boutique flower shop selling modern bouquets, plants, dried floral arrangements & gift baskets.",http://www.villagegreeneryflowers.com/,,,http://www.facebook.com/villagegreeneryandflowers,," 
",1,TX,77005,florist
Boca Raton Florist,"1934 NE 5th Ave, Boca Raton, FL 33431",Florist,Boca Raton,,http://www.nyfloral.design/,,,http://www.nyfloral.design/#contact,,Contact,1,FL,33431,florist
Forget Me Not Florals,"214 N Main St #2, Barre, VT 05641",Florist,Barre,,https://www.forgetmenotflowersbarre.com/,,,https://www.forgetmenotflowersbarre.com/contact_us.php,,Contact Us,1,VT,05641,florist
Lavista Floral Designs,"38 Wolfe Ln, Purchase, NY 10577",Florist,Purchase,,https://www.lavistafloraldesign.com/,,,https://www.flowershopnetwork.com/contactus,,Contact FSN,1,NY,10577,florist
Flowers On Fourteenth,"1712 14th St NW, Washington, DC 20009",Florist,Washington,"LBGT-friendly storefront offering special occasion bouquets, plants & gift baskets with delivery.",http://www.flowerson14th.com/,,,//www.flowerson14th.com/contactus.html,,Contact Us,1,DC,20009,florist
Village Green Inc,"245 W 14th St, New York, NY 10011",Florist,New York,,http://www.245w14.com/,,,http://www.245w14.com/index.html#!contact,,Contact,1,NY,10011,florist
Weiland's Flowers,"407 S Main St, New Castle, IN 47362",Florist,New Castle,,http://www.weilandsflowers.net/,,,https://www.weilandsflowers.net/contact_us.php,,Contact Us,1,IN,47362,florist
Samascott's Garden Market,"65 Chatham St, Kinderhook, NY 12106",Garden center,Kinderhook,,http://www.samascott.com/,,,https://www.samascott.com/contact,,CONTACT,1,NY,12106,florist
Flowers by Special Arrangement,"243 W 60th St, New York, NY 10023",Florist,New York,"Neighborhood florist providing special-occasion bouquets, custom arrangements, houseplants & gifts.",http://www.flowersbyspecialarrangement.com/,,,https://www.flowersbyspecialarrangement.com/contactus,,Contact,1,NY,10023,florist
Fresh Cut Flowers,"444 W 43rd St, New York, NY 10036",Florist,New York,"Flower shop offering plants & arrangements for everyday & special occasions, plus event services.",http://www.freshcutflowers444.com/,,,https://www.freshcutflowers444.com/contact/,,Contact us,1,NY,10036,florist
Koat Floral,"247 W 38th St #405, New York, NY 10018",Florist,New York,,http://koat-midtownflorist.com/,,,http://koat-midtownflorist.com/contact-us,,"
                Contact Us
              ",1,NY,10018,florist
Anthology Floral Design,"51 University Pl, New York, NY 10003",Florist,New York,"Location offering fresh arrangements for special occasions, plus gift baskets, with delivery.",http://www.anthologyflowers.com/,,,//www.hugedomains.com/contact.cfm,,Contact Us,1,NY,10003,florist
Adore Floral,"53 Bond St, New York, NY 10012",Florist,New York,"Bright full-service shop for clever floral designs, installations, plant arrangements & terrariums.",http://adorenyc.com/,,,http://adorenyc.com/pages/contact-2,,"
            Contact
          ",1,NY,10012,florist
Danielle's Florist,"436 Beach 129th St, Queens, NY 11694",Florist,Queens,,https://www.daniellesflorist.com/,,,https://www.daniellesflorist.com/contact_us.php,,Contact Us,1,NY,11694,florist
Creative Works,"96 Kings Hwy, Brooklyn, NY 11214",Florist,Brooklyn,,https://creativeworksusa.com/,,,https://creativeworksusa.com/pages/contact-us,,Contact Us,1,NY,11214,florist
Van Houten Farms,"68 Sickletown Rd, Orangeburg, NY 10962",Garden center,Orangeburg,"Long-running garden center & nursery with a wide variety of plants, trees & shrubs, plus supplies.",http://www.vanhoutenfarmsny.com/,,,http://www.vanhoutenfarmsny.com/contact-1/,,Contact Us,1,NY,10962,florist
Floreal,"533 Taylor St, San Francisco, CA 94102",Florist,San Francisco,"Florist that incorporates natural artifacts (shells, driftwood) into its custom arrangements.",http://www.florealsanfrancisco.com/,,,http://www.florealsanfrancisco.com/contact,,Contact,1,CA,94102,florist
San Francisco Flower Mart,"640 Brannan St, San Francisco, CA 94107",Wholesale florist,San Francisco,,http://www.sanfranciscoflowermart.com/,,,http://www.sanfranciscoflowermart.com/mart-info.html,,Contact SFFM,1,CA,94107,florist
Bell and Trunk Flowers,"1411 18th St, San Francisco, CA 94107",Florist,San Francisco,"Floral boutique providing custom arrangements, including those for weddings & special events.",http://www.bellandtrunk.com/,,,http://www.bellandtrunk.com/pages/contact-us,,Wedding & Event Inquiry,1,CA,94107,florist
GPage Wholesale Flowers,"120 W 28th St, New York, NY 10018",Florist,New York,,http://www.gpage.com/,,,http://www.gpage.com/contact,,Contact,1,NY,10018,florist
Bella's Flowers NYC  Roses In A Box,"ONLINE BUSINESS, 347 5th Ave, New York, NY 10016",Florist,New York,,https://www.bellasflowersnyc.com/,,,https://www.bellasflowersnyc.com/contact_us.php,,Contact Us,1,NY,10016,florist
Exchange Flowers,"44 Exchange Pl, New York, NY 10004",Florist,New York,,http://exchangeflowersnyc.com/,,,https://www.exchangeflowersnyc.com/contact-us,,Contact Us,1,NY,10004,florist
Blooming Couture Flowers,"2216 Broadway, New York, NY 10024",Florist,New York,,http://bloomingcoutureflowers.com/,,,https://bloomingcoutureflowers.com/contact/,,Contact,1,NY,10024,florist
Solim Flower,"993 1st Avenue, New York, NY 10022",Florist,New York,"Family-run flower shop providing classic & custom bouquets & plants amid colorful, snug surrounds.",http://www.solimflower.com/,,,https://www.facebook.com/solimflower/,," 
",1,NY,10022,florist
Shu's Flowers,"179 Mulberry St, New York, NY 10012",Florist,New York,,http://www.shusflower.com/,,,http://shusflower.com/contact-us/,,CONTACT US,1,NY,10012,florist
Clinton Flower Shop,"153 1/2 Stanton St, New York, NY 10002",Florist,New York,"Time-tested, family-run flower shop with many custom & pre-made arrangements & gifts.",https://www.clintonflowersny.com/,,,https://www.clintonflowersny.com,,Contact,1,NY,10002,florist
Mahir Floral  Flower Shop Same Day delivery & Wedding Flowers NYC,"156 W 28th St, New York, NY 10001",Florist,New York,"Sleek, contemporary providing inventive, modern floral arrangements, plus unique plants & gifts.",http://mahirfloralevents.com/,,,https://mahirfloralevents.com/contact/,,contact ,1,NY,10001,florist
G & J Florist,"91 Elizabeth St, New York, NY 10013",Florist,New York,,http://gjflorist.com/,,,http://gjflorist.com/contact,,CONTACT,1,NY,10013,florist
Flora Tech Inc,"51 Beach St, New York, NY 10013",Florist,New York,,http://www.mikeysflowers.com/,,,http://www.mikeysflowers.com/id6.html,,Contact,1,NY,10013,florist
Luxury Diamond Flowers Eternal roses delivery Manhattan NYC,"21 E 1st St, New York, NY 10003",Florist,New York,,http://www.luxurydiamondflowers.com/,,,http://www.luxurydiamondflowers.com/flower-shop-brickell-downtown-miami.html,,"
				Contact
			",1,NY,10003,florist
Gardenia Organic,"120 W 28th St, New York, NY 10001",Florist,New York,,https://www.gardeniaorganic.com/,,,https://www.gardeniaorganic.com/contact-us,,connect,1,NY,10001,florist
Joy's Flower Pot,"40 Hester St, New York, NY 10002",Florist,New York,,http://www.joysflowerpot.com/,,,https://www.joysflowerpot.com/contact-us/,,Contact Us,1,NY,10002,florist
Ikebana,"1133 Broadway #230, New York, NY 10010",Florist,New York,,http://ikebanaflowers-ny.com/,,,http://ikebanaflowers-ny.com/about.html,,about/contact,1,NY,10010,florist
FLORASCAPE,"120 W 28th St #3r, New York, NY 10001",Florist,New York,,http://www.florascapeflowers.com/,,,http://www.florascapeflowers.com/contact.asp,,contact us,1,NY,10001,florist
Horticultural Creations Inc,"2 Gold St, New York, NY 10038",Florist,New York,,http://www.hcinc.org/,,,https://www.hcinc.org/contact-us/,,Contact Us,1,NY,10038,florist
La Catrina Flower Studio,"98 Water St, Brooklyn, NY 11201",Florist,Brooklyn,,http://www.lacatrinanyc.com/,,,http://www.lacatrinanyc.com/#magdalena-levy,,Contact Us,1,NY,11201,florist
Bourgeon,"47 Hall St, Brooklyn, NY 11205",Florist,Brooklyn,,http://bourgeonbk.com/,,,http://bourgeonbk.com/contact,,Contact,1,NY,11205,florist
Fleurish,"1069 North Street, Greenwich, CT 06831",Florist,Greenwich,,https://fleurishflorals.com/,,,https://fleurishflorals.com/contact-us/,,Contact Us,1,CT,06831,florist
Floral Petals of Westchester,"5 Babbitt Rd, Bedford Hills, NY 10507",Florist,Bedford Hills,,http://floralpetalsofwestchester.com/,,,http://floralpetalsofwestchester.com/pages/contact-us,,"
                Contact Us
            ",1,NY,10507,florist
Diane Gaudett Custom Floral Designs,"34 E Putnam Ave #107, Greenwich, CT 06830",Florist,Greenwich,,http://www.ctweddingflowers.com/,,,http://www.ctweddingflowers.com/contact/,,Contact,1,CT,06830,florist
Aisling Flowers,"120 W 28th St suite 4 t, New York, NY 10001",Florist,New York,,http://tesscasey.com/,,,http://tesscasey.com/632162/contact/,,Contact,1,NY,10001,florist
Lake Placid Flower & Gift,"5970 Sentinel Rd, Lake Placid, NY 12946",Florist,Lake Placid,,https://lakeplacidflowerandgift.com/,,,https://lakeplacidflowerandgift.com/about/,,Contact Us,1,NY,12946,florist
The Darling Elves Flower and Gift Shop,"155 W 5th St, Oswego, NY 13126",Florist,Oswego,,https://www.thedarlingelvesflowerandgiftshop.com/,,,https://www.facebook.com/The-Darling-Elves-Flower-and-Gift-Shop-482326531866590/,," 
",1,NY,13126,florist
The Flower Girl,"245 Eldridge St, New York, NY 10002",Florist,New York,,http://www.flowergirlnyc.com/,,,http://www.flowergirlnyc.com/contact,,KEEP IN TOUCH,1,NY,10002,florist
A New Creation Flowers & Gifts,"6296 Adobe Rd, Twentynine Palms, CA 92277",Florist,Twentynine Palms,,http://www.anewcreationflorist.com/,,,https://www.facebook.com/anew.creation.33/,," 
",1,CA,92277,florist
CT Palm Trees,"203 Herbert St Greenhouse 24, Milford, CT 06461",Florist,Milford,,http://www.ctpalmtrees.com/,,,https://www.ctpalmtrees.com,,Contact Us,1,CT,06461,florist
Natty Garden,"636 Washington Ave, Brooklyn, NY 11238",Florist,Brooklyn,"Charming urban nursery selling plants, flowers & garden supplies, plus landscaping services.",http://www.nattygarden.com/,,,http://www.nattygarden.com/about-contact,,"
                Contact & About
              ",1,NY,11238,florist
Bengert Greenhouses,"230 French Rd, West Seneca, NY 14224",Garden center,West Seneca,,http://www.bengertgreenhouses.com/,,,http://www.bengertgreenhouses.com/contact/,,Contact,1,NY,14224,florist
Toles Flowers,"627 Nichol Ave, Anderson, IN 46016",Florist,Anderson,,http://www.tolesflowers.com/,,,https://www.facebook.com/Toles-Flowers-Inc-479093225434415/,," 
",1,IN,46016,florist
Plattsburgh Flower Market,"12 Cornelia St, Plattsburgh, NY 12901",Florist,Plattsburgh,,http://www.plattsburghflowermarket.com/,,,http://www.plattsburghflowermarket.com/contactus.html,,Contact Us,1,NY,12901,florist
Tictock Couture Florals,"1603 N La Brea Ave, Los Angeles, CA 90028",Florist,Los Angeles,"Floral design shop offering everyday & special-occasion bouquets & arrangements, plants & gifts.",https://tictock.com/,,,https://tictock.com/contact/,,Contact,1,CA,90028,florist
Jeannie's Florist,"25018 FM1314, Porter, TX 77365",Florist,Porter,"Local florist offering seasonal & special-occasion arrangements, plants, gourmet baskets & gifts.",http://www.jeanniesflorist.com/,,,https://www.jeanniesflorist.com/contact_us.php,,Contact Us,1,TX,77365,florist
George Thomas Florist,"5609 E Washington St, Indianapolis, IN 46219",Florist,Indianapolis,,http://www.georgethomasflorist.com/,,,http://www.georgethomasflorist.com/wedding-contact,,Consultation Request,1,IN,46219,florist
Blooms of Wayne Florist,"133 Mountainview Blvd, Wayne, NJ 07470",Florist,Wayne,,http://www.judeanthonyflorist.com/,,,https://www.judeanthonyflorist.com/contact_us.php,,Contact Us,1,NJ,07470,florist
Pine Knoll Florist,"85 Lafayette Ave, Suffern, NY 10901",Florist,Suffern,,http://www.pineknollflorist.net/,,,//www.pineknollflorist.net/contactus.html,,Contact Us,1,NY,10901,florist
West Milford Florist,"1811-A, Union Valley Rd, West Milford, NJ 07480",Florist,West Milford,,http://www.westmilfordflorist.com/,,,https://www.westmilfordflorist.com/contact_us.php,,Contact Us,1,NJ,07480,florist
Florentina Flowers and Event Designs,"174 Main St, Butler, NJ 07405",Florist,Butler,,https://www.pomptonplainsflowers.com/,,,https://www.flowershopnetwork.com/contactus,,Contact FSN,1,NJ,07405,florist
Flowers By Renia & Gifts,"6404 Fresh Pond Rd, Flushing, NY 11385",Florist,Flushing,,http://www.justfreshflowers.com/,,,https://www.justfreshflowers.com/contact_us.php,,Contact Us,1,NY,11385,florist
Glendale Florist,"68-45 Myrtle Ave, Glendale, NY 11385",Florist,Glendale,,http://www.glendaleflorist.net/,,,http://www.facebook.com/glendalefloristny,," 
",1,NY,11385,florist
Jelissa Floral and Events,"60-37 61st St, Maspeth, NY 11378",Florist,Maspeth,,http://www.jelissafloralandevents.com/,,,https://www.jelissafloralandevents.com/contact_us.php,,CONTACT US,1,NY,11378,florist
Enchanted Florist & Greenhouses,"65-10 Grand Ave, Maspeth, NY 11378",Florist,Maspeth,"Family-owned flower shop selling plants, gifts & arrangements, including modern & exotic designs.",http://www.enchantedfloristofmaspeth.com/,,,https://www.facebook.com/Enchanted-Florist-Greenhouse-1156952847664313/?fref=photo,," 
",1,NY,11378,florist
Flowers By G Bella,"60-88 Mt Olivet Crescent, Maspeth, NY 11378",Florist,Maspeth,,http://www.flowersbygbella.com/,,,http://www.flowersbygbella.com/contact,,best day ever,1,NY,11378,florist
Mwah Flowers,"1086 Broadway, Brooklyn, NY 11221",Florist,Brooklyn,,https://mwahflowers.com/,,,https://mwahflowers.com/page/contact-us,,Contact,1,NY,11221,florist
Alexandra Abuza Floral & Garden,"20 Grand Ave unit 201, Brooklyn, NY 11205",Florist,Brooklyn,,http://www.alexandraabuza.com/,,,http://www.alexandraabuza.com/#,,Contact,1,NY,11205,florist
O'Loughlin's Florist,"4818 Laurel Hill Blvd, Woodside, NY 11377",Florist,Woodside,,http://www.oloughlinsflorist.com/,,,http://www.oloughlinsflorist.com/contact,,"
                  Contact
                ",1,NY,11377,florist
City Line Florist,"1089 Liberty Ave, Brooklyn, NY 11208",Florist,Brooklyn,,http://www.urflorist.com/,,,http://www.urflorist.com/#section-contact-us,,Contact Us,1,NY,11208,florist
Florist Hills & Garden Center,"68-19 Woodhaven Blvd, Flushing, NY 11374",Florist,Flushing,"Florist offering bouquets for all occasions, plus creative arrangements for themed parties.",https://floristhills.com/,,,http://www.floristhills.com/contactus.htm,,Contact Us,1,NY,11374,florist
Flowers By Lunelly,"29-22 36th Ave, Queens, NY 11106",Florist,Queens,,http://www.flowersbylunelly.com/,,,http://www.flowersbylunelly.com/contact.html,,"
Contact
",1,NY,11106,florist
Off Broadway Floral Events,"3204 31st St, Astoria, NY 11106",Florist,Astoria,,http://offbroadwayfloralevents.com/,,,http://offbroadwayfloralevents.com/contactus/,,Contact Us,1,NY,11106,florist
Teddy's Florist Inc,"21-75 35th St, Astoria, NY 11105",Florist,Astoria,,http://www.flowershopastoria.com/,,,"https://www.facebook.com/pages/Teddys-Florist/115915801818162
",,,1,NY,11105,florist
Heavenly Blossom II,"648 Throop Ave, Brooklyn, NY 11216",Florist,Brooklyn,,https://www.heavenlyblossomsiibrooklyn.com/,,,https://www.heavenlyblossomsiibrooklyn.com/service/contact/,,"

 Contact
",1,NY,11216,florist
Mimulo,"334 Albany Ave, Brooklyn, NY 11213",Florist,Brooklyn,,http://www.mimulo.com/,,,http://www.mimulo.com/contact.html,,"
				Contact us
			",1,NY,11213,florist
Mc Nino Design Floral & Events,"67 West St, Brooklyn, NY 11222",Florist,Brooklyn,,http://www.mcninodesigns.com/,,,http://www.mcninodesigns.com/contact,,Contact,1,NY,11222,florist
Fruit Baskets Unlimited New York,"8 E 48th St, New York, NY 10017",Florist,New York,,http://fruitbasketunlimited.com/,,,http://www.fruitbasketunlimited.com/contact-fruit-basket-unlimited/,,Contact Fruit Basket Unlimited,1,NY,10017,florist
Triplicity Flowers,"120 W 28th St, New York, NY 10001",Florist,New York,,http://www.triplicityflowers.com/,,,http://www.triplicityflowers.com/crm.asp?action=contactus,,Contact Us,1,NY,10001,florist
Barbra Scott Flowers,"150 W 28th St, New York, NY 10001",Florist,New York,,http://barbrascott.com/,,,http://barbrascott.com/docs/contact,,CONTACT,1,NY,10001,florist
lilac New York,"159 W 53rd St, New York, NY 10019",Florist,New York,,https://www.lilacnewyork.com/,,,https://www.lilacnewyork.com/services,,"
              CONTACT
            ",1,NY,10019,florist
Orchid Man,"762 10th Ave #1, New York, NY 10019",Florist,New York,"This snug flower shop features many colorful varieties of orchids, plus ceramic & glass vases.",http://orchidmannyc.com/,,,http://orchidmannyc.com/contact-us,,"
            Contact Us
          ",1,NY,10019,florist
Floral Studio NY,"336 E 13th St, New York, NY 10003",Florist,New York,,http://www.floralstudio-ny.com/,,,https://www.floralstudio-ny.com/contact-us/,,Contact Us,1,NY,10003,florist
Town & Country Florist,"549 E 13th St, New York, NY 10009",Florist,New York,"Store specializing in arrangements for special occasion, with plants, gift baskets & chocolates.",http://www.townandcountryfloristnewyork.com/,,,https://www.townandcountryfloristnewyork.com/contact_us.php,,Contact Us,1,NY,10009,florist
Hightstown Elegant Creations,"10 S River Rd #5a, Cranbury Township, NJ 08512",Florist,Cranbury Township,,http://www.hightstownelegantcreations.com/,,,http://www.hightstownelegantcreations.com/pages/contact-us,,Contact Us,1,NJ,08512,florist
L'Atelier Rouge,"39 W 29th St floor 7, New York, NY 10001",Florist,New York,,http://www.latelierrouge.com/,,,http://latelierrouge.com/contact/,,Contact,1,NY,10001,florist
Jardin Deluxe Fleurs  Roses that last a Year,"501 Lexington Ave #3, New York, NY 10017",Florist,New York,,https://jardinfleurs.com/,,,https://jardinfleurs.com/pages/contact-us-1,,Contact Us,1,NY,10017,florist
International Garden,"807 6th Ave, New York, NY 10001",Florist,New York,"Modern floral-design studio offering plants, gardening services & glazed pottery.",http://internationalgarden.net/,,,http://internationalgarden.net/contact.html,, Contact Us,1,NY,10001,florist
Anthony Brownie flowers  events,"120 W 28th St, New York, NY 10001",Florist,New York,,http://www.anthonybrownie.com/,,,http://www.anthonybrownie.com/contact,,contact,1,NY,10001,florist
Michael's Floral Design NYC,"347 E 85th St, New York, NY 10028",Flower designer,New York,,http://www.michaelsfloraldesignnyc.com/,,,http://www.michaelsfloraldesignnyc.com/contact,,"
            Contact
          ",1,NY,10028,florist
Holiday Flower & Plant Inc,"118 W 28th St, New York, NY 10001",Dried flower shop,New York,"No-nonsense specialty shop selling orchids, topiary, indoor trees, dried flowers & other foliage.",http://holidayflowersnyc.com/,,,http://holidayflowersnyc.com/contact.php,,Contact Us,1,NY,10001,florist
Greenwich Florist,"2 Orchard St, Cos Cob, CT 06807",Florist,Cos Cob,,http://www.greenwichfloristct.com/,,,https://www.facebook.com/pages/biz/06807/Greenwich-Florist-125693068073008/,," 
",1,CT,06807,florist
Jermack Cultivated Plants,"1254 Loudon Rd, Cohoes, NY 12047",Wholesale florist,Cohoes,,http://www.jermack.com/,,,http://www.jermack.com/contact-1,,Contact,1,NY,12047,florist
Unique Baskets & Gifts,"3265 Main St, Mexico, NY 13114",Florist,Mexico,,http://www.uniquebasketsandgifts.com/,,,https://www.uniquebasketsandgifts.com/contact_us.php,,Contact Us,1,NY,13114,florist
Garden of Life Flowers,"2550 Old Rte 14A, Penn Yan, NY 14527",Florist,Penn Yan,,https://www.gardenoflifeflowersny.com/,,,https://www.gardenoflifeflowersny.com/contact_us.php,,Contact Us,1,NY,14527,florist
Ovando,"52 NY-27A, Southampton, NY 11968",Florist,Southampton,,http://ovandony.com/,,,https://ovandony.com/contact/,,Contact,1,NY,11968,florist
Rita's Floral Touch,"37 Katrina Cir #3310, Bethel, CT 06801",Florist,Bethel,,http://www.ritas-floral-touch.com/,,,http://www.ritas-floral-touch.com/tel:2037488900,,(203) 748-8900,1,CT,06801,florist
Newtown Florist of Connecticut llc,"111 S Main St, Newtown, CT 06470",Florist,Newtown,,http://www.newtownflorist.com/,,,https://newtownflorist.com/contacts,,"
Contact Us
",1,CT,06470,florist
Mattituck Florist,"95 Love Ln, Mattituck, NY 11952",Florist,Mattituck,,http://mattituckflorist.com/,,,http://mattituckflorist.com/contact/,,Contact,1,NY,11952,florist
Flora Theory,"ONLINE BUSINESS, 186 Prince St, New York, NY 10012",Florist,New York,,http://www.floratheory.com/,,,https://floratheory.com/contact-us/,,Contact us,1,NY,10012,florist
le fleuriste,"465 W 23rd St, New York, NY 10011",Florist,New York,,http://lefleuriste.nyc/,,,http://lefleuriste.nyc/#footer,,Contact,1,NY,10011,florist
Melissa Orchids Florist,"10525 S De Anza Blvd #15, Cupertino, CA 95014",Florist,Cupertino,Independent flower shop offering traditional & contemporary orchid arrangements for all occasions.,http://www.melissaorchidandflorist.com/,,,https://www.melissaorchidandflorist.com/contact_us.php,,Contact Us,1,CA,95014,florist
Susi's Flowers,"25 Rancho Del Mar, Aptos, CA 95003",Florist,Aptos,,http://www.susisflowers.com/,,,http://www.susisflowers.com/contact,,Contact,1,CA,95003,florist
Knodt's Flowers,"981 Alden Ln, Livermore, CA 94550",Florist,Livermore,"Longstanding florist shop inside Alden Lane Nursery featuring bouquets, arrangements & gifts.",http://www.knodtsflowers.com/,,,https://www.knodtsflowers.com/product/dc1000120/no-contact-delivery,,"

",1,CA,94550,florist
Love Stop Flowers & Gifts,"4016 International Blvd suite c, Oakland, CA 94601",Florist,Oakland,,https://www.lovestopflowers.com/,,,https://www.lovestopflowers.com/contact_us.php,,Contact Us,1,CA,94601,florist
Linda Mar Florist LLC,"1353 Linda Mar Shopping Center, Pacifica, CA 94044",Florist,Pacifica,"Local shop delivering bouquets & occasion arrangements, stuffed animals & baskets of food or candy.",http://www.lindamarflorist.com/,,,https://www.facebook.com/pacificaflorist/,,,1,CA,94044,florist
Danville Florist & Gifts,"199 E Linda Mesa Ave suite b, Danville, CA 94526",Florist,Danville,,http://www.danville-florist.com/,,,https://www.danville-florist.com/contact_us.php,,Contact Us,1,CA,94526,florist
Nigella SF,"1 Market Street, Atrium Suite 2, San Francisco, CA 94105",Florist,San Francisco,,http://www.nigellasf.com/,,,http://www.nigellasf.com/contact,,"
            Contact
          ",1,CA,94105,florist
Flower Outlet & Gifts,"6131 La Salle Ave, Oakland, CA 94611",Florist,Oakland,"Snug flower shop featuring custom-made arrangements & gifts in an open, European-style storefront.",http://www.floweroutletandgifts.com/,,,https://www.floweroutletandgifts.com/contact_us.php,,Contact Us,1,CA,94611,florist
Hudson River Flowers,"541 Hudson St, New York, NY 10014",Florist,New York,"Florist providing everyday bouquets & blooms for special events, plus garden installations.",https://hudsonriverflowers.com/,,,https://hudsonriverflowers.com/contact,,Contact,1,NY,10014,florist
Kathy's Floral Designs,"37656 Mission Blvd, Fremont, CA 94536",Florist,Fremont,Neighborhood florist creating custom flower & plant arrangements for everyday & special occasions.,http://www.kathysfloral.com/,,,https://www.facebook.com/Kathys-Floral-Design-Fremont-173294186035925/,," 
",1,CA,94536,florist
The Floral Loft,"1871 Hayes St, San Francisco, CA 94117",Florist,San Francisco,"Artistic florist featuring bouquets, wedding arrangements & specialties such as themed terrariums.",http://www.thefloralloft.com/,,,http://www.thefloralloft.com/contact,,CONTACT,1,CA,94117,florist
Studio Mondine,"1458 San Bruno Ave, San Francisco, CA 94110",Florist,San Francisco,,http://studiomondine.com/,,,http://studiomondine.com/contact,,Contact,1,CA,94110,florist
Hollywood Florist,"1700 Stuyvesant Ave, Union, NJ 07083",Florist,Union,,http://www.hollywoodflowersnj.com/,,,http://www.hollywoodflowersnj.com/page/contact-us,,Contact Us,1,NJ,07083,florist
Norma's Flowers,"974B Stuyvesant Ave, Union, NJ 07083",Florist,Union,,https://www.normasflowersnj.com/,,,https://www.normasflowersnj.com/contact,,//// CONTACT,1,NJ,07083,florist
John's Flower Market & Garden,"199 Main St, Binghamton, NY 13905",Florist,Binghamton,,http://www.johnsflowermarket.com/,,,http://www.johnsflowermarket.com/contact-us/,,Contact Us,1,NY,13905,florist
Flowers By Yukie,"916 N Union St, Wilmington, DE 19805",Florist,Wilmington,,http://www.flowersbyyukie.com/,,,http://www.flowersbyyukie.com/contact.html,,Contact,1,DE,19805,florist
Susan's Floral Art,"14321 Extract Rd, Mt Union, PA 17066",Florist,Mt Union,,http://www.susansfloralart.net/,,,https://www.susansfloralart.net/contact_us.php,,CONTACT US,1,PA,17066,florist
Marcos Diego FLOWERS,"4517 Buckley Rd, Liverpool, NY 13088",Garden center,Liverpool,,http://marcosdiegoflowers.com/,,,https://www.marcosdiegoflowers.com,,Contact,1,NY,13088,florist
Red Oak Nurseries,"5860 Ike Dixon Rd, Camillus, NY 13031",Garden center,Camillus,,http://www.redoaknurseries.com/,,,http://www.redoaknurseries.com/contact.php,,,1,NY,13031,florist
EverGreen Landscaping and Garden Center,"6278 Thompson Rd #1, Syracuse, NY 13206",Garden center,Syracuse,,http://evergreensyracuse.com/,,,http://evergreensyracuse.com/contact-us/,,Contact,1,NY,13206,florist
Flowers By Van Brunt,"604 Second Ave, West St, Long Branch, NJ 07740",Florist,Long Branch,,https://www.flowersbyvanbrunt.net/,,,//www.flowersbyvanbrunt.net/contactus.html?source=header,,,1,NJ,07740,florist
Warren's Florist,"39 Depot St, Bridgton, ME 04009",Florist,Bridgton,,http://www.flowershopflorists.com/,,,http://www.flowershopflorists.com/contactus.html,,Contact Us,1,ME,04009,florist
Enid Floral & Gifts,"1123 S Van Buren St, Enid, OK 73703",Florist,Enid,,http://www.enidfloral.com/,,,https://www.facebook.com/EnidFloral/,," 
",1,OK,73703,florist
Expressions Flowers,"112 Towson Ave, Fort Smith, AR 72901",Florist,Fort Smith,,https://www.expressionsflowers.com/,,,https://www.expressionsflowers.com/contact_us.php,,Contact Us,1,AR,72901,florist
J van VLIET New York Cash & Carry Ltd,"38-16 Skillman Ave, Long Island City, NY 11101",Wholesale florist,Long Island City,,http://vanvlietnewyork.com/,,,https://www.vanvlietnewyork.com/contacts,,CONTACT US,1,NY,11101,florist
The Flower Cart And Gift Shoppe,"134 Main St, Penn Yan, NY 14527",Florist,Penn Yan,,http://www.flowercartandgiftshoppe.com/,,,http://www.flowercartandgiftshoppe.com/#inc38_columns1,,Contact Us,1,NY,14527,florist
Sherwood Florist,"1314 Washington St, Watertown, NY 13601",Florist,Watertown,,http://www.mysherwoodflorist.com/,,,https://www.flowershopnetwork.com/contactus,,Contact FSN,1,NY,13601,florist
Works of Heart Flowers,"109 Main St, Wilton, NH 03086",Florist,Wilton,,https://www.worksofheartflowers.com/,,,https://www.worksofheartflowers.com/contact_us.php,,Contact Us,1,NH,03086,florist
Sunnyside Gardens,"345 Church St, Saratoga Springs, NY 12866",Garden center,Saratoga Springs,,http://www.sunnysidegardensllc.com/,,,https://www.sunnysidegardensllc.com/contact-us/,,Contact Us,1,NY,12866,florist
