name,address,type,place,description,website_url,menu_url,gift_card_website,contact_website,gift_card_txt,contact_txt,searched,state,zipcode,store_type
Hickory and Tweed Ski & Cycle,"410 Main St, Armonk, NY 10504",Clothing store,Armonk,,http://www.hickoryandtweed.com/,,http://www.hickoryandtweed.com/collections/gift-cards,http://www.hickoryandtweed.com/pages/contact-us,,"
          Contact",1,NY,10504,clothing_store
hipkid,"77 S Greeley Ave #3310, Chappaqua, NY 10514",Children's clothing store,Chappaqua,,http://www.hip-kid.com/,,http://www.hip-kid.com/products/gift-card,,"
                    Gift Cards
                ",,1,NY,10514,clothing_store
Milk and Honey Boutique,"6 E Bank St, Albion, NY 14411",Clothing store,Albion,,http://milkandhoneyboutique.shop/,,http://milkandhoneyboutique.shop/collections/gift-card,,"
            Gift Card
          ",,1,NY,14411,clothing_store
The New York Store,"16 Central Ave, Lancaster, NY 14086",Clothing store,Lancaster,,http://www.new-york-store.com/,,https://new-york-store.com/shop/accessories/gift-certificate/,https://new-york-store.com/contact-us/,Gift Certificate,Contact Us,1,NY,14086,clothing_store
Sports Locker,"711 W State St, Olean, NY 14760",Sportswear store,Olean,,http://www.sportslocker.biz/,,https://sportslocker.biz/?shopp_category=gift-cards,https://sportslocker.biz/contact/,Gift Cards,Contact,1,NY,14760,clothing_store
GadoGado,"26 Monroe St, Ellicottville, NY 14731",Clothing store,Ellicottville,,http://www.gadogadoellicottville.com/,,http://www.gadogadoellicottville.com/browse/gift-cards,,Gift Cards,,1,NY,14731,clothing_store
Marshalls,"220 Amsterdam Commons, Amsterdam, NY 12010",Clothing store,Amsterdam,,https://www.marshalls.com/,,https://marshalls.cashstar.com/store/recipient?locale=en-us,https://www.marshalls.com/us/store/jump/topic/Contact-Us/3200004,,Contact Us,1,NY,12010,clothing_store
Emma  James,"25 Jordan St, Skaneateles, NY 13152",Women's clothing store,Skaneateles,,http://www.shopejclothing.com/,,http://www.shopejclothing.com/products/gift-card-1,http://www.shopejclothing.com/pages/contact-us,GIFT CARDS,CONTACT,1,NY,13152,clothing_store
The Bundle Store,"40 Front St, Ballston Spa, NY 12020",Baby store,Ballston Spa,,http://www.thebundlestore.com/,,http://www.thebundlestore.com/collections/gift-certificates-1,http://www.thebundlestore.com/pages/store-hours-contact-info,"
                    Gift Cards 
                    
                  ","
                        Store Hours & Contact Info
                      ",1,NY,12020,clothing_store
Simply Ellie Boutique,"757 S Main St, Athens, PA 18810",Children's clothing store,Athens,,https://www.simplyellieboutique.com/,,https://simplyellieboutique.com/collections/all/giftcard,https://www.simplyellieboutique.com/pages/contact,Gift Cards,Contact Us,1,PA,18810,clothing_store
New Shoe Store Plus,"322 Main St, Towanda, PA 18848",Clothing store,Towanda,,http://www.newshoestoreplus.com/,,http://www.newshoestoreplus.com/gift-certificates,http://www.newshoestoreplus.com/locations#Findus," GIFT CERTIFICATES

"," FIND US

",1,PA,18848,clothing_store
Lamberts Design Jewelers,"375 W Main St, Batavia, NY 14020",Jeweler,Batavia,,http://www.lambertsjewelers.com/,,http://www.lambertsjewelers.com/shop/Gift-Cards-c48141147,http://www.lambertsjewelers.com/contact_us1," Gift Cards

"," CONTACT US

",1,NY,14020,clothing_store
Wilkes Bashford,"450 Stanford Shopping Center, Palo Alto, CA 94304",Clothing store,Palo Alto,"Renowned boutique with high-end designer apparel & shoes for men & women, plus tailoring services.",http://www.wilkesbashford.com/,,https://shop.mitchellstores.com/products/giftcard,,Gift Cards,,1,CA,94304,clothing_store
Everything But Water,"1240 Stanford Shopping Center, Palo Alto, CA 94304",Swimwear store,Palo Alto,"Women's resortwear shop for swimsuits, cover-ups, sundresses, sandals, hats & other accessories.",http://www.everythingbutwater.com/,,http://www.everythingbutwater.com/product/gift-card.aspx?pid=13996,http://www.everythingbutwater.com/company/contact-us.html,Gift Cards,Contact Us,1,CA,94304,clothing_store
Mountain Tops Outfitters,"144 Main St, Beacon, NY 12508",Clothing store,Beacon,,http://www.mountaintopsoutfitters.com/,,http://www.mountaintopsoutfitters.com/collections/gift-certificates,,GIFT CERTIFICATES,,1,NY,12508,clothing_store
La Mere Clothing and Goods,"436 Main St, Beacon, NY 12508",Boutique,Beacon,,http://www.lamereclothingandgoods.com/,,http://www.lamereclothingandgoods.com/products/gift-card,http://www.lamereclothingandgoods.com/pages/contact,"
              Gift Cards
            ",Contact Us,1,NY,12508,clothing_store
Lorraine Tyne Bridal,"161 Main St, Beacon, NY 12508",Bridal shop,Beacon,,http://www.lorrainetyne.com/,,http://www.lorrainetyne.com/product/gift-card/,http://www.lorrainetyne.com/contact/,Gift Cards,Contact Us,1,NY,12508,clothing_store
Mother & Daughter Creations,"86 Pleasant Ridge Rd, Poughquag, NY 12570",Baby clothing store,Poughquag,,http://www.jacquelynvaccaro.etsy.com/,,https://www.etsy.com/giftcards?ref=ftr,https://www.etsy.com/messages/new?with_id=10840184&referring_id=6069136&referring_type=shop&recipient_id=10840184,"
Gift cards
","
 Contact
    
    
",1,NY,12570,clothing_store
Holbrook Cottage,"1253 Pleasantville Rd, Briarcliff Manor, NY 10510",Gift shop,Briarcliff Manor,,http://www.holbrookcottage.com/,,https://www.holbrookcottage.com/giftcertificates.php,http://www.holbrookcottage.com/contact-us/,Gift Cards,Contact Us,1,NY,10510,clothing_store
Lagom,"40 Main St, Brockport, NY 14420",Gift shop,Brockport,,http://facebook.com/,,http://facebook.com/hashtag/giftcards?source=feed_text&epa=HASHTAG&__xts__%5B0%5D=68.ARD90Asx_M7z-FUP40_HX48myQvirw6Vme-zYl8nyZG9Y3xFmSJjB9J41uWRVXJYSN5jRwdyVbkswA4uqjCgY7vfCWDHZB9MTZ8wKaj-KF_9BG88QWJCTHAp_PMFHHIKqMDoONAf3hHg3X51pVSJVwmJhe8r1s7IVlkrzvk7S-cm46TDrYPEGAuO4DXIaDTCOJcGb0cUISvtgSGFHonYZ72OFSFihahc1MqmNl2bBiD5CQR5zammiIUAXciQN17b4PUQCsmbSxkQZDTTkk0j-EOXWLVGs1XkwVAbcJRkxY_FFtLXUhMmkZfeoCYwHE9Ijf9JxU6KLWcHFnLKaWR_0Dk&__tn__=%2ANK-R,,#giftcards,,1,NY,14420,clothing_store
ADRIAN EAST,"122 Kraft Ave, Bronxville, NY 10708",Children's clothing store,Bronxville,,http://www.adrianeast.com/,,http://www.adrianeast.com/collections/gifts,http://www.adrianeast.com/pages/contact-us,Gift Card,Contact Us,1,NY,10708,clothing_store
Say More Boutique,"10 Havens Ave, Patchogue, NY 11772",Women's clothing store,Patchogue,,https://www.saymoreboutique.com/,,https://www.saymoreboutique.com/products/gift-card,https://www.saymoreboutique.com/pages/contact-us,Gift Cards,Contact Us,1,NY,11772,clothing_store
Albany Fashions Indian Clothing Store Albany New York Visit by Appointment only,"26 Cortland Dr, Albany, NY 12211",Clothing store,Albany,,http://www.albanyfashions.com/,,http://www.albanyfashions.com/giftcertificates.php,http://www.albanyfashions.com/pages/contact-us.html,Gift Certificates,Contact Us,1,NY,12211,clothing_store
Village Designs Elmwood,"448 Elmwood Ave, Buffalo, NY 14222",Women's clothing store,Buffalo,,http://villagedesigns.shop/,,http://villagedesigns.shop/giftcertificates.php,https://villagedesigns.shop/contact-us/,"
Gift Certificates
","
Contact Us",1,NY,14222,clothing_store
Half & Half Boutique,"1088 Elmwood Ave, Buffalo, NY 14222",Boutique,Buffalo,,https://halfandhalfboutique.com/,,https://halfandhalfboutique.com/collections/gift-cards,https://halfandhalfboutique.com/pages/contact-us,gift cards,Contact Us,1,NY,14222,clothing_store
Get Dressed,"576 Elmwood Ave, Buffalo, NY 14222",Men's clothing store,Buffalo,,http://www.getdressedbuffalo.com/,,http://www.getdressedbuffalo.com/gift-certificates.html,http://www.getdressedbuffalo.com/contact-us.html,,,1,NY,14222,clothing_store
BUREAU,"712 Elmwood Ave, Buffalo, NY 14222",Men's clothing store,Buffalo,"Modern, high-end men’s boutique specializing in custom-tailored men’s suits & accessories.",http://www.bureaumade.com/,,http://www.bureaumade.com/products/gift-card,http://www.bureaumade.com/mailto:info@bureaumade.com,"
          GIFT CARD

          
        ",info@bureaumade.com,1,NY,14222,clothing_store
Rosey Bear Boutique,"10 E Main St #103, Victor, NY 14564",Children's clothing store,Victor,,http://www.roseybearboutique.com/,,https://www.etsy.com/giftcards?ref=ftr,https://www.etsy.com/messages/new?with_id=17287241&referring_id=6583252&referring_type=shop&recipient_id=17287241,"
Gift cards
","
 Contact
    
    
",1,NY,14564,clothing_store
NoNetz,"29 Fair Street #762 USPS, Carmel Hamlet, NY 10512",Swimwear store,Carmel Hamlet,,http://www.nonetz.com/,,https://www.nonetz.com/collections/mens-swimwear/products/nonetz-gift-card,http://www.nonetz.com/pages/contact-us,Gift Card,Contact Us,1,NY,10512,clothing_store
Sacred Heart Gifts & Apparel,"926 US-6, Mahopac, NY 10541",Gift shop,Mahopac,,http://shop.sacredheartgiftsandapparel.com/,,https://shop.sacredheartgiftsandapparel.com/product/gift-card/,https://shop.sacredheartgiftsandapparel.com/contact-us-4/,Gift Cards,Contact Us,1,NY,10541,clothing_store
Village Common Mercantile,"406 Main St #404, Catskill, NY 12414",Gift shop,Catskill,,http://www.thevillagecommon.com/,,http://www.thevillagecommon.com/gift-card,http://www.thevillagecommon.com/contact-2,"
            Gift Card
          ",Contact,1,NY,12414,clothing_store
Steiner's Sports,"301 Warren St, Hudson, NY 12534",Clothing store,Hudson,,http://steinersskibike.com/,,https://www.steinersskibike.com/product-list/gift-cards-1221/,,Gift Cards,,1,NY,12534,clothing_store
Under 510,"536 Central Ave, Cedarhurst, NY 11516",Men's clothing store,Cedarhurst,,https://www.under510.com/,,https://www.under510.com/products/gift-card,https://www.under510.com/pages/contact-us,Gift Card,Contact Us,1,NY,11516,clothing_store
ShopModspotter,"454 Arlington Rd, Cedarhurst, NY 11516",Clothing store,Cedarhurst,,http://shopmodspotter.com/,,http://shopmodspotter.com/products/gift-card,http://shopmodspotter.com/pages/contact-us,ModSpotter Gift Cards ,Contact us ,1,NY,11516,clothing_store
Kyoto Kimono,"311 Exchange Ave, Endicott, NY 13763",Vintage clothing store,Endicott,,http://www.kyotokimono.com/,,https://www.kyotokimono.com/GiftCertificate-s/233.htm,https://visitor.r20.constantcontact.com/manage/optin?v=001RmASHJDEZJZVqc9n5K5fBPDvzMbl_RbrGzU_LyPyHvK4EF6omFshoa8Twahvg428QDKFMgJBFoNv2ueycNVqZ4Pw2PQ0t-GySjpVwE4YPaVhmXETCdZk8DTIdtr6TNlS3NOXvytF2fU%3D,Gift Certificate,JOIN OUR MAILING LIST,1,NY,13763,clothing_store
United Uniform,"1132 Scottsville Rd, Rochester, NY 14624",Uniform store,Rochester,,https://www.uniteduniform.com/,,https://www.uniteduniform.com/giftcertificates.php,https://www.uniteduniform.com/pages/Contact-Us.html,Gift Certificates,Contact Us,1,NY,14624,clothing_store
Bridal Chateau Inc,"1687 Wehrle Dr, Williamsville, NY 14221",Bridal shop,Williamsville,"Stalwart, family-run bridal salon also offering accessories, bridesmaid & prom gowns.",http://www.bridalchateauinc.com/,,http://www.bridalchateauinc.com/services,http://www.bridalchateauinc.com/appointments-contact-us-2-1,Services & Gift Cards,Contact us,1,NY,14221,clothing_store
Icing by Claire's,"228 Greece Ridge Center Dr, Rochester, NY 14626",Fashion accessories store,Rochester,,http://www.icing.com/,,https://www.icing.com/us/giftcards.html,https://www.icing.com/us/customer-service-contact/,  Gift Cards,  Contact Us,1,NY,14626,clothing_store
Wit's End Giftique,"1762 U.S. 9, Clifton Park, NY 12065",Gift shop,Clifton Park,,http://www.witsendgiftique.com/,,http://www.witsendgiftique.com/shop/,http://www.witsendgiftique.com/about/contact,"
								Shop Online
								
","
								Hours
								
",1,NY,12065,clothing_store
Cookies Clothing,"1429 Haight St, San Francisco, CA 94117",Clothing store,San Francisco,"Bright, compact shop with unique t-shirts & streetwear for men & women, plus smoking accessories.",http://cookiessf.com/,,http://cookiessf.com/collections/gift-cards/gift-card,http://cookiessf.com/pages/contact,Gift Cards,"
        Contact
      ",1,CA,94117,clothing_store
The Cotton Gin Boutique,"24 E Market St, Corning, NY 14830",Boutique,Corning,,http://www.cottonginboutiqueny.com/,,http://www.cottonginboutiqueny.com/products/gift-card,http://www.cottonginboutiqueny.com/pages/contact-us,GIFT CARDS,Contact Us,1,NY,14830,clothing_store
Premium Roots New York,"246 Main St suite 14, Cornwall, NY 12518",Clothing store,Cornwall,,http://www.premiumrootsnewyork.com/,,http://www.premiumrootsnewyork.com/products/gift-cards,,"









",,1,NY,12518,clothing_store
Wynono & Company,"169 Main St, Cold Spring, NY 10516",Women's clothing store,Cold Spring,,https://www.shopwynono.com/,,https://www.shopwynono.com/products/gift-card,https://www.shopwynono.com/pages/contact,"
            Shop Now
          ","
                Contact
            ",1,NY,10516,clothing_store
Josie's on Central,"36 Central Ave, Lancaster, NY 14086",Clothing store,Lancaster,,https://www.josiesoncentralave.com/,,https://images.squarespace-cdn.com/content/v1/5ca3c864a568279664670496/1588515159856-JYCIF2K2RXG3U7ZGTL9M/ke17ZwdGBToddI8pDm48kEpVg-ILAPna1wRh-xAJ9fRZw-zPPgdn4jUwVcJE1ZvWQUxwkmyExglNqGp0IvTJZUJFbgE-7XRK3dMEBRBhUpwEv36x-EUL2-BSQ5feDhwGCbXuJBFqZ-erYzVouT8yOb9TwqchglLQOCYTRn7ZGxI/image-asset.jpeg,https://images.squarespace-cdn.com/content/v1/5ca3c864a568279664670496/1588951020642-YXT8ZR8J6ZACZRF2NPDS/ke17ZwdGBToddI8pDm48kEpVg-ILAPna1wRh-xAJ9fRZw-zPPgdn4jUwVcJE1ZvWQUxwkmyExglNqGp0IvTJZUJFbgE-7XRK3dMEBRBhUpwEv36x-EUL2-BSQ5feDhwGCbXuJBFqZ-erYzVouT8yOb9TwqchglLQOCYTRn7ZGxI/image-asset.jpeg,"

","

",1,NY,14086,clothing_store
Jillian's Drawers,"171 E State St, Ithaca, NY 14850",Baby store,Ithaca,"Resource center offering baby & breast-feeding supplies, plus cloth-diaper services & classes.",https://www.jilliansdrawers.com/,,https://www.jilliansdrawers.com/products/gift-card,https://www.jilliansdrawers.com/pages/contact-us,Gift Cards,Contact Us,1,NY,14850,clothing_store
The Cornell Store,"135 Ho Plaza, Ithaca, NY 14853",Clothing store,Ithaca,,https://www.cornellstore.com/,,https://www.cornellstore.com/giftcards,https://www.cornellstore.com/contact-us,GIFT CARDS,Contact Us,1,NY,14853,clothing_store
Skillmans,"9 Main St, Bemus Point, NY 14712",Clothing store,Bemus Point,,http://www.skillmansny.com/,,https://www.skillmansny.com/gift-cards,https://www.skillmansny.com/contact,Gift Cards,Contact,1,NY,14712,clothing_store
Le Royale Collection Boutique,"456 Delaware Ave, Albany, NY 12209",Clothing store,Albany,,http://www.leroyalecollection.com/,,https://www.leroyalecollection.com/Gift-card-p188625006,http://www.leroyalecollection.com/javascript:void();,"








Gift card




",Contact us,1,NY,12209,clothing_store
Kirna Zabete,"66 Newtown Ln, East Hampton, NY 11937",Women's clothing store,East Hampton,,http://kirnazabete.com/,,https://www.kirnazabete.com/products/gift-card?variant=30515518963776,http://kirnazabete.com/pages/contact,Gift Cards,Contact Us,1,NY,11937,clothing_store
Nili Lotan,"38 Main St, East Hampton, NY 11937",Women's clothing store,East Hampton,,http://www.nililotan.com/,,http://www.nililotan.com/products/gift-card,http://www.nililotan.com/pages/contact,gift card,Contact,1,NY,11937,clothing_store
Reformation,"85 Main St, East Hampton, NY 11937",Women's clothing store,East Hampton,,http://www.thereformation.com/,,https://www.thereformation.com/products/e-gift-card,https://www.thereformation.com/contact,E-gift cards,CUSTOMER LOVE,1,NY,11937,clothing_store
Singer22,"11 Old Westbury Rd, Roslyn Heights, NY 11577",Women's clothing store,Roslyn Heights,"Trendy store selling the latest styles for young women, with an emphasis on celebrities' picks.",https://www.singer22.com/,,https://www.singer22.com/gice.html,https://www.singer22.com/contact.html,GIFT CARDS,CONTACT US,1,NY,11577,clothing_store
Leggiadro Wheatley,"262 Wheatley Plaza, Greenvale, NY 11548",Women's clothing store,Greenvale,,http://www.leggiadro.com/,,http://www.leggiadro.com/collections/gift-cards,,View Gift Cards,,1,NY,11548,clothing_store
Mix Warehouse  Temporarily Closed,"42 Broadway, Lynbrook, NY 11563",Women's clothing store,Lynbrook,,http://www.shopmixology.com/,,https://www.shopmixology.com/collections/gift-cards-1,http://www.shopmixology.com/pages/contact-us,Gift Cards ,Contact Us,1,NY,11563,clothing_store
T Boutique,"18 Buffalo St, Hamburg, NY 14075",Clothing store,Hamburg,,http://www.tboutiquebuffalo.com/,,http://www.tboutiquebuffalo.com/products/gift-card,http://www.tboutiquebuffalo.com/pages/contact-us,"
              Gift card
            ",Contact Us,1,NY,14075,clothing_store
Annabel Elizabeth Gifts & Clothing,"10 E Main St Suite 203, Victor, NY 14564",Clothing store,Victor,,https://annabelelizabeth.com/,,https://annabelelizabeth.com/products/gift-card,https://annabelelizabeth.com/pages/contact-us,"
            gift cards
          ",Contact Us,1,NY,14564,clothing_store
Thakoon,"397 Bleecker St, New York, NY 10014",Clothing store,New York,,http://www.thakoon.com/,,http://www.thakoon.com/products/gift-card,http://www.thakoon.com/pages/contact,"

                          Gift Card
                        
",Contact,1,NY,10014,clothing_store
k hunter boutique,"59 Covert Ave, Floral Park, NY 11001",Boutique,Floral Park,,http://www.khunterboutique.com/,,http://www.khunterboutique.com/products/gift-card,,"








",,1,NY,11001,clothing_store
The Veiled Woman,"982 Barth Dr, Baldwin, NY 11510",Women's clothing store,Baldwin,,http://www.theveiledwoman.com/,,https://www.etsy.com/giftcards?ref=ftr,https://www.etsy.com/messages/new?with_id=83439995&referring_id=12678829&referring_type=shop&recipient_id=83439995,"
Gift cards
","
 Contact
    
    
",1,NY,11510,clothing_store
Fright Rags,"70 Cascade Dr, Rochester, NY 14614",Clothing store,Rochester,,http://www.fright-rags.com/,,http://www.fright-rags.com/products/gift-card,http://www.fright-rags.com/pages/contact-us,Gift Certificates ,Contact us,1,NY,14614,clothing_store
Patagonia,"1 Ridge St, Glens Falls, NY 12801",Outdoor clothing and equipment shop,Glens Falls,,http://www.patagonia.com/,,https://www.patagonia.com/giftcards/,,Gift Cards,,1,NY,12801,clothing_store
Impish Lee,"7 Littleworth Ln, Glen Cove, NY 11542",Lingerie store,Glen Cove,,https://impishlee.com/,,https://impishlee.com/gift-certs/,https://impishlee.com/contact-us/,Gift Certificates,Contact Us,1,NY,11542,clothing_store
Victor Talbots,"47 Glen Cove Rd, Greenvale, NY 11548",Men's clothing store,Greenvale,"Established place offering made-to-measure designer suits & fine evening wear, plus tuxedo rentals.",http://victortalbots.com/,,http://victortalbots.com/collections/gift-cards,http://victortalbots.com/pages/contact-us,"
Gift Cards
","
Contact Us
",1,NY,11548,clothing_store
Shari's Place,"44 Glen Cove Rd, Greenvale, NY 11548",Women's clothing store,Greenvale,,http://sharisplace.com/,,https://www.sharisplace.com/new-products/sharis-place-gift-card,http://sharisplace.com/contact,Purchase Gift card,Contact,1,NY,11548,clothing_store
My Beautiful Mess,"60 Roslyn Ave, Sea Cliff, NY 11579",Boutique,Sea Cliff,,http://mybeautifulmessboutique.com/,,https://mybeautifulmessboutique.com/gift-cards/,https://mybeautifulmessboutique.com/contact-us/,Gift Cards,Contact Us,1,NY,11579,clothing_store
Cats Like Us,"67 Main St, Tonawanda, NY 14150",Women's clothing store,Tonawanda,,https://catslikeus.com/,,https://catslikeus.com/products/gift-card,https://catslikeus.com/community/contact,Gift Cards,Contact Us,1,NY,14150,clothing_store
The Gold Trout,"19 W Main St, Granville, NY 12832",Boutique,Granville,,http://www.goldtrout.com/,,http://www.goldtrout.com/products/gift-card-to-the-gold-trout,http://www.goldtrout.com/pages/contact,"
                    Gift Cards
                  ","
              CONTACT
            ",1,NY,12832,clothing_store
S&R Apparel Clothing Boutique,"74 Morgans Ln, Comstock, NY 12821",Clothing store,Comstock,,http://www.sandrapparel.com/,,http://www.sandrapparel.com/collections/gift-card,http://www.sandrapparel.com/pages/contact-us,Gift Card,Contact Us,1,NY,12821,clothing_store
Maya's Place,"581 Middle Neck Rd, Great Neck, NY 11023",Women's clothing store,Great Neck,,http://www.mayasplaceny.com/,,http://www.mayasplaceny.com/products/gift-card,http://www.mayasplaceny.com/pages/contact-us,"
            Gift Cards
        ",Contact Us,1,NY,11023,clothing_store
BookATailor HQ  Great Neck,"11 Middle Neck Rd 3rd floor, Great Neck, NY 11021",Clothing store,Great Neck,,http://www.bookatailor.com/,,https://www.bookatailor.com/onlinegiftcard/,http://www.bookatailor.com/contact.cfm,GIFT CARDS  ,CONTACT ,1,NY,11021,clothing_store
Angel Apparel,"372 Great Neck Rd, Great Neck, NY 11021",Clothing store,Great Neck,,http://www.angelapparel.com/,,http://www.angelapparel.com/products/gift-card,http://www.angelapparel.com/pages/contact-us,Shop Gift Cards,Contact Us,1,NY,11021,clothing_store
French Kyss,"372 Great Neck Rd, Great Neck, NY 11021",Women's clothing store,Great Neck,,http://www.frenchkyss.com/,,http://www.frenchkyss.com/products/gift-card,http://www.frenchkyss.com/pages/contact-us,Shop Gift Cards,Contact Us,1,NY,11021,clothing_store
Demeter Fl Inc,"12 N Gate Rd, Great Neck, NY 11023",Perfume store,Great Neck,,https://demeterfragrance.com/,,https://demeterfragrance.com/gift-certificates/,https://demeterfragrance.com/contact-us.html,Gift Certificates,Contact Us,1,NY,11023,clothing_store
Her UnderThings,"1704 Western Ave, Albany, NY 12203",Women's clothing store,Albany,,http://www.herunderthingsny.com/,,https://squareup.com/gift/YP8SD965ED7MD/order,https://herunderthingsny.com/contact/,Order Gift Card,Contact,1,NY,12203,clothing_store
Buffalo Outdoors Clothing,"2300 Hamburg Turnpike, Buffalo, NY 14218",Clothing store,Buffalo,,https://buffalooutdoorsclothing.com/,,https://buffalooutdoorsclothing.com/giftcertificates.php,https://buffalooutdoorsclothing.com/contact-us/,Gift Certificates,Contact Us,1,NY,14218,clothing_store
SWANK,"2 Broad St, Hamilton, NY 13346",Boutique,Hamilton,,http://www.swankbydesign.com/,,https://squareup.com/gift/JTK5TQ6AMRFHX/order,,"
    

      To purchase a gift card please click on the following link: https://squareup.com/gift/JTK5TQ6AMRFHX/order

    
    ",,1,NY,13346,clothing_store
Abigail Rose & Lily Too,"500 Piermont Ave, Piermont, NY 10968",Women's clothing store,Piermont,,http://www.abigailrosestore.com/,,http://www.abigailrosestore.com/products/gift-card,,,,1,NY,10968,clothing_store
ARTICLE&,"198 Smith St, Brooklyn, NY 11201",Women's clothing store,Brooklyn,"Boutique selling contemporary designer & independent-label clothing, shoes & accessories.",http://www.articleand.com/,,http://www.articleand.com/customer-service#gift-cards,http://www.articleand.com/contacts,Gift Cards,Contact Us,1,NY,11201,clothing_store
LOLA New York,"300 Columbus Ave, Tuckahoe, NY 10707",Clothing store,Tuckahoe,,http://www.lolany.com/,,http://www.lolany.com/collections/gifts-1,"http://www.lolany.com/tel:WhitePlains914.358.1314TUckahoe914.268.0862
",Gift Cards,,1,NY,10707,clothing_store
SAGE & ANGIE BOUTIQUE,"235 Nassau Blvd, West Hempstead, NY 11552",Women's clothing store,West Hempstead,,https://www.sageandangie.com/,,https://sageandangie.com/products/gift-certificate?_pos=1&_sid=576fce6e8&_ss=r,,RSVP Now,,1,NY,11552,clothing_store
Pink Olive CS,"80 Main St, Cold Spring, NY 10516",Gift shop,Cold Spring,,http://www.pinkolive.com/,,https://pinkolive.com/giftcert.php,https://pinkolive.com/contact/,Gift Certificates,Contact Us,1,NY,10516,clothing_store
Nature's Closet,"61 Spring St, Williamstown, MA 01267",Clothing store,Williamstown,,http://www.naturescloset.net/,,http://naturescloset.net/gift-cards/,http://naturescloset.net/contact/,Gift Cards,Connect,1,MA,01267,clothing_store
Orvis Sandanona Shooting Grounds,"3047 Sharon Turnpike, Millbrook, NY 12545",Clothing store,Millbrook,,https://www.orvis.com/,,https://www.orvis.com/store/../giftcard,https://www.orvis.com/s/orvis-contact-orvis-by-phone-or-mail/1472,Gift Card,888-235-9763888-235-9763,1,NY,12545,clothing_store
Baseballism Cooperstown,"131 Main St, Cooperstown, NY 13326",Clothing store,Cooperstown,,http://www.baseballism.com/,,http://www.baseballism.com/collections/gift-cards,http://www.baseballism.com/pages/contact-us,"
                            Gift Cards
                          ",Contact,1,NY,13326,clothing_store
EVIE Boutique,"1778 Empire Blvd, Webster, NY 14580",Women's clothing store,Webster,,http://www.shopevie.com/,,http://www.shopevie.com/gift-certificates.html,http://www.shopevie.com/contact.html,"

			Gift Certificates
		
","

			Contact
		
",1,NY,14580,clothing_store
Club Monaco,"125 Westchester Ave, White Plains, NY 10601",Clothing store,White Plains,"Source for a mix of modern & vintage-style fashions for men & women, plus accessories & handbags.",https://www.clubmonaco.com/,,https://www.clubmonaco.com/en/giftcertpurchase?virtualgc=true&webcat=footer,https://www.clubmonaco.com/en/contactus,Gift Card,Email Us,1,NY,10601,clothing_store
Petrune,"126 E State St, Ithaca, NY 14850",Clothing store,Ithaca,Quaint shop featuring indie designers along with vintage clothing from every decade for men & women.,http://petrune.com/,,http://petrune.com/products/gift-card,,Giftcards,,1,NY,14850,clothing_store
The Cornell Store on the Ithaca Commons,"102 E State St, Ithaca, NY 14850",Clothing store,Ithaca,,http://www.cornellstore.com/,,http://www.cornellstore.com/giftcards,http://www.cornellstore.com/contact-us,GIFT CARDS,Contact Us,1,NY,14850,clothing_store
Trader K's,"119 E State St, Ithaca, NY 14850",Used clothing store,Ithaca,,http://www.traderks.net/,,http://www.traderks.net/gift-cards,,Gift Cards,,1,NY,14850,clothing_store
Breathe,"171 E State St, Ithaca, NY 14850",Women's clothing store,Ithaca,,http://breathe.fashion/,,http://breathe.fashion/collections/all,http://breathe.fashion/pages/contact-us,Gift Cards ,Contact ,1,NY,14850,clothing_store
Bibby Switch Boutique,"104 Franklin St, New York, NY 10013",Baby clothing store,New York,,https://www.eggnewyork.com/,,https://www.eggnewyork.com/products/digital-gift-card,https://www.eggnewyork.com/pages/contact-us,Gift Cards,Contact Us,1,NY,10013,clothing_store
Beacon's Closet Park Slope,"92 5th Ave, Brooklyn, NY 11217",Clothing store,Brooklyn,"Vintage clothing, shoes & accessories, including selections from top designers, in hip corner digs.",http://www.beaconscloset.com/,,http://www.beaconscloset.com/collections/gift-cards-1,http://www.beaconscloset.com/pages/contact,gift cards,contact,1,NY,11217,clothing_store
No6,"8 Centre Market Pl, New York, NY 10013",Women's clothing store,New York,"On a Little Italy side street, this shop offers goods from European designers plus its own clogs.",http://www.no6store.com/,,http://www.no6store.com/products/gift-card,https://no6store.com/pages/contact,Gift Card,"
            Contact
          ",1,NY,10013,clothing_store
Bergdorf Goodman,"754 5th Ave, New York, NY 10019",Clothing store,New York,"This landmark department store is known for high-end designer clothes & shoes, plus premier service.",https://www.bergdorfgoodman.com/,,https://www.bergdorfgoodman.com/c/bg-gift-card-event-shoes-cat624804?icid=drawer_Shoes_GiftCardEventShoes_042820,https://www.bergdorfgoodman.com/assistance/contactUs.jsp?emailType=custemailforwarding&icid=foot_email_us,,Email Us,1,NY,10019,clothing_store
Unis,"226 Elizabeth St, New York, NY 10012",Clothing store,New York,Clothing designer Eunice Lee's boutique features classic minimalist styles for men & women.,http://unisnewyork.com/,,http://unisnewyork.com/products/unis-gift-card,http://unisnewyork.com/pages/customer-service,Gift Cards,Contact Us,1,NY,10012,clothing_store
Gracie's,"588 New Loudon Rd, Latham, NY 12110",Clothing store,Latham,,https://graciesapparel.com/,,https://graciesapparel.com/products/gracies-gift-card,https://graciesapparel.com/pages/contact-us,"
                  Learn More
                ",Contact Us,1,NY,12110,clothing_store
Femme Fatale Bo Utique,"886 2nd Ave, New York, NY 10017",Boutique,New York,Women's boutique selling fashion-forward clothing by independent & small-scale designers since 1973.,http://www.ekavinyc.com/,,https://www.ekavinyc.com/gift-cards,https://www.ekavinyc.com/location-hours,eGIFT CARDS,CONTACT,1,NY,10017,clothing_store
Anderst,"54 N Front St, Kingston, NY 12401",Clothing store,Kingston,,http://www.anderst.net/,,http://www.anderst.net/products/anderst-gift-card,http://www.anderst.net/pages/contact,"









","
                      Contact
                  ",1,NY,12401,clothing_store
Facets Of Earth,"22 Broadway, Kingston, NY 12401",Jewelry store,Kingston,,http://www.facetsofearth.com/,,http://www.facetsofearth.com/collections/gift-card,http://www.facetsofearth.com/pages/contact,Gift Cards,Contact,1,NY,12401,clothing_store
Krizia Martin,"20 W Park Row, Clinton, NY 13323",Clothing store,Clinton,,http://www.kriziamartin.com/,,https://kriziamartin.com/products/gift-card,http://www.kriziamartin.com/pages/contact-us,,Contact Us,1,NY,13323,clothing_store
Nautica,"261 Red Apple Ct, Central Valley, NY 10917",Clothing store,Central Valley,,https://www.nautica.com/,,https://www.nautica.com/giftcard,https://www.nautica.com/contactus,"
 Gift Cards
",E-mail,1,NY,10917,clothing_store
JAYNE La Grange,"20 W Harris Ave, La Grange, IL 60525",Women's clothing store,La Grange,,http://www.shopjayne.com/,,http://www.shopjayne.com/products/gift-card,http://www.shopjayne.com/pages/contact,"
       Support Small Business...get a JAYNE Gift card!
     ","
                Customer Service
              ",1,IL,60525,clothing_store
Modern Citizen,"250 Elizabeth St, New York, NY 10012",Women's clothing store,New York,,https://www.moderncitizen.com/,,https://www.moderncitizen.com/collections/gift-cards?&view=all,,Gift Cards,,1,NY,10012,clothing_store
Shol's boutique,"7 Lebanon St, Hamilton, NY 13346",Women's clothing store,Hamilton,,https://sholsboutique.com/,,https://sholsboutique.com/collections/frontpage/products/gift-card,https://sholsboutique.com/pages/contact-us,"
Gift Card
","
Contact Info
",1,NY,13346,clothing_store
The Divine Tree,"19 Main St, Le Roy, NY 14482",Gift shop,Le Roy,,http://thedivinetree.co/,,https://thedivinetree.co/resources/gift-certificates/,https://thedivinetree.co/contact/,Gift Certificates,Contact,1,NY,14482,clothing_store
MayerWasner,"Main St, Narrowsburg, NY 12764",Clothing store,Narrowsburg,,http://www.mayerwasner.com/,,http://www.mayerwasner.com/products/gift-certificates,,Gift Certificates,,1,NY,12764,clothing_store
Hickey Freeman,"225 Liberty St, New York, NY 10286",Men's clothing store,New York,"Well-known retailer of sophisticated, tailored menswear, including suits, dress shirts & neckwear.",http://www.hickeyfreeman.com/,,http://www.hickeyfreeman.com/products/gift-card,http://www.hickeyfreeman.com/pages/contact-us,"
Gift Cards
",Contact Us,1,NY,10286,clothing_store
Mills Jewelers,"51 Main St, Lockport, NY 14094",Jewelry store,Lockport,,http://www.millsjewelers.com/,,http://www.millsjewelers.com/product/gift-card/,http://www.millsjewelers.com/contact/,Gift Cards,HOURS,1,NY,14094,clothing_store
Smokin Joes Trading Post,"2293 Saunders Settlement Rd, Sanborn, NY 14132",Clothing store,Sanborn,,http://www.smokinjoes.com/,,https://smokinjoes.com/more-products/gift-cards,,"
Gift Cards
",,1,NY,14132,clothing_store
Shade Amour,"803 W Beech St, Long Beach, NY 11561",Women's clothing store,Long Beach,,http://www.shadeamour.com/,,http://www.shadeamour.com/gift-cards,http://www.shadeamour.com/find-us,"
            GIFT CARDS
          ","
            Find us
          ",1,NY,11561,clothing_store
unsOund surf,"359 E Park Ave, Long Beach, NY 11561",Clothing store,Long Beach,"Laid-back surf shop supplying boards, wetsuits, clothing & accessories, plus rental equipment.",http://www.unsoundsurf.com/,,https://www.unsoundsurf.com/gift-cards/,,GIFT CARDS,,1,NY,11561,clothing_store
Sports Depot,"36 E Park Ave, Long Beach, NY 11561",Sporting goods store,Long Beach,"Time-tested sporting goods store featuring brand-name football & baseball equipment, gear & apparel.",http://sportsdepot.com/,,https://www.sportsdepot.com/gift-certificate.html,https://www.sportsdepot.com/site-page/contact-us.html,Gift Certificate,Contact Us,1,NY,11561,clothing_store
Incredible Feets of Oceanside,"3541 Long Beach Rd, Oceanside, NY 11572",Clothing store,Oceanside,,https://www.incrediblefeets.com/,,https://incrediblefeets.com/gift-cards/,http://incrediblefeets.com/contact/,Gift Cards,Contact Us,1,NY,11572,clothing_store
Max & Gino's Clothing Co,"1317 Broadway, Hewlett, NY 11557",Clothing store,Hewlett,,http://www.buttersupersoft.com/,,http://www.buttersupersoft.com/products/gift-card,http://www.buttersupersoft.com/pages/contact-us,Purchase a Gift Card,Contact Us,1,NY,11557,clothing_store
Lynbrook Irish Shop,"144 Hendrickson Ave, Lynbrook, NY 11563",Gift shop,Lynbrook,,https://www.lynbrookirishshop.com/,,https://www.lynbrookirishshop.com/giftvoucher/index/check/,https://www.lynbrookirishshop.com/contacts/,Check Gift Card,Contact Us,1,NY,11563,clothing_store
Zaltas Gallery of Fine Jewelry,"900 E Boston Post Rd, Mamaroneck, NY 10543",Jewelry store,Mamaroneck,,http://zaltasgallery.com/,,https://www.zaltasgallery.com/product/gift-card/,http://zaltasgallery.com/contact-us/,Gift Card,Contact,1,NY,10543,clothing_store
Rodd & Gunn  Stanford,"660 Stanford Shopping Center shop 126, Palo Alto, CA 94304",Men's clothing store,Palo Alto,,http://www.roddandgunn.com/,,https://www.roddandgunn.com/us/gifts/egift-cards,https://www.roddandgunn.com/us/the-lodge-bar/contact-events,"
EGift Cards
","
Contact & Events
",1,CA,94304,clothing_store
Charlotte's Closet,"405 Main St #6, Port Washington, NY 11050",Dress store,Port Washington,,http://www.charlottes-closet.com/,,http://www.charlottes-closet.com/collections/gift-card,http://www.charlottes-closet.com/pages/contact-us,Give a Gift,Contact Us,1,NY,11050,clothing_store
Westfield Sunrise,"One Sunrise Mall, Massapequa, NY 11758",Clothing store,Massapequa,"Large mall featuring over 100 stores & services, including a variety of fast-food choices.",https://www.westfield.com/,,https://www.westfield.com/sunrise/stores/Gift%20Cards,,Gift Cards,,1,NY,11758,clothing_store
Volcom Retail Outlets,"3218 Livermore Outlets Dr, Livermore, CA 94551",Clothing store,Livermore,"Retailer of surf-, skate- & snowboard-inspired apparel, accessories & footwear.",http://volcom.com/,,http://volcom.com/blogs/announcement-bar/volcom-gift-cards,http://volcom.com/mailto:customerservice@volcom.com?subject=Contact Form,"GIFT 'EM THE STONE! SHOP GIFT CARDS
      
        Shop Now
        
      
",Contact Us,1,CA,94551,clothing_store
MMLaFleur San Francisco,"23 Grant Ave 5th floor, San Francisco, CA 94108",Women's clothing store,San Francisco,,https://mmlafleur.com/,,https://mmlafleur.com/shop/gift-card,https://mmlafleur.com/help,"
                    Gift Cards
                ","
                                                Contact & FAQ                                            ",1,CA,94108,clothing_store
Volcom,"13000 Folsom Blvd Suite 305, Folsom, CA 95630",Clothing store,Folsom,"Retailer of surf-, skate- & snowboard-inspired apparel, accessories & footwear.",http://www.volcom.com/,,http://www.volcom.com/blogs/announcement-bar/volcom-gift-cards,http://www.volcom.com/mailto:customerservice@volcom.com?subject=Contact Form,"GIFT 'EM THE STONE! SHOP GIFT CARDS
      
        Shop Now
        
      
",Contact Us,1,CA,95630,clothing_store
Volcom _ Santa Barbara,"625 State St, Santa Barbara, CA 93101",Clothing store,Santa Barbara,"Retailer of surf-, skate- & snowboard-inspired apparel, accessories & footwear.",https://www.volcom.com/,,https://www.volcom.com/blogs/announcement-bar/volcom-gift-cards,https://www.volcom.com/mailto:customerservice@volcom.com?subject=Contact Form,"GIFT 'EM THE STONE! SHOP GIFT CARDS
      
        Shop Now
        
      
",Contact Us,1,CA,93101,clothing_store
New York & Company,"2086 Newpark Mall, Newark, CA 94560",Women's clothing store,Newark,,https://www.newparkmall.com/,,https://www.newparkmall.com/en/visit/gift-cards.html,https://www.newparkmall.com/en/contact-us.html,Find Out More ,"
                    Contact Us
                ",1,CA,94560,clothing_store
Miss Scarlett Boutique,"19 Phila St, Saratoga Springs, NY 12866",Women's clothing store,Saratoga Springs,,http://www.missscarlettboutique.com/,,http://www.missscarlettboutique.com/collections/gift-cards,http://www.missscarlettboutique.com/pages/contact-us,Gift Cards,Contact Us,1,NY,12866,clothing_store
Bfree,"17 Main St, Warwick, NY 10990",Women's clothing store,Warwick,,http://shopbfree.com/,,http://shopbfree.com/collections/in-store-use-gift-cards,http://shopbfree.com/mailto:celia@shopbfree.com,In-Store Gift Cards,Contact Us,1,NY,10990,clothing_store
beehive designer collective,"337 E Main St, Mt Kisco, NY 10549",Gift shop,Mt Kisco,,http://www.shopthebeehive.com/,,http://www.shopthebeehive.com/giftcertificates.php,https://shopthebeehive.com/pages/contact.html,Gift Cards,"
          contact 
        ",1,NY,10549,clothing_store
Monkee's of Mount Pleasant,"1421 Shucker Cir #1114, Mt Pleasant, SC 29464",Women's clothing store,Mt Pleasant,,http://www.monkeesofmountpleasant.com/,,http://www.monkeesofmountpleasant.com/giftcertificates.php,http://www.monkeesofmountpleasant.com/contact-us/,Gift Cards,Contact Us,1,SC,29464,clothing_store
Madrag,"481 Main St, New Rochelle, NY 10801",Women's clothing store,New Rochelle,,http://www.madrag.com/,,https://balance.clutch.com/madrag,http://www.madrag.com/Contact_Us.aspx,GIFT CARDS,CONTACT,1,NY,10801,clothing_store
Dick Anthony LTD,"166 S Main St, Canandaigua, NY 14424",Men's clothing store,Canandaigua,,http://www.dickanthonyltd.com/,,https://dickanthonyltd.com/giftcertificates.php,https://dickanthonyltd.com/contact-us/,Gift Certificates,Contact Us,1,NY,14424,clothing_store
Village Designs Transit,"6449 Transit Rd, East Amherst, NY 14051",Clothing store,East Amherst,,http://www.villagedesigns.shop/,,http://www.villagedesigns.shop/giftcertificates.php,https://villagedesigns.shop/contact-us/,"
Gift Certificates
","
Contact Us",1,NY,14051,clothing_store
House Of 29 Lifestyle Boutique By Sarah,"39 S Greeley Ave, Chappaqua, NY 10514",Clothing store,Chappaqua,,https://houseof29.com/,,https://houseof29.com/products/gift-card,https://houseof29.com/pages/contact-us,"
Gift Card
",Contact Us,1,NY,10514,clothing_store
Karaz Shoes,"120 Genesee St, New Hartford, NY 13413",Shoe store,New Hartford,,https://karazshoes.net/,,https://karazshoes.net/gift-cards/,https://karazshoes.net/contact-us,Gift Cards,Contact Us Now!,1,NY,13413,clothing_store
CronArtUSA  Artist Ryan Cronin,"Water Street Market, 10 Main Street, New Paltz, NY 12561",Clothing store,New Paltz,,http://cronartusa.com/,,http://cronartusa.com/collections/gift-cards,http://cronartusa.com/pages/contact-us,Gift Cards,Contact Us,1,NY,12561,clothing_store
New Baby New Paltz,"10 Old Tshirkey Rd, New Paltz, NY 12561",Baby store,New Paltz,,http://newbabynewpaltz.com/,,http://newbabynewpaltz.com/collections/gift-card,,"

Gift Card
View all




",,1,NY,12561,clothing_store
Four Seasons,"530 Main St, New Rochelle, NY 10801",Clothing store,New Rochelle,,https://www.fourseasons.com/,,https://fourseasons.buyatab.com/custom/fourseasons/giftcard,https://www.fourseasons.com/contact-us/,Gift Card,Contact Us,1,NY,10801,clothing_store
Universal Standard,"192 Mercer St fl 4, New York, NY 10012",Women's clothing store,New York,,http://www.universalstandard.com/,,http://www.universalstandard.com/products/digital-gift-card,http://www.universalstandard.com/pages/contact-us-new,Gift Card,Contact Us,1,NY,10012,clothing_store
Only NY,"176 Stanton St, New York, NY 10002",Clothing store,New York,"Storefront boutique for NYC-based brand, selling limited-edition streetwear & accessories.",http://onlyny.com/,,http://onlyny.com/products/gift-card,http://onlyny.com/pages/contact,Gift Cards,Contact,1,NY,10002,clothing_store
Assembly New York,"170 Ludlow St, New York, NY 10002",Clothing store,New York,"Boutique selling select designer clothing & vintage pieces, with a unisex vibe & house-brand items.",http://www.assemblynewyork.com/,,http://www.assemblynewyork.com/collections/gift-cards,http://www.assemblynewyork.com/pages/customer-service-1,"
                    Gift Cards
                    
                  ","
                        Contact Us
                      ",1,NY,10002,clothing_store
Our Own Projects,"146 Main Street Suite D - Side entrance, Northport, NY 11768",Boutique,Northport,,http://ourownprojects.com/,,http://ourownprojects.com/collections/frontpage/products/gift-card,,"




Gift Card - A gift to give

from $10
              
            
          



",,1,NY,11768,clothing_store
Bella Lu Bowtique,"108 Broadway, Greenlawn, NY 11740",Women's clothing store,Greenlawn,,http://www.shopbellalubowtique.com/,,http://www.shopbellalubowtique.com/products/gift-card,,Gift Cards,,1,NY,11740,clothing_store
Altar'd State,"125 Westchester Ave Suite 2325, White Plains, NY 10601",Women's clothing store,White Plains,"Retailer of stylish clothing for young women, plus jewelry, shoes, accessories & decor items.",http://www.altardstate.com/,,https://www.altardstate.com/gift-card/,https://www.altardstate.com/help/?page=contact-us,Gift Cards,Contact Us,1,NY,10601,clothing_store
Ruthie's Run,"2415 Main St, Lake Placid, NY 12946",Sportswear store,Lake Placid,,http://www.ruthiesrun.com/,,http://www.ruthiesrun.com/pages/gift-certificates,http://www.ruthiesrun.com/pages/contact-us,Gift Certificates,Contact Us,1,NY,12946,clothing_store
Marcus Blaque,"260 Broadway, Troy, NY 12180",Boutique,Troy,,https://mblaque.com/,,https://mblaque.com/new-products-2,https://mblaque.com/contact,"
            Gift Certificates 
          ","
            Contact
          ",1,NY,12180,clothing_store
Custom Shop Clothiers,"2076 Northern Blvd, Manhasset, NY 11030",Men's clothing store,Manhasset,"Known for bespoke dress shirts, this retailer also sells custom suits, slacks & sport coats.",http://www.customshop.com/,,https://customshop.com/shop/apparel/gift-cards.html,http://www.customshop.com/shop/contacts,Gift Cards,Contact Us,1,NY,11030,clothing_store
ZIMMERMANN,"2036 Northern Blvd, Manhasset, NY 11030",Women's clothing store,Manhasset,,http://www.zimmermannwear.com/,,https://www.zimmermannwear.com/us/gift-card.html,https://www.zimmermannwear.com/us/contactus/,"
Gift Card
","



",1,NY,11030,clothing_store
Maria Luisa,"3836, 77 S Broadway, Nyack, NY 10960",Boutique,Nyack,,https://www.marialuisaboutique.com/,,https://www.marialuisaboutique.com/gift-card/,https://www.marialuisaboutique.com/service/contact-us/,Gift Card,Contact Us,1,NY,10960,clothing_store
Backstage Tattoo Piercing Boutique Palisades mall,"4472 Palisades Center Dr, West Nyack, NY 10994",Clothing store,West Nyack,,http://www.backstageny.com/,,http://www.backstageny.com/collections/all/products/tattoo-gift-certificate,http://www.backstageny.com/pages/contact-us,"

","
              Contact
            ",1,NY,10994,clothing_store
Sullen Clothing inc,"1799 Apollo Ct, Seal Beach, CA 90740",Clothing store,Seal Beach,,http://www.sullenclothing.com/,,http://www.sullenclothing.com/products/gift-card,http://www.sullenclothing.com/pages/contact-us,Gift Cards,"
          Contact Us ",1,CA,90740,clothing_store
Striders  Ogden,"1937 Washington Blvd, Ogden, UT 84401",Clothing store,Ogden,,http://www.jackrabbit.com/,,https://www.jackrabbit.com/gift-card.html,,"


",,1,UT,84401,clothing_store
Ballini Designs,"1423 Brewer Rd, Oneida, NY 13421",Jewelry designer,Oneida,,http://www.ballinidesigns.etsy.com/,,https://www.etsy.com/giftcards?ref=ftr,https://www.etsy.com/messages/new?with_id=45281111&referring_id=10432459&referring_type=shop&recipient_id=45281111,"
Gift cards
","
 Contact
    
    
",1,NY,13421,clothing_store
The Underground Attic,"273 Main St, Oneonta, NY 13820",Vintage clothing store,Oneonta,,http://www.theundergroundattic.com/,,https://www.theundergroundattic.com/product/50-gift-card/,,Gift Cards,,1,NY,13820,clothing_store
Blush Orchard Park,"4218 N Buffalo St, Orchard Park, NY 14127",Boutique,Orchard Park,,http://www.shopblushny.com/,,http://www.shopblushny.com/giftcertificates.php,https://shopblushny.com/contact-us/,Gift Certificates,Contact Us,1,NY,14127,clothing_store
The Bills Store,"1 Bills Dr, Orchard Park, NY 14127",Sportswear store,Orchard Park,,http://www.shopthebills.com/,,http://www.shopthebills.com/giftcertificates.php,http://www.shopthebills.com/contact-us/,Online Gift Certificates,Contact Us,1,NY,14127,clothing_store
LACE AND LEISURE,"3701 McKinley Pkwy #206, Blasdell, NY 14219",Boutique,Blasdell,,http://www.laceandleisureshoponline.com/,,http://www.laceandleisureshoponline.com/products/gift-card,http://www.laceandleisureshoponline.com/pages/contact-us,"
                
                  Pick the Perfect Present. Grab the Greatest Gift. Take Time to Treat Yourself. Enjoy 20% off your entire purchase. Enter MAY20 at checkout (gift cards are not included).
                
                  ",Contact Us,1,NY,14219,clothing_store
Bridge Street Jewelers,"129 Bridge St, Bradenton Beach, FL 34217",Jeweler,Bradenton Beach,,http://www.amibracelet.com/,,http://www.amibracelet.com/giftcertificates.php,,Gift Certificates,,1,FL,34217,clothing_store
PUMA,"609 5th Ave, New York, NY 10017",Clothing store,New York,,https://us.puma.com/,,https://us.puma.com/en/us/pd/digital-gift-card/VirtualGiftCard.html,https://us.puma.com/en/us/contact-us.html,"






","
Support
",1,NY,10017,clothing_store
The Coop Arts & Antiques,"107 S Division St, Peekskill, NY 10566",Gift shop,Peekskill,,https://thecooppeekskill.com/,,https://thecooppeekskill.com/new-products/gift-card-to-the-coop-arts-amp-antiques,https://thecooppeekskill.com/contact,"







","
              Contact
            ",1,NY,10566,clothing_store
Chandeliers Boutique,"and 79 South Main St. Canandaigua, NY, 1 S Main St, Pittsford, NY 14534",Boutique,Pittsford,,https://chandeliers-btq.com/,,https://chandeliers-btq.com/pages/general-terms-conditions,https://chandeliers-btq.com/pages/contact-us,RETURN POLICY/GIFT CARDS/SALES TAX ,Contact Us,1,NY,14534,clothing_store
Lenny's Shoe & Apparel,"285 Tom Miller Rd #100, Plattsburgh, NY 12901",Clothing store,Plattsburgh,,http://www.lennyshoe.com/,,https://lennyshoe.com/shop/gear/giftcards,https://lennyshoe.com/about-us/contact-us,"
    Gift Cards","
    Contact Us",1,NY,12901,clothing_store
The Birch Store,"1778 NY-73 Scenic, Keene Valley, NY 12943",Clothing store,Keene Valley,,https://www.thebirchstore.com/,,https://www.thebirchstore.com/gift-cards/,,Gift Cards,,1,NY,12943,clothing_store
Village One Stop Smoke Shop INC,"11 Commercial St, Angola, NY 14006",Clothing store,Angola,,https://sweetleaf.ecwid.com/,,https://sweetleaf.ecwid.com/E-Gift-Card-p195146121,https://sweetleaf.ecwid.com/javascript:void();,"








E-Gift Card




",Contact us,1,NY,14006,clothing_store
The Rose Hanger Shop,"480 Center St, Lewiston, NY 14092",Clothing store,Lewiston,,https://www.therosehangershop.com/,,https://www.therosehangershop.com/collections/gift-cards,https://www.therosehangershop.com/pages/contact-us,"
            Gift Cards
        ",Contact Us,1,NY,14092,clothing_store
walker&wade,"182 Byram Shore Rd, Greenwich, CT 06830",Women's clothing store,Greenwich,,http://walkerandwade.com/,,http://walkerandwade.com/products/gift-card-1,http://walkerandwade.com/pages/contact-us,Gift Card,Contact Us,1,CT,06830,clothing_store
Christina Fashion Handbags,"98 Main St, Port Jefferson, NY 11777",Fashion accessories store,Port Jefferson,,https://www.christinasfashionhandbags.com/,,https://www.christinasfashionhandbags.com/collections/gift-certificate,https://www.christinasfashionhandbags.com/pages/about-us,"
         Gift Certificate
      ","
        Contact-About
      ",1,NY,11777,clothing_store
Earring Tabu,"158 E Main St, Port Jefferson, NY 11777",Boutique,Port Jefferson,,http://earringtabu.com/,,https://earringtabu.com/gift-cards/,https://earringtabu.com/contact/,GIFT CARDS,CONTACT,1,NY,11777,clothing_store
Simple Good,"35 Chandler Sq, Port Jefferson, NY 11777",Gift shop,Port Jefferson,,https://simplegoodgifts.com/,,https://simplegoodgifts.com/products/gift-card,https://simplegoodgifts.com/pages/contact-us,"
                  Gift Cards
                ","
                            Contact Us
                          ",1,NY,11777,clothing_store
Beach Chain Girl,"10 Van Ave, Port Jervis, NY 12771",Women's clothing store,Port Jervis,,https://www.beachchaingirl.com/,,https://www.beachchaingirl.com/products/gift-card,https://www.beachchaingirl.com/pages/contact-us,Gift Cards,Contact Us,1,NY,12771,clothing_store
Smooth Girl Waxing Boutique,"287 Wading River Rd Unit 4 Exit 59 off, Sunrise Hwy, Manorville, NY 11949",Boutique,Manorville,,http://www.thewaxboutiqueli.com/,,https://thewaxboutiqueli.millenniumegift.com/,https://thewaxboutiqueli.com/#location,GIFT CARDS,CONTACT,1,NY,11949,clothing_store
Northern Ice and Dance,"47 Market St, Potsdam, NY 13676",Sporting goods store,Potsdam,,https://www.northerniceanddance.com/,,https://www.northerniceanddance.com/gift-certificates.html,https://www.northerniceanddance.com/contacts/,GIFT CERTIFICATES,Contact Us,1,NY,13676,clothing_store
Fleet feet,"1895 South Rd, Poughkeepsie, NY 12601",Clothing store,Poughkeepsie,,http://www.fleetfeetpoughkeepsie.com/,,https://www.fleetfeet.com/shop/gift-cards,http://www.fleetfeetpoughkeepsie.com/s/poughkeepsie/about,Gift Cards,About/Contact Us,1,NY,12601,clothing_store
Verlise Boutique,"8 Main St, Highland, NY 12528",Fashion accessories store,Highland,,http://www.verlise.com/,,http://www.verlise.com/,http://www.verlise.com/contact-us,SHOP GIFT CERTIFICATE ,Contact Us,1,NY,12528,clothing_store
Pure Bliss Jewelry,"114 Academy St, Poughkeepsie, NY 12601",Fashion accessories store,Poughkeepsie,,http://pureblissjewelry.com/,,https://www.etsy.com/giftcards?ref=ftr,https://www.etsy.com/messages/new?with_id=15260220&referring_id=10301369&referring_type=shop&recipient_id=15260220,"
Gift cards
","
 Contact
    
    
",1,NY,12601,clothing_store
Hawthorne Supply Co,"54 Elizabeth St, Red Hook, NY 12571",Fabric store,Red Hook,,https://hawthornesupplyco.com/,,https://www.hawthornesupplyco.com/gift-certificate,https://hawthornesupplyco.com/contact,"

","

",1,NY,12571,clothing_store
With You Lockets,"23A E Market St, Red Hook, NY 12571",Jewelry store,Red Hook,,https://withyoulockets.com/,,https://withyoulockets.com/products/gift-card,https://withyoulockets.com/pages/contact-us,"
                    Gift Card
                    
                  ","
                        Contact Us
                      ",1,NY,12571,clothing_store
Livilu Boutique,"138 Broadway, Rensselaer, NY 12144",Boutique,Rensselaer,,http://www.liviluboutique.com/,,http://www.liviluboutique.com/collections/gift-cards,http://www.liviluboutique.com/pages/contact-us,"
            Gift Cards
        ","
            Contact us
        ",1,NY,12144,clothing_store
Willow Wood,"38 E Market St, Rhinebeck, NY 12572",Boutique,Rhinebeck,,http://willowwoodlifestyle.com/,,https://www.willowwoodlifestyle.com/service/payment-methods/,,"

",,1,NY,12572,clothing_store
Zimmer Brothers Jewelers Boutique,"6402 Montgomery St, Rhinebeck, NY 12572",Jewelry store,Rhinebeck,,http://zimmerbrothers.com/,,https://www.zimmerbrothers.com/gift-cards,http://zimmerbrothers.com/contact,Gift Cards,Contact,1,NY,12572,clothing_store
K's Apparel & GiftsFormer Peconic Bay Apparel,"Old Farm Rd, Riverhead, NY 11901",Clothing store,Riverhead,,http://www.ksapparelandgifts.etsy.com/,,https://www.etsy.com/giftcards?ref=ftr,https://www.etsy.com/messages/new?with_id=62382140&referring_id=12000488&referring_type=shop&recipient_id=62382140,"
Gift cards
","
 Contact
    
    
",1,NY,11901,clothing_store
Peppermint,"145 Culver Rd, Rochester, NY 14620",Boutique,Rochester,"Cozy, fashion-forward boutique showcasing vintage & modern apparel, shoes & accessories for women.",http://shop-peppermint.com/,,http://shop-peppermint.com/products/gift-card,,"




Gift Cards

",,1,NY,14620,clothing_store
Archimage,"668 Monroe Ave, Rochester, NY 14607",Boutique,Rochester,"Storied, family-owned gift shop with unique jewelry & clothing, plus toys, books & New Age crystals.",http://www.archimagestore.com/,,http://www.archimagestore.com/gift-certificates.html,,BUTGift Certificatesare available online,,1,NY,14607,clothing_store
Little Jeannine's,"10 N Park Ave, Rockville Centre, NY 11570",Baby clothing store,Rockville Centre,,http://www.jeanninesgifts.com/,,http://www.jeanninesgifts.com/products/gift-card,,Gift Card,,1,NY,11570,clothing_store
Jeannine's Gifts,"6 N Park Ave, Rockville Centre, NY 11570",Boutique,Rockville Centre,,http://www.jeanninesboutique.com/,,http://www.jeanninesboutique.com/products/gift-card,,Gift Card,,1,NY,11570,clothing_store
Coquette,"197 Brower Ave, Rockville Centre, NY 11570",Boutique,Rockville Centre,,http://coquetteonseventh.com/,,http://coquetteonseventh.com/new-page,http://coquetteonseventh.com/contact,"
Gift Card Policy
","
about
",1,NY,11570,clothing_store
The Fitting Curve,"222 Merrick Rd, Rockville Centre, NY 11570",Lingerie store,Rockville Centre,,http://www.thefittingcurve.com/,,http://www.thefittingcurve.com/shopgc,http://www.thefittingcurve.com/locations,"
giftcard
",Contact Us,1,NY,11570,clothing_store
alice  olivia,"80 W 40th St, New York, NY 10018",Women's clothing store,New York,,https://www.aliceandolivia.com/,,https://www.aliceandolivia.com/e-gift-cards/,https://www.aliceandolivia.com/contact-us/,E-Gift Cards,Contact Us,1,NY,10018,clothing_store
SHOEINN,"106 S Ridge St, Rye Brook, NY 10573",Shoe store,Rye Brook,,https://www.shoeinn.com/,,https://www.shoeinn.com/products/gift-card,https://www.shoeinn.com/pages/contact-us,Gift Cards,Contact Us,1,NY,10573,clothing_store
Sammy  Nat,"88 Purchase St, Rye, NY 10580",Baby clothing store,Rye,,http://www.sammyandnat.com/,,http://www.sammyandnat.com/products/gift-card,,GIFT CARD,,1,NY,10580,clothing_store
Jessica Haley Bridal,"4 Purchase St, Rye, NY 10580",Bridal shop,Rye,,http://www.jessicahaleybridal.com/,,https://www.shopjessicahaley.com/products/gift-card?_pos=1&_sid=ed7ad79b9&_ss=r,http://www.jessicahaleybridal.com/contact,,contact,1,NY,10580,clothing_store
Scholars and Champs,"310 S Salina St, Syracuse, NY 13202",Clothing store,Syracuse,,https://scholarsandchamps.com/,,https://scholarsandchamps.com/collections/gift-cards,https://scholarsandchamps.com/pages/contact-us,"












Gift Cards
","
            Contact Us
          ",1,NY,13202,clothing_store
Saratoga Saddlery International Boutique,"506 Broadway, Saratoga Springs, NY 12866",Boutique,Saratoga Springs,"Local boutique featuring upscale equestrian clothing, outdoor wear, leather goods & boots.",http://www.saratogasaddlery.com/,,http://www.saratogasaddlery.com/collections/new-arrivals-1/products/gif-card-love-you-forever,,"

",,1,NY,12866,clothing_store
Yellow Boutique,"491 Broadway, Saratoga Springs, NY 12866",Boutique,Saratoga Springs,,http://www.yellowbtq.com/,,http://www.yellowbtq.com/?category=Gift+Card,,Gift Card,,1,NY,12866,clothing_store
Bella & Lindy Saratoga's Pet Boutique,"454 Broadway, Saratoga Springs, NY 12866",Boutique,Saratoga Springs,,http://www.bellaandlindy.com/,,http://www.bellaandlindy.com/giftcards,http://www.bellaandlindy.com/contact,"
            Gift Cards
          ","
            Contact
          ",1,NY,12866,clothing_store
Winn's,"63 Broadway, Tivoli, NY 12583",Boutique,Tivoli,,http://winnstivoli.com/,,https://www.winnstivoli.com/products/gift-card,http://winnstivoli.com/pages/contact,Gift Cards,"
Contact Us
",1,NY,12583,clothing_store
MySuit,"125 Westchester Ave Suite 3700A, White Plains, NY 10601",Men's clothing store,White Plains,,https://www.mysuit.com/,,https://www.mysuit.com/giftcard.html,https://www.mysuit.com/contact.html,Gift Card,Contact,1,NY,10601,clothing_store
Lole Skaneateles,"46 E Genesee St, Skaneateles, NY 13152",Clothing store,Skaneateles,,https://www.lolewomen.com/,,https://www.lolewomen.com/products/e-gift-card,,Gift Card,,1,NY,13152,clothing_store
DROOZ and Company,"36 E Genesee St, Skaneateles, NY 13152",Gift shop,Skaneateles,,http://www.droozandcompany.com/,,http://www.droozandcompany.com/collections/gift-card,http://www.droozandcompany.com/pages/contact-us,DROOZ gift card,CONTACT US,1,NY,13152,clothing_store
The Daofs Boutique,"15 Dawn Dr, Smithtown, NY 11787",Clothing store,Smithtown,,http://www.shopthedaofs.com/,,http://www.shopthedaofs.com/collections/gift-card,http://www.shopthedaofs.com/pages/contact-us,"
GIFT CARD
","
                          Contact Us
                        ",1,NY,11787,clothing_store
Dimitrios Furs & Boutique  Saint James,"464 N Country Rd, St James, NY 11780",Women's clothing store,St James,,http://www.dimitriosfurs.com/,,https://dimitriosfurs.giftcardsuite.com/,http://www.dimitriosfurs.com/pages/contact-dimitriosfurs,Gift Cards,Contact,1,NY,11780,clothing_store
Official's Wearhouse,"58 Maple Ave, Sodus, NY 14551",Sporting goods store,Sodus,,http://www.officialswearhouse.com/,,http://www.officialswearhouse.com/product-p/gft.htm,http://www.officialswearhouse.com/articles.asp?ID=83," 
Gift Certificate
",Contact Us,1,NY,14551,clothing_store
Rubysue,"157 Katonah Ave, Katonah, NY 10536",Boutique,Katonah,,http://rubysuekatonah.com/,,http://rubysuekatonah.com/collections/gift-cards,https://rubysuekatonah.com/pages/contact-us,"
                      Gift Cards
                  ",Contact Us,1,NY,10536,clothing_store
Ruby & Jenna,"60 Jobs Ln, Southampton, NY 11968",Clothing store,Southampton,,http://www.rubyandjenna.com/,,http://www.rubyandjenna.com/products/gift-card-2,http://www.rubyandjenna.com/pages/contact-us,"

",CONTACT,1,NY,11968,clothing_store
Lido,"132 Main St, Greenport, NY 11944",Women's clothing store,Greenport,,http://www.lidoworld.com/,,http://www.lidoworld.com/giftcertificates.php,https://www.lidoworld.com/contact/,Gift Cards,"
Contact
",1,NY,11944,clothing_store
Five Branches Greenport,"430 Main St, Greenport, NY 11944",Clothing store,Greenport,"Wellness center offering massages, acupuncture, mud wraps, sea salt scrubs & more.",http://www.fivebranchesgreenport.com/,,https://fivebrancheswellness.fullslate.com,http://www.fivebranchesgreenport.com/contact/,purchase a gift certificate,Contact,1,NY,11944,clothing_store
Club Monaco Southampton,"35 Main St, Southampton, NY 11968",Clothing store,Southampton,"Source for a mix of modern & vintage-style fashions for men & women, plus accessories & handbags.",http://www.clubmonaco.com/,,https://www.clubmonaco.com/en/giftcertpurchase?virtualgc=true&webcat=footer,https://www.clubmonaco.com/en/contactus,Gift Card,Email Us,1,NY,11968,clothing_store
cino,"44 Mile Rd, Suffern, NY 10901",Women's clothing store,Suffern,,http://www.cinostore.com/,,http://www.cinostore.com/products/100-gift-card,http://www.cinostore.com/pages/contact,CINO GIFT CARD,Contact,1,NY,10901,clothing_store
VOZ,"148 Sullivan St, New York, NY 10012",Clothing store,New York,,http://www.madebyvoz.com/,,http://www.madebyvoz.com/products/gift-card,http://www.madebyvoz.com/pages/contact-us,Gift Card,Contact Us,1,NY,10012,clothing_store
Of Mercer Clothing,"210 5th Ave Suite 602, New York, NY 10010",Women's clothing store,New York,Flagship store for a brand of sophisticated women's officewear tailored from imported fabrics.,http://www.ofmercer.com/,,http://www.ofmercer.com/products/gift-card,http://www.ofmercer.com/pages/contact-us,Gift Cards,Contact Us,1,NY,10010,clothing_store
Polarn O Pyret USA,"428 Columbus Ave, New York, NY 10024",Children's clothing store,New York,,http://www.polarnopyretusa.com/,,https://www.polarnopyretusa.com/index/page/static/subpage/gift_certificate_page,http://www.polarnopyretusa.com/index/page/static/subpage/contact_us,GIFT CERTIFICATES,Contact us,1,NY,10024,clothing_store
J Michael Shoes,"173 Marshall St, Syracuse, NY 13210",Clothing store,Syracuse,"Brand-name apparel, footwear & outerwear are the draw at this long-standing, family-owned retailer.",http://www.jmichaelshoes.com/,,http://www.jmichaelshoes.com/shop/j-michael-gift-card-5471405,http://www.jmichaelshoes.com/contact,Gift Cards,Contact Us,1,NY,13210,clothing_store
Sean,"181 Prince St, New York, NY 10012",Men's clothing store,New York,Contemporary outpost stocking French-designed men's apparel & accessories from tees to sport coats.,http://www.seanstore.com/,,https://www.seanstore.com/product-page/gift-card,https://www.seanstore.com/contact,Gift Certificates,​,1,NY,10012,clothing_store
Faherty Brand,"133 Prince St, New York, NY 10012",Clothing store,New York,,http://www.fahertybrand.com/,,http://www.fahertybrand.com/products/faherty-e-gift-card,http://www.fahertybrand.com/pages/contact,Gift Card,Contact Us,1,NY,10012,clothing_store
FUN Socks,"436 W Broadway, New York, NY 10012",Clothing store,New York,,https://funsocks.com/,,https://funsocks.com/products/10-dollar-gift-card,https://funsocks.com/pages/contact-us,E-gift Cards,Contact Us,1,NY,10012,clothing_store
The Counties of Ireland,"77 3rd St, Troy, NY 12180",Gift shop,Troy,,http://www.thecountiesofireland.com/,,http://www.thecountiesofireland.com/collections/gift-certificates,http://www.thecountiesofireland.com/pages/contact,Gift Certificates,"
        Contact
      ",1,NY,12180,clothing_store
Tipperary Irish Importer  Celtic Jeweler,"3956 NY-2, Troy, NY 12180",Clothing store,Troy,,http://www.shoptipperary.com/,,https://www.shoptipperary.com/giftcards,https://www.shoptipperary.com/contact,Shop Gift Cards,Contact Us,1,NY,12180,clothing_store
CODE2,"7387 NY-96, Victor, NY 14564",Uniform store,Victor,,http://www.code-2.com/,,http://www.code-2.com/Code-2-Gift-Certificate-p/gft.htm,http://www.code-2.com/Articles.asp?ID=264,Gift Certificates,Contact Us,1,NY,14564,clothing_store
Iriniri Design of Warwick,"20 Main St, Warwick, NY 10990",Jewelry store,Warwick,,http://iriniridesigns.com/,,http://iriniridesigns.com/collections/frontpage,http://iriniridesigns.com/pages/contact-us,Gift Cards,Contact Us,1,NY,10990,clothing_store
The Bungalow,"46 Main St, Warwick, NY 10990",Gift shop,Warwick,,http://www.shopbungalowny.com/,,http://www.shopbungalowny.com/giftcertificates.php,https://shopbungalowny.com/contact-us/,Gift Certificates,Contact Us,1,NY,10990,clothing_store
Zimmermann Outlet,"498 Red Apple Ct #327a, Central Valley, NY 10917",Clothing store,Central Valley,,https://www.zimmermannwear.com/,,https://www.zimmermannwear.com/us/gift-card.html,https://www.zimmermannwear.com/us/contactus/,"
Gift Card
","



",1,NY,10917,clothing_store
RECON Rings,"590 Salt Rd Suite 1, Webster, NY 14580",Outdoor clothing and equipment shop,Webster,,http://reconrings.com/,,https://reconrings.com/products/recon-gift-card,,GIFT CARDS,,1,NY,14580,clothing_store
Ike Behar,"2 Maple Ave, White Plains, NY 10601",Men's clothing store,White Plains,,http://www.ikebehar.com/,,http://www.ikebehar.com/collections/gift-cards,http://www.ikebehar.com/pages/contact-us,"
                            Gift Cards
                          ",Contact us,1,NY,10601,clothing_store
UNTUCKit,"125 Westchester Ave Space #3720A, White Plains, NY 10601",Clothing store,White Plains,,http://www.untuckit.com/,,https://www.untuckit.com/pages/gift-cards,http://www.untuckit.com/pages/contact-us,Gift Cards,"
Contact Us
",1,NY,10601,clothing_store
Twenty5A,"650 Willis Ave, Williston Park, NY 11596",Clothing store,Williston Park,"Fashionable women's clothing from tops to dresses featured in an airy, contemporary space.",http://www.twenty5a.com/,,http://www.twenty5a.com/collections/gift-card,,Gift Cards,,1,NY,11596,clothing_store
peter andrews,"46 Hillside Avenue, Williston Park, NY 11596",Clothing store,Williston Park,"Established venue with an array of home furnishings, decorative accents, patio furniture & gifts.",http://www.peterandrews.com/,,http://www.peterandrews.com/products/gift-card,http://www.peterandrews.com/mailto:contact@peterandrews.com,"
            Gift Cards",,1,NY,11596,clothing_store
Incredible Feets of Albertson,"1026 Willis Ave, Albertson, NY 11507",Clothing store,Albertson,,https://incrediblefeets.com/,,https://incrediblefeets.com/gift-cards/,http://incrediblefeets.com/contact/,Gift Cards,Contact Us,1,NY,11507,clothing_store
Woodbury Mens Shop,"8025 Jericho Turnpike, Woodbury, NY 11797",Men's clothing store,Woodbury,,http://www.woodburymensshop.com/,,https://woodburymensshop.com/gift-cards/,https://woodburymensshop.com/contact/,Gift Cards,Contact Us,1,NY,11797,clothing_store
Field of View,"7943 Jericho Turnpike, Woodbury, NY 11797",Women's clothing store,Woodbury,,http://shopfieldofview.com/,,http://shopfieldofview.com/products/gift-card,http://shopfieldofview.com/pages/contact-us,"






",Contact Us,1,NY,11797,clothing_store
Twenty5A Woodbury,"8285 Jericho Turnpike, Woodbury, NY 11797",Women's clothing store,Woodbury,,https://twenty5a.com/,,https://twenty5a.com/collections/gift-card,,Gift Cards,,1,NY,11797,clothing_store
Sports Attic,"317 Underhill Ave, Yorktown Heights, NY 10598",Sporting goods store,Yorktown Heights,,http://sportsatticny.com/,,http://sportsatticny.com/products/gift-card-1,,GIFT CARD,,1,NY,10598,clothing_store
ShoeCandy by Kara Mac,"315 Kear St, Yorktown Heights, NY 10598",Shoe store,Yorktown Heights,,https://karamac.com/,,https://karamac.com/products/gift-card,https://karamac.com/pages/contact-kara-mac,Gift Cards,Contact Us,1,NY,10598,clothing_store
