name,address,type,place,description,website_url,menu_url,gift_card_website,contact_website,gift_card_txt,contact_txt,searched,state,zipcode,store_type
Tru Grace,"419 Main St, Armonk, NY 10504",Clothing store,Armonk,,http://www.trugracefashion.com/,,,http://www.trugracefashion.com/contact/,,Contact,1,NY,10504,clothing_store
Little Rags and Riches,"384A Main St, Armonk, NY 10504",Children's clothing store,Armonk,,http://www.littleragsandriches.com/,,,http://www.littleragsandriches.com/pages/contact,,Contact Us,1,NY,10504,clothing_store
Ross Daniel Adaptive Apparel,"18 Upland Ln, Armonk, NY 10504",Clothing store,Armonk,,https://www.rdadaptiveapparel.com/,,,https://www.rdadaptiveapparel.com/contacts/,,Get In Touch,1,NY,10504,clothing_store
Main Street Thrift Store & Donation Center,"south 14411, 131 S Main St, Albion, NY 14411",Thrift store,Albion,,http://www.caoginc.org/,,,http://caoginc.org/contact/,,Contact,1,NY,14411,clothing_store
Stoney Meadows Alpacas,"16038 Glidden Rd, Holley, NY 14470",Clothing store,Holley,,http://www.stoney-meadows.com/,,,http://www.stoney-meadows.com/contact.aspx,,Contact,1,NY,14470,clothing_store
a lily & a sparrow,"438 Main St, Medina, NY 14103",Women's clothing store,Medina,,https://www.alilyandasparrow.com/,,,https://www.alilyandasparrow.com/#contact,,Contact,1,NY,14103,clothing_store
Daniel's Men's Apparel,"421 Main St, Medina, NY 14103",Men's clothing store,Medina,,http://www.danielsjwdo.com/,,,http://www.danielsjwdo.com/contact-us,," CONTACT US

",1,NY,14103,clothing_store
Blissett's Specialty Shop,"447-449 Main St, Medina, NY 14103",Clothing store,Medina,"Long-standing store for bridal gowns & special-occasion dresses, plus apparel for babies & children.",http://blissettsbridal.com/,,,https://blissettsbridal.com/home#contact,,Contact & Hours,1,NY,14103,clothing_store
Doritex Corp,"11980 Walden Ave, Alden, NY 14004",Uniform store,Alden,,https://www.doritex.com/,,,https://www.doritex.com/contact-us/,,CONTACT US,1,NY,14004,clothing_store
Just Holster It LLC,"13350 Broadway, Alden, NY 14004",Sporting goods store,Alden,,https://justholsterit.com/,,,https://justholsterit.com/contact-us/,,Contact Us,1,NY,14004,clothing_store
Smocked Treasures,"80 Clinton Heights, Elma, NY 14059",Baby clothing store,Elma,,http://www.smockedtreasures.com/,,,https://www.smockedtreasures.com/contact.php,,Contact Info,1,NY,14059,clothing_store
New York International Style,"6705 Transit Rd, East Amherst, NY 14051",Clothing store,East Amherst,,https://nyinternationalstyle.com/,,,https://nyinternationalstyle.com/tel:7166397574,,716-639-7574,1,NY,14051,clothing_store
Mabel Danahy Inc,"3206 Sheridan Dr, Buffalo, NY 14226",Clothing store,Buffalo,,http://danahys.com/,,,http://danahys.com/contact,,"
            Contact
          ",1,NY,14226,clothing_store
Sievert's Sporting Goods,"4804 NY-30, Amsterdam, NY 12010",Sporting goods store,Amsterdam,,http://sievertsports.com/,,,https://www.sievertssportinggoods.com/contact/,,Contact Us,1,NY,12010,clothing_store
Mohawk Fabric Inc,"96 Guy Park Ave, Amsterdam, NY 12010",Clothes and fabric manufacturer,Amsterdam,,http://www.mohawkfabric.com/,,,http://www.mohawkfabric.com/contact.html,,Contact,1,NY,12010,clothing_store
Hans Moellers Jewelers,"2 W Main St, Attica, NY 14011",Jeweler,Attica,,http://www.hansmoellerjewelers.com/,,,http://www.hansmoellerjewelers.com/contact-us.html,,Contact,1,NY,14011,clothing_store
Creekside Saddlery,"7687 Olean Rd, Holland, NY 14080",Western apparel store,Holland,,http://www.creeksidesaddlery.com/,,,http://www.creeksidesaddlery.com/index.php?route=information/contact,,,1,NY,14080,clothing_store
steph  elli,"9500 Main St #500, Clarence, NY 14031",Women's clothing store,Clarence,,http://stephandelli.com/,,,http://stephandelli.com/contact-us,,"
            Contact Us
          ",1,NY,14031,clothing_store
Catholic Charities,"275 W Broadway, Boston, MA 02127",Clothing store,Boston,,http://www.ccab.org/,,,http://www.ccab.org/?q=contact,,Contact,1,MA,02127,clothing_store
Mitchell's Western Store,"7523 Potter Rd, Auburn, NY 13021",Western apparel store,Auburn,,http://www.mitchellswesternstore.com/,,,http://www.mitchellswesternstore.com/contact.php,,CONTACT US ,1,NY,13021,clothing_store
Sam's Shoe Services,"20 Genesee St, Auburn, NY 13021",Shoe store,Auburn,,http://www.gotosamsshoeservice.com/,,,http://www.gotosamsshoeservice.com/contact.php,,CONTACT US,1,NY,13021,clothing_store
Tesoro's Apparel,"284 Genesee St, Auburn, NY 13021",Tailor,Auburn,,http://www.tesorosapparel.com/,,,http://www.tesorosapparel.com/contact-us/,,Contact Us,1,NY,13021,clothing_store
Fiercewith Love,"8914 N Seneca St, Weedsport, NY 13166",Lingerie store,Weedsport,,http://www.fiercewithlove.com/,,,http://www.fiercewithlove.com/pages/contact-us,,"
CONTACT
",1,NY,13166,clothing_store
Jane Morgan's Little House Ltd,"378 Main St, Aurora, NY 13026",Clothing store,Aurora,,http://janemorganslittlehouse.com/,,,https://janemorganslittlehouse.com/contact/,,Contact,1,NY,13026,clothing_store
Omnibus Fashions,"72 E Main St #2, Babylon, NY 11702",Women's clothing store,Babylon,"Modest boutique selling evening, prom & mother-of-the-bride/groom gowns since 1986.",http://www.omnibusfashions.com/,,,http://www.omnibusfashions.com/./t8/contact-us.html,,Contact Us,1,NY,11702,clothing_store
Village Bridal & Boutique,"10 John St, Babylon, NY 11702",Bridal shop,Babylon,Spacious boutique boasting a wide range of designer wedding dresses & special-occasion formalwear.,http://www.villagebridals.com/,,,https://www.villagebridals.com/contact/,,Contact,1,NY,11702,clothing_store
NY Chic Boutique,"189 Higbie Ln, West Islip, NY 11795",Clothing store,West Islip,,http://www.nychicboutique.com/,,,http://www.nychicboutique.com/pages/contact-us,,Contact Us,1,NY,11795,clothing_store
HITCH,"37 E Main St, Babylon, NY 11702",Boutique,Babylon,,http://www.hitchli.com/,,,http://www.hitchli.com/pages/contact-us,,CONTACT US,1,NY,11702,clothing_store
Fashion Rescue 911,"52 Oswego St #2, Baldwinsville, NY 13027",Boutique,Baldwinsville,,https://www.fashionrescue911.com/,,,https://www.fashionrescue911.com/boutique,," Contact Us

",1,NY,13027,clothing_store
Boho Chic Boutique,"90 Front St, Ballston Spa, NY 12020",Boutique,Ballston Spa,,http://www.bohochicny.com/,,,https://www.bohochicny.com/,,Contact Us,1,NY,12020,clothing_store
True Elegance Boutique,"124 Milton Ave Rt50, Ballston Spa, NY 12020",Boutique,Ballston Spa,,http://www.trueeleganceboutique.com/,,,http://www.trueeleganceboutique.com/contact_us.html,,,1,NY,12020,clothing_store
Amazing Finds Boutique,"53 Milton Ave, Ballston Spa, NY 12020",Boutique,Ballston Spa,,https://www.amazingfindsboutiqueny.com/,,,https://www.amazingfindsboutiqueny.com/contact,,Contact,1,NY,12020,clothing_store
Bella Sophia Boutique,"227 Kingsley Rd, Burnt Hills, NY 12027",Boutique,Burnt Hills,,https://bellasophiaboutiqueny.com/,,,https://bellasophiaboutiqueny.com/Contact,,"
                    Contact
                    
                  ",1,NY,12027,clothing_store
Lily Style Loft,"190 Front St, Owego, NY 13827",Women's clothing store,Owego,,https://lilystyleloft.com/,,,https://lilystyleloft.com/contact-us,,Contact Us,1,NY,13827,clothing_store
Jayne's Flowers and Gifts,"429 Fulton St, Waverly, NY 14892",Clothing store,Waverly,,http://www.jaynesflowershop.com/,,,https://facebook.com/jaynesflowersandgifts/,," 
",1,NY,14892,clothing_store
Strauss H Clothiers Men's,"363 W Church St, Elmira, NY 14901",Men's clothing store,Elmira,,http://www.hstrauss.com/,,,http://www.hstrauss.com/contact.html,,Contact,1,NY,14901,clothing_store
Bonjulies Main Street Bride,"819 S Main St, Horseheads, NY 14845",Bridal shop,Horseheads,"Boutique offering bridal & bridesmaid gowns, plus prom dresses, tuxedo rentals & accessories.",http://www.bonjulies.com/,,,http://www.bonjulies.com/contact,,Contact Us,1,NY,14845,clothing_store
Best Baby Cares,"2318 Prospect Valley Rd, Willseyville, NY 13864",Baby store,Willseyville,,https://bestbabycares.com/,,,https://bestbabycares.com/contact/,, Contact Us ,1,NY,13864,clothing_store
Batavia Bootery,"210 E Main St, Batavia, NY 14020",Shoe store,Batavia,,http://www.bataviabootery.com/,,,http://www.bataviabootery.com/contact,," CONTACT
",1,NY,14020,clothing_store
Valle Jewelers,"21 Jackson St, Batavia, NY 14020",Jeweler,Batavia,,http://vallejewelersbatavia.com/,,,http://vallejewelersbatavia.com/tel:5853433372,,585-343-3372,1,NY,14020,clothing_store
Living,"123 Main St, Cold Spring Harbor, NY 11724",Women's clothing store,Cold Spring Harbor,,http://livingcsh.com/,,,http://livingcsh.com/contact.html,,Contact,1,NY,11724,clothing_store
Off Seids Clothing,"90 Glen Cove Rd, Greenvale, NY 11548",Clothing store,Greenvale,,https://www.offseidsclothing.com/,,,https://www.offseidsclothing.com/pages/contact-us,,Contact us ,1,NY,11548,clothing_store
Hook Life,"252 Sea Cliff Ave, Sea Cliff, NY 11579",Clothing store,Sea Cliff,,http://hook.life/,,,http://hook.life/contact-us.php,,Contact Us,1,NY,11579,clothing_store
NFP BEACON,"457 Main St, Beacon, NY 12508",Clothing store,Beacon,,http://nfpstudio.com/,,,http://nfpstudio.com/contact/,,Contacts,1,NY,12508,clothing_store
Cloth Factor,"40 Mason Cir, Beacon, NY 12508",Clothing store,Beacon,,http://www.clothfactor.com/,,,http://www.clothfactor.com/contact,,"
              VISIT US
            ",1,NY,12508,clothing_store
The Bra Fit Expert,"470 Main St, Beacon, NY 12508",Lingerie store,Beacon,,http://thebrafitexpert.com/,,,http://thebrafitexpert.com/contact-us,,Contact Us,1,NY,12508,clothing_store
Lady Gray Dress Shop,"274 Main St, Beacon, NY 12508",Bridal shop,Beacon,"Established, family-owned salon specializing in bridal & bridesmaids gowns, plus alterations.",https://www.ladygraybridal.com/,,,https://www.ladygraybridal.com/contact,,Contact,1,NY,12508,clothing_store
Lambs Hill Bridal Boutique,"Retail 3, 1 E Main St, Beacon, NY 12508",Bridal shop,Beacon,,http://www.lambshillbridalboutique.com/,,,http://www.lambshillbridalboutique.com/contact-us,,"
Contact Us

",1,NY,12508,clothing_store
AfterEden Gallery & Heroes & Villains Beacon,"453 Main St, Beacon, NY 12508",Gift shop,Beacon,,http://afteredengallery.com/,,,http://afteredengallery.com/contact.html,,"
				Contact
			",1,NY,12508,clothing_store
Cream,"101 Liberty St, Newburgh, NY 12550",Clothing store,Newburgh,,https://www.creamnewburgh.com/,,,https://www.creamnewburgh.com/contact,,CONTACT,1,NY,12550,clothing_store
Foxgloves,"1250 North Ave, Beacon, NY 12508",Protective clothing supplier,Beacon,,http://www.foxglovesinc.com/,,,http://www.foxglovesinc.com/pages/contact,,Contact,1,NY,12508,clothing_store
TiA CiBANi KiDS,"792 NY-35, Cross River, NY 10518",Children's clothing store,Cross River,,https://www.tiacibanikids.com/,,,https://www.tiacibanikids.com/pages/contact-us,,Contact us,1,NY,10518,clothing_store
Squires Family Clothing & Footwear,"41 S Greeley Ave, Chappaqua, NY 10514",Clothing store,Chappaqua,,http://www.squiresny.com/,,,http://www.squiresny.com/contact-us,," Contact Us

",1,NY,10514,clothing_store
Jewel Corner Inc,"650 Old Post Rd, Bedford, NY 10506",Jeweler,Bedford,,https://www.jewelcornerinc.com/,,,https://www.jewelcornerinc.com/contact-us,,contact us,1,NY,10506,clothing_store
Briar Patch Threads,"81 David Ln, Pawling, NY 12564",Clothing store,Pawling,,https://briar-patch-threads.ueniweb.com/,,,https://briar-patch-threads.ueniweb.com/#contact_us,,Contact Me,1,NY,12564,clothing_store
SallStearns,"52 Court St, Binghamton, NY 13901",Clothing store,Binghamton,,http://www.sallstearns.com/,,,http://www.sallstearns.com/../contact.aspx,,Contact,1,NY,13901,clothing_store
Glamorous & Girly Boutique,"3 Brookside Rd, Binghamton, NY 13903",Women's clothing store,Binghamton,,https://www.glamorousgirlyboutique.com/,,,https://www.glamorousgirlyboutique.com/customer-care,,Contact Us >,1,NY,13903,clothing_store
Amphenol Company Store,"498 Conklin Ave, Binghamton, NY 13903",Clothing store,Binghamton,,http://amphenolstore.com/,,,http://amphenolstore.com/index.php?statp=contact&,,Contact,1,NY,13903,clothing_store
Dayseon's,"192 Main St #1, Binghamton, NY 13905",Clothing store,Binghamton,,https://dayseons.com/,,,https://www.dayseons.com/dayseons-2,,Contact Us,1,NY,13905,clothing_store
Bricks Four Kidz,"1708 Vestal Pkwy E # 4, Vestal, NY 13850",Clothing store,Vestal,,https://www.bricks4kidz.com/,,,https://www.bricks4kidz.com/contact-us/,,Contact Us,1,NY,13850,clothing_store
Clothing Drive Fundraiser Synergy Ropa Usada,"2 Greycourt Ave, Chester, NY 10918",Clothing store,Chester,,http://clothingdrivefundraiser.com/,,,https://clothingdrivefundraiser.com/contact/,,Contact,1,NY,10918,clothing_store
Wondrous Things,"1159 Pleasantville Rd, Briarcliff Manor, NY 10510",Gift shop,Briarcliff Manor,,https://wondrousthings.com/,,,https://wondrousthings.com/#1148798038,,"  

Contact Us
",1,NY,10510,clothing_store
March,"1207 Pleasantville Rd, Briarcliff Manor, NY 10510",Boutique,Briarcliff Manor,,http://www.marchboutique.com/,,,http://www.marchboutique.com/contact,,"
        
        Contact
      ",1,NY,10510,clothing_store
Sprigs,"555 Pleasantville Rd n205, Briarcliff Manor, NY 10510",Fashion accessories store,Briarcliff Manor,,http://sprigs.com/,,,https://sprigs.com/contact-us/,,Contact Us,1,NY,10510,clothing_store
Honanhomespun,"482 Chambers St, Spencerport, NY 14559",Women's clothing store,Spencerport,,http://www.honanhomespun.com/,,,http://www.honanhomespun.com/contact.html,,"
				Contact
			",1,NY,14559,clothing_store
Seamless Designs Betsey Reigle,"348 Peck Rd, Hilton, NY 14468",Clothing store,Hilton,,http://www.theseamlessdesigns.com/,,,http://www.theseamlessdesigns.com/contact.html,,"
    		Contact
    	",1,NY,14468,clothing_store
Sewing Palette Inc,"115 Hager Rd, Rochester, NY 14616",Vintage clothing store,Rochester,,http://sewingpalette.com/,,,http://www.sewingpalette.com/contact.html,,Unsubscribe,1,NY,14616,clothing_store
Boo Gemes,"101 Pondfield Rd, Bronxville, NY 10708",Women's clothing store,Bronxville,,http://boogemes.com/,,,http://boogemes.com/Contact_Us_a/258.htm,,CONTACT,1,NY,10708,clothing_store
Bronxville Furriers,"98 Kraft Ave, Bronxville, NY 10708",Outerwear store,Bronxville,,http://bronxvillefurriers.com/,,,http://bronxvillefurriers.com/contact,," Contact

",1,NY,10708,clothing_store
SF By Sharmin Faruque,"44 East Pkwy, Scarsdale, NY 10583",Clothing store,Scarsdale,,http://www.sharminfaruque.com/,,,https://sharminfaruque.com/contact/,,Contact,1,NY,10583,clothing_store
Wrangler,"10 Farber Dr, Bellport, NY 11713",Clothing store,Bellport,,https://www.wrangler.com/,,,https://www.wrangler.com/help/contact-us.html,,CONTACT US,1,NY,11713,clothing_store
Champion,"10 Farber Dr, Bellport, NY 11713",Lingerie store,Bellport,,http://www.champion.com/,,,http://www.champion.com/customer-service,,Contact Us,1,NY,11713,clothing_store
Blakout Clothing LLC,"140 S Country Rd, East Patchogue, NY 11772",Clothing store,East Patchogue,,http://blakoutclothing.com/,,,http://blakoutclothing.com/pages/contact-us,,Contact Us,1,NY,11772,clothing_store
O'Connell's Clothing,"3240 Main St, Buffalo, NY 14214",Clothing store,Buffalo,"Longtime, family-owned haberdashery with high-quality clothing, shoes & accessories for men & women.",http://www.oconnellsclothing.com/,,,http://www.oconnellsclothing.com/contact-us,,Hours/Contact Us,1,NY,14214,clothing_store
Dovi and Girls African Market,"224 Elmwood Ave, Buffalo, NY 14213",Clothing store,Buffalo,,http://www.doviandgirls.com/,,,http://www.doviandgirls.com/#e5ae208a-a0a3-44db-a097-d829e202716c,,Contact Us,1,NY,14213,clothing_store
made by anatomy,"391 Washington St #6, Buffalo, NY 14203",Bridal shop,Buffalo,Independent boutique providing contemporary & tailor-made wedding gowns & accessories.,http://madebyanatomy.com/,,,https://madebyanatomy.com/contact/,,Contact,1,NY,14203,clothing_store
Presence Unique Clothing & Jewelry,"795 Elmwood Ave, Buffalo, NY 14222",Women's clothing store,Buffalo,,http://www.presenceclothing.com/,,,//www.hugedomains.com/contact.cfm,,Contact Us,1,NY,14222,clothing_store
Turnstyle Designs LLC,"298 Ashland Ave, Buffalo, NY 14222",Women's clothing store,Buffalo,,http://www.turnstylebuffalo.com/,,,http://www.turnstylebuffalo.com/contact.html,,Contact,1,NY,14222,clothing_store
Modern Nostalgia,"1382 Hertel Ave, Buffalo, NY 14216",Clothing store,Buffalo,"Hip, stylish boutique stocking men’s & women’s apparel from independent labels & designers.",https://www.bkindcity.com/,,,https://www.bkindcity.com/contact,,Contact,1,NY,14216,clothing_store
The Cellar,"569 Elmwood Ave, Buffalo, NY 14222",Men's clothing store,Buffalo,,https://www.thexcellar.us/,,,https://www.thexcellar.us/pages/contact-us,,Contact Us,1,NY,14222,clothing_store
Black Monarchy,"527 W Utica St, Buffalo, NY 14213",Boutique,Buffalo,,http://www.blackmonarchy.com/,,,http://www.blackmonarchy.com/contact,,"
            Contact Us
          ",1,NY,14213,clothing_store
Koolakian's Menswear,"132 E Genesee St, Syracuse, NY 13202",Clothing store,Syracuse,,http://www.koolakians.com/,,,http://www.koolakians.com/contact.html,,"
				Contact
			",1,NY,13202,clothing_store
American Reserve Clothing Co,"208 Walton St, Syracuse, NY 13202",Clothing store,Syracuse,,http://americanreserveshop.com/,,,http://americanreserveshop.com/pages/contact,,Contact,1,NY,13202,clothing_store
Crown Jewelers,"142 S Main St, Canandaigua, NY 14424",Jeweler,Canandaigua,,http://www.mycrowndowntown.com/,,,http://www.mycrowndowntown.com/contact-us/,,Contact Us,1,NY,14424,clothing_store
Fluff Alpaca,"521 Warren St First Floor, Hudson, NY 12534",Clothing store,Hudson,,https://fluffalpaca.com/,,,https://fluffalpaca.com/pages/contact,,"
          Contact
         ",1,NY,12534,clothing_store
River Basin Sport Shop,"66 Bridge St, Catskill, NY 12414",Sporting goods store,Catskill,,http://www.riverbasinsports.com/,,,http://www.riverbasinsports.com/id2.html,,How to Find Us,1,NY,12414,clothing_store
Sincerely Dedicated Company,"14 Old Mill Dr, Claverack, NY 12513",Clothing store,Claverack,,http://www.sincerelydedicated.com/,,,https://sincerelydedicated.com/contact-us/,,Contact Us,1,NY,12513,clothing_store
Howard's Florist,"11 N Jefferson Ave, Catskill, NY 12414",Wedding store,Catskill,,http://www.howardsflorist.net/,,,https://checkout.bloomnetcommerce.com/contact/?s=eb%2FHkVT7XEq%2Btt66Dc7eoc1Bhjgun7861HtP6HUb91U%3D,,"

 Contact Us
",1,NY,12414,clothing_store
Fame,"419 Central Ave, Cedarhurst, NY 11516",Women's clothing store,Cedarhurst,,http://www.fameoncentral.com/,,,http://www.fameoncentral.com/contact-us,,"
Contact Us
",1,NY,11516,clothing_store
Orly,"439 Central Ave, Cedarhurst, NY 11516",Clothing store,Cedarhurst,,http://orlyny.com/,,,http://orlyny.com/contact.html,,"
		    Contact
		  ",1,NY,11516,clothing_store
The Suitery,"479 Central Ave, Cedarhurst, NY 11516",Men's clothing store,Cedarhurst,,http://www.cedarhurstformalwear.com/,,,http://www.cedarhurstformalwear.com/contact,,"

                                Contact Us
                            
",1,NY,11516,clothing_store
Legaacy 11,"540 Central Ave, Cedarhurst, NY 11516",Clothing store,Cedarhurst,,http://www.legaacy.com/,,,http://www.legaacy.com/pages/contact,,Customer Service,1,NY,11516,clothing_store
Beverly Mehl Women's Clothing,"501 Central Ave, Cedarhurst, NY 11516",Women's clothing store,Cedarhurst,,http://www.beverlymehl.com/,,,https://www.beverlymehl.com/contact,,CONTACT,1,NY,11516,clothing_store
Clementine,"499 Central Ave, Cedarhurst, NY 11516",Clothing store,Cedarhurst,,http://www.clementineny.com/,,,http://www.clementineny.com/pages/contact-us,,Contact Us,1,NY,11516,clothing_store
Morton's Official Camp Outfitter,"533 Central Ave, Cedarhurst, NY 11516",Clothing store,Cedarhurst,,http://mortonscedarhurst.com/,,,http://mortonscedarhurst.com/pages/store-information,,Store Hours,1,NY,11516,clothing_store
Esti's,"484 Central Ave, Cedarhurst, NY 11516",Bridal shop,Cedarhurst,,http://www.estisonly.com/,,,http://www.estisonly.com/page6,, Contact Us ,1,NY,11516,clothing_store
Millennium Dress Shop,"3735 Union Rd, Cheektowaga, NY 14225",Dress store,Cheektowaga,"Store with prom, wedding & other special-occasion dresses in many sizes, plus jewelry & accessories.",http://millenniumdresses.com/,,,http://www.millenniumdresses.com/contact/,,Contact Us,1,NY,14225,clothing_store
Healthwear Rental Inc,"703 North St, Endicott, NY 13760",Clothing store,Endicott,,http://healthwearrental.com/,,,https://healthwearrental.com/contact-us/,,Contact Us,1,NY,13760,clothing_store
Stuart Weitzman,"660 Stanford Shopping Center #185, Palo Alto, CA 94304",Shoe store,Palo Alto,"Designer & retailer of high-end shoes, boots & handbags for women.",https://www.stuartweitzman.com/,,,https://www.stuartweitzman.com/service/contact/,,Contact Us,1,CA,94304,clothing_store
Sareka On Saddle,"304 Saddle River Rd, Monsey, NY 10952",Clothing store,Monsey,,https://sarekaonline.com/,,,https://sarekaonline.com/pages/contact-us,,CONTACT US,1,NY,10952,clothing_store
Big Dream Motivation,"101 Kennedy Dr Apt F7, Spring Valley, NY 10977",Clothing store,Spring Valley,,https://bigdreammotivation.ueniweb.com/,,,https://bigdreammotivation.ueniweb.com/#contact_us,,Contact Us,1,NY,10977,clothing_store
Baby Elaine,"95 NY-59, Monsey, NY 10952",Baby clothing store,Monsey,"A thoughtful selection of clothes & shoes for babies & young kids, with many designer styles.",http://babyelaine.com/,,,http://babyelaine.com/pages/contact-us,,"
Contact Us
",1,NY,10952,clothing_store
AO Design,"2340 Brighton Henrietta Town Line Rd, Rochester, NY 14623",Clothing store,Rochester,"Spacious outlet store selling irregular & closeout athletic apparel, as well as custom uniforms.",https://www.aodesignusa.com/,,,https://www.aodesignusa.com/contact-us,,Contact Us,1,NY,14623,clothing_store
Essentially My Style,"9467 Madison Ave, Brewerton, NY 13029",Women's clothing store,Brewerton,,https://www.essentiallymystyle.com/,,,https://www.essentiallymystyle.com/pages/contact-us,,Contact Us,1,NY,13029,clothing_store
Captain Bob's Outdoors Store,"10295 Main St #6, Clarence, NY 14031",Sporting goods store,Clarence,,http://www.captainbobsoutdoors.com/,,,http://www.captainbobsoutdoors.com/contact,,Contact Us,1,NY,14031,clothing_store
Kelly's Antique World & Flea Market,"11111 Main St, Clarence, NY 14031",Flea market,Clarence,,http://www.antiqueworldmarket.com/,,,https://antiqueworldmarket.com/contact-us/,,Contact Us,1,NY,14031,clothing_store
Lockport Outdoor Store,"5943 S Transit Rd, Lockport, NY 14094",Clothing store,Lockport,"Long-running store selling work & outdoor footwear for men & women, plus apparel & outdoor gear.",http://www.lockportoutdoor.com/,,,http://www.lockportoutdoor.com/contact-us_a/251.htm,,Contact Us,1,NY,14094,clothing_store
Nys Collection,"4198 Greece Ridge Center Dr, Rochester, NY 14626",Clothing store,Rochester,,https://nyscollection.com/,,,https://nyscollection.com/pages/contact,,CONTACT US,1,NY,14626,clothing_store
Passantino's,"563 Titus Ave, Rochester, NY 14617",Clothing store,Rochester,,http://www.passantinos.com/,,,http://www.passantinos.com/contact_us.php?osCsid=b79acd74bf674a9f768c1baeca3b2565,,Contact Us,1,NY,14617,clothing_store
Social Apparel,"1000 Palisades Center Dr, West Nyack, NY 10994",Women's clothing store,West Nyack,,http://www.socialapparel.com/,,,http://www.socialapparel.com/pages/contact-us,,Contact Us,1,NY,10994,clothing_store
BLINDTEK OF NEW YORK INC,"50 N Harrison Ave, Congers, NY 10920",Clothing store,Congers,,http://www.blindtek.com/,,,https://www.blindtekdesignersystems.com/contact/,,CONTACT,1,NY,10920,clothing_store
Olive On Brooklea,"4130 NY-31, Clay, NY 13041",Boutique,Clay,,http://www.oliveonbrooklea.com/,,,http://www.oliveonbrooklea.com/contact_us,,Contact Us,1,NY,13041,clothing_store
Sue Small Bridal,"45 Grissom Dr, Clifton Park, NY 12065",Bridal shop,Clifton Park,,http://www.suesmallbridal.com/,,,http://www.suesmallbridal.com/tel:5183833295,,(518) 383-3295,1,NY,12065,clothing_store
Flamingo Sisters Boutique,"Hedgewood Ln, Niskayuna, NY 12309",Clothing store,Niskayuna,,http://www.flamingosisters.com/,,,https://www.flamingosisters.com/contact/,,Contact,1,NY,12309,clothing_store
Style Encore,"22 Clifton Country Rd #78, Clifton Park, NY 12065",Thrift store,Clifton Park,,https://www.styleencorecliftonpark.com/,,,https://www.styleencorecliftonpark.com/tel:518-630-5730,, 518-630-5730 ,1,NY,12065,clothing_store
Ferri Formals and Bridals,"1608 Union St, Schenectady, NY 12309",Clothing store,Schenectady,"Posh boutique selling designer wedding dresses, bridesmaid outfits & evening gowns, plus tuxedos.",http://www.ferriformals.com/,,,http://www.ferriformals.com/contact,,Contact,1,NY,12309,clothing_store
Fashion ResPublica LLC,"99 Washington Ave, Albany, NY 12210",Clothing store,Albany,,https://fashionrespublica.com/,,,https://www.fashionrespublica.com/contact-us/,,Contact Us,1,NY,12210,clothing_store
Looks Great Promotions,"28 Manor Ave, Cohoes, NY 12047",Clothing store,Cohoes,,http://www.looksgreatpromo.com/,,,http://www.looksgreatpromo.com/contact.php,,contact,1,NY,12047,clothing_store
Moon Shadow Quilts,"5 Riverboat Ln, Waterford, NY 12188",Clothing store,Waterford,,http://moonshadowquilts.com/,,,http://moonshadowquilts.com/contact.html,,Contact,1,NY,12188,clothing_store
Amore Clothing,"595 New Loudon Rd, Latham, NY 12110",Men's clothing store,Latham,,http://www.amoreclothing.com/,,,http://www.amoreclothing.com/tailored/contact,,Latham 518-785-4184,1,NY,12110,clothing_store
Maje Bloomingdales Stanford  Temporarily Closed,"1 Stanford Shopping Center, Palo Alto, CA 94304",Women's clothing store,Palo Alto,,https://us.maje.com/,,,https://us.maje.com/en/contact-us/contactus.html,,here,1,CA,94304,clothing_store
What a Woman Wants,"349 Lenox St, Norwood, MA 02062",Clothing store,Norwood,,https://www.habitatclothes.com/,,,https://habitatclothes.com/contact/,,Contact,1,MA,02062,clothing_store
PCX Apparel,"131 Colonie Center #354, Albany, NY 12205",Clothing store,Albany,,http://www.pcxapparel.com/,,,http://www.pcxapparel.com/general-customer-contact,,"
            CONTACT
          ",1,NY,12205,clothing_store
Sports Zone,"1425 Central Ave, Albany, NY 12205",Sportswear store,Albany,,http://sportszoneny.com/,,,https://sportszoneny.com/contact-us/,,Contact Us,1,NY,12205,clothing_store
Vibes Apparel & Footwear,"964 Broadway, Buffalo, NY 14212",Clothing store,Buffalo,,http://www.vibes716.com/,,,http://www.vibes716.com/pages/contact-us,,"
              Contact Us
            ",1,NY,14212,clothing_store
Van Heusen Factory Outlet,"54 E Market St, Corning, NY 14830",Clothing store,Corning,,http://www.vanheusen.com/,,,https://help.vanheusen.partnerbrands.com/s/brand-form,,Contact Us,1,NY,14830,clothing_store
Salvation Army Thrift Store,"328 Park Ave, Corning, NY 14830",Thrift store,Corning,,http://www.salvationarmy.org/,,,http://www.salvationarmy.org/ihq/contactus,,Contact Us,1,NY,14830,clothing_store
Jenn's Gems and Jewels,"291 Bridge St, Corning, NY 14830",Fashion accessories store,Corning,,http://paparazziaccessories.com/,,,http://paparazziaccessories.com/contact/,,Contact,1,NY,14830,clothing_store
Alfi's Uniforms Inc,"152 Windsor Hwy # 100, New Windsor, NY 12553",Uniform store,New Windsor,,http://www.alfisuniformsny.com/,,,https://www.alfisuniformsny.com/contact-us,,Contact Us,1,NY,12553,clothing_store
Creative Gifts & More,"277 Main St, Cornwall, NY 12518",Gift shop,Cornwall,,http://www.creativegiftsny.com/,,,https://www.creativegiftsny.com/contact,,Contact,1,NY,12518,clothing_store
Homer Men and Boys Store,"11 S Main St, Homer, NY 13077",Clothing store,Homer,"Traditional shop for casual clothes & workwear, plus boots & accessories, for men, women & children.",http://www.homermenandboys.shop/,,,http://www.homermenandboys.shop/pages/about-us,,Contact Us,1,NY,13077,clothing_store
Geared 2 Sports,"24 Court St, Cortland, NY 13045",Clothing store,Cortland,,http://www.graph-tex.com/,,,http://www.graph-tex.com/contact-us/,,Contact Us,1,NY,13045,clothing_store
Roland's,"14 E Genesee St, Skaneateles, NY 13152",Clothing store,Skaneateles,,https://www.rolandsofskaneateles.com/,,,https://www.rolandsofskaneateles.com/pages/contact-us,,Contact Us,1,NY,13152,clothing_store
Quirkshop,"23 N Division St, Peekskill, NY 10566",Clothing store,Peekskill,,http://www.quirkshoppeekskill.com/,,,https://www.quirkshoppeekskill.com/contact,,CONTACT,1,NY,10566,clothing_store
Represent LI,"87 N Industry Ct, Deer Park, NY 11729",Clothing store,Deer Park,,http://www.representli.com/,,,http://www.representli.com/contact,,Contact,1,NY,11729,clothing_store
The Elephant Trunk Boutique,"5150 Broadway, Depew, NY 14043",Women's clothing store,Depew,,http://www.elephanttrunk.store/,,,https://www.elephanttrunk.store,,Contact,1,NY,14043,clothing_store
Napoli's Clothing & Shoes for Men,"69-66 Main St, Flushing, NY 11367",Men's clothing store,Flushing,,http://jandzcouture.com/,,,http://jandzcouture.com/pages/contact-us,,Contact Us,1,NY,11367,clothing_store
Abercorn Place Designer,"486 Piermont Ave, Piermont, NY 10968",Clothing store,Piermont,,https://abercornplace.com/,,,https://abercornplace.com/contact/,,Contact,1,NY,10968,clothing_store
Dover Street Market Los Angeles,"608 Imperial St, Los Angeles, CA 90021",Clothing store,Los Angeles,"Expansive, industrial-chic, multi-brand boutique featuring on-trend designer collections.",https://losangeles.doverstreetmarket.com/,,,https://losangeles.doverstreetmarket.com/contact,,"
                            Contact
                        ",1,CA,90021,clothing_store
Dover Street Market New York,"160 Lexington Ave, New York, NY 10016",Clothing store,New York,"Hip, sprawling showcase of high-end clothing & fashion-forward displays, plus a gourmet cafe.",https://newyork.doverstreetmarket.com/,,,https://newyork.doverstreetmarket.com/contact,,"
                            Contact
                        ",1,NY,10016,clothing_store
Woodstock Legends,"71 Tinker St, Woodstock, NY 12498",Vintage clothing store,Woodstock,,http://www.woodstocklegends.com/,,,http://woodstocklegends.com/contact.html,,èç³»æä»¬,1,NY,12498,clothing_store
The Second Knob and Shots by Shana Photography,"129 North St, Dryden, NY 13053",Gift shop,Dryden,,http://shotsbyshana.com/,,,http://shotsbyshana.com/contact.html,,"
                Contact

                  
            ",1,NY,13053,clothing_store
Terra Rosa,"2255 N Triphammer Rd, Ithaca, NY 14850",Gift shop,Ithaca,,https://www.terra-rosa.com/,,,https://www.terra-rosa.com/contact.html,,,1,NY,14850,clothing_store
Papaya Arts,"22 Central Ave, Dunkirk, NY 14048",Gift shop,Dunkirk,,http://www.papaya-arts.com/,,,https://www.papaya-arts.com/contact-us,,Contact Us,1,NY,14048,clothing_store
Alleyway Boutique,"1 Quaker Ridge Rd, New Rochelle, NY 10804",Clothing store,New Rochelle,,http://www.alleywayboutique.com/,,,http://www.alleywayboutique.com/contact.html,,Contact,1,NY,10804,clothing_store
Your Day Your Way,"699 Columbia Turnpike, East Greenbush, NY 12061",Wedding planner,East Greenbush,,http://www.yourdayyourwayweddingplanner.com/,,,http://www.yourdayyourwayweddingplanner.com/contact.html,,Contact,1,NY,12061,clothing_store
The Westside,"230 Wheatley Plaza, Greenvale, NY 11548",Clothing store,Greenvale,,http://www.thewestsideshop.com/,,,http://www.thewestsideshop.com/pages/contact-us,,Contact Us,1,NY,11548,clothing_store
The LSK Collection,"1388 Old Northern Blvd # B, Roslyn, NY 11576",Women's clothing store,Roslyn,,http://thelskcollection.com/,,,https://www.thelskcollection.com/contact,,CONTACT,1,NY,11576,clothing_store
Statement Boutique,"370 Park Ave, Rochester, NY 14607",Clothing store,Rochester,,http://www.shopatstatement.com/,,,http://www.shopatstatement.com/contact,,"
                Contact
              ",1,NY,14607,clothing_store
Red Fashion Flex,"10 Main St Suite 355, East Rockaway, NY 11518",Shoe store,East Rockaway,,http://www.redfashionflex.com/,,,http://www.redfashionflex.com/#e5ae208a-a0a3-44db-a097-d829e202716c,,Contact Us,1,NY,11518,clothing_store
John's Clothing Shop,"3120 Long Beach Rd, Oceanside, NY 11572",Clothing store,Oceanside,,http://www.johnsclothingshop.com/,,,http://milleniaauto.com/contact/,,http://milleniaauto.com/contact/,1,NY,11572,clothing_store
Claudia Myers Boutique,"244 Merrick Rd, Lynbrook, NY 11563",Clothing store,Lynbrook,,https://www.shopclaudiamyers.com/,,,https://www.shopclaudiamyers.com/contact-us/,,Contact Us,1,NY,11563,clothing_store
Bliss Bridal,"50 Buffalo St, Hamburg, NY 14075",Bridal shop,Hamburg,"Intimate, appointment-only wedding dress store also offering bridesmaid gowns & plus sizes.",https://www.blissbridalwedding.com/,,,https://www.blissbridalwedding.com/contact,,     E-Mail  ,1,NY,14075,clothing_store
Kazoo Boutique Gift Shop Museum & Factory,"8703 S Main St, Eden, NY 14057",Gift shop,Eden,,http://www.edenkazoo.com/,,,http://www.edenkazoo.com/contact.php,,"
",1,NY,14057,clothing_store
Village Togs,"4282 S Buffalo St, Orchard Park, NY 14127",Women's clothing store,Orchard Park,,http://www.villagetogs.com/,,,http://www.villagetogs.com/contact,,          Contact      ,1,NY,14127,clothing_store
Veils By Roxanne,"26 Fairfax Rd, Jamestown, NY 14701",Wedding store,Jamestown,,https://veilsbyroxanne.com/,,,https://veilsbyroxanne.com/company-info/contact-us/,,Contact Us,1,NY,14701,clothing_store
Jamestown Cycle Shop,"10 Harrison St, Jamestown, NY 14701",Sporting goods store,Jamestown,,http://www.jamestowncycleshop.com/,,,http://www.jamestowncycleshop.com/contact-us.html,,"
Contact Us
",1,NY,14701,clothing_store
Monroe's Boutique,"2400 Seneca St #5, West Seneca, NY 14210",Women's clothing store,West Seneca,,http://www.monroesboutiquewny.com/,,,http://www.monroesboutiquewny.com/contact-us,,Contact Us,1,NY,14210,clothing_store
Ray Jewelers,"1100 Clemens Center Pkwy #7, Elmira, NY 14901",Jewelry store,Elmira,,http://www.raydiamonds.com/,,,http://www.raydiamonds.com/javascript:void(0),,Contact,1,NY,14901,clothing_store
S & S Beauty Supply Store,"1102 North St, Endicott, NY 13760",Clothing store,Endicott,,http://www.salestoyasupply.org/,,,http://www.salestoyasupply.org/contact-us,,Contact Us,1,NY,13760,clothing_store
Nuwaka Fashion Design Studio,"732 Vestal Pkwy E, Vestal, NY 13850",Clothing store,Vestal,,http://www.nuwaka.com/,,,http://www.nuwaka.com/ContactUs.html,,,1,NY,13850,clothing_store
Scrubs Express LLC,"1908 Vestal Pkwy E, Vestal, NY 13850",Clothing store,Vestal,,http://www.scrubsexpress-cherokee.com/,,,http://www.scrubsexpress-cherokee.com/content/contactus.php,,Contact Us,1,NY,13850,clothing_store
The Jewelry Shop,"2008 North St, Endicott, NY 13760",Jewelry store,Endicott,,http://www.thejewelryshopny.com/,,,http://www.thejewelryshopny.com/contact-hours,,Contact & Hours,1,NY,13760,clothing_store
Tallman's,"145 Village Square, Painted Post, NY 14870",Shoe store,Painted Post,,http://www.redwingshoes.com/,,,https://www.redwingshoes.com/customer-service-contact-us/contact-us.html,,Contact Us,1,NY,14870,clothing_store
TMFRANKE INC,"9 Scenic Dr, Hyde Park, NY 12538",Clothing store,Hyde Park,,http://www.tmfrankeinc.com/,,,http://www.tmfrankeinc.com/contact,,"
            Contact
          ",1,NY,12538,clothing_store
Good Old Vintage,"580 Broadway, Kingston, NY 12401",Clothing store,Kingston,,http://www.goodoldvintage.com/,,,http://www.goodoldvintage.com/p/talk.html,,Contact,1,NY,12401,clothing_store
Arati Store,"278 Brickman Rd, Fallsburg, NY 12733",Gift shop,Fallsburg,,http://www.aratistore.com/,,,http://www.aratistore.com/#contact,,contact,1,NY,12733,clothing_store
Dear,"54 Main St #1090, Livingston Manor, NY 12758",Clothing store,Livingston Manor,,https://www.dearny.net/,,,https://www.dearny.net/contact,,Contact,1,NY,12758,clothing_store
Princess Bridals,"200 Fulton St, Farmingdale, NY 11735",Bridal shop,Farmingdale,"Full-service bridal salon featuring wedding dresses, bridesmaid gowns, accessories & alterations.",http://www.princessbridals.com/,,,https://www.princessbridals.com/contact-us/,,Contact Us,1,NY,11735,clothing_store
Long Island Athletic Supply,"34 Hempstead Turnpike # B, South Farmingdale, NY 11735",Sporting goods store,South Farmingdale,,https://www.liathletic.com/,,,https://liathletic.com/contacts,,Contact,1,NY,11735,clothing_store
GustBuster,"855 Conklin St suite o, Farmingdale, NY 11735",Clothing store,Farmingdale,,http://www.gustbuster.biz/,,,http://www.gustbuster.biz/contact.html,,Contact & Warranty,1,NY,11735,clothing_store
J & L Confetti Corporation,"115 Toledo St, Farmingdale, NY 11735",Children's clothing store,Farmingdale,,http://www.confettiandfriends.com/,,,http://www.confettiandfriends.com/contact-us,,Contact Us,1,NY,11735,clothing_store
Blackbird Flight Wear Inc,"55 Milbar Blvd, Farmingdale, NY 11735",Clothing store,Farmingdale,,http://www.blackbirdflightwear.com/,,,http://www.blackbirdflightwear.com/pages/contact-us,,Contact,1,NY,11735,clothing_store
Manateez Apparel,"49 Toledo St Suite C, Farmingdale, NY 11735",Clothing store,Farmingdale,,https://manateezapparel.com/,,,https://manateezapparel.com/pages/contact-us,,"

          
          Contact Us
          
        
",1,NY,11735,clothing_store
Shoreline Wear Inc,"100 Lauman Ln # 6, Hicksville, NY 11801",Clothing store,Hicksville,,https://shorelinewearusa.com/,,,https://shorelineinc.myshopify.com/pages/contact,,"

          
          Contact
          
        
",1,NY,11801,clothing_store
SAVAGE X FENTY,"VALLEY FAIR MALL, 2855 Stevens Creek Blvd SUITE #1117, Santa Clara, CA 95050",Underwear store,Santa Clara,,https://www.savagex.com/,,,https://www.savagex.com/help/faq,,Help & Contact,1,CA,95050,clothing_store
Special Occasions & Bridal By Antonetta,"982 Main St #3, Fishkill, NY 12524",Bridal shop,Fishkill,,http://specialoccasionbridal.com/,,,https://www.facebook.com/Special-Occasions-and-Bridals-by-Antonetta-618508768171765/?ref=bookmarks,,,1,NY,12524,clothing_store
Measured To Fit LLC,"789 Sergeant Palmateer Way, Wappingers Falls, NY 12590",Lingerie store,Wappingers Falls,,http://www.measuredtofit.com/,,,https://measuredtofit.com/contact-us/,,Contact us,1,NY,12590,clothing_store
The Wedding Plaza,"216 Jericho Turnpike, Floral Park, NY 11001",Bridal shop,Floral Park,Full-service wedding shop featuring bridal gowns & tuxedos.,http://www.theweddingplaza.com/,,,http://theweddingplaza.com/t4/contact.html,,Contact Us,1,NY,11001,clothing_store
Phrisb Apparel Inc,"8560 261st St, Queens, NY 11001",Uniform store,Queens,,http://www.phrisb.com/,,,http://www.phrisb.com/en/contact-us,,CONTACT US,1,NY,11001,clothing_store
ARCENIO CUSTOM TAILOR,"249-56 Jericho Turnpike, Floral Park, NY 11001",Tailor,Floral Park,,http://arcenio-tailor.com/,,,http://arcenio-tailor.com/contact.htm,,CONTACT,1,NY,11001,clothing_store
Tina's Closet NWF,"1303 Hempstead Turnpike, Elmont, NY 11003",Vintage clothing store,Elmont,,http://www.tinasclosetnwf.com/,,,http://www.tinasclosetnwf.com/pages/contact-us,,"
            CONTACT US
            

+



-

",1,NY,11003,clothing_store
Exclusive European Designers,"2034 Hillside Avenue, New Hyde Park, NY 11040",Women's clothing store,New Hyde Park,,http://www.eedny.com/,,,//help.shopify.com/support,,contact support,1,NY,11040,clothing_store
Fashion Fair,"645 E Shaw Ave, Fresno, CA 93710",Clothing store,Fresno,"Indoor/outdoor mall with nationally known department stores, specialty retailers & restaurants.",https://www.fashionfairmall.com/,,,https://www.fashionfairmall.com/Contact,,CONTACT US,1,CA,93710,clothing_store
New York & Company,"45 E 58th St, New York, NY 10022",Women's clothing store,New York,,https://www.pronovias.com/,,,https://www.pronovias.com/contact,,Contact Us,1,NY,10022,clothing_store
Retail Solutions Center Inc,"75 Hanse Ave, Freeport, NY 11520",Clothing store,Freeport,,http://rsc-ny.com/,,,https://rsc-ny.com/contact-us/,,Contact Us,1,NY,11520,clothing_store
So Nikki Inc,"29 Rider Pl, Freeport, NY 11520",Children's clothing store,Freeport,,http://www.sonikki.com/,,,http://www.sonikki.com/pages/contact-us,,"
            Contact Us
          ",1,NY,11520,clothing_store
Blackbeard's Motorcycle Gear Inc,"195 Woodcleft Ave, Freeport, NY 11520",Clothing store,Freeport,"Local merchant selling brand-name motorcycle clothing & accessories for men & women, plus souvenirs.",https://www.blackbeardsgear.com/,,,https://www.blackbeardsgear.com/about-us/contact-us/,,Contact Us,1,NY,11520,clothing_store
Charmaine Mischel Inc,"73 Lincoln Pl, Freeport, NY 11520",Clothing store,Freeport,,http://www.charmainemischel.com/,,,http://www.charmainemischel.com/contact-us,,Contact Us,1,NY,11520,clothing_store
Bridal World,"191A Atlantic Ave, Freeport, NY 11520",Bridal shop,Freeport,"Unpretentious store offering an extensive variety of bridal, prom & special-occasion gowns.",http://www.thebridalworld.com/,,,https://www.thebridalworld.com/contact-us,,Contact Us,1,NY,11520,clothing_store
Cny Jewelry Exchange,"724 W Broadway, Fulton, NY 13069",Jewelry store,Fulton,,http://www.cnyjewelry.com/,,,http://www.cnyjewelry.com/contact-us.html,,"
				Contact Us
			",1,NY,13069,clothing_store
B & T Sports Trophy,"124 Cayuga St, Fulton, NY 13069",Sporting goods store,Fulton,,http://bandtsportshop.com/,,,http://bandtsportshop.com/contact/contact.htm,,Contact Us,1,NY,13069,clothing_store
Uniform Express,"1408 Buffalo Rd, Rochester, NY 14624",Uniform store,Rochester,"Straightforward retailer of police & public safety uniforms, accessories & equipment.",http://www.uniform-xpress.com/,,,http://www.uniform-xpress.com/contact.html,,"
				Contact
			",1,NY,14624,clothing_store
The Wedding Dress,"3 E 44th St Floor 5, New York, NY 10017",Bridal shop,New York,"Full-service salon for wedding gowns & accessories, plus alterations & cleaning (appointment only).",http://www.thewhitegown.com/,,,http://www.thewhitegown.com/contact-us,,"
                Contact Us
              ",1,NY,10017,clothing_store
David Mann Jewelers,"86 Main St, Geneseo, NY 14454",Jewelry store,Geneseo,,http://www.davidmannjewelers.com/,,,http://www.davidmannjewelers.com/javascript:void(0),,Contact,1,NY,14454,clothing_store
Not Dot Shop,"1260, 127 Main St #2, Geneseo, NY 14454",Gift shop,Geneseo,,http://www.notdotshop.com/,,,http://www.notdotshop.com/contact.html,,"Directions 
          & Contact",1,NY,14454,clothing_store
Cowgirl Couture,"5145 River Rd, Leicester, NY 14481",Hat shop,Leicester,,http://cowgirlcoutureny.com/,,,http://cowgirlcoutureny.com/contact.html,,"
				Contact
			",1,NY,14481,clothing_store
EArt Tie Dye,"46 Maplewood Ave, Honeoye Falls, NY 14472",Clothing store,Honeoye Falls,,http://www.earttiedye.com/,,,http://www.earttiedye.com/contact.htm,,Contact,1,NY,14472,clothing_store
HWS College Store,"51 St Clair St, Geneva, NY 14456",Clothing store,Geneva,,http://collegestore.hws.edu/,,,http://collegestore.hws.edu/webapp/wcs/stores/servlet/BNCBLocationAndContactView?catalogId=10001&langId=-1&storeId=89226,,Contact Us,1,NY,14456,clothing_store
Arc Herkimer Store & Donation Center,"105 N Caroline St, Herkimer, NY 13350",Clothing store,Herkimer,,http://www.archerkimer.org/,,,http://www.archerkimer.org/contact-us,,Contact Us,1,NY,13350,clothing_store
Cornerstone Thrift Store,"68 Morgan St, Ilion, NY 13357",Thrift store,Ilion,,http://www.morningstarparish.org/,,,http://www.morningstarparish.org/contact/,,Contact,1,NY,13357,clothing_store
A Vitullo Inc,"12 New Hartford Shopping Center, New Hartford, NY 13413",Men's clothing store,New Hartford,,http://vitullos.com/,,,http://vitullos.com/contact/,,Contact,1,NY,13413,clothing_store
Worth Repeating,"123 Saratoga Rd, Scotia, NY 12302",Clothing store,Scotia,,http://www.worthrepeating123.com/,,,https://worthrepeating123.com/contact/,,Contact,1,NY,12302,clothing_store
Guardian Angel Family,"239 Glen Cove Ave, Sea Cliff, NY 11579",Used clothing store,Sea Cliff,,http://gafcc.org/,,,http://gafcc.org/contact-us/,,Contact Us,1,NY,11579,clothing_store
Sabrina Boutique,"12 Birch Hill Rd # 1, Locust Valley, NY 11560",Clothing store,Locust Valley,,http://www.sabrinaboutique.com/,,,http://www.sabrinaboutique.com/contact.html,,Contact,1,NY,11560,clothing_store
Paddy Bunks,"23 The Plaza, Locust Valley, NY 11560",Clothing store,Locust Valley,,http://www.paddybunks.com/,,,http://www.paddybunks.com/contact.html,,CONTACT US,1,NY,11560,clothing_store
BirchInterstyle,"28 Birch Hill Rd, Locust Valley, NY 11560",Clothing store,Locust Valley,,http://www.birchlifestyle.com/,,,https://www.shopinterstyle.com/contact,,CONTACT,1,NY,11560,clothing_store
ENTOTO Couture,"13 Glen Cove Rd, Greenvale, NY 11548",Boutique,Greenvale,"Source for mother-of-bride, prom & special occasion dresses, plus custom designs & alterations.",http://entotocouture.net/,,,https://www.entotocouture.net,,Contact,1,NY,11548,clothing_store
Wood Hyde Leather Co Inc,"68 Wood St, Gloversville, NY 12078",Clothing store,Gloversville,,http://www.woodandhyde.com/,,,http://www.woodandhyde.com/contact.htm,,"
Contact Us",1,NY,12078,clothing_store
Linda's Office Supplies,"22 Main St, Goshen, NY 10924",Clothing store,Goshen,,http://www.lindasofficesupplies.com/,,,https://lindasofficesupplies.com/contact/,,contact,1,NY,10924,clothing_store
Foeller Men's Shop and Alterations,"400 NY-211, Middletown, NY 10940",Men's clothing store,Middletown,,http://www.foellermensshop.com/,,,http://www.foellermensshop.com/about-us.html,,About / Contact,1,NY,10940,clothing_store
Luna,"18 Park St, Canton, NY 13617",Women's clothing store,Canton,,http://lunaclothingny.com/,,,https://www.lunaclothingny.com/contact-luna/,,Contact LUNA,1,NY,13617,clothing_store
Live Love Buffalo,"240 Laurie Ln, Grand Island, NY 14072",Clothing store,Grand Island,,http://livelovebuffalo.com/,,,https://www.livelovebuffalo.com,,,1,NY,14072,clothing_store
Lev Couture,"829 Middle Neck Rd, Great Neck, NY 11024",Women's clothing store,Great Neck,,http://www.levcollection.com/,,,http://www.levcollection.com/contact/4574584908,,CONTACT,1,NY,11024,clothing_store
MOST HATED INC,"2404, 240 E Shore Rd PH29, Great Neck, NY 11023",Clothing store,Great Neck,,http://www.most-hated.net/,,,https://most-hated.net/contact/,,Contact,1,NY,11023,clothing_store
Prima New York,"98 Cutter Mill Rd #350, Great Neck Plaza, NY 11021",Fashion accessories store,Great Neck Plaza,,http://www.primanewyork.com/,,,http://www.primanewyork.com/?page=contact,,Contact Us,1,NY,11021,clothing_store
Forever Together Total Wedding Center,"11 Northern Blvd, Great Neck, NY 11021",Bridal shop,Great Neck,,http://www.forevertogetherwedding.com/,,,http://forevertogetherwedding.com/contacts,,CONTACT US,1,NY,11021,clothing_store
Best Total Wedding Plaza,"217-14 Northern Blvd, Bayside, NY 11361",Bridal shop,Bayside,"Time-tested retailer featuring wedding gowns by many popular designers, plus bridesmaid dresses.",http://bestweddingbride.com/,,,http://bestweddingbride.com/contact-us/,,Contact us,1,NY,11361,clothing_store
Bestfit Menswear,"106 Greece Ridge Center Dr, Rochester, NY 14626",Men's clothing store,Rochester,,http://www.bestfitmenswear.com/,,,http://www.bestfitmenswear.com/contact,,Contact Us,1,NY,14626,clothing_store
Green Babies,"28 Spring St, Tarrytown, NY 10591",Clothing store,Tarrytown,,http://www.greenbabies.com/,,,http://www.greenbabies.com/contact.html,,Contact Us,1,NY,10591,clothing_store
Polkadots Consignment Shop,"10 New Karner Rd, Guilderland, NY 12084",Clothing store,Guilderland,,http://www.polkadotsconsignment.com/,,,https://www.polkadotsconsignment.com/contact,,CONTACT,1,NY,12084,clothing_store
Nickel City Designs,"278 Buffalo St, Hamburg, NY 14075",Gift shop,Hamburg,,http://www.nickelcitydesigns.com/,,,http://www.nickelcitydesigns.com/tel:7167774500,,(716) 777-4500,1,NY,14075,clothing_store
Snippets & Gems,"31 Buffalo St, Hamburg, NY 14075",Boutique,Hamburg,,http://www.snippetsandgems.com/,,,http://www.snippetsandgems.com/contact-us.php,,CONTACT US,1,NY,14075,clothing_store
Ray Crinzi Jewelers,"19 Buffalo St, Hamburg, NY 14075",Jeweler,Hamburg,,http://raycrinzijewelers.com/,,,http://raycrinzijewelers.com/contact-us/,,Contact Us,1,NY,14075,clothing_store
Flicker Gifts & Inspirations,"38 Main St, Hamburg, NY 14075",Gift shop,Hamburg,,https://flickergifts.com/,,,https://flickergifts.com/tel:7166494629,,(716) 649-4629,1,NY,14075,clothing_store
Tevington Jewelers,"1 Main St #2, Hamburg, NY 14075",Jeweler,Hamburg,,http://tevingtonjewelers.com/,,,https://www.tevingtonjewelers.com/visit-or-contact,,VISIT OR CONTACT,1,NY,14075,clothing_store
Circa Bridal Boutqiue,"34 Broad St, Hamilton, NY 13346",Bridal shop,Hamilton,,https://www.circabridal.com/,,,https://www.circabridal.com/contact,,CONTACT,1,NY,13346,clothing_store
Evergreen Gallery,"11 Lebanon St, Hamilton, NY 13346",Boutique,Hamilton,,http://www.evergreengalleryny.com/,,,https://www.evergreengalleryny.com/contact,,C O N T A C T  U ,1,NY,13346,clothing_store
Miracle on Ice 1980 Shop,"5 Sunset Ln, Harrison, NY 10528",Clothing store,Harrison,,http://www.lowsportgear.com/,,,http://www.lowsportgear.com/pages/contact-us,,"
              Contact Us
            ",1,NY,10528,clothing_store
Easy Pickins,"109 New Main St, Yonkers, NY 10701",Women's clothing store,Yonkers,"Clothing retailer selling on-trend apparel, accessories & footwear aimed at young women.",http://www.easypickins.com/,,,http://www.easypickins.com/pages/contact-us,,Contact Us ,1,NY,10701,clothing_store
Heritage Trends,"16 Rusten Ln, Nanuet, NY 10954",Clothing store,Nanuet,,http://heritagetrends.com/,,,http://heritagetrends.com/pages/contact-us,,Contact us,1,NY,10954,clothing_store
Naomi's by Glory Fashion,"255 Fulton Ave, Hempstead, NY 11550",Clothing store,Hempstead,,https://www.naomisgf.com/,,,https://www.naomisgf.com/contact-us/,,CONTACT US,1,NY,11550,clothing_store
Henry Segal Co,"50 Polk Ave, Hempstead, NY 11550",Men's clothing store,Hempstead,,http://www.henrysegal.com/,,,http://www.henrysegal.com/?do=contact,, Contact Us,1,NY,11550,clothing_store
EZ Corporate Clothing,"180 Hempstead Turnpike, West Hempstead, NY 11552",Uniform store,West Hempstead,,https://www.ezcorporateclothing.com/,,,https://www.ezcorporateclothing.com/pages/contact-us,,Contact Us,1,NY,11552,clothing_store
Pandora's Treasure Corner Boutique,"156 Hempstead Turnpike, West Hempstead, NY 11552",Clothing store,West Hempstead,,http://www.pandorastreasurecorner.com/,,,http://www.pandorastreasurecorner.com/pages/contact-us,,Give us a CALL +1 516-214-0470,1,NY,11552,clothing_store
The Bridal and Tuxedo Shop,"116 Hempstead Turnpike, West Hempstead, NY 11552",Bridal shop,West Hempstead,"Independent retailer offering a variety of bridal gowns, tuxedos & formal dresses, plus accessories.",http://www.bridalandtuxedosny.com/,,,http://www.bridalandtuxedosny.com/contact,,Contact,1,NY,11552,clothing_store
USA Scrubs Inc,"173A Fulton Ave, Hempstead, NY 11550",Uniform store,Hempstead,"Uniform store with scrubs, lab coats, slip-resistant shoes & medical devices such as stethoscopes.",http://www.usascrub.com/,,,http://www.usascrub.com/content/contactus.php,,Contact Us,1,NY,11550,clothing_store
Fire Department Clothing,"180 Hempstead Turnpike, West Hempstead, NY 11552",Uniform store,West Hempstead,,https://www.firedepartmentclothing.com/,,,https://www.firedepartmentclothing.com/pages/contact-us,,Contact Us,1,NY,11552,clothing_store
Street Gear,"245 Fulton Ave, Hempstead, NY 11550",Sporting goods store,Hempstead,"Menswear shop selling brand-name hats, sneakers & activewear, from track suits to jeans.",http://www.streetgearnyc.com/,,,http://www.streetgearnyc.com/#bottom-d,,"
",1,NY,11550,clothing_store
CariFlair Boutique,"152 Hempstead Turnpike, West Hempstead, NY 11552",Clothing store,West Hempstead,,http://www.cariflairboutique.com/,,,http://www.cariflairboutique.com/pages/contact-us,,Give us a CALL +1 516-214-0470,1,NY,11552,clothing_store
FDR Services Corp,"44 Newmans Ct, Hempstead, NY 11550",Linens store,Hempstead,,https://fdrcorp.com/,,,https://fdrcorp.com/contact,,Contact Us,1,NY,11550,clothing_store
Weisser's Jewelers,"240 N Main St, Herkimer, NY 13350",Jeweler,Herkimer,,http://www.weissersjewelers.com/,,,http://www.weissersjewelers.com/tel:3158662544,,(315)-866-2544,1,NY,13350,clothing_store
Bennington Sports & Graphics,"451 Main St, Bennington, VT 05201",Clothing store,Bennington,,https://business.bennington.com/,,,https://business.bennington.com/javascript:void(0),,Send Email,1,VT,05201,clothing_store
Enchanted Thyme Gift Shop,"10 Hakes Ave, Hornell, NY 14843",Gift shop,Hornell,,http://www.enchantedthymegiftshop.com/,,,http://www.enchantedthymegiftshop.com/Contacts-Us.html,,Contact Us,1,NY,14843,clothing_store
The McKernon Gallery,"216 Main St, Hudson Falls, NY 12839",Gift shop,Hudson Falls,,http://kendallmckernon.com/,,,http://kendallmckernon.com/contact.html,,Contact Us,1,NY,12839,clothing_store
Rexer Parkes,"35 Gerard St, Huntington, NY 11743",Women's clothing store,Huntington,,http://www.longislandernews.com/,,,http://www.longislandernews.com/contact-us,,Contact Us,1,NY,11743,clothing_store
Runway & Rose,"276 Main St, Huntington, NY 11743",Clothing store,Huntington,,http://www.runwayrose.com/,,,http://www.runwayrose.com/pages/contact-us,,Contact Us,1,NY,11743,clothing_store
Thomas Mitchell Clothiers  Suit Makers  Shirt Makers  Tuxedo Rentals  Custom alterations,"24 Gerard St, Huntington, NY 11743",Men's clothing store,Huntington,,http://www.tmclothiers.com/,,,http://www.tmclothiers.com/contactusxx.html,,"Contact
                                      Us",1,NY,11743,clothing_store
Lotus Vintage,"147 Woodbury Rd, Huntington, NY 11743",Vintage clothing store,Huntington,,http://www.lotusvintage.com/,,,http://www.lotusvintage.com/contact/,,Contact Us,1,NY,11743,clothing_store
Canali Boutique,"Marsh's, 270 Main St, Huntington, NY 11743",Men's clothing store,Huntington,,https://www.canali.com/,,,https://www.canali.com/en_us/customer-care/contact-us.html,,"
                                contact us                            ",1,NY,11743,clothing_store
Ma Belle,"280 Main St, Huntington, NY 11743",Clothing store,Huntington,,https://www.mabelle.com/,,,https://www.mabelle.com/us/eng/info/contact,,"
Contact Us",1,NY,11743,clothing_store
Melfe's Shoes,"64 Central Ave, Ilion, NY 13357",Shoe store,Ilion,,http://melfes.com/,,,http://melfes.com/contact-us-.html,,Contact Us ,1,NY,13357,clothing_store
Donna Marie's Bridal Shoppe,"1548 Mohawk St, Utica, NY 13501",Bridal shop,Utica,"Venerable, local salon with designer wedding gowns, one-of-a-kind accessories & on-site alterations.",http://donnamariesbridal.com/,,,http://donnamariesbridal.com/?page_id=147,,Contact Us,1,NY,13501,clothing_store
She Says So,"884 East Ridge Road, Rochester, NY 14621",Women's clothing store,Rochester,,http://sssboutique.com/,,,http://sssboutique.com/pages/contact,,Contact,1,NY,14621,clothing_store
Design by Ras,"111 Hastings Ln, Rochester, NY 14617",Clothing store,Rochester,,http://designbyras.com/,,,http://designbyras.com/p/contact,,Contact Us,1,NY,14617,clothing_store
streeTgame E Ridge,"754 Ridge Rd, Rochester, NY 14621",Clothing store,Rochester,,http://streetgameusa.com/,,,http://streetgameusa.com/pages/contact-us,,Contact,1,NY,14621,clothing_store
Bella You,"2255 East Ridge Road @, Culver Rd, Rochester, NY 14622",Bridal shop,Rochester,"Bridal shop offering wedding & bridesmaids dresses, as well as prom & pageant attire.",http://www.bellayou.com/,,,http://bellayou.com/contact-usappointments/,,Contact Us / Book,1,NY,14622,clothing_store
Tuxedo Corner,"2040 East Ridge Road, Rochester, NY 14622",Tuxedo shop,Rochester,,http://www.tuxedocorner.com/,,,https://www.tuxedocorner.com/contact-us/,,CONTACT US,1,NY,14622,clothing_store
Rose Modeling & Fashions,"3252 Lake Ave, Rochester, NY 14612",Clothing store,Rochester,,http://nicolerosefashions.webs.com/,,,https://nicolerosefashions.webs.com/contactus.htm,,Contact Us,1,NY,14612,clothing_store
Vittorio Menswear & Tuxedo,"1900 East Ridge Road, Rochester, NY 14622",Tuxedo shop,Rochester,,https://www.vittorioformalwear.com/,,,https://vittorio.wpengine.com/contact/,,Mail,1,NY,14622,clothing_store
Arlene's Costumes,"1225 Portland Ave, Rochester, NY 14621",Costume store,Rochester,"Longtime, year-round retailer offering costumes for sale & rent, plus makeup, accessories & props.",https://www.arlenescostumes.com/,,,https://www.arlenescostumes.com/contact_us.cfm,,CONTACT,1,NY,14621,clothing_store
Adrian Jules LTD,"1392 East Ridge Road, Rochester, NY 14621",Clothing wholesaler,Rochester,,http://www.adrianjules.com/,,,https://support08154.wixsite.com/adrianjules/page-5,,CONTACT,1,NY,14621,clothing_store
My Little Rascal,"454 Main St, Islip, NY 11751",Clothing store,Islip,,https://mylittlerascals.shop/,,,https://www.mylittlerascals.shop/blank-page,,CONTACT US,1,NY,11751,clothing_store
Naomi's,"463 Main St, Islip, NY 11751",Women's clothing store,Islip,,https://naomisboutiquesny.com/,,,https://naomisboutiquesny.com/contact-us,,Contact Us,1,NY,11751,clothing_store
Mary Durham Boutique,"110 W Court St, Ithaca, NY 14850",Clothing store,Ithaca,,http://woc.nonprofitsoapbox.com/,,,http://woc.nonprofitsoapbox.com/#,, Contact ,1,NY,14850,clothing_store
Mama Goose,"430 W State St, Ithaca, NY 14850",Used clothing store,Ithaca,,http://www.mamagooseithaca.com/,,,https://visitor.r20.constantcontact.com/d.jsp?llr=xh7nlwbab&p=oi&m=1101335556343&sit=bbrytzpbb&f=4b7e4c76-a243-46f4-be83-c6cd29dc9f69,,JOIN,1,NY,14850,clothing_store
Benjamin Peters,"120 E State St #5596, Ithaca, NY 14850",Men's clothing store,Ithaca,"Clothing store for classic men's wear, including suits, tuxes & accessories, plus women's shoes.",http://www.benjaminpeters.com/,,,http://www.benjaminpeters.com/our-store,,Contact Us,1,NY,14850,clothing_store
Jamestown Gift Shop,"106 E 3rd St, Jamestown, NY 14701",Gift shop,Jamestown,,https://jamestowngiftshop.com/,,,https://jamestowngiftshop.com/pages/contact-us,,Contact Us,1,NY,14701,clothing_store
Lucy Desi Museum Gift Shop,"10 W 3rd St, Jamestown, NY 14701",Gift shop,Jamestown,,http://www.lucy-desi.com/,,,http://www.lucy-desi.com/contact/,,Contact,1,NY,14701,clothing_store
Style Encore Vestal,"1708 Vestal Pkwy E, Vestal, NY 13850",Clothing store,Vestal,,https://www.style-encorevestal.com/,,,https://www.style-encorevestal.com/tel:607-953-0490,, 607-953-0490 ,1,NY,13850,clothing_store
Century Linen & Uniform,"542 N Perry St, Johnstown, NY 12095",Linens store,Johnstown,,http://www.centurylinen.com/,,,https://centurylinen.com/contact-us/,,Contact,1,NY,12095,clothing_store
Gowns for Prom,"2375 Elmwood Ave, Kenmore, NY 14217",Clothing store,Kenmore,,https://www.gownsforprom.com/,,,https://www.gownsforprom.com/contact,,Contact Us,1,NY,14217,clothing_store
Sassi boutique,"260 W 36th St, New York, NY 10018",Clothing store,New York,,http://sassyny.com/,,,https://www.sassyny.com/customer-care,,Contact Us >,1,NY,10018,clothing_store
Scents & Sensuality By Shajuan,"Scents & Sensuality, 3281 Delaware Ave, Buffalo, NY 14217",Perfume store,Buffalo,,http://www.scentsandsensualitybyshajuan.com/,,,http://www.scentsandsensualitybyshajuan.com/tel:7164240024,,(716) 424-0024,1,NY,14217,clothing_store
The Wedding Agent,"2833 Delaware Ave, Buffalo, NY 14217",Wedding store,Buffalo,,http://www.theweddingagent.biz/,,,https://www.theweddingagent.biz/contact,,Hours,1,NY,14217,clothing_store
Helene's Mostly Jewelry,"2890 Delaware Ave #200, Buffalo, NY 14217",Jewelry designer,Buffalo,,http://www.mostly-jewelry.com/,,,http://www.mostly-jewelry.com/contact_helenes_jewelry.php,,Contact Us,1,NY,14217,clothing_store
AP Bridal,"2818 Delaware Ave, Kenmore, NY 14217",Bridal shop,Kenmore,,http://apbridals.com/,,,http://apbridals.com/contact,,"
            Contact
          ",1,NY,14217,clothing_store
Pasteurized Tees,"795 Elmwood Ave, Buffalo, NY 14222",Clothing store,Buffalo,Store selling Buffalo-themed shirts & accessories & offering a design-your-own-shirt option.,http://www.pasteurizedtees.com/,,,http://www.pasteurizedtees.com/contact,,Contact,1,NY,14222,clothing_store
Kent Selection,"23617 104th Ave SE suite b, Kent, WA 98031",Clothing store,Kent,,http://www.kentselection.com/,,,http://www.kentselection.com/contact,," Contact

",1,WA,98031,clothing_store
Kent Wang,"236 W 27th St #1303, New York, NY 10001",Men's clothing store,New York,"Cozy, appointment-only haberdashery selling pocket squares, polos, ties & other men's apparel.",http://www.kentwang.com/,,,https://www.kentwang.com/contact/,,Contact,1,NY,10001,clothing_store
New York Fashion Trade,"440 Kent Ave #4b, Brooklyn, NY 11249",Clothing store,Brooklyn,,https://www.nyfashiontrade.com/,,,https://nyfashiontrade.com/contact/,,Contact,1,NY,11249,clothing_store
Motif Lover,"240 Kent Ave, Brooklyn, NY 11249",Women's clothing store,Brooklyn,,http://www.motiflover.com/,,,//www.hugedomains.com/contact.cfm,,Contact Us,1,NY,11249,clothing_store
Hush Hush Closet,"240 Kent Ave, Brooklyn, NY 11249",Vintage clothing store,Brooklyn,"Sexy boutique featuring vintage clothing & accessories for women, including nighties & fur coats.",http://www.hushhushcloset.com/,,,http://www.hushhushcloset.com/untitled-gallery,,"
              Contact
            ",1,NY,11249,clothing_store
Horizons Vintage  Brooklyn,"381 Metropolitan Ave, Brooklyn, NY 11211",Clothing store,Brooklyn,"Stylish shop selling new & secondhand fashions, including clothing, jewelry & footwear.",http://www.horizonsvintage.com/,,,http://www.horizonsvintage.com/contact,,CONTACT,1,NY,11211,clothing_store
Dave's New York,"581 6th Ave, New York, NY 10011",Clothing store,New York,"Long-standing store offering primarily men's rugged casual, military style & outerwear clothing.",http://davesnewyork.com/,,,http://davesnewyork.com/pages/contact-us,,"
          Contact Us
        ",1,NY,10011,clothing_store
TURNBULL & ASSER New York Store,"50 E 57th St, New York, NY 10022",Clothing store,New York,Quaint New York branch of historic London shop selling bespoke shirts & other upscale men's attire.,http://www.turnbullandasser.com/,,,http://www.turnbullandasser.com/pages/contact-us,,Contact,1,NY,10022,clothing_store
Upstate Stock,"402 Graham Ave, Brooklyn, NY 11211",Clothing store,Brooklyn,,http://www.upstatestock.com/,,,http://www.upstatestock.com/pages/say-hello,,Contact Us,1,NY,11211,clothing_store
Petite Studio NYC,"34 Howard St 2nd floor, New York, NY 10013",Women's clothing store,New York,,https://www.petitestudionyc.com/,,,https://www.petitestudionyc.com/pages/contact-us,,Contact Us ,1,NY,10013,clothing_store
jamesfrankclubcom,"5 Sunset Ave, Kinderhook, NY 12106",Men's clothing store,Kinderhook,,http://www.samascott.com/,,,https://www.samascott.com/contact,,CONTACT,1,NY,12106,clothing_store
Van Heusen  IZOD Company Store,"1424 U.S. 9 #15, Lake George, NY 12845",Clothing store,Lake George,,http://vanheusen.com/,,,https://help.vanheusen.partnerbrands.com/s/brand-form,,Contact Us,1,NY,12845,clothing_store
Adirondack Clothing Company,"Canada St, Lake George, NY 12845",Clothing store,Lake George,,https://www.goadirondackmountains.com/,,,https://www.goadirondackmountains.com/pages/contact-us,,Contact Us,1,NY,12845,clothing_store
Boneshaker MMXII,"5 Main St #2, Kingston, NY 12401",Clothing store,Kingston,,http://boneshakermmxii.com/,,,http://boneshakermmxii.com/contact,,Contact,1,NY,12401,clothing_store
Bop to Tottom,"334 Wall St, Kingston, NY 12401",Fashion accessories store,Kingston,,http://www.boptotottom.com/,,,http://boptotottom.com/pages/1-contact-us/,,Contact,1,NY,12401,clothing_store
Blush Bridal Boutique,"292 Wall St, Kingston, NY 12401",Bridal shop,Kingston,,http://blushbridalbtq.com/,,,http://blushbridalbtq.com/contact,,Contact,1,NY,12401,clothing_store
Blue Byrd's Haberdashery & Music,"320 Wall St, Kingston, NY 12401",Hat shop,Kingston,,http://bluebyrds.com/,,,https://bluebyrds.com/contact-us,,Contact Us,1,NY,12401,clothing_store
Ulster Uniform Services Inc,"541 Broadway, Kingston, NY 12401",Uniform store,Kingston,,https://www.ulsteruniform.com/,,,https://www.ulsteruniform.com/contact/,,CONTACT,1,NY,12401,clothing_store
Prom & Wedding Tuxedo & Tailoring,"796 Ulster Ave, Kingston, NY 12401",Tuxedo shop,Kingston,,http://www.promnwedding.com/,,,http://www.promnwedding.com/contactus.php,,Contact,1,NY,12401,clothing_store
Rebecca Peacock,"45 N Front St, Kingston, NY 12401",Fashion accessories store,Kingston,,https://www.rebeccapeacock.com/,,,https://www.rebeccapeacock.com/contact,,Contact,1,NY,12401,clothing_store
Pastel,"52 Bakertown Rd, Kiryas Joel, NY 10950",Children's clothing store,Kiryas Joel,,https://pastelcollections.com/,,,https://pastelcollections.com/contact,,Contact Us,1,NY,10950,clothing_store
Escada  Woodbury Common Premium Outlets,"347 Red Apple Ct, Central Valley, NY 10917",Clothing store,Central Valley,,http://www.escada.com/,,,http://www.escada.com/pages/contact-form,,,1,NY,10917,clothing_store
Baby's Sweet Beginnings,"231 Aurora St, Lancaster, NY 14086",Baby store,Lancaster,,http://www.babyssweetbeginnings.com/,,,http://babyssweetbeginnings.com/find-us/,,Find Us,1,NY,14086,clothing_store
Kevin Brew Sales,"108 W Buffalo St, Ithaca, NY 14850",Clothing store,Ithaca,,https://www.kevinbrewsales.com/,,,https://www.kevinbrewsales.com/contact-us,,Contact Us,1,NY,14850,clothing_store
Lawrence David Custom Apparel,"1185 6th Ave floor 3, New York, NY 10036",Men's clothing store,New York,,http://ldcustomapparel.com/,,,http://ldcustomapparel.com/index.php?ID=rGw%3D&page=Contact Us&id_page=32354&page_type=page,," Contact Us 
",1,NY,10036,clothing_store
David Lawrence,"700 110th Ave NE #155, Bellevue, WA 98004",Clothing store,Bellevue,"Upscale boutique with men's & women's designer clothing & accessories, in The Shops at The Bravern.",http://www.david-lawrence.com/,,,https://david-lawrence.com/find-us,,Find Us,1,WA,98004,clothing_store
Lawrence Covell,"225 Steele St, Denver, CO 80206",Clothing store,Denver,"Established in 1967, this store features designer apparel in a range of styles for men & women.",http://www.lawrencecovell.com/,,,https://www.lawrencecovell.com/contact-us/,,Contact Us,1,CO,80206,clothing_store
Zero  Maria Cornejo,"8408 Melrose Pl, Los Angeles, CA 90069",Women's clothing store,Los Angeles,,http://www.zeromariacornejo.com/,,,http://www.zeromariacornejo.com/#,,Find Us,1,CA,90069,clothing_store
Ace of Diamonds Jewelry,"138 Lenox Ave, Oneida, NY 13421",Jeweler,Oneida,,http://aceofdiamondsjewelry.jewelershowcase.com/,,,http://aceofdiamondsjewelry.jewelershowcase.com/contactthisjeweler/,,Contact Us,1,NY,13421,clothing_store
BlazeIn Sportswear,"88 Main St, New Canaan, CT 06840",Formal wear store,New Canaan,,https://blaze-in.com/,,,https://blaze-in.com/index.php/contact-us/,,Contact us,1,CT,06840,clothing_store
Underground Co,"109 Danbury Rd, Ridgefield, CT 06877",Women's clothing store,Ridgefield,,https://undergroundco.shop/,,,https://undergroundco.shop/tel:2038945150,,(203) 894-5150,1,CT,06877,clothing_store
Avenue,"20 Backus Ave UNIT 2, Danbury, CT 06810",Women's clothing store,Danbury,,http://www.avenue.com/,,,https://www.avenue.com/en_US/contact-us,,Contact Us,1,CT,06810,clothing_store
Lash And Brow Boutique,"440 Ridge St, Lewiston, NY 14092",Boutique,Lewiston,,http://lashandbrowbuffalo.com/,,,http://lashandbrowbuffalo.com/index.php/contact-us/,,Contact and Location,1,NY,14092,clothing_store
Baby & Me,"335 Center St, Lewiston, NY 14092",Boutique,Lewiston,,https://www.shopyouandme.com/,,,"https://www.google.com/maps/place/You+%26+Me/@43.1728006,-79.0444636,17z/data=!3m1!4b1!4m5!3m4!1s0x89d35dc1e481789b:0x39a6a0f927fc7db3!8m2!3d43.1727967!4d-79.0422696",,Find Us,1,NY,14092,clothing_store
Cheri Amour,"522 Center St, Lewiston, NY 14092",Gift shop,Lewiston,,https://www.cheriamourgifts.com/,,,https://www.cheriamourgifts.com/map,,Contact,1,NY,14092,clothing_store
Stuart Sports,"486 Center St, Lewiston, NY 14092",Sporting goods store,Lewiston,,http://www.stuartsportsinc.com/,,,http://www.stuartsportsinc.com/contact.htm,,Contact Us,1,NY,14092,clothing_store
Right to the Moon Alice,"341 Cooks Falls Rd, Roscoe, NY 12776",Vintage clothing store,Roscoe,,http://righttothemoonalice.com/,,,http://righttothemoonalice.com/contact,,Contact,1,NY,12776,clothing_store
Daryl K,"48 Upper Main St, Callicoon, NY 12723",Clothing store,Callicoon,,https://www.darylk.com/,,,https://www.darylk.com/pages/contact,,Contact,1,NY,12723,clothing_store
Brown Bag Party,"96 W Houston St, New York, NY 10012",Clothing store,New York,,http://www.brownbaglaundry.com/,,,http://www.brownbaglaundry.com/contact,,"
            Contact
          ",1,NY,10012,clothing_store
Liberty Department Stores,"54-30 Myrtle Ave, Queens, NY 11385",Clothing store,Queens,"Time-tested, family-owned store offering discounted brand-name appliances, furniture & electronics.",http://www.shopliberty.com/,,,http://www.shopliberty.com/contact.php,,,1,NY,11385,clothing_store
S&D Kids,"1145 Liberty Ave, Brooklyn, NY 11208",Children's clothing store,Brooklyn,,http://www.sndkids.com/,,,http://www.sndkids.com/pages/contact-us,,"
          Contact Us",1,NY,11208,clothing_store
Chocolate Juniors and womens clothing,"1140 Liberty Ave, Brooklyn, NY 11208",Women's clothing store,Brooklyn,,https://chocolatefashionoutlet.com/,,,https://chocolatefashionoutlet.com/contact/,,Contact,1,NY,11208,clothing_store
Shakti Saree,"124-15 Liberty Ave, South Richmond Hill, NY 11419",Clothing store,South Richmond Hill,,http://shaktisaree.com/,,,http://shaktisaree.com/pages-contact.html,,CONTACT US,1,NY,11419,clothing_store
C'est La Vie Boutique,"270 N Wellwood Ave, Lindenhurst, NY 11757",Women's clothing store,Lindenhurst,,http://cestlavielindy.com/,,,https://www.cestlavielindy.com/customer-care,,Contact Us >,1,NY,11757,clothing_store
Tees & Things,"15 W Hoffman Ave, Lindenhurst, NY 11757",Clothing store,Lindenhurst,,https://tees-things.ueniweb.com/,,,https://tees-things.ueniweb.com/#contact_us,,Contact Me,1,NY,11757,clothing_store
Bella's Sparkle,"656 N Wellwood Ave, Lindenhurst, NY 11757",Boutique,Lindenhurst,,http://www.bellassparkle.com/,,,http://www.bellassparkle.com/Contact,,Contact Us,1,NY,11757,clothing_store
Ooh la la Boutiques,"13 Deer Park Ave, Babylon, NY 11702",Clothing store,Babylon,,http://www.oohlalaboutiques.com/,,,http://www.oohlalaboutiques.com/pages/contact-us,,Contact Us,1,NY,11702,clothing_store
Renate's Wedding Boutique,"141 S Wellwood Ave, Lindenhurst, NY 11757",Wedding store,Lindenhurst,,http://www.renatesboutique.com/,,,http://www.renatesboutique.com/contact.htm,,,1,NY,11757,clothing_store
BMRC Uniforms & Supply,"580 NY-299, Highland, NY 12528",Uniform store,Highland,,http://www.bmrcuniforms.com/,,,http://www.bmrcuniforms.com/contact.php,,CONTACT,1,NY,12528,clothing_store
d'auria design,"466 NY-32, Wallkill, NY 12589",Clothing store,Wallkill,,http://www.kdhats.com/,,,http://www.kdhats.com/contact.html,,Contact,1,NY,12589,clothing_store
BLING,"18 Market St, Lockport, NY 14094",Fashion accessories store,Lockport,,http://www.bling716.com/,,,https://www.bling716.com/contact,,CONTACT ,1,NY,14094,clothing_store
JeanAdore,"406 Bewley Building, Market St, Lockport, NY 14094",Women's clothing store,Lockport,,http://www.jeanadore.com/,,,http://www.jeanadore.com/pages/contact-us,,Send A Message,1,NY,14094,clothing_store
Signworks Sportswear,"6263 S Transit Rd, Lockport, NY 14094",Sportswear store,Lockport,,https://signworkssportswear.com/,,,https://signworkssportswear.com/contact-us,,Contact Us,1,NY,14094,clothing_store
Cover Girl Fashion,"130 E Park Ave, Long Beach, NY 11561",Women's clothing store,Long Beach,,http://www.womensclothinglongbeach.com/,,,http://www.womensclothinglongbeach.com/contact-us/,,Contact UsWhere We Are,1,NY,11561,clothing_store
New Like New Thrift Shop,"515 Long Beach Blvd, Long Beach, NY 11561",Thrift store,Long Beach,,http://newlikenewshop.com/,,,http://newlikenewshop.com/contact,,Contact,1,NY,11561,clothing_store
World's Finest,"140 Hendrickson Ave, Lynbrook, NY 11563",Clothing store,Lynbrook,,https://worldsfinestchocolate.com/,,,http://worldsfinestchocolate.com/about-us/contact-us/,,email,1,NY,11563,clothing_store
Enchanted Bella Boutique,"209 Rockaway Ave, Valley Stream, NY 11580",Children's clothing store,Valley Stream,,http://www.enchantedbellaboutique.com/,,,https://www.enchantedbellaboutique.com/contact-us,,Contact,1,NY,11580,clothing_store
Tastyganics,"35 Wilbur St, Lynbrook, NY 11563",Baby store,Lynbrook,,http://tastyganics.com/,,,https://tastyganics.com/pages/contact-us,,"Contact Us
",1,NY,11563,clothing_store
Alfredo Apparel Inc,"2904 Lincoln Ave, Oceanside, NY 11572",Clothing store,Oceanside,,http://www.alfredoclothier.com/,,,http://www.alfredoclothier.com/all_new-yes.asp?action=contact,,"Contact
                Us",1,NY,11572,clothing_store
Ideal Uniforms,"175 Rockaway Ave, Valley Stream, NY 11580",Uniform store,Valley Stream,"Resource for school & scouting uniforms & accessories plus medical, graduation & chef togs.",http://www.idealuniform.com/,,,http://www.idealuniform.com/contact,,Need Help? Contact Us,1,NY,11580,clothing_store
Bayberry Uniform Shop,"7608 Oswego Rd # 19, Liverpool, NY 13090",Uniform store,Liverpool,,http://www.bayberryscrubs.com/,,,http://www.bayberryscrubs.com/UMSS.cfm?page=page-index.cfm&template_code=Contact.Us,,CONTACT US,1,NY,13090,clothing_store
Tuxedo Studio,"43-29 Bell Blvd, Bayside, NY 11361",Tuxedo shop,Bayside,,http://www.tuxedoshopofny.com/,,,http://www.tuxedoshopofny.com/contact/,,Contact,1,NY,11361,clothing_store
Holly Decker,"86 NY-9P, Ballston Spa, NY 12020",Boutique,Ballston Spa,,https://holly-decker.ueniweb.com/,,,https://holly-decker.ueniweb.com/#contact_us,,Contact Us,1,NY,12020,clothing_store
Women's Boutique & Wig Salon,"112 Broadway, Malverne, NY 11565",Boutique,Malverne,,http://www.womens-boutique.com/,,,http://www.womens-boutique.com/contact.html,,CONTACT,1,NY,11565,clothing_store
Top Hats of America Inc dba Krieger Top Hats,"16 Broadway, Malverne, NY 11565",Hat shop,Malverne,,http://www.tophats.com/,,,http://www.tophats.com/contactus.html,,Contact Us,1,NY,11565,clothing_store
Community Presbyterian Thrift,"12 Nottingham Rd, Malverne, NY 11565",Thrift store,Malverne,,http://cpcmalverne.org/,,,http://cpcmalverne.org/staff,,"
                Contact Us 
              ",1,NY,11565,clothing_store
Simis Of London Woodbourne,"6100 NY-42, Woodbourne, NY 12788",Children's clothing store,Woodbourne,,http://simisoflondon.com/,,,http://simisoflondon.com/tel:8457830800,,(845) 783-0800,1,NY,12788,clothing_store
Canal Towne Emporium,"107 Sullivan St, Wurtsboro, NY 12790",Gift shop,Wurtsboro,,http://canaltowne.com/,,,https://canaltowne.com/contact/,,Contact,1,NY,12790,clothing_store
KVI Uniforms & Equipment Inc,"50 Carpenter Ave, Middletown, NY 10940",Uniform store,Middletown,"Workplace specialist selling occupational uniforms & protective gear like boots, gloves & outerwear.",http://www.kviuniform.com/,,,http://www.kviuniform.com/UMSS.cfm?page=page-index.cfm&template_code=Contact.Us,,Contact,1,NY,10940,clothing_store
Fizekul Apparel,"519 N Wagner Ave, Mamaroneck, NY 10543",Clothing store,Mamaroneck,,https://fizekul-apparel.ueniweb.com/,,,https://fizekul-apparel.ueniweb.com/#contact_us,,Contact Us,1,NY,10543,clothing_store
D'Agostino Clothiers & Tailors,"138 Larchmont Ave, Larchmont, NY 10538",Clothing store,Larchmont,,http://dagostinoclothiers.com/,,,http://dagostinoclothiers.com/contact/1939624,,Contact,1,NY,10538,clothing_store
Golden Shoestring,"149 Larchmont Ave, Larchmont, NY 10538",Clothing store,Larchmont,,http://www.jlwos.org/,,,http://www.jlwos.org/contact-us,,Contact Us,1,NY,10538,clothing_store
Liebman's Children's Clothing,"510 Main St, New Rochelle, NY 10801",Uniform store,New Rochelle,"Staple for kids’ apparel, including school & scouting uniforms, suits & Communion dresses.",http://www.liebmansuniforms.com/,,,//www.liebmansuniforms.com/contactus.html,,Contact Us,1,NY,10801,clothing_store
Tony Mancino Custom Tailoring,"1931 Palmer Ave, Larchmont, NY 10538",Tailor,Larchmont,,http://www.mancinocustomtailors.com/,,,http://www.mancinocustomtailors.com/contact-us,,"
CONTACT US
",1,NY,10538,clothing_store
St Thomas Church Thrift Shop  No Books Accepted,"168 W Boston Post Rd, Mamaroneck, NY 10543",Thrift store,Mamaroneck,,http://www.saintthomasmmrk.org/,,,https://www.saintthomasmmrk.org/index.php/contact-us-2/,,Contact,1,NY,10543,clothing_store
The Station 603 and Creative Landscapes,"515 Central Ave, Thousand Island Park, NY 13692",Boutique,Thousand Island Park,,http://www.creativelandscapesllc.com/,,,http://www.creativelandscapesllc.com/mailto:creativelandscapesllc@earthlink.net,,Contact Us ,1,NY,13692,clothing_store
Fall3nWarrior,"31A Corchaug Ave, Port Washington, NY 11050",Clothing store,Port Washington,,https://fall3nwarrior.com/,,,https://fall3nwarrior.com/contact-us/,,Contact Us,1,NY,11050,clothing_store
Transitions,"1353 Old Northern Blvd # 2, Roslyn, NY 11576",Clothing store,Roslyn,,https://www.transitionsny.com/,,,https://www.transitionsny.com/contact,,CONTACT,1,NY,11576,clothing_store
St John Boutique,"2126 Northern Blvd, Manhasset, NY 11030",Women's clothing store,Manhasset,,http://www.stjohnknits.com/,,,https://www.stjohnknits.com/contact-us/?SID=4318d300965586e2fd536f4a2f8dafef,,Need Assistance? Please call: 877.750.1171,1,NY,11030,clothing_store
New Wave Sports Outfitter,"107 Front St, Massapequa Park, NY 11762",Swimwear store,Massapequa Park,,http://www.newwavesportsoutfitter.com/,,,https://www.newwavesportsoutfitter.com/contact,,Contact,1,NY,11762,clothing_store
Fabulous Finds Boutique & Consignment,"535 S Main St, Massena, NY 13662",Clothing store,Massena,,http://www.fabfindsny.com/,,,http://www.fabfindsny.com/contact,,CONTACT US,1,NY,13662,clothing_store
Carriage House Bridal,"8 Main St, Massena, NY 13662",Bridal shop,Massena,,https://www.carriagehousebridal.com/,,,https://www.carriagehousebridal.com/contact,,Find Your Dream Dress!,1,NY,13662,clothing_store
the Nest by 2 Mama Birds,"51 Main St, Massena, NY 13662",Boutique,Massena,,http://www.2mamabirds.com/,,,https://www.2mamabirds.com/contact,,CONTACT,1,NY,13662,clothing_store
Peets Jewelers,"10 Phillips St # 1, Massena, NY 13662",Jeweler,Massena,,http://peetsjewelers.com/,,,https://www.peetsjewelers.com/contact/,,Contact,1,NY,13662,clothing_store
Sarah Seven,"3208 Scott St, San Francisco, CA 94123",Clothing store,San Francisco,,http://www.sarahseven.com/,,,http://www.sarahseven.com/contact-1,,Contact,1,CA,94123,clothing_store
Sierra Lily,"1955 South Rd # 6, Poughkeepsie, NY 12601",Gift shop,Poughkeepsie,,http://www.sierralily.com/,,,http://www.sierralily.com/pages/contact-us,,Contact Us,1,NY,12601,clothing_store
Millman's TShirt Factory,"12 Fowler Ave, Poughkeepsie, NY 12603",Clothing store,Poughkeepsie,,https://www.millmanstshirtfactory.com/,,,https://www.millmanstshirtfactory.com/get-in-contact,," Get In Contact

",1,NY,12603,clothing_store
R A Newhouse Inc,"110 Liberty Ave, Mineola, NY 11501",Clothing store,Mineola,,http://abbotthall.com/,,,http://abbotthall.com/contacts/,,Contact UsVisit | Call | Email,1,NY,11501,clothing_store
Luchiano Visconti,"258 Herricks Rd, Mineola, NY 11501",Men's clothing store,Mineola,,http://www.luchianovisconti.com/,,,https://luchianovisconti.com/contact-us/,,LOCATE A RETAILER,1,NY,11501,clothing_store
Lotus Bridal,"141 E Jericho Turnpike, Mineola, NY 11501",Bridal shop,Mineola,,http://www.lotusbridal.com/,,,http://www.lotusbridal.com/pages/contact-us,,Contact Us,1,NY,11501,clothing_store
Bonaventure Tuxedo,"134 E Jericho Turnpike, Mineola, NY 11501",Tuxedo shop,Mineola,,http://www.bonaventuretuxedo.com/,,,http://www.bonaventuretuxedo.com/contacts/,,Contact,1,NY,11501,clothing_store
Olympia Promotions,"226 E Jericho Turnpike, Mineola, NY 11501",Clothing store,Mineola,,http://www.olympiapromo.com/,,,http://www.olympiapromo.com/contact.htm,,Contact Us,1,NY,11501,clothing_store
Montgomery Jewelers,"201 Ward St, Montgomery, NY 12549",Jewelry store,Montgomery,,http://montgomeryjewelersny.com/,,,http://montgomeryjewelersny.com/contact-us,,Contact Us,1,NY,12549,clothing_store
Thruway Sporting Goods,"78 Oak St, Walden, NY 12586",Clothing store,Walden,,http://www.thruwaysports.com/,,,http://shopthruway.com/contact-us/,,Contact,1,NY,12586,clothing_store
Big Ben Jewelers,"311 E Broadway, Monticello, NY 12701",Jeweler,Monticello,,http://www.bigbenjewelers.net/,,,http://www.bigbenjewelers.net/contact,,"
                Contact
              ",1,NY,12701,clothing_store
Spoken Boutique,"27 Church St, Saratoga Springs, NY 12866",Clothing store,Saratoga Springs,,http://www.spokensaratoga.com/,,,https://spokensaratoga.com/contact/,,Contact,1,NY,12866,clothing_store
Hip & Chic,"123 NY-94, Warwick, NY 10990",Boutique,Warwick,,http://hipandchic.com/,,,https://hipandchic.com/contact-us/,,CONTACT US,1,NY,10990,clothing_store
Legea of Westchester,"701 N Bedford Rd, Bedford Hills, NY 10507",Sportswear store,Bedford Hills,,http://www.legeaofwestchester.com/,,,http://www.legeaofwestchester.com/products,,"
          CONTACT OUR TEAM SALES DEPARTMENT FOR SPECIAL PRICING -  914.218.8266 
        ",1,NY,10507,clothing_store
Tano International Inc,"350 Lexington Ave, Mt Kisco, NY 10549",Fashion accessories store,Mt Kisco,,https://tanobag.com/,,,https://tanobag.com/pages/contact,,"
                CONTACT
            ",1,NY,10549,clothing_store
Mt Kisco Sports,"13 E Main St, Mt Kisco, NY 10549",Sporting goods store,Mt Kisco,,http://www.mtkiscosports.com/,,,https://www.mtkiscosports.com,,CONTACT US,1,NY,10549,clothing_store
HIM by Catherine H,"109 Katonah Ave, Katonah, NY 10536",Men's clothing store,Katonah,,http://himbycatherineh.com/,,,http://himbycatherineh.com/contact/,,contact,1,NY,10536,clothing_store
Gwynn's of Mount Pleasant,"916 Houston Northcutt Blvd, Mt Pleasant, SC 29464",Clothing store,Mt Pleasant,,https://gwynns.com/,,,https://gwynns.com/contact/,,Fashion Emergency,1,SC,29464,clothing_store
Affordables Apparel,"280 W Coleman Blvd A, Mt Pleasant, SC 29464",Women's clothing store,Mt Pleasant,,http://affordablesapparel.com/,,,http://affordablesapparel.com/contact-us,,"
            Contact Us
          ",1,SC,29464,clothing_store
Chloe USA Inc,"25 Wheeler Ave, Pleasantville, NY 10570",Clothing store,Pleasantville,,https://www.chloe.com/,,,https://www.chloe.com/system/web/custom/hp/email.jsp#link-3690,,"
                                Contact Us
                            ",1,NY,10570,clothing_store
Unitex Textile Rental Services,"115 Dickson St, Newburgh, NY 12550",Linens store,Newburgh,,http://www.unitex.com/,,,https://www.unitex.com/contact/,,Contact,1,NY,12550,clothing_store
Hudson Valley Scout Shop,"6 Jeanne Dr, Newburgh, NY 12550",Uniform store,Newburgh,,http://www.hudsonvalleyscouting.org/,,,http://www.hudsonvalleyscouting.org/contact-us/33986,,Contact Us,1,NY,12550,clothing_store
CINTAS,"1605 NY-300, Newburgh, NY 12550",Uniform store,Newburgh,,http://www.cintas.com/,,,http://www.cintas.com/#,,Questions? Contact us for more information ,1,NY,12550,clothing_store
Nantucket Men's Shop,"62 Main St, Nantucket, MA 02554",Men's clothing store,Nantucket,"Long-running store selling Nantucket Reds clothing & other apparel, plus gifts & accessories.",http://www.nantucketreds.com/,,,http://www.nantucketreds.com/pages/contact,,Contact Us,1,MA,02554,clothing_store
AAO Against All Odds,"1900, 1852 Military Rd #39, Niagara Falls, NY 14304",Clothing store,Niagara Falls,,https://aao-usa.com/,,,https://aao-usa.com/pages/contact-us,,"
              Contact Us
              
            ",1,NY,14304,clothing_store
Banjees,"45 Kensico Dr, Mt Kisco, NY 10549",Clothing store,Mt Kisco,,https://sprigs.com/,,,https://sprigs.com/contact-us/,,Contact Us,1,NY,10549,clothing_store
PeekaBoo Baby Proofing & Pool Fencing,"411 King St, Chappaqua, NY 10514",Baby store,Chappaqua,,http://www.peekaboobabyproofing.com/,,,http://www.peekaboobabyproofing.com/contact.html,,Contact,1,NY,10514,clothing_store
PeekABoo Baby Proofing,"188 Prospect Ave, Valhalla, NY 10595",Children's clothing store,Valhalla,,http://peekaboobabyproofing.com/,,,http://peekaboobabyproofing.com/contact.html,,Contact,1,NY,10595,clothing_store
Lola n Lulu,"70 Genesee St Suite 3, New Hartford, NY 13413",Boutique,New Hartford,,http://www.lolanlulu.com/,,,http://www.lolanlulu.com/pages/contact-us,,"
                    CONTACT US
                ",1,NY,13413,clothing_store
Baby's Debut 3D4D Imaging,"8540 Seneca Turnpike, New Hartford, NY 13413",Baby store,New Hartford,,http://www.babysdebutny.com/,,,https://www.babysdebutny.com/contact,,Contact,1,NY,13413,clothing_store
Athletic Style Promotions,"75 Nassau Terminal Rd, New Hyde Park, NY 11040",Clothing store,New Hyde Park,,http://www.athleticstyle.com/,,,https://www.athleticstyle.com/contact/,,Contact,1,NY,11040,clothing_store
Applause Dancewear,"1602 Hillside Avenue, New Hyde Park, NY 11040",Clothing store,New Hyde Park,,http://www.applausedancewear.com/,,,http://applausedancewear.com/contact-us/,, Contact Us ,1,NY,11040,clothing_store
Amity Hosiery,"133A Railroad Ave, Garden City Park, NY 11040",Clothing store,Garden City Park,,http://www.amityhosiery.com/,,,http://www.amityhosiery.com/contact-us.html,,Contact Us,1,NY,11040,clothing_store
Beautiful Memories Gemach,"264-15 77th Ave, Queens, NY 11040",Clothing store,Queens,,http://beautifulmemoriesgemach.org/,,,http://beautifulmemoriesgemach.org/contact/,,Contact,1,NY,11040,clothing_store
Handmade and More,"6 N Front St, New Paltz, NY 12561",Gift shop,New Paltz,,http://www.handmadeandmore.com/,,,https://www.handmadeandmore.com/contact/,,Contact,1,NY,12561,clothing_store
Hudson Valley Impressions,"1 Henry W Dubois Dr, New Paltz, NY 12561",Clothing store,New Paltz,,http://www.hvimpressions.com/,,,http://www.hvimpressions.com/contactus,,,1,NY,12561,clothing_store
Himalayan Arts Gift Shop,"10 Main St #408, New Paltz, NY 12561",Gift shop,New Paltz,,http://www.himalayanartsnp.com/,,,https://www.himalayanartsnp.com/contact,,Contact,1,NY,12561,clothing_store
DVINE APPREL,"246 W 38th St 14th floor, New York, NY 10018",Clothing store,New York,,http://www.divineapparelinc.com/,,,http://www.divineapparelinc.com/pages/contact-us,,"
                          Contact Us 
                        ",1,NY,10018,clothing_store
The Fitted Gallery,"357 North Ave, New Rochelle, NY 10801",Hat shop,New Rochelle,,http://www.thefittedgallery.com/,,,http://www.thefittedgallery.com/contact,,Contact,1,NY,10801,clothing_store
Rose U Nique Creations,"575 Main St, New Rochelle, NY 10801",Boutique,New Rochelle,,https://www.roseuniquecreations.com/,,,https://www.roseuniquecreations.com/#rsvp,,CONTACT US,1,NY,10801,clothing_store
Our Style Fashion LLC,"1 Radisson Plaza Ste #800, New Rochelle, NY 10801",Fashion accessories store,New Rochelle,,http://ourstylefashion.com/,,,http://ourstylefashion.com/pages/contactanos,,"
                Contact
            ",1,NY,10801,clothing_store
knees n toes,"52 Reagan Rd, Spring Valley, NY 10977",Baby store,Spring Valley,,http://kneesntoes.net/,,,http://kneesntoes.net/contact.html,,Customer Service,1,NY,10977,clothing_store
Cowan's Jewelers,"335 Windsor Hwy, NY-32, New Windsor, NY 12553",Jewelry store,New Windsor,,http://www.cowansjewelers.com/,,,http://www.cowansjewelers.com/contact-us,," CONTACT US

",1,NY,12553,clothing_store
Sky Diamond Jewelers,"287 Windsor Hwy #450, New Windsor, NY 12553",Jewelry store,New Windsor,,http://www.skydiamondjewelers.com/,,,https://www.skydiamondjewelers.com/contact,,CONTACT US,1,NY,12553,clothing_store
I NEED MORE,"75A Orchard St, New York, NY 10002",Clothing store,New York,,http://ixneedxmore.com/,,,http://ixneedxmore.com/#contact,,Contact,1,NY,10002,clothing_store
Pilgrim New York,"70 Orchard St, New York, NY 10002",Women's clothing store,New York,"Store with high-end, NYC-made women's clothing, plus vintage items from well-known luxury labels.",http://www.pilgrimnyc.com/,,,http://www.pilgrimnyc.com/pages/contact-us,,Contact,1,NY,10002,clothing_store
Kushies Baby USA,"4450 Witmer Industrial Estates #1, Niagara Falls, NY 14305",Baby store,Niagara Falls,,http://www.kushiesonline.com/,,,https://www.kushiesonline.com/Articles.asp?ID=135,,Contact Us,1,NY,14305,clothing_store
Tailoring By Kim,"1997 Military Rd, Niagara Falls, NY 14304",Tailor,Niagara Falls,,https://www.tailoringbykim.com/,,,https://www.tailoringbykim.com/contact-us,," CONTACT US

",1,NY,14304,clothing_store
Bella V Boutique & Styling,"595 New Loudon Rd, Latham, NY 12110",Women's clothing store,Latham,,http://www.bellavboutiqueandstyling.com/,,,http://www.bellavboutiqueandstyling.com/pages/contact-us,,Contact Us,1,NY,12110,clothing_store
Helga's Choice Consignment,"139 Main St, Northport, NY 11768",Clothing store,Northport,,https://www.helgaschoice.com/,,,https://www.helgaschoice.com/contact,,Contact,1,NY,11768,clothing_store
Studio East Fashions,"837 Fort Salonga Rd, Northport, NY 11768",Boutique,Northport,,http://studioeastfashion.com/,,,http://studioeastfashion.com/contact-us,,Contact,1,NY,11768,clothing_store
Unique Collection,"376 Larkfield Rd, East Northport, NY 11731",Women's clothing store,East Northport,,http://maiasunique.wix.com/,,,https://maiasunique.wixsite.com/uniquecollection/contact,,CONTACT,1,NY,11731,clothing_store
Survival,"90 Washington Dr C, Centerport, NY 11721",Women's clothing store,Centerport,,http://survivalrules.com/,,,http://survivalrules.com/contact.aspx,,Contact Us,1,NY,11721,clothing_store
Baby On A GoGo,"37 Springdale Ave, White Plains, NY 10604",Baby store,White Plains,,http://babyonagogo.com/,,,https://babyonagogo.com/contact/,,Contact,1,NY,10604,clothing_store
Little Blue House Lake Placid,"2501 Main St, Lake Placid, NY 12946",Clothing store,Lake Placid,,https://www.littlebluehouse.com/,,,https://www.littlebluehouse.com/lbh_en_us/customer-service/contact-us,,Contact Us,1,NY,12946,clothing_store
Miracle On Ice,"2439 Main St #1, Lake Placid, NY 12946",Clothing store,Lake Placid,,http://www.usahockey.com/,,,https://www.usahockey.com/staffdirectory,,Contact Us,1,NY,12946,clothing_store
Where'd You Get That Hat,"2569 Main St, Lake Placid, NY 12946",Hat shop,Lake Placid,,http://wygthat.com/,,,http://wygthat.com/pages/contact-us,,CONTACT US,1,NY,12946,clothing_store
Lake Placid Ski and Board,"2532 Main St, Lake Placid, NY 12946",Clothing store,Lake Placid,,http://www.lakeplacidskiandboard.com/,,,http://www.lakeplacidskiandboard.com/contact.html,,Contact,1,NY,12946,clothing_store
Bad Monkey,"3 Park Hill #9, Menands, NY 12204",Clothing store,Menands,,http://badmonkeys.com/,,,http://badmonkeys.com/index.php?page=contact,,,1,NY,12204,clothing_store
B Lodge & Company,"75 N Pearl St, Albany, NY 12207",Uniform store,Albany,"Established in 1867, this store has a variety of school uniforms & scrubs for healthcare workers.",http://blodgeandcompany.com/,,,http://blodgeandcompany.com/tel:518-463-4646,, Contact Us,1,NY,12207,clothing_store
Erin and Sky,"6B Oak Ln, Rensselaer, NY 12144",Boutique,Rensselaer,,http://www.erinandsky.com/,,,https://ocsnext.ebay.com/ocs/home,, Help & Contact,1,NY,12144,clothing_store
Loro Piana,"2018 Northern Blvd, Manhasset, NY 11030",Clothing store,Manhasset,,http://www.loropiana.com/,,,http://www.loropiana.com/en/contact,,"Contact Us
",1,NY,11030,clothing_store
Mission Central Div of Faith Journey UMC,"7778 Brewerton Rd, North Syracuse, NY 13212",Used clothing store,North Syracuse,,http://www.fjumc.org/,,,http://fjumc.org/?page_id=69,,Contact Us,1,NY,13212,clothing_store
DD Sewing and Embroidery Inc,"305 Robinson St, North Tonawanda, NY 14120",Clothing store,North Tonawanda,,http://ddsewingandembroideryinc.com/,,,http://www.ddsewingandembroideryinc.com/contact-us/,,Contact Us,1,NY,14120,clothing_store
Erik Jewelers,"505 Fillmore Ave, Tonawanda, NY 14150",Jewelry store,Tonawanda,,https://www.erikjewelers.com/,,,https://www.erikjewelers.com/contact-us,," CONTACT US

",1,NY,14150,clothing_store
Terrapin Station,"1172 Hertel Ave, Buffalo, NY 14216",Clothing store,Buffalo,"Store featuring bohemian clothing, Grateful Dead items, home decor, jewelry, tarot cards & more.",http://www.terrapinstationbuffalo.com/,,,https://terrapinstationbuffalo.com/contact-us/,,Contact Us,1,NY,14216,clothing_store
Laux Sporting Goods Main Office,"25 Pineview Dr, Buffalo, NY 14228",Sporting goods store,Buffalo,,http://www.lauxsportinggoods.com/,,,http://www.lauxsportinggoods.com/contact-us/,,Contact,1,NY,14228,clothing_store
Made In Chenango Gallery Inc,"25 N Broad St #27, Norwich, NY 13815",Gift shop,Norwich,,http://www.madeinchenango.com/,,,http://www.madeinchenango.com/contact.php,,CONTACT US,1,NY,13815,clothing_store
Mc Neil Jewelers Inc,"25 S Broad St, Norwich, NY 13815",Jewelry store,Norwich,,http://www.mcneil-jewelers.com/,,,http://www.mcneil-jewelers.com/./contact_us.htm,,Contact Us,1,NY,13815,clothing_store
Chenango Union Printing Inc,"15 American Ave, Norwich, NY 13815",Wedding store,Norwich,,http://www.chenangounion.com/,,,http://www.chenangounion.com/contact-us,,Contact Us,1,NY,13815,clothing_store
Mayhood's Sporting Goods,"5217 NY-12, Norwich, NY 13815",Sporting goods store,Norwich,,http://www.mayhoods.com/,,,https://mayhoods.com/contact/,,Contact Us,1,NY,13815,clothing_store
Runway on the Hudson,"68 S Broadway, Nyack, NY 10960",Boutique,Nyack,,http://www.runwayonthehudson.com/,,,https://www.runwayonthehudson.com/contact-us,,CONTACT US,1,NY,10960,clothing_store
Dying to Bloom,"48 Burd St Suite #101, Nyack, NY 10960",Boutique,Nyack,,http://dyingtobloom.com/,,,https://www.dyingtobloom.com/contact/,,CONTACT,1,NY,10960,clothing_store
The Make & Take,"1000 Linden St suite b, Ogdensburg, NY 13669",Boutique,Ogdensburg,,http://themakeandtake.org/,,,https://themakeandtake.org/about/contact/,,Contact,1,NY,13669,clothing_store
Forget Me Not Consignment,"5690 Harrison Blvd suite b, Ogden, UT 84403",Clothing store,Ogden,"Consignment shop with women's designer clothing, shoes & accessories, plus home decor & furnishings.",http://forgetmenotconsign.com/,,,http://forgetmenotconsign.com/contact-forget-me-not-consignment-ogden-ut.htm?dm_device=desktop,,Contact,1,UT,84403,clothing_store
Gen X Clothing,"123 N Harrisville Rd, Ogden, UT 84404",Clothing store,Ogden,"Retailer offering streetwear, shoes, hats & more for men & women.",http://www.gogenx.com/,,,http://www.gogenx.com/contact-us/,,Contact Us,1,UT,84404,clothing_store
Holmes Clothing,"2340 Washington Blvd, Ogden, UT 84401",Tuxedo shop,Ogden,,https://www.holmesclothing.com/,,,https://www.holmesclothing.com/contact/,,,1,UT,84401,clothing_store
ASK Design Jewelers,"175 N Union St, Olean, NY 14760",Jewelry store,Olean,,http://askdesignjewelers.com/,,,http://askdesignjewelers.com/Contact-Us.aspx,, Contact Us,1,NY,14760,clothing_store
Christie's Boutique,"119 N Union St, Olean, NY 14760",Gift shop,Olean,,http://119uniquethings.com/,,,http://119uniquethings.com/index.php/contact/,,Contact,1,NY,14760,clothing_store
The White Begonia,"622 Sherrill Rd, Sherrill, NY 13461",Gift shop,Sherrill,,http://www.whitebegonia.com/,,,https://www.whitebegonia.com,,Contact Us,1,NY,13461,clothing_store
Stoneonta Clothing,"153 Main St, Oneonta, NY 13820",Clothing store,Oneonta,,https://www.stoneontaclothing.com/,,,https://www.stoneontaclothing.com/contact-us,,Contact Us,1,NY,13820,clothing_store
Maxwell's,"141 Main St, Oneonta, NY 13820",Clothing store,Oneonta,,http://maxwellsspecialtyshop.com/,,,http://maxwellsspecialtyshop.com/contact.html,,Contact Us,1,NY,13820,clothing_store
Secret Lentil,"501 W Fayette St, Syracuse, NY 13204",Clothing store,Syracuse,,http://www.secretlentil.com/,,,http://www.secretlentil.com/pages/contact,,contact,1,NY,13204,clothing_store
Lady Jane Mastectomy Boutique,"892 E Brighton Ave # B, Syracuse, NY 13205",Swimwear store,Syracuse,,http://www.ladyjaneboutique.com/,,,http://www.ladyjaneboutique.com/contact.php,,Contact,1,NY,13205,clothing_store
Back Stage Boutique,"27 NY-303, Tappan, NY 10983",Boutique,Tappan,,http://www.backstageboutiqueny.com/,,,https://www.backstageboutiqueny.com/contact,,Contact,1,NY,10983,clothing_store
HappyxNature,"1000 Palisades Center Dr Suite 205, West Nyack, NY 10994",Women's clothing store,West Nyack,,https://www.happyxnature.com/,,,https://www.happyxnature.com/static/contact/,,Contact Us,1,NY,10994,clothing_store
Gogglesplash,"South Buffalo, Orchard Park, NY 14127",Swimwear store,Orchard Park,,http://www.gogglesplash.com/,,,//www.hugedomains.com/contact.cfm,,Contact Us,1,NY,14127,clothing_store
Vixen Fashion,"6670 Powers Rd, Orchard Park, NY 14127",Clothing store,Orchard Park,,http://www.vixenfashion.com/,,,http://www.vixenfashion.com/contact.html,,"
				Contact
			",1,NY,14127,clothing_store
Jewelers Studio,"4130 N Buffalo St, Orchard Park, NY 14127",Jeweler,Orchard Park,,http://www.thejewelersstudio.com/,,,http://www.thejewelersstudio.com/locationcontact.html,,"
				Location/Contact
			",1,NY,14127,clothing_store
LaurLee Sports,"211 N Highland Ave, Ossining, NY 10562",Sporting goods store,Ossining,,http://laurleesports.com/,,,http://laurleesports.com/contact.html,,Contact,1,NY,10562,clothing_store
MF Jewelers,"80 Spring St, Ossining, NY 10562",Jewelry store,Ossining,,https://mf.jewelershowcase.com/,,,https://mf.jewelershowcase.com/contactthisjeweler/,,Contact Us,1,NY,10562,clothing_store
Dufores Jewelry,"94 W 2nd St, Oswego, NY 13126",Jeweler,Oswego,,http://www.duforesfordiamonds.com/,,,https://www.facebook.com/DuforeJewelers/?rf=139125182802086,,,1,NY,13126,clothing_store
Red Gipsy Couture,"427 9 Mile Point Rd, Oswego, NY 13126",Sewing shop,Oswego,,http://www.redgipsycouture.wix.com/,,,https://redgipsycouture.wixsite.com/redgipsycouture/contact,,Contact/Custom Order,1,NY,13126,clothing_store
Grandmas Cottage Keepsakes,"129 North Ave, Owego, NY 13827",Jewelry store,Owego,,http://www.grandmascottageowego.com/,,,http://www.grandmascottageowego.com/MapAndContactInfo/MapAndContactInfo.html,,"
",1,NY,13827,clothing_store
Van Horn Jewelers,"31 Lake St, Owego, NY 13827",Jewelry store,Owego,,http://www.vanhornjewelers.com/,,,http://www.vanhornjewelers.com/javascript:void(0),,Contact,1,NY,13827,clothing_store
Courtyard Gifts,"165 Main St, Owego, NY 13827",Jeweler,Owego,,http://courtyardgiftsny.com/,,,https://courtyardgiftsny.com/contact/,,Contact,1,NY,13827,clothing_store
Storkscom,"123 South St #100, Oyster Bay, NY 11771",Baby store,Oyster Bay,,https://storks.com/,,,https://storks.com/contact-us/,,Contact Us,1,NY,11771,clothing_store
Girlfriends,"6249 Northern Blvd, East Norwich, NY 11732",Boutique,East Norwich,,http://shopgirlfriends.co/,,,http://shopgirlfriends.co/contact-us/,,Contact Us,1,NY,11732,clothing_store
Beltrami,"7953 Jericho Turnpike, Woodbury, NY 11797",Men's clothing store,Woodbury,,http://beltramiltd.com/,,,https://beltramiltd.com/beltrami-contact/,,Beltrami Contact,1,NY,11797,clothing_store
Colony Shop Inc,"31 E Main St, Patchogue, NY 11772",Clothing store,Patchogue,"Longtime children's clothing boutique specializing in  formalwear, communion & christening apparel.",http://www.thecolonyshop.net/,,,http://www.thecolonyshop.net/contact-us,," Contact Us

",1,NY,11772,clothing_store
Sports Plaza,"350 E Main St, Patchogue, NY 11772",Clothing store,Patchogue,,http://www.sportsplazany.com/,,,http://www.sportsplazany.com/pages/contact-us,,"
            CONTACT US
          ",1,NY,11772,clothing_store
Long Island Strong,"18 N Main St #8, Sayville, NY 11782",Clothing store,Sayville,,http://www.lislandstrong.com/,,,http://www.lislandstrong.com/pages/contact-us,,Contact Us,1,NY,11782,clothing_store
Lauren Silva Fine Lingerie,"80 Academy St, Patchogue, NY 11772",Lingerie store,Patchogue,,https://laurensilva.com/,,,https://laurensilva.com/contacts/,,Contact Us,1,NY,11772,clothing_store
Richard York of Patchogue Shoes,"14 S Ocean Ave, Patchogue, NY 11772",Shoe store,Patchogue,,http://richardyorkofpatchogueshoes.com/,,,http://richardyorkofpatchogueshoes.com/location-n-contact,," Location & Contact

",1,NY,11772,clothing_store
SWING,"65 Main St, Cold Spring, NY 10516",Women's clothing store,Cold Spring,,https://swingshopping.com/,,,https://swingshopping.com/pages/contact,,"
            CONTACT
          ",1,NY,10516,clothing_store
Town Shop Bridal,"2585 South Rd, Poughkeepsie, NY 12601",Bridal shop,Poughkeepsie,"Bridal shop offering wedding gowns, women's formalwear & accessories in a strip-mall setting.",http://www.townshopbridal.com/,,,http://www.townshopbridal.com/promstrong,,Contact,1,NY,12601,clothing_store
Rescuestuff Inc,"962 Washington St, Peekskill, NY 10566",Uniform store,Peekskill,,http://www.rescuestuff.net/,,,https://rescuestuff.net/contact-us/,,Contact Us,1,NY,10566,clothing_store
Eventually Cottage,"900 Main St 2nd floor, Peekskill, NY 10566",Boutique,Peekskill,,http://www.eventuallycottage.com/,,,http://www.eventuallycottage.com/pages/contact,,"
            CONTACT
          ",1,NY,10566,clothing_store
2nd Nature Skateboarding,"1 Highland Indust Park, Peekskill, NY 10566",Shoe store,Peekskill,,http://2ndnatureskate.com/,,,https://www.2ndnatureskate.com/contact,,Contact,1,NY,10566,clothing_store
Successful Vision,"106 Fifth Ave, Pelham, NY 10803",Boutique,Pelham,,http://svbshop.com/,,,http://svbshop.com/contact,,Contact,1,NY,10803,clothing_store
FBN Leggings & More,"651 Eastview Mall, Victor, NY 14564",Women's clothing store,Victor,,http://www.fbnleggings.com/,,,http://www.fbnleggings.com/pages/contact,,"
Contact
",1,NY,14564,clothing_store
Laura's too,"494 NY-3, Plattsburgh, NY 12901",Plus size clothing store,Plattsburgh,,http://www.laurastoo.com/,,,https://laurastoo.com/contact/,,Contact Us,1,NY,12901,clothing_store
The Pittsford Shop,"18 S Main St, Pittsford, NY 14534",Clothing store,Pittsford,,http://thepittsfordshop.com/,,,http://thepittsfordshop.com/javascript:void();,,Contact us,1,NY,14534,clothing_store
Top Notch Monogramming,"50 State St, Pittsford, NY 14534",Clothing store,Pittsford,,http://www.topnotchmonogramming.com/,,,http://www.topnotchmonogramming.com/contact,,Contact,1,NY,14534,clothing_store
Alis Fashion Design,"3300 Monroe Ave #200, Rochester, NY 14618",Dress store,Rochester,,http://www.alisfashiondesign.com/,,,http://alexfashionandbridal.com/contact-us/,,Contact Us,1,NY,14618,clothing_store
Joeval's Formalwear,"2240 Monroe Ave #3001, Rochester, NY 14618",Clothing store,Rochester,"Upscale shop with formal dresses for weddings, proms, pageants, quinceañeras & other special events.",http://www.joevalspromandpageant.com/,,,http://www.joevalspromandpageant.com/./t8/contact-us.html,,Contact Us,1,NY,14618,clothing_store
Goodwill Outlet,"3350 Monroe Ave, Rochester, NY 14618",Clothing store,Rochester,,http://www.goodwillfingerlakes.org/,,,https://www.goodwillfingerlakes.org/social-enterprises/contact-center,,Contact Center,1,NY,14618,clothing_store
Dado Boutique,"2900 Monroe Ave, Rochester, NY 14618",Boutique,Rochester,,http://www.dadorochester.com/,,,http://www.dadorochester.com/contact,,contact,1,NY,14618,clothing_store
DressCode,"17 Bridge St, Plattsburgh, NY 12901",Clothing store,Plattsburgh,,http://www.thenewdresscode.com/,,,https://www.thenewdresscode.com/contact,,Contact,1,NY,12901,clothing_store
Farm & Family,"550 NY-3 Suite 400, Plattsburgh, NY 12901",Clothing store,Plattsburgh,,http://www.taylorrentalny.com/,,,http://www.taylorrentalny.com/contact-us.asp,, Get Directions,1,NY,12901,clothing_store
babiesnbellies,"373 NY-3, Plattsburgh, NY 12901",Baby store,Plattsburgh,,https://m.facebook.com/,,,https://lm.facebook.com/l.php?u=http%3A%2F%2Fwww.babiesnbellies.net%2F&h=AT1pcrYc0SMsJVAyBIqh1XsTmISG6nxCR461hNDlCq_P5uliU1XWJVGHUrgP8hK_KpwErxJk_8tmRrYZtyyL2W72j6xqHtbRoX9SVE3zokZ_9L_p6fHwrerSwDAvVo4bZiXgmMagOWl_amFQTN4gMHytSZ-pZU4Hp7CpdAMEYnDn9A8fL-MdC1yWSYqfryFq2ZM20IWvugDde5pgM4kYUiJkzrUwFvoN47W1DSjJd1yby9D8Bz-Iaj6iyP8w6UAd9jsqRq-GIJs2viRj5U5PguHQqYa6RymDp2pWmOQWQkked8HNjieRJUJo2cDSGNtRnZg_OrXD1lzBVgwueihYd90Tl_5T7V2f3Rus0S45zQTVqb8Dr1dFVMgaO67LfFrYg6Ravgvwb_33pJ_pLBp3Hhj475KFjI3z-CUT9Ecwl1vVYA,,Contact Us,1,NY,12901,clothing_store
Everything Under the Sun,"386 Rugar St, Plattsburgh, NY 12901",Boutique,Plattsburgh,,http://everythingunderthesunrs.com/,,,http://everythingunderthesunrs.com/contact/4211067,,CONTACT,1,NY,12901,clothing_store
Elmore Spca Thrift Store,"37 Clinton St, Plattsburgh, NY 12901",Thrift store,Plattsburgh,,https://www.elmorespca.org/,,,https://www.elmorespca.org/contactus.html,,,1,NY,12901,clothing_store
Glass Onion Originals,"4 Washington Ave, Pleasantville, NY 10570",Gift shop,Pleasantville,,http://glassonionoriginals.com/,,,http://glassonionoriginals.com/pages/contact-us,,"
Contact Us",1,NY,10570,clothing_store
Battista Formal WearTailoring,"850 Franklin Ave, Thornwood, NY 10594",Tuxedo shop,Thornwood,,http://www.battistaformalwear.net/,,,http://www.battistaformalwear.net/Contact.html,,Contact,1,NY,10594,clothing_store
Twin Jewelers,"3 Wheeler Ave, Pleasantville, NY 10570",Jeweler,Pleasantville,,http://twinjewelersny.com/,,,http://twinjewelersny.com/contact,," Contact

",1,NY,10570,clothing_store
Daffodils Gift Shoppe,"1600 Main St, Pleasant Valley, NY 12569",Gift shop,Pleasant Valley,,http://daffodilsgiftshoppe.com/,,,http://daffodilsgiftshoppe.com/#contact,,"
        Contact
      ",1,NY,12569,clothing_store
Babyvision,"30 Firemens Way, Poughkeepsie, NY 12603",Baby store,Poughkeepsie,,http://www.babyvision.com/,,,http://www.babyvision.com/aboutus/contactus,,contact,1,NY,12603,clothing_store
Changes Inc,"6422 Montgomery St, Rhinebeck, NY 12572",Men's clothing store,Rhinebeck,,https://www.changesformen.com/,,,https://changesformen.com/contact/,,Contact,1,NY,12572,clothing_store
Dreaming Goddess,"44 Raymond Ave, Poughkeepsie, NY 12603",Clothing store,Poughkeepsie,,https://dreaminggoddess.com/,,,https://dreaminggoddess.com/contact/,,Contact,1,NY,12603,clothing_store
Crystal Boutique & Beauty Bar,"1081 State Rte 55, Lagrangeville, NY 12540",Bridal shop,Lagrangeville,,http://www.crystalboutiqueandbeauty.com/,,,http://crystalboutiqueandbeauty.com/contact-us/,,Contact,1,NY,12540,clothing_store
Kids Corner Clothing,"3287 Niagara Falls Blvd, North Tonawanda, NY 14120",Children's clothing store,North Tonawanda,,http://kidscornerclothing.weebly.com/,,,http://kidscornerclothing.weebly.com/contact-us.html,,CONTACT US,1,NY,14120,clothing_store
Rockin T shirt Designs,"261 W 36th St, New York, NY 10018",Clothing store,New York,,http://www.botaniembo.com/,,,http://www.botaniembo.com/crm.asp?action=contactus,,,1,NY,10018,clothing_store
Svetlana Bridal Couture,"21 N Main St #211, Port Chester, NY 10573",Bridal shop,Port Chester,"Wedding salon with romantic, shabby-chic decor specializing in dresses made by European designers.",http://svetlanabridal.com/,,,http://svetlanabridal.com/#,,Contact,1,NY,10573,clothing_store
Port Chester Eye Care,"44 N Main St, Port Chester, NY 10573",Boutique,Port Chester,,https://www.portchestereyecare.com/,,,https://www.portchestereyecare.com/contact-us.html,,"
				Contact us
			",1,NY,10573,clothing_store
Havana Jeans,"16 Purchase St, Rye, NY 10580",Clothing store,Rye,,http://www.shophavanajeans.com/,,,http://www.shophavanajeans.com/pages/contact-us,,Contact Us,1,NY,10580,clothing_store
Glamour Mom LLC,"14 Elm Pl, Rye, NY 10580",Women's clothing store,Rye,,https://www.glamourmom.com/,,,https://www.glamourmom.com/pages/contact-us,,"
Contact 
",1,NY,10580,clothing_store
OGGI 5,"365 Greenwich Ave, Greenwich, CT 06830",Women's clothing store,Greenwich,,https://www.oggi5.com/,,,https://oggi5.com/contact-us/,,Contact Us,1,CT,06830,clothing_store
Paradise Wedding & Party Creations,"21 Mill St, Port Chester, NY 10573",Wedding store,Port Chester,,http://paradiseweddingny.com/,,,http://paradiseweddingny.com/mailto:webmaster@paradiseweddingny.com,,Contact your hosting provider,1,NY,10573,clothing_store
Elegant Affairs,"202 Main St #2, Port Jefferson, NY 11777",Boutique,Port Jefferson,,https://elegantaffairspj.com/,,,https://elegantaffairspj.com/contact-us/,,Contact Us,1,NY,11777,clothing_store
Heritage Boutique,"148 NY-25A, Mt Sinai, NY 11766",Clothing store,Mt Sinai,,http://heritage-boutique.com/,,,https://heritage-boutique.com/contact-us/,,Contact,1,NY,11766,clothing_store
Origin Of Era,"20 Chandler Square, Port Jefferson, NY 11777",Boutique,Port Jefferson,,https://www.originofera.com/,,,https://www.originofera.com/contact,,Contact,1,NY,11777,clothing_store
Wish Clothing Stony Brook,"141 Main St, Stony Brook, NY 11790",Women's clothing store,Stony Brook,,https://highendhippieclothing.com/,,,https://highendhippieclothing.com/pages/get-in-touch,,"
                          CONTACT US
                        ",1,NY,11790,clothing_store
Fantasy Curiosity Shoppe,"78 Front St #68, Port Jervis, NY 12771",Gift shop,Port Jervis,,https://fantasycuriosityshoppe.com/,,,https://fantasycuriosityshoppe.com/contact-us/,,Contact Us,1,NY,12771,clothing_store
Heartwood & Whim Boutique,"78 Front St #76, Port Jervis, NY 12771",Thrift store,Port Jervis,,http://www.heartwoodandwhim.com/,,,https://www.heartwoodandwhim.com/contacts/,,Contact,1,NY,12771,clothing_store
Vernon United Methodist Church,"303 NJ-94, Vernon Township, NJ 07462",Clothing store,Vernon Township,,http://www.vernonumc.org/,,,http://www.vernonumc.org/#,,Contact,1,NJ,07462,clothing_store
BALENCIAGA,"885 Grapevine Ct, Central Valley, NY 10917",Women's clothing store,Central Valley,"Chic, ready-to-wear, designer fashions & accessories for women. Some have menswear.",https://www.balenciaga.com/,,,https://www.balenciaga.com/customerservice/us/contact-us/,,"

        Email us
      
",1,NY,10917,clothing_store
The Emerald  A Boutique B&B,"20 Pleasant St, Potsdam, NY 13676",Boutique,Potsdam,,http://emeraldpotsdam.com/,,,http://emeraldpotsdam.com/Contact-Us.html,,Contact Us,1,NY,13676,clothing_store
Tuxedo Junction,"7364 US-11, Potsdam, NY 13676",Tuxedo shop,Potsdam,,http://www.tuxedojunction.com/,,,https://www.tuxedojunction.com/contact/,,Contact Us,1,NY,13676,clothing_store
Real Divas Boutique,"443 Main St, Poughkeepsie, NY 12601",Women's clothing store,Poughkeepsie,,http://realdivasboutique.com/,,,http://realdivasboutique.com/contact-us,,Contact Us,1,NY,12601,clothing_store
Jonathan Reid,"578 Aviation Rd, Queensbury, NY 12804",Men's clothing store,Queensbury,,http://www.jonathanreidmenswear.com/,,,https://jonathanreidmenswear.com/contact/,,Contact,1,NY,12804,clothing_store
Simlu Clothing,"343 Spook Rock Rd, Suffern, NY 10901",Clothing store,Suffern,,https://www.simluclothing.com/,,,https://www.simluclothing.com/pages/contact-us-2,,contact us,1,NY,10901,clothing_store
Premium Outlet Boutique,"71 Windermere Ave, Greenwood Lake, NY 10925",Clothing store,Greenwood Lake,,http://www.premiumoutletboutique.com/,,,http://www.premiumoutletboutique.com/contact_us,,Contact Us,1,NY,10925,clothing_store
Derin Boutique,"7578 N Broadway # 9, Red Hook, NY 12571",Boutique,Red Hook,,http://derincollection.com/,,,https://derincollection.com/contact-us/,, Contact,1,NY,12571,clothing_store
Little Pickles Children's General Store,"7505 N Broadway, Red Hook, NY 12571",Shoe store,Red Hook,,http://www.ourlittlepickles.com/,,,http://ourlittlepickles.com/contact-us/,,Contact,1,NY,12571,clothing_store
Cavallo Fine Jewelry,"7492 S Broadway, Red Hook, NY 12571",Jewelry store,Red Hook,,https://www.cavallofinejewelry.com/,,,https://www.cavallofinejewelry.com/#,,"
                                Contact us
                            ",1,NY,12571,clothing_store
Diana Kim England Goldsmiths  Nantucket Massachusetts,"20 Aspinwall Rd #1130, Red Hook, NY 12571",Fashion accessories store,Red Hook,,https://www.dianakimengland.com/,,,https://www.dianakimengland.com/contact-us,,Contact Us,1,NY,12571,clothing_store
All Body Boutique,"123 Sheridan Ave, Albany, NY 12206",Clothing store,Albany,,http://www.allbodyboutique.com/,,,http://www.allbodyboutique.com/pages/contact-us,,Contact us ,1,NY,12206,clothing_store
Waldorf Tuxedo,"204 Lancaster St, Albany, NY 12210",Tuxedo shop,Albany,,https://www.waldorftuxedo.com/,,,https://waldorftuxedo.com/contact-us/,,Contact Us,1,NY,12210,clothing_store
Winter Sun & Summer Moon,"10-14 E Market St, Rhinebeck, NY 12572",Boutique,Rhinebeck,,http://wintersunsummermoon.com/,,,https://www.wintersunsummermoon.com/contact.htm,,Contact Us,1,NY,12572,clothing_store
Merriweathers,"51 E Market St, Rhinebeck, NY 12572",Boutique,Rhinebeck,,http://www.merriweathers.com/,,,http://www.merriweathers.com/contact-us.html,,          Contact Us      ,1,NY,12572,clothing_store
Hummingbird Jewelers,"23A E Market St, Rhinebeck, NY 12572",Jewelry store,Rhinebeck,,http://www.hummingbirdjewelers.com/,,,http://www.hummingbirdjewelers.com/pages/contact-us,,Contact,1,NY,12572,clothing_store
Northern Dutchess Hospital Thrift Shop,"97 Montgomery St, Rhinebeck, NY 12572",Thrift store,Rhinebeck,,http://www.healthquest.org/,,,https://patients.healthquest.org/contact-us/,,Contact Us,1,NY,12572,clothing_store
Periwinkles At Rhinebeck,"24 E Market St, Rhinebeck, NY 12572",Gift shop,Rhinebeck,,http://www.periwinklesatrhinebeck.com/,,,//www.periwinklesatrhinebeck.com/contactus.html,,Contact Us,1,NY,12572,clothing_store
Lyric & Lizzy Boutique,"335 N Main St, Medina, NY 14103",Boutique,Medina,,https://lyricandlizzyboutique.com/,,,https://lyricandlizzyboutique.com/contact-us,,Contact Us,1,NY,14103,clothing_store
Damaris Multiservice,"725 E Main St, Riverhead, NY 11901",Clothing store,Riverhead,,http://www.damarismultiservices.com/,,,http://www.damarismultiservices.com/contact,," CONTACTO

",1,NY,11901,clothing_store
Dressed N Style,"225W W 39th St, New York, NY 10018",Women's clothing store,New York,,https://www.graciafashion.com/,,,https://www.graciafashion.com/pages/contact-us,,Contact Us,1,NY,10018,clothing_store
CLOUT NYC,"263 Merrick Rd, Rockville Centre, NY 11570",Men's clothing store,Rockville Centre,,http://www.clout.nyc/,,,http://www.clout.nyc/pages/contact,,"
              Contact
            ",1,NY,11570,clothing_store
PRESAVA BOUTIQUE,"270 Merrick Rd, Rockville Centre, NY 11570",Boutique,Rockville Centre,,http://www.presava.com/,,,http://www.presava.com/crm.asp?action=contactus,,Contact Us,1,NY,11570,clothing_store
May Bliss Wedding & Gift Boutique,"270 Merrick Rd, Rockville Centre, NY 11570",Bridal shop,Rockville Centre,,http://mayblisswedding.com/,,,http://mayblisswedding.com/contact-us,,Contact Us,1,NY,11570,clothing_store
Evil Sisters LLC,"5689 Rome-New London Rd, Rome, NY 13440",Clothing store,Rome,,http://evil-sisters.com/,,,http://evil-sisters.com/../contact.asp,,,1,NY,13440,clothing_store
Engelbert's Jewelers Inc,"265 W Dominick St, Rome, NY 13440",Jewelry store,Rome,,http://engelberts.com/,,,http://engelberts.com/contact,,Contact,1,NY,13440,clothing_store
Matrix West Indian Religious Store,"2441 Boston Rd, The Bronx, NY 10467",Clothing store,The Bronx,,http://www.salvationarmyusa.org/,,,https://www.salvationarmyusa.org/usn/contact/,,Contact Us,1,NY,10467,clothing_store
De Janeiro Stores,"56 W 45th St, New York, NY 10036",Women's clothing store,New York,,http://www.dejny.com/,,,http://www.dejny.com/contact-us,,Feedback/Contact Us,1,NY,10036,clothing_store
Sportech,"124 S Ridge St, Rye Brook, NY 10573",Sporting goods store,Rye Brook,,http://sportechryebrook.com/,,,https://sportechryebrook.com/contact-us/,,Contact,1,NY,10573,clothing_store
Mary Jane Denzer,"7 Renaissance Square, White Plains, NY 10601",Women's clothing store,White Plains,,http://www.mjdenzer.com/,,,https://mjdenzer.com/contact-us/,,Contact Us,1,NY,10601,clothing_store
Shoes N More Rye,"35 Purchase St, Rye, NY 10580",Clothing store,Rye,,http://www.shoesnmore.com/,,,http://www.shoesnmore.com/contact-us,,Contact Us,1,NY,10580,clothing_store
Lifestyles of Saratoga,"436 Broadway, Saratoga Springs, NY 12866",Women's clothing store,Saratoga Springs,,http://www.lifestylesofsaratoga.com/,,,http://www.lifestylesofsaratoga.com/contact,,"
        
        Contact
      ",1,NY,12866,clothing_store
Union Hall Supply Company,"437 Broadway, Saratoga Springs, NY 12866",Men's clothing store,Saratoga Springs,,http://www.unionhallsupplyco.com/,,,http://www.unionhallsupplyco.com/pages/contact-us,,"
Contact Us
",1,NY,12866,clothing_store
Feathered Antler,"517 Broadway, Saratoga Springs, NY 12866",Clothing store,Saratoga Springs,,http://www.featheredantler.com/,,,https://www.featheredantler.com/contact,,CONTACT,1,NY,12866,clothing_store
Khymanyo Studio,"60 Beekman St, Saratoga Springs, NY 12866",Fashion designer,Saratoga Springs,,http://www.khymanyo.com/,,,https://www.khymanyo.com/contact,,CONTACT,1,NY,12866,clothing_store
The Well,"80 Partition St, Saugerties, NY 12477",Thrift store,Saugerties,,http://village.saugerties.ny.us/,,,http://village.saugerties.ny.us/content/Generic/View/37,,Contact Us/Info (Village),1,NY,12477,clothing_store
Genter's Jewelers,"248 Main St #1320, Saugerties, NY 12477",Jewelry store,Saugerties,,http://www.gentersjewelers.com/,,,http://www.gentersjewelers.com/contact,,Contact,1,NY,12477,clothing_store
The Corner Store,"57 Broadway, Tivoli, NY 12583",Gift shop,Tivoli,,http://www.hoteltivoli.org/,,,https://hoteltivoli.org/contact/,,Contact,1,NY,12583,clothing_store
Happy Paws Thrift Store,"282 Main St, Saugerties, NY 12477",Thrift store,Saugerties,,http://www.ucspca.org/,,,http://www.ucspca.org/contact-2,,Contact,1,NY,12477,clothing_store
Grace Hats  Hats Shop,"3 Mill Hill Rd, Woodstock, NY 12498",Fashion accessories store,Woodstock,,http://gracehats.com/,,,http://gracehats.com/pages/contact-us,,"
          Contact Us
        ",1,NY,12498,clothing_store
Comforter Cobblestone Thrift Store,"26 Wynkoop Pl, Kingston, NY 12401",Clothing store,Kingston,,http://comforterofkingston.org/,,,http://comforterofkingston.org/contact.html,,Contact,1,NY,12401,clothing_store
Geraldina's Couture  Bridal & Event Boutique,"12 E Hartsdale Ave, Hartsdale, NY 10530",Bridal shop,Hartsdale,,http://www.geraldinascouture.com/,,,https://www.geraldinascouture.com/contact,,CONTACT,1,NY,10530,clothing_store
Paragon Jeweler,"163 Jay St, Schenectady, NY 12305",Jewelry store,Schenectady,,http://www.paragonjeweler.com/,,,http://www.paragonjeweler.com/Home/Contact?Length=4,,CONTACT US,1,NY,12305,clothing_store
Choppa & Son Formal Wear,"1020 Central Ave # 2, Albany, NY 12205",Tuxedo shop,Albany,,http://www.choppatux.com/,,,http://www.choppatux.com/contact-us.htm,,Contact Us,1,NY,12205,clothing_store
Treasure Lilly,"662 S Main St, Central Square, NY 13036",Women's clothing store,Central Square,,https://treasurelilly.commentsold.com/,,,https://treasurelilly.commentsold.com/pages/contact,,Contact,1,NY,13036,clothing_store
Letter 5 Industries,"221 Alexander Ave, Scotia, NY 12302",Clothing store,Scotia,,http://www.seintapparel.com/,,,http://www.seintapparel.com/pages/contact-us,,Contact Us,1,NY,12302,clothing_store
Gary's Tailoring to Go,"791 NY-104B, Mexico, NY 13114",Clothing alteration service,Mexico,,http://www.garystailoringtogo.com/,,,http://www.garystailoringtogo.com/Contact-Us.html,,Contact Us,1,NY,13114,clothing_store
The UFHA thrift store,"4859 Jefferson St, Pulaski, NY 13142",Clothing store,Pulaski,,http://www.ufhashelter.com/,,,http://www.ufhashelter.com/contact-us/,,Contact Us,1,NY,13142,clothing_store
The Rustic Boheme,"82 Fall St, Seneca Falls, NY 13148",Jewelry store,Seneca Falls,,http://therusticboheme.wordpress.com/,,,"http://maps.google.com/maps?q=82+fall+street,+seneca+falls+ny+13148",,"
Location   82 Fall Street, Seneca Falls NY 13148
",1,NY,13148,clothing_store
Custom Gifts & Apparel,"110 Main Street Shoppe Center, Suite 110, Waterloo, NY 13165",Gift shop,Waterloo,,https://handcrafted-gifts-custom-apparel.site123.me/,,,https://handcrafted-gifts-custom-apparel.site123.me/contact,,Contact,1,NY,13165,clothing_store
Christine's Creative Crafts,"2484 Lower Lake Rd, Seneca Falls, NY 13148",Jewelry store,Seneca Falls,,http://crystal-and-gemstone-emporium.myshopify.com/,,,//help.shopify.com/support,,contact support,1,NY,13148,clothing_store
Creative Edge Hair Boutique,"38 Wallkill Ave, Wallkill, NY 12589",Boutique,Wallkill,,http://creativeedgeboutique.com/,,,https://creativeedgeboutique.com/contact/,,Contact Us,1,NY,12589,clothing_store
First National Gifts,"2 E Genesee St, Skaneateles, NY 13152",Gift shop,Skaneateles,,http://www.firstnationalgifts.com/,,,http://www.firstnationalgifts.com/Contact.html,,Contact,1,NY,13152,clothing_store
Skaneateles Jewelry,"15 Jordan St, Skaneateles, NY 13152",Jewelry store,Skaneateles,,http://www.cnydiamond.com/,,,http://www.cnydiamond.com/contact,,CONTACT,1,NY,13152,clothing_store
Grant Jewelers,"88 E Genesee St, Skaneateles, NY 13152",Jewelry designer,Skaneateles,,http://www.grantjewelers.net/,,,http://www.grantjewelers.net/#fh5co-footer,,contact,1,NY,13152,clothing_store
Upstate Handpiece Express,"5644 Hamilton Rd, Jordan, NY 13080",Clothing store,Jordan,,https://www.upstatehandpiecerepair.com/,,,https://www.upstatehandpiecerepair.com/contact.html,,Contact Us,1,NY,13080,clothing_store
Karen's Image Boutique formerly the Dump Boutique,"22 South St, Marcellus, NY 13108",Boutique,Marcellus,,http://www.karensimageboutique.com/,,,http://www.karensimageboutique.com/pages/contact-us,,Contact Us,1,NY,13108,clothing_store
Bella's Boutique,"35 N Broadway, Tarrytown, NY 10591",Boutique,Tarrytown,"Quaint local boutique carrying an eclectic range of jewelry, apparel, home goods & accessories.",http://www.bellasboutiquetarrytown.com/,,,http://www.bellasboutiquetarrytown.com/contact-us/,,Contact Us,1,NY,10591,clothing_store
Tarrytown Wedding Designs and Event Center,"7 S Broadway, Tarrytown, NY 10591",Wedding planner,Tarrytown,,http://tarrytownweddingdesigns.com/,,,http://tarrytownweddingdesigns.com/contact.html,,Contact,1,NY,10591,clothing_store
Rutheny Jewelry,"54 Main St, Tarrytown, NY 10591",Jewelry store,Tarrytown,,http://www.ruthenyjewelry.com/,,,http://www.ruthenyjewelry.com/contact,,Contact,1,NY,10591,clothing_store
Ona,"53 Main St, Tarrytown, NY 10591",Gift shop,Tarrytown,,http://onatarrytown.com/,,,http://www.fairtradeintarrytownny.com/contact/,,Contact,1,NY,10591,clothing_store
Worldwide Drip  Hype Sneaker & Clothing Store,"Lawrence Ave, Smithtown, NY 11787",Clothing store,Smithtown,,https://worldwidedrip.com/,,,https://worldwidedrip.com/pages/contact,,"

  Contact

",1,NY,11787,clothing_store
Nikkel Fashion Boutique,"1139-7A Jericho Turnpike, Commack, NY 11725",Boutique,Commack,,http://nikkelfashionboutique.com/,,,http://nikkelfashionboutique.com/pages/contact-us,,Contact/Careers,1,NY,11725,clothing_store
Over The Edge Apparel,"285 Commack Rd, Commack, NY 11725",Clothing store,Commack,,https://www.overtheedgeapparel.com/,,,https://www.overtheedgeapparel.com/pages/contact-us,,Contact Us ,1,NY,11725,clothing_store
Dress Gala,"1143 Jericho Turnpike, Commack, NY 11725",Dressmaker,Commack,,http://www.dressgala.com/,,,http://www.dressgala.com/contact-us,,"
Contact
        


",1,NY,11725,clothing_store
Sassy Apparel Blanks,"17 Pondview, St James, NY 11780",Clothing store,St James,,https://www.sassyapparelblanks.com/,,,https://www.sassyapparelblanks.com/index.php?route=information/contact,,Contact Us,1,NY,11780,clothing_store
Kelloggs & Lawrence,"26 Parkway, Katonah, NY 10536",Clothing store,Katonah,,http://kelloggsandlawrence.com/,,,http://kelloggsandlawrence.com/contact-us,,Contact Us,1,NY,10536,clothing_store
Edward Archer of Southampton,"85 Main St, Southampton, NY 11968",Men's clothing store,Southampton,,http://edwardarcher.net/,,,http://edwardarcher.net/contact-us,,Contact Us,1,NY,11968,clothing_store
Gretchen Scott LLC,"46 Jobs Ln, Southampton, NY 11968",Women's clothing store,Southampton,,https://www.gretchenscottdesigns.com/,,,https://www.gretchenscottdesigns.com/gs-contact-us-2015,,Contact Us,1,NY,11968,clothing_store
Crinoline Fashion Boutique Ltd,"15 Front St, Greenport, NY 11944",Women's clothing store,Greenport,,http://www.crinolinefashion.com/,,,http://www.crinolinefashion.com/#openingtimes,,HOURS/CONTACT,1,NY,11944,clothing_store
The Times Vintage,"429 Main St, Greenport, NY 11944",Vintage clothing store,Greenport,,http://www.timesvintage.com/,,,http://www.timesvintage.com/contact-1,,"
              Contact
            ",1,NY,11944,clothing_store
The Weathered Barn,"41 Front St, Greenport, NY 11944",Boutique,Greenport,,http://www.theweatheredbarngreenport.com/,,,https://www.theweatheredbarngreenport.com/contact,,CONTACT,1,NY,11944,clothing_store
ALEX VINASH NY,"300 Main St, Greenport, NY 11944",Clothing store,Greenport,,https://www.alexvinash.com/,,,https://www.alexvinash.com/pages/contact-alex-team,,"
    Contact Alex Team
    
  ",1,NY,11944,clothing_store
Preston's Chandlery,"102 Main St, Greenport, NY 11944",Clothing store,Greenport,,http://www.prestons.com/,,,http://www.prestons.com/CTUS.html,,CONTACT,1,NY,11944,clothing_store
Di Angela Leather,"140 Main St, Greenport, NY 11944",Clothing store,Greenport,,http://www.diangelaleather.com/,,,https://www.diangelaleather.com/contact,,CONTACT,1,NY,11944,clothing_store
Renee's Mattituck,"10095 Main Rd, Mattituck, NY 11952",Clothing store,Mattituck,,http://reneesmattituck.com/,,,http://reneesmattituck.com/contact,,"
            Contact
          ",1,NY,11952,clothing_store
Lady Bowditch Naturals,"1 S Midway Rd, Shelter Island, NY 11964",Perfume store,Shelter Island,,http://www.ladybowditchnaturals.com/,,,http://www.ladybowditchnaturals.com/contact-us.html,,Contact Us,1,NY,11964,clothing_store
ETHEL  ROW,"83 Main St, Sag Harbor, NY 11963",Children's clothing store,Sag Harbor,,http://www.ethelandrow.com/,,,http://www.ethelandrow.com/pages/contact,,"
                          CONTACT
                        ",1,NY,11963,clothing_store
Palm Produce,"23 Main St, Sag Harbor, NY 11963",Clothing store,Sag Harbor,,http://palmproduceresortwear.com/,,,http://palmproduceresortwear.com/contact,,"
Contact
",1,NY,11963,clothing_store
Goldie Sag Harbor,"127 Main St, Sag Harbor, NY 11963",Women's clothing store,Sag Harbor,,http://www.goldiesagharbor.com/,,,http://www.goldiesagharbor.com/contact-us,,Contact Us,1,NY,11963,clothing_store
Leonard Frisbie,"25 Madison St, Sag Harbor, NY 11963",Men's clothing store,Sag Harbor,,https://www.leonardfrisbie.com/,,,https://www.leonardfrisbie.com/contact,,"
            Contact
          ",1,NY,11963,clothing_store
malbushi kovod  mlbvSHy kbvd,"3B Milton Pl, Spring Valley, NY 10977",Clothing store,Spring Valley,,http://malbushikovod.com/,,,http://malbushikovod.com/contact,,MALBUSHI,1,NY,10977,clothing_store
Engravably Yours,"9 Spring Valley Market Pl, Spring Valley, NY 10977",Jewelry engraver,Spring Valley,,http://www.engravably.com/,,,http://www.engravably.com/#column-3,,"
                        Contact Us
                        
",1,NY,10977,clothing_store
Diaper Cake Walk,"37 Commerce St, Spring Valley, NY 10977",Gift shop,Spring Valley,,http://www.diapercakewalk.com/,,,https://www.diapercakewalk.com/contact-us.html,,Contact Us,1,NY,10977,clothing_store
The Jewelry Gallery,"32 S Liberty Dr, Stony Point, NY 10980",Jewelry store,Stony Point,,http://thejewelrygalleryonline.com/,,,http://thejewelrygalleryonline.com/contact-us/,,"
            
            Contact
        ",1,NY,10980,clothing_store
Weber Uniforms,"20 Skyline Dr, Thiells, NY 10984",Uniform store,Thiells,,http://blockuniforms.com/,,,http://www.blockuniforms.com/index.php?route=information/contact,,Contact Us,1,NY,10984,clothing_store
Mackage,"498 Red Apple Ct, Central Valley, NY 10917",Clothing store,Central Valley,,http://www.mackage.com/,,,https://www.mackage.com/us/en/contact-us.html,,Contact Us,1,NY,10917,clothing_store
Marcraft Clothes Inc,"301 Island Rd, Mahwah, NJ 07430",Men's clothing store,Mahwah,,https://www.bloomberg.com/,,,https://www.bloomberg.com/feedback,,Need help? Contact us,1,NJ,07430,clothing_store
Wow That's Unusual,"22 Lafayette Ave #5406, Suffern, NY 10901",Thrift store,Suffern,,https://wowthatsunusual.com/,,,https://wowthatsunusual.com/tel:84591813528455487251,,(845) 918-1352  (845) 548-7251,1,NY,10901,clothing_store
The Gold Owl Jewelry Store,"94 Lafayette Ave, Suffern, NY 10901",Jewelry store,Suffern,,http://thegoldowljewelry.weebly.com/,,,http://thegoldowljewelry.weebly.com/contact.html,,"
										Contact
									",1,NY,10901,clothing_store
Special Designs Jewelers,"16 Indian Rock, Suffern, NY 10901",Jeweler,Suffern,,http://www.specialdesignsjewelers.com/,,,http://www.specialdesignsjewelers.com/pages/contact-us-1,,Contact Us,1,NY,10901,clothing_store
Peregrine Showroom,"150 W 28th St #902, New York, NY 10001",Clothing store,New York,"Chic, airy boutique carrying fashion-forward apparel & fine leather goods from emerging designers.",http://www.peregrineshowroom.com/,,,http://www.peregrineshowroom.com/contact,,Contact,1,NY,10001,clothing_store
3fifteen,"720 University Ave, Syracuse, NY 13210",Thrift store,Syracuse,,http://www.3fifteen.org/,,,https://www.ishopthrifty.org/contact/,,Contact,1,NY,13210,clothing_store
Safiyyah's Styles,"622 N Salina St, Syracuse, NY 13208",Clothing store,Syracuse,,http://www.safiyyahstyles.com/,,,http://www.safiyyahstyles.com/contact/,,Contact,1,NY,13208,clothing_store
Executive Clothing Service,"111 E Willow St, Syracuse, NY 13202",Men's clothing store,Syracuse,,http://www.executiveclothingservice.com/,,,http://www.executiveclothingservice.com/contact_us,,Contact Us,1,NY,13202,clothing_store
The Bridal Connection,"205 Grant Blvd Hours by appointment only, Syracuse, NY 13206",Bridal shop,Syracuse,,http://www.thebridalconn.com/,,,http://www.thebridalconn.com/TBC-contact_us.ivnu,,"

",1,NY,13206,clothing_store
Lewis Uniform Co,"325 Butternut St, Syracuse, NY 13208",Uniform store,Syracuse,"Established store supplying work attire for the culinary, medical, public safety & postal sectors.",http://www.lewisuniform.com/,,,http://www.lewisuniform.com/UMSS.cfm?page=page-index.cfm&template_code=Contact.Us,,Contact,1,NY,13208,clothing_store
CNY Uniforms Plus,"Formerly DeJulio's, 664 Burnet Ave, Syracuse, NY 13203",Uniform store,Syracuse,"Store selling medical scrubs, lab coats, shoes & medical devices, plus school uniforms.",http://www.cnyuniformsplus.com/,,,http://www.cnyuniformsplus.com/content/contactus.php,,Contact Us,1,NY,13203,clothing_store
Harnik Brothers Jewelers Inc,"6 N Broadway, Tarrytown, NY 10591",Jewelry store,Tarrytown,,https://www.harnikbros.com/,,,https://www.harnikbros.com/contact,,"
            Contact
          ",1,NY,10591,clothing_store
KARL LAGERFELD,"420 W Broadway, New York, NY 10012",Clothing store,New York,,http://www.karl.com/,,,https://www.karl.com/system/web/custom/hp/email.jsp,,Contact Us,1,NY,10012,clothing_store
MMissoni,"426 W Broadway, New York, NY 10012",Clothing store,New York,"Retail showroom for fashion-forward brand offering women's clothing plus bags, shoes & accessories.",http://www.m-missoni.com/,,,https://www.missoni.com/system/web/custom/hp/email.jsp,,Contact Us,1,NY,10012,clothing_store
Bonpoint,"398 W Broadway, New York, NY 10012",Children's clothing store,New York,,http://www.bonpoint.com/,,,https://www.bonpoint.com/us/contact,,Contact us,1,NY,10012,clothing_store
Alexander Berardi,"174 Prince St, New York, NY 10012",Clothing store,New York,,http://www.houseofberardi.com/,,,http://hudsoncompass.com/hudson-compass-2/,,CONTACT US,1,NY,10012,clothing_store
Variazioni,"153 Prince St, New York, NY 10012",Women's clothing store,New York,,http://vznyc.com/,,,http://vznyc.com/contact-us/,,Contact Us,1,NY,10012,clothing_store
Slowear Venezia  New York,"116 Prince St, New York, NY 10012",Men's clothing store,New York,,http://www.slowear.com/,,,https://www.slowear.com/us-en/contact-us/,,Read more,1,NY,10012,clothing_store
AVE India Design Collective,"468 W Broadway, New York, NY 10021",Clothing store,New York,,https://aveindiadesigncollective.com/,,,https://aveindiadesigncollective.com/contact/,,Contact,1,NY,10021,clothing_store
TT New York,"1221 Niagara Falls Blvd, Buffalo, NY 14226",Dress store,Buffalo,,http://www.tt-newyork.com/,,,https://tt-newyork.com/contact/,,Contact,1,NY,14226,clothing_store
ReStyle Thrift Store,"2431 6th Ave, Troy, NY 12180",Thrift store,Troy,,http://www.unityhouseny.org/,,,https://www.unityhouseny.org/about/contact/,,Contact Us,1,NY,12180,clothing_store
Troy Threads,"45 3rd St, Troy, NY 12180",Boutique,Troy,,http://www.troythreads.com/,,,http://www.troythreads.com/pages/contact-us,,Contact Us!,1,NY,12180,clothing_store
Cahill's Sporting Goods Co,"26 4th St, Troy, NY 12180",Sporting goods store,Troy,,https://www.companycasuals.com/,,,https://www.companycasuals.com/cahills/start.jsp?aboutus=Y,,• Contact Us,1,NY,12180,clothing_store
Family Footwear Center,"740 Hoosick Rd, Troy, NY 12180",Shoe store,Troy,,https://www.familyfootwearcenter.com/,,,https://www.facebook.com/FamilyFootwearCenterTroyNY/,,,1,NY,12180,clothing_store
Allora Boutique,"789 Yonkers Ave, Yonkers, NY 10704",Clothing store,Yonkers,,http://www.alloraboutique.com/,,,http://www.alloraboutique.com/pages/contact-us,,"
Contact Us
",1,NY,10704,clothing_store
Jamie Spotts Babyquip IQP Hudson Valley NY,"216 Lindorf St, Ulster Park, NY 12487",Baby store,Ulster Park,,http://www.babyquip.com/,,,http://www.babyquip.com/contact,,Contact Us,1,NY,12487,clothing_store
Ardyss International independant distributor,"413 Bleecker St, New York, NY 10014",Boutique,New York,,http://www.narscosmetics.com/,,,http://www.narscosmetics.com/USA/contact-us,,"To protect our community, US NARS boutiques will be closed through April",1,NY,10014,clothing_store
Famous Brands,"223 W Merrick Rd, Valley Stream, NY 11580",Clothing store,Valley Stream,,http://www.famousbrandsny.com/,,,https://www.famousbrandsny.com/contact,,Email us,1,NY,11580,clothing_store
Kidz Stuff,"205 Rockaway Ave, Valley Stream, NY 11580",Children's clothing store,Valley Stream,"Unpretentious consignment store stocking kids’ clothes, books, toys, furniture & gear.",http://www.kidzstuffresale.com/,,,http://www.kidzstuffresale.com/contact.html,,Contact us,1,NY,11580,clothing_store
Wild Blooms Bridal Boutique,"2691 W Main St #4, Wappingers Falls, NY 12590",Bridal shop,Wappingers Falls,,http://www.wildbloomsbridal.com/,,,https://www.wildbloomsbridal.com/contact,,Contact,1,NY,12590,clothing_store
Flirt Boutique,"56 Main St, Warwick, NY 10990",Lingerie store,Warwick,,http://www.flirtwarwick.com/,,,http://www.flirtwarwick.com/contact-us,,"
Contact Us
",1,NY,10990,clothing_store
Paper Heart Company,"24 Main St, Warwick, NY 10990",Wedding store,Warwick,,http://www.paperheartcompany.com/,,,http://www.paperheartcompany.com/contact,,contact,1,NY,10990,clothing_store
The Junction,"16 Railroad Ave, Warwick, NY 10990",Shoe store,Warwick,,http://www.thejunctionny.com/,,,http://www.thejunctionny.com/contact.html,,Contact Us,1,NY,10990,clothing_store
Forever Jewelers,"36 Main St, Warwick, NY 10990",Jeweler,Warwick,,http://www.foreverjewelers.com/,,,http://www.foreverjewelers.com/contact.htm,,call,1,NY,10990,clothing_store
Little Gems Corp,"80 Black Meadow Rd, Chester, NY 10918",Women's clothing store,Chester,,http://gemslilingerie.com/,,,https://www.gemslilingerie.com,,Contact Us,1,NY,10918,clothing_store
Downtown Julie Brown Marketplace,"40 Public Square, Watertown, NY 13601",Gift shop,Watertown,,http://www.downtown-juliebrown.com/,,,http://www.downtown-juliebrown.com/contact/,,Contact,1,NY,13601,clothing_store
The Scrub Hub LLC,"19033 US-11, Watertown, NY 13601",Uniform store,Watertown,,http://www.scrubhubnny.com/,,,http://www.scrubhubnny.com/contactus,,Contact Us,1,NY,13601,clothing_store
Rudd's Town and Country,"19973 Morse Ln, Watertown, NY 13601",Clothing store,Watertown,,http://ruddstownandcountry.com/,,,http://ruddstownandcountry.com/locations,,  ,1,NY,13601,clothing_store
A Love Story Bridal,"1239 Broadway #600, New York, NY 10001",Bridal shop,New York,,http://www.ourstorybridal.com/,,,http://www.ourstorybridal.com/contact,,"
            Contact
          ",1,NY,10001,clothing_store
Casual Set,"588 New Loudon Rd, Latham, NY 12110",Women's clothing store,Latham,,http://www.casualset.com/,,,https://casualset.com/contact-us/,,Contact Us,1,NY,12110,clothing_store
Lollipops Children's Shop,"594 New Loudon Rd, Latham, NY 12110",Baby store,Latham,,http://lollipopsny.com/,,,http://lollipopsny.com/contact-us/,,Contact Us,1,NY,12110,clothing_store
Heart to Heart Bride,"3 W Main St, Webster, NY 14580",Bridal shop,Webster,"Unpretentious wedding shop offering brand-name dresses for brides, including plus sizes.",http://www.hearttoheartbride.com/,,,http://www.hearttoheartbride.com/contact-us-heart-to-heart-bride-webster,,"
            Contact Us
          ",1,NY,14580,clothing_store
Furnari Jewelry,"39 W Main St, Webster, NY 14580",Jewelry store,Webster,,https://furnarijewelry.com/,,,https://furnarijewelry.com/#f26c0521-7b5c-4a41-8a0a-f903aab1f34a,,Contact Us,1,NY,14580,clothing_store
Trend Addictions,"94 N Main St, Wellsville, NY 14895",Women's clothing store,Wellsville,,http://www.trendaddictions.com/,,,https://trendaddictions.com/pages/contact,,contact,1,NY,14895,clothing_store
New Vogue Shop,"134 N Main St, Wellsville, NY 14895",Boutique,Wellsville,,http://www.newvoguewellsville.com/,,,https://newvoguewellsville.com/contact-us/,,Contact Us,1,NY,14895,clothing_store
Argentieri Brothers Inc,"50 W Hanover, Wellsville, NY 14895",Linens store,Wellsville,,http://www.argentieribrothers.com/,,,http://argentieribrothers.com/contact/,,Connect,1,NY,14895,clothing_store
Michele's Adornments & Alterations,"49 A, Seneca, Wellsville, NY 14895",Bridal shop,Wellsville,,http://michelesadornmentsandalterations.com/,,,https://www.michelesadornmentsandalterations.com/about-michele-owner-seamstress-desi,,Comments/Contact ,1,NY,14895,clothing_store
Hart's Jewelry,"148 N Main St, Wellsville, NY 14895",Jewelry store,Wellsville,,http://www.hartsjewelry.com/,,,http://www.hartsjewelry.com/javascript:void(0),,Contact,1,NY,14895,clothing_store
From The Hart,"108 N Main St, Wellsville, NY 14895",Gift shop,Wellsville,,http://www.fromthehartstore.com/,,,http://www.fromthehartstore.com/contact-us,," CONTACT US

",1,NY,14895,clothing_store
Worthy Lux,"735 Prospect Ave, Westbury, NY 11590",Shoe store,Westbury,,https://worthylux.com/,,,https://worthylux.com/pages/contact-us,,Contact Us,1,NY,11590,clothing_store
Bocelli Boutique,"437-A Old Country Rd, Westbury, NY 11590",Boutique,Westbury,,http://www.bocelliboutique.com/,,,https://www.bocelliboutique.com/contact,,CONTACT,1,NY,11590,clothing_store
OH HATS,"6 Knox St, West Haverstraw, NY 10993",Hat shop,West Haverstraw,,http://www.ohhats.com/,,,https://www.ohhats.com/contact,,CONNECT!,1,NY,10993,clothing_store
AlRoss,"2756 Seneca St, Buffalo, NY 14224",Clothing store,Buffalo,,http://www.alross.com/,,,https://www.alross.com/contact2,,Contact Us,1,NY,14224,clothing_store
Fitting Place,"982 Union Rd, West Seneca, NY 14224",Shoe store,West Seneca,"Casual store offering a range of kids' shoes, plus accessories such as socks & umbrellas.",http://thefittingplace.net/,,,http://thefittingplace.net/contact/,,Contact Us,1,NY,14224,clothing_store
AMVETS Thrift Store West Seneca,"1900 Ridge Rd, West Seneca, NY 14224",Thrift store,West Seneca,,https://www.supportthevets.org/,,,https://www.supportthevets.org/contact,,Contact,1,NY,14224,clothing_store
Rebecca Taylor,"125 Westchester Ave, White Plains, NY 10601",Women's clothing store,White Plains,,https://www.rebeccataylor.com/,,,https://www.rebeccataylor.com/contactus/,,"
Contact Us
",1,NY,10601,clothing_store
Virginia's Bridal,"55 Church St, White Plains, NY 10601",Bridal shop,White Plains,"Chic boutique offering designer bridal gowns, plus tuxedos & formalwear for proms & special events.",http://www.virginiasbridal.com/,,,https://www.virginiasbridal.com/appointments/,,CONTACT,1,NY,10601,clothing_store
Sandro Bloomingdales Ny White Plains  Temporarily Closed,"Bloomingdale's, 175 Bloomingdale Rd, White Plains, NY 10605",Clothing store,White Plains,,https://us.sandro-paris.com/,,,https://us.sandro-paris.com/en/contactus,,Contact Us,1,NY,10605,clothing_store
Napoleon Fragrances,"345 Hillside Avenue, Williston Park, NY 11596",Perfume store,Williston Park,,https://napoleonfashions.com/,,,https://napoleonfashions.com/pages/contact,,Contact,1,NY,11596,clothing_store
Clothes Horse,"1036 Willis Ave, Albertson, NY 11507",Clothing store,Albertson,,https://shopclotheshorse.com/,,,https://shopclotheshorse.com/pages/stores,,Contact,1,NY,11507,clothing_store
Bath Sugar & Body Spice,"209 Hillside Avenue, Williston Park, NY 11596",Boutique,Williston Park,,http://www.bathsugarandbodyspice.com/,,,https://www.bathsugarandbodyspice.com/custom-design,,Contact Us,1,NY,11596,clothing_store
Bargains  Blessings Thrift Shop at the Church of the Resurrection,"147 Campbell Ave, Williston Park, NY 11596",Thrift store,Williston Park,,http://www.resurrectionwillistonpark.org/,,,http://www.resurrectionwillistonpark.org/contact.html,,Contact Us,1,NY,11596,clothing_store
Something Bleu Bridal,"75 Woodlawn Ave 2nd Floor, Saratoga Springs, NY 12866",Bridal shop,Saratoga Springs,"Upscale bridal salon in a historical, Victorian mansion showcasing many gowns by European designers.",https://somethingbleubridal.com/,,,https://somethingbleubridal.com/contact-us/,,Contact Us,1,NY,12866,clothing_store
Tallulah,"8285 Jericho Turnpike, Woodbury, NY 11797",Clothing store,Woodbury,,http://www.tallulah.com/,,,http://www.tallulah.com/contact-us.html,,,1,NY,11797,clothing_store
The Girls Room,"3 Guilles Ln, Woodbury, NY 11797",Women's clothing store,Woodbury,,http://www.shopthegirlsroom.com/,,,https://www.shopthegirlsroom.com/contact-us/,,Contact Us,1,NY,11797,clothing_store
Alumnus,"45 S Broadway, Yonkers, NY 10705",Clothing store,Yonkers,,https://wearealumnus.com/,,,https://wearealumnus.com/pages/contact-us,,"

  Contact Us

",1,NY,10705,clothing_store
The Little Ranch Yonkers,"431 S Broadway, Yonkers, NY 10705",Western apparel store,Yonkers,,http://thelittleranchny.com/,,,http://thelittleranchny.com/pages/contact-us,,Contact Us,1,NY,10705,clothing_store
Rich Currency,"1 Ridge Hill Boulevard, Yonkers, NY 10710",Clothing store,Yonkers,,https://www.ridgehill.com/,,,https://www.ridgehill.com/contact-us/,,Contact Us,1,NY,10710,clothing_store
Bark And Purr Yonkers,"1 Pierpointe St, Yonkers, NY 10701",Clothing store,Yonkers,,http://www.barkandpurryonkers.com/,,,http://www.barkandpurryonkers.com/contact-us/,,"
Contact
",1,NY,10701,clothing_store
La Robe By Leah Inc,"1692 Central Park Ave, Yonkers, NY 10710",Bridal shop,Yonkers,"Compact, unfussy store offering special-occasion gowns, tuxedo rentals & on-site alterations.",http://www.larobebyleah.com/,,,//www.larobebyleah.com/contactus.html,,Contact Us,1,NY,10710,clothing_store
Beyond Costumes,"530 Nepperhan Ave # 2, Yonkers, NY 10701",Costume rental service,Yonkers,,https://www.beyondcostumes.com/,,,https://www.beyondcostumes.com/contact/,,Contact,1,NY,10701,clothing_store
Skygraphx,"540 Nepperhan Ave, Yonkers, NY 10701",Clothing wholesaler,Yonkers,,http://skygraphx.com/,,,http://skygraphx.com/pages/contact-us,,Contact Us,1,NY,10701,clothing_store
Ms Dancewear,"1870 E Main St, Mohegan Lake, NY 10547",Clothing store,Mohegan Lake,,http://www.msdancewear.com/,,,http://www.msdancewear.com/contact_us_1,," Contact Us

",1,NY,10547,clothing_store
Genesis Jewelers of Yorktown,"32 Triangle Center, Yorktown Heights, NY 10598",Jewelry store,Yorktown Heights,,http://genesisjewelers.com/,,,https://yorktown.jewelry/store-near-me-contact/,,ABOUT US,1,NY,10598,clothing_store
JB Family Jewelers,"1883 Commerce St, Yorktown Heights, NY 10598",Jewelry designer,Yorktown Heights,,http://www.jbfamilyjewelers.com/,,,https://www.jbfamilyjewelers.com/catalog/category/view/s/contact/id/184/,,Contact,1,NY,10598,clothing_store
Fabric Mart  NY Inc,"2019 Crompond Rd, Yorktown Heights, NY 10598",Fabric store,Yorktown Heights,,http://fabricmartnyinc.com/,,,http://fabricmartnyinc.com/contact-us,,"



",1,NY,10598,clothing_store
