name,address,type,place,description,website_url,menu_url,gift_card_website,contact_website,gift_card_txt,contact_txt,searched,state,zipcode,store_type
Great Clips Airmont Colonial Square,"329 NY-59, Airmont, NY 10952",Beauty salon,Airmont,,http://www.greatclips.com/,,https://www.greatclips.com/gift-card-balance,https://www.greatclips.com/about-us/contact-us,Gift Card Balance,Contact Us,1,NY,10952,beauty_salon
De Beaute Grand Salon & Day Spa,"103 Chestnut Ridge Rd, Montvale, NJ 07645",Spa,Montvale,,http://www.debeautedayspa.com/,,https://www.debeautedayspa.com/gift-cards/,,Gift Cards,,1,NJ,07645,beauty_salon
Happy Nails & Spa,"350 NJ-17, Upper Saddle River, NJ 07458",Beauty salon,Upper Saddle River,,https://www.happynails.com/,,https://www.happynails.com/giftcards/,https://www.happynails.com/contact-us/,Gift Cards,Contact Us,1,NJ,07458,beauty_salon
Ania Hair Salon,"1704 Western Ave, Albany, NY 12203",Hair salon,Albany,,http://aniahairstudio.com/,,https://aniahairstudio.com/shop/,https://aniahairstudio.com/contact-us/,Gift Cards,Contact Us,1,NY,12203,beauty_salon
Bombshell Hair & Beauty Studio,"488 Broadway #105, Albany, NY 12207",Beauty salon,Albany,,http://www.bombshell-hair.com/,,https://www.vagaro.com/bombshellhairandbeautystudio/gift-certificates,,"

Gift Cards

",,1,NY,12207,beauty_salon
Tease,"12 E Bank St, Albion, NY 14411",Beauty salon,Albion,,http://facebook.com/,,http://facebook.com/teasebykylie/services/?service_id=2675258659236260,http://facebook.com/#,Gift cardsCan be purchased for any service. Gift cards are non transferable and non refundable.,Contact Tease on Messenger,1,NY,14411,beauty_salon
Thomas Austen Salon,"6720 Pittsford Palmyra Rd, Fairport, NY 14450",Beauty salon,Fairport,"Beauty salon offering haircuts, styling & coloring as well as facial & full-body waxing.",http://www.thomasaustensalon.com/,,http://www.thomasaustensalon.com/gift-cards,http://www.thomasaustensalon.com/about,Gift Cards,"
        About / Contact
    ",1,NY,14450,beauty_salon
RatchaLynn,"704 Main St, East Aurora, NY 14052",Beauty salon,East Aurora,,http://www.ratchalynn.com/,,http://www.ratchalynn.com/about.html,http://www.ratchalynn.com/contact.html,gift cards available,Contact,1,NY,14052,beauty_salon
WT Hair,"411 N Union St, Olean, NY 14760",Beauty salon,Olean,,http://wthair.net/,,http://wthair.net/gift-certificates.html,http://wthair.net/contact.html,"
				Gift Certificates
			","

			Contact
		
",1,NY,14760,beauty_salon
The Spa Haus,"182-13 Merrick Rd, Amityville, NY 11701",Beauty salon,Amityville,,https://www.thespahaus.com/,,https://www.thespahaus.com,https://www.thespahaus.com,GIFT CARDS,CONTACT,1,NY,11701,beauty_salon
STEPHANIA COIFFURE,"183 Broadway, Amityville, NY 11701",Hair salon,Amityville,,http://www.stephaniacoiffure.com/,,https://squareup.com/gift/YR8Q1TP2EA719/order,http://www.stephaniacoiffure.com/contact,Purchase Gift Card,Contact,1,NY,11701,beauty_salon
Clementine's Salon & Skincare,"2501 Dallas St #269, Aurora, CO 80010",Beauty salon,Aurora,,http://clementinesdenver.com/,,https://na1.meevo.com/EgiftApp/home?tenantId=20288,http://clementinesdenver.com/weddings/contact,"
              Buy a Gift Card
            ","
            Contact
          ",1,CO,80010,beauty_salon
BrowsBrazilians & Bikinis Inc,"3929 S Avon Rd, Avon, NY 14414",Waxing hair removal service,Avon,,http://browsbraziliansbikinis.skincaretherapy.net/,,http://browsbraziliansbikinis.skincaretherapy.net/gift-certificates,http://browsbraziliansbikinis.skincaretherapy.net/contact-information,Gift Certificates,Contact Information,1,NY,14414,beauty_salon
Curl Evolution,"233 E Main St, Babylon, NY 11702",Beauty salon,Babylon,,http://curlevolution.com/,,https://www.instagram.com/p/CAAUwx0HmIJ/,http://curlevolution.com/contact-us/,"
ðŸŒ¸Happy Motherâ€™s Day to all the mamas out ther

", Contact Us Today!,1,NY,11702,beauty_salon
Incentives Organic Spa & Salon,"157 Deer Park Ave, Babylon, NY 11702",Beauty salon,Babylon,,http://www.incentivespasalon.com/,,https://incentives.zenoti.com/WebStore/GiftCards.aspx?WebstoreType=0&centerId=68cccd68-2cf9-4892-9700-a3dd824f3fe3,http://www.incentivespasalon.com/contact-us/,Gift Cards,Contact Us,1,NY,11702,beauty_salon
Hairstories,"240 Deer Park Ave, Babylon, NY 11702",Hair salon,Babylon,,http://www.hairstories.com/,,http://www.secure-booker.com/Hairstories/InstantGiftCertificate.aspx,,E-Giftcards,,1,NY,11702,beauty_salon
Little Lash Boutique,"29 Deer Park Ave, Babylon, NY 11702",Beauty salon,Babylon,,https://littlelashboutique.com/,,https://www.secure-booker.com/littlelashboutique/ShopOnline/GiftCertificate.aspx,https://littlelashboutique.com/contact,Gift Certificates ,Contact,1,NY,11702,beauty_salon
La Tresse By Renee,"59 E Genesee St, Baldwinsville, NY 13027",Beauty salon,Baldwinsville,,http://www.latressesalon.com/,,http://www.latressesalon.com/contact-purchase-gift-card,http://www.latressesalon.com/contact-purchase-gift-card,"Contact, Purchase e-Gift Card","Contact, Purchase e-Gift Card",1,NY,13027,beauty_salon
Bella Nani Day Spa,"133 Milton Ave, Ballston Spa, NY 12020",Day spa,Ballston Spa,,http://www.bellanani.com/,,http://bellanani.com/gift-certificates,http://bellanani.com/contact,Gift Certificates,Contact,1,NY,12020,beauty_salon
Touch of Healing Day Spa,"6723 NY-415, Bath, NY 14810",Spa,Bath,,http://www.touchofhealing2014.com/,,https://www.touchofhealing2014.com/gift-cards,https://www.touchofhealing2014.com/contact,Gift Cards,Contact,1,NY,14810,beauty_salon
Wabi Sabi Salon,"41 Birch Hill Rd, Locust Valley, NY 11560",Beauty salon,Locust Valley,,http://wabisabisalon.com/,,http://www.secure-booker.com/wabisabisalon/ShopOnline/GiftCertificate.aspx,https://www.wabisabisalon.com/contactus.htm,http://www.secure-booker.com/wabisabisalon/ShopOnline/GiftCertificate.aspx,Contact Us,1,NY,11560,beauty_salon
Liberty & Beauty,"63 Liberty St #1, Newburgh, NY 12550",Beauty salon,Newburgh,,https://www.libertyandbeauty.com/,,https://squareup.com/gift/K5V1FASQAP0BH/order,https://www.libertyandbeauty.com/contact-us,"



",Contact Us,1,NY,12550,beauty_salon
Fusion Hair Color Bar,"3653 Lee Rd, Yorktown Heights, NY 10598",Hair salon,Yorktown Heights,,http://www.fusioncolorbar.com/,,https://squareup.com/gift/6GGEJERV9J3GH/order,http://www.fusioncolorbar.com/contact,eGIFT CARD,Hours/Contact,1,NY,10598,beauty_salon
Hair Wharf,"20 Valley Rd, Katonah, NY 10536",Beauty salon,Katonah,,http://www.hairwharf.com/,,https://squareup.com/gift/9YRAK124HKG1F/order,http://www.hairwharf.com/contact/1782356,"
Give the perfect gift card
",CONTACT,1,NY,10536,beauty_salon
Primary Aesthetic Skin Care,"460 Old Post Rd Suite 2G, Bedford, NY 10506",Medical spa,Bedford,,http://primaryaestheticskincare.net/,,https://www.thegiftcardcafe.com/accountshop.php?shop=13555,http://primaryaestheticskincare.net/contact/,Gift Certificates,Book an Appointment,1,NY,10506,beauty_salon
Apotheca Salon and Boutique,"101 E 3rd St, Bethlehem, PA 18015",Beauty salon,Bethlehem,"Boutique featuring women's clothing, shoes & accessories, plus various salon services.",http://www.apothecasalon.com/,,https://www.apothecasalon.com/gift-cards/,https://www.apothecasalon.com/contact-us/,Gift Cards,Contact Us,1,PA,18015,beauty_salon
AgeLess LLC,"3300 Chambers Rd #5238, Horseheads, NY 14845",Massage therapist,Horseheads,,http://www.agelessllc.com/,,https://agelessllc.com/about-ageless-spa-gift-certificates/,,GIFT CERTIFICATES,,1,NY,14845,beauty_salon
VaZa Salon,"137 Main St, Ossining, NY 10562",Beauty salon,Ossining,,http://www.vazasalon.com/,,http://www.vazasalon.com/gift-certificate,"http://maps.google.com/?q=137 Main St, Ossining, NY 10562",Gift Card,,1,NY,10562,beauty_salon
Dunkin Kehn,"1143 Pleasantville Rd, Briarcliff Manor, NY 10510",Cosmetics store,Briarcliff Manor,,http://www.dunkinkehn.com/,,http://www.dunkinkehn.com/products/gift-card,http://www.dunkinkehn.com/pages/contact-us,"
                Gift Certificates
              ",Contact Us,1,NY,10510,beauty_salon
Bella Maiya Day Spa,"1326 Pleasantville Rd, Briarcliff Manor, NY 10510",Day spa,Briarcliff Manor,"Day spa in a cozy, comfy house offering various massages, facials & body scrubs, plus waxing.",http://bellamaiyadayspa.com/,,http://bellamaiyadayspa.com/gift-cards.shtml,,PURCHASE GIFT CARDS,Find us on the map,1,NY,10510,beauty_salon
Donna Hair Designs,"81 N Greeley Ave, Chappaqua, NY 10514",Beauty salon,Chappaqua,,http://donnahairdesign.com/,,https://www.donnahairdesign.com/gift-certificates,https://www.donnahairdesign.com/contact,GIFT CERTIFICATES,Contact,1,NY,10514,beauty_salon
W Salon,"3246 Monroe Ave, Rochester, NY 14618",Beauty salon,Rochester,,http://wsalonrochester.com/,,https://wsalon.millenniumegift.com/,http://wsalonrochester.com/contact,Gift Cards,"
                Contact Us
              ",1,NY,14618,beauty_salon
Shear Ego Salon & Spa,"3349 Monroe Ave, Rochester, NY 14618",Beauty salon,Rochester,,http://www.shearego.com/,,http://www.shearego.com/gift-cards.html,,Gift Cards,,1,NY,14618,beauty_salon
Mint Salon,"2198 Monroe Ave, Rochester, NY 14618",Beauty salon,Rochester,,http://www.getminty.com/,,http://www.getminty.com/gift-cards,http://www.getminty.com/contact-us,"
Gift Cards
",Contact Us,1,NY,14618,beauty_salon
Chi Wah Organica,"2900 Monroe Ave, Rochester, NY 14618",Beauty salon,Rochester,,http://www.chiwah-organica.com/,,https://online-booking.salonbiz.com/olb/!page.widget_start?wbid=c1442t201504091243p7v59333kF5enmpZ83j4t&theme=1004&p_mobile=y,,"
CLICK HERE TO BUY A GIFT CERTIFICATE
",,1,NY,14618,beauty_salon
Posh Beauty Boutique,"118 Pondfield Rd, Bronxville, NY 10708",Day spa,Bronxville,,http://www.poshbronxville.com/,,https://go.booker.com/location/POSHBeauty/buy/gift-certificate,,Click Here to Purchase Gift Certificates,,1,NY,10708,beauty_salon
Lemon Tree Hair Salons Holbrook,"411 Furrows Rd #3, Holbrook, NY 11741",Beauty salon,Holbrook,,http://www.lemontreeofholbrook.com/,,https://squareup.com/gift/PR77K0JWACHHR/order?fbclid=IwAR38PPP9CWVMwMHQqFPtBtNP_XHr6AOZHfKShc5a_6mLweJQJdyb-sulB5k,http://www.lemontreeofholbrook.com/#contact,Gift Cards,Contact,1,NY,11741,beauty_salon
Rose Hair & Healing,"410 Fulton St, Troy, NY 12180",Beauty salon,Troy,,https://www.rosehairandhealing.com/,,https://www.rosehairandhealing.com/#new-page-1-section,https://www.rosehairandhealing.com/#contact-section,"
                        egift card
                      ","
                        Contact
                      ",1,NY,12180,beauty_salon
Fuse Salon Gallery,"984 Elmwood Ave, Buffalo, NY 14222",Beauty salon,Buffalo,,http://fusesalongallery.com/,,http://www.secure-booker.com/fusesalon/InstantGiftCertificate.aspx,http://fusesalongallery.com/contact-us/,"

",Contact Us,1,NY,14222,beauty_salon
Capello Salon Downtown,"220 Franklin St, Buffalo, NY 14202",Hair salon,Buffalo,,http://capellodowntown.com/,,https://mycloud.prosoinc.com/psgconlineaut/gcmain.asp?cl=13731,https://www.capellodowntown.com,PURCHASE A GIFTCARD,Contact,1,NY,14202,beauty_salon
Panache Salon & Day Spa Inc,"525 W 3rd St, Jamestown, NY 14701",Beauty salon,Jamestown,,http://panachejmst.com/,,https://na0.meevo.com/EgiftApp/home?tenantId=101311,http://panachejamestown.com/contact-us/,Online Gift Cards,Contact Us,1,NY,14701,beauty_salon
Salon 1,"748 Foote Ave, Jamestown, NY 14701",Beauty salon,Jamestown,,http://www.salon1jtny.com/,,https://salon1.boomtime.com/lgift,http://www.salon1jtny.com/contact-us,Buy Gift Certificates,Contact Us,1,NY,14701,beauty_salon
Leshag Beauty Salon,"292C Fair St, Kingston, NY 12401",Beauty salon,Kingston,,https://leshag.com/,,http://www.secure-booker.com/LeShag/ShopOnline/GiftCertificate.aspx,https://leshag.com/contact,Gift Cards,Contact,1,NY,12401,beauty_salon
Mountain Club Spa,"62 Liftside Dr, Hunter, NY 12442",Spa,Hunter,"Charming spa in a picturesque locale offering herbal body treatments, facials & massage.",https://www.huntermtn.com/,,https://www.huntermtn.com:443/gift-cards/ ,https://www.huntermtn.com/mountain-info/contact-us/,Gift Cards,Contact Us,1,NY,12442,beauty_salon
Royaljlee Treatments,"64 W Main Ave, Camillus, NY 13031",Beauty salon,Camillus,,http://royaljleetreatments.com/,,http://royaljleetreatments.com/covid-19-shut-down-please-buy-giftcards-to-use-later,http://royaljleetreatments.com/contact,"
COVID -19 shut down please buy giftcards to use later.
","
Connect with Us
",1,NY,13031,beauty_salon
TOTAL KNOCKOUT SALON AND SPA,"2510 Rochester Rd #200, Canandaigua, NY 14424",Beauty salon,Canandaigua,,http://totalknockoutsalon.com/,,https://www.totalknockoutsalon.com/gift-card,https://www.totalknockoutsalon.com/contact-us,Gift Cards,Contact Us,1,NY,14424,beauty_salon
CT Nails & Spa,"1503 Canandaigua Rd, Macedon, NY 14502",Nail salon,Macedon,,http://ctnailsspany.com/,,https://ctnailsspany.com/gift-card,https://ctnailsspany.com/contactus,E-Gift,Contact Us,1,NY,14502,beauty_salon
Glow Skin Care & Spa,"75 Main St, Canton, NY 13617",Beauty salon,Canton,,http://glowspa.org/,,http://glowspa.org/store/index.php?route=product/product&path=60&product_id=50,http://glowspa.org/contact,Gift Cards,Contact,1,NY,13617,beauty_salon
Burke Williams Day Spa,"355 Santana Row #2010, San Jose, CA 95128",Beauty salon,San Jose,,http://burkewilliamsspa.com/,,https://secure.burkewilliamsspa.com/giftcerts,http://burkewilliamsspa.com/javascript:;,Burke Williams Gift Cards,CONTACT,1,CA,95128,beauty_salon
Joelle's Salon and Day Spa,"11740 Carmel Mountain Rd #198, San Diego, CA 92128",Beauty salon,San Diego,,http://www.joellessalon.com/,,https://joellessalon.com////product/gift-card/,https://joellessalon.com/contact/,Gift Cards,Contact,1,CA,92128,beauty_salon
Bewitched  Cheveux Salon,"964 Broadway, Woodmere, NY 11598",Beauty salon,Woodmere,,http://www.cheveuxspa.com/,,http://www.cheveuxspa.com/gift-certificates/,http://www.cheveuxspa.com/contact-us/,gift certificatesbuy one now,contact usnow!,1,NY,11598,beauty_salon
Laser Hair Removal  Greater Binghamton Laser Care Binghamton NY,"365 Harry L Dr, Johnson City, NY 13790",Laser hair removal service,Johnson City,,http://binghamtonlaser.com/,,https://binghamtonlaser.com/gift-card-request/,http://binghamtonlaser.com/mailto:monica@greaterbingobgyn.com,Gift Card Request,Contact Us,1,NY,13790,beauty_salon
Acacia Aveda Lifestyle Salonspa,"1308 Vestal Pkwy E # 3, Vestal, NY 13850",Beauty salon,Vestal,,http://www.acaciasalonspa.com/,,https://secure.bluepixelstudio.com/~acaciaav/acacia_aveda_gift_certificates/purchase.php,http://www.acaciasalonspa.com/#contact,"
Purchase Gift Card
",Contact,1,NY,13850,beauty_salon
Karni Griffin Skin Spa,"4129 Vestal Rd, Vestal, NY 13850",Electrolysis hair removal service,Vestal,,http://www.karnigriffinskinspa.com/,,https://www.karnigriffinskinspa.com/shop,https://www.karnigriffinskinspa.com/contact-us,Gift Certificates,Contact Us,1,NY,13850,beauty_salon
C'est La Vie Spa and Salon,"552 NY-17M, Middletown, NY 10940",Beauty salon,Middletown,,http://www.cestlaviespa.com/,,https://www.cestlaviespa.com/gift-card/,https://www.cestlaviespa.com/contact/,Gift Card,Contact,1,NY,10940,beauty_salon
Moxie Salon And Beauty Bar,"504 Bloomfield Ave, Montclair, NJ 07042",Beauty salon,Montclair,,http://moxiemontclair.com/,,https://na1.meevo.com/EgiftApp/home?tenantId=200218,https://www.moxiesalonandbeautybar.com/contact/,"
 EGIFT CARDS
",Contact For Salon Services,1,NJ,07042,beauty_salon
Encore Salon & Day Spa,"203 S Main St, North Syracuse, NY 13212",Beauty salon,North Syracuse,,https://www.encoredayspa.com/,,https://www.encoredayspa.com/packages/,https://www.encoredayspa.com/contact-3/,Gift Certificates,Contact,1,NY,13212,beauty_salon
A Touch Above Wellness Spa,"2605 Brewerton Rd, Mattydale, NY 13211",Beauty salon,Mattydale,,http://www.atouchabove-cny.com/,,http://www.atouchabove-cny.com/gift-certificates.html,http://www.atouchabove-cny.com/contact-us.html,Purchase Now,Contact Us,1,NY,13211,beauty_salon
Artistry in Hanover,"123 E Water St, Syracuse, NY 13202",Beauty salon,Syracuse,,http://www.artistryinhanover.com/,,https://squareup.com/gift/DAFRTYTFS9WN6/order,http://www.artistryinhanover.com/contact,"



","
            Contact
          ",1,NY,13202,beauty_salon
AZ Massage Therapy & Hair Cut Studio,"2708 N Fourth St Suite B-1, Flagstaff, AZ 86004",Massage therapist,Flagstaff,,http://www.nazmassage.com/,,http://www.nazmassage.com/gift-cards.html,http://www.nazmassage.com/contact-us.html,"
				GIFT CARDS
			","
				Contact us
			",1,AZ,86004,beauty_salon
Elle Aire Blow Dry Bar,"8212 Main St, Buffalo, NY 14221",Beauty salon,Buffalo,,http://elleairebuffalo.com/,,http://elleairebuffalo.com/gift-cards,http://elleairebuffalo.com/contact-us,"
                GIFT CARDS
              ","
              Contact Us
            ",1,NY,14221,beauty_salon
Innovative Esthetics,"200 E Eckerson Rd #280, New City, NY 10956",Beauty salon,New City,,http://innovativeesthetics.com/,,http://innovativeesthetics.com/products-and-gift-certificates.html,http://innovativeesthetics.com/contactUs.html,Gift Certificates,Contact Us,1,NY,10956,beauty_salon
Nail Cottage LLC,"4 Old Lake Rd # 2, Valley Cottage, NY 10989",Nail salon,Valley Cottage,,https://www.valleycottagenail.com/,,https://gmsiso.com/egift/4.htm,https://www.valleycottagenail.com,Gift Card,Contact,1,NY,10989,beauty_salon
Lazur La Vie Laser Spa,"267 A Main St, Nyack, NY 10960",Medical spa,Nyack,,https://lazurlavie.com/,,https://lazurlavie.com/gift-cards/,https://lazurlavie.com/#,Gift Cards,Contact,1,NY,10960,beauty_salon
Studio 11 Salon & Day Spa,"8125 Brewerton Road, 8125 US-11, Cicero, NY 13039",Beauty salon,Cicero,,https://www.studio11dayspa.com/,,https://www.thegiftcardcafe.com/cart/index.php?storeID=13554,https://www.studio11dayspa.com/contact,,Contact,1,NY,13039,beauty_salon
Angels Beauty Spa & Hair Studio,"1536 Crescent Rd, Clifton Park, NY 12065",Hair salon,Clifton Park,,http://www.angelsbeautyspa.com/,,http://www.angelsbeautyspa.com/contact/gift-cards/,http://www.angelsbeautyspa.com/contact/,Gift Cards,Contact,1,NY,12065,beauty_salon
Hair 2000 Office,"9 Morris Ln # D, Clifton Park, NY 12065",Beauty salon,Clifton Park,,http://www.hairnbodyessentials.com/,,https://hairnbody.boomtime.com/lgift,,Instant Gift Certificates,,1,NY,12065,beauty_salon
Just Glamorous Salon & Boutique,"1747 U.S. 9, Clifton Park, NY 12065",Hair salon,Clifton Park,,http://www.justglamoroussalon.com/,,https://scontent-lga3-1.xx.fbcdn.net/v/t51.2885-15/95264795_918136838633704_7052671566828554615_n.jpg?_nc_cat=105&_nc_sid=8ae9d6&_nc_ohc=0UBSfNsYk7YAX_1m3TO&_nc_ht=scontent-lga3-1.xx&oh=5c14473d17cb98df612b3bead071c148&oe=5EE091EA,https://www.justglamoroussalon.com/contact/,"
Open
",Contact,1,NY,12065,beauty_salon
Incredible Skin by Lyn,"1410 U.S. 9, Clifton Park, NY 12065",Skin care clinic,Clifton Park,,http://www.incredibleskinbylyn.com/,,http://www.incredibleskinbylyn.com/gift-certificates/,http://www.incredibleskinbylyn.com/contact-us/,Gift Certificates,Contact Us,1,NY,12065,beauty_salon
Serenity Day Spa And Salon,"1523 Columbia Turnpike, Castleton, NY 12033",Spa,Castleton,,http://serenitydayspaandsalon.net/,,https://clients.mindbodyonline.com/LoginLaunch?studioid=899743,https://serenitydayspaandsalon.net/#contact," Purchase a Gift Certificate 
",Contact,1,NY,12033,beauty_salon
Sun Nails,"1105 New Loudon Rd, Cohoes, NY 12047",Nail salon,Cohoes,,http://sunnailsspa.com/,,http://sunnailsspa.com/gift-card,http://sunnailsspa.com/contactus,E-Gift,Contact Us,1,NY,12047,beauty_salon
Grit  Grace Salon and Boutique,"664 New Loudon Rd, Latham, NY 12110",Beauty salon,Latham,,https://gritandgracesalon.com/,,https://gritandgracesalon.com/product/gift-card,https://gritandgracesalon.com/contact-us,Buy Now,contact,1,NY,12110,beauty_salon
Kimberley's A Day Spa Ltd,"982 New Loudon Rd, Latham, NY 12110",Day spa,Latham,,http://www.kimberleysadayspa.com/,,http://www.kimberleysadayspa.com/giftcertificates.html,http://www.kimberleysadayspa.com/considerations.html,,CONTACT US,1,NY,12110,beauty_salon
The Shop A Beauty and Grooming Parlor,"814 Troy Schenectady Rd, Latham, NY 12110",Hair salon,Latham,,http://www.theshopon7.com/,,https://www.instagram.com/p/B-AnsdCpIO-/,http://www.theshopon7.com/contact,"

","
            CONTACT
          ",1,NY,12110,beauty_salon
Edo Salon,"601 Haight St, San Francisco, CA 94117",Beauty salon,San Francisco,Creative modern hair salon including an art gallery with funky rotating local exhibits.,https://www.edosalon.com/,,https://squareup.com/gift/4VCJWKZWDEVTM/order,https://www.edosalon.com/contact,Purchase a Gift Card Here! ,Contact,1,CA,94117,beauty_salon
Belle Shea Salon,"2700 S College Ave #160, Fort Collins, CO 80525",Beauty salon,Fort Collins,,http://www.bellesheasalon.com/,,https://squareup.com/gift/36N22CZ68CD0C/order,http://www.bellesheasalon.com/contactus,purchase e-gift cards,Contact,1,CO,80525,beauty_salon
Trios Aveda Salon,"4342 S College Ave, Fort Collins, CO 80525",Beauty salon,Fort Collins,,http://www.triosaveda.com/,,https://triosaveda.com/gift-cards/,https://triosaveda.com/contact/,Gift Cards,Contact,1,CO,80525,beauty_salon
Europa Colour Salon Spa,"123 N College Ave, Fort Collins, CO 80524",Beauty salon,Fort Collins,,http://www.europafc.com/,,https://online-booking.salonbiz.com/olb/%21page.widget_start?wbid=c613t201508061847pms8X78oVx7464x8hP5n3&theme=1110&p_large=y,https://europafc.com/contact.php,GIFT CARDS,CONTACT,1,CO,80524,beauty_salon
A New Leaf Salon and Spa,"36 Main St, Hollis, ME 04042",Beauty salon,Hollis,,https://anewleafsalonandspa.com/,,https://anewleafsalonandspa.com/gift-cards/,https://anewleafsalonandspa.com/hollis-center-contact/,"

Gift Cards 





 
","

Contact 





 
",1,ME,04042,beauty_salon
Poiema Salon and Spa,"2093 Western Ave, Guilderland, NY 12084",Beauty salon,Guilderland,,http://www.poiema.cc/,,http://www.poiema.cc/gift-certificates/,http://www.poiema.cc/contact/,Gift Cards,Contact,1,NY,12084,beauty_salon
W's Salon,"1070 Olin Ave, San Jose, CA 95128",Beauty salon,San Jose,,http://www.wssaloninc.com/,,https://es.salontranscripts.com/4e5432c100010d3c4e4ba8c0/,http://www.wssaloninc.com/contact.aspx,Book Appointment/Purchase Gift Card,Contact,1,CA,95128,beauty_salon
Root Thirty Nine Salon,"500 S Cascade Dr, Springville, NY 14141",Beauty salon,Springville,,http://www.root39salon.com/,,http://www.root39salon.com/giftcertificates.php,http://www.root39salon.com/contact.php,,Contact/Hours,1,NY,14141,beauty_salon
Glow Beauty Boutique LLC,"9 E Pulteney St, Corning, NY 14830",Facial spa,Corning,,http://www.glowbeautyboutique.com/,,https://squareup.com/gift/TA0V3KC555MMX/order,http://www.glowbeautyboutique.com/contact-us,"

PurchaseÃ‚Â 
Gift Cards
Here

",Contact Us,1,NY,14830,beauty_salon
Jo Malone London at Saks Fifth Avenue,"611 5th Ave, New York, NY 10022",Cosmetics store,New York,"Upmarket retailer of scented products including colognes, bath oils, soaps and candles.",http://www.jomalone.com/,,http://www.jomalone.com/giftcards/index.tmpl,http://www.jomalone.com/customer-service-landing-page,GIFT CARDS,Contact Us,1,NY,10022,beauty_salon
Carla's Hair Salon,"1735 E Main St, Mohegan Lake, NY 10547",Beauty salon,Mohegan Lake,,http://carlashairsalon.com/,,https://na0.meevo.com/EgiftApp/home?tenantId=100945,http://carlashairsalon.com/contact.html,Gift Cards,Contact,1,NY,10547,beauty_salon
Carol Horton LMT,"150, Cortland, NY 13045",Massage therapist,Cortland,,http://www.carolhortonmassage.com/,,http://www.carolhortonmassage.com/rates-giftcerts-withoutpayment.html,http://www.carolhortonmassage.com/contact.html,RATES/GIFT CERTIFICATES/PAYMENTS,CONTACT,1,NY,13045,beauty_salon
Parlor,"102 Avenue B, New York, NY 10009",Beauty salon,New York,,http://www.parlorhairsalon.com/,,http://www.parlorhairsalon.com/book-online,,Gift Cards,,1,NY,10009,beauty_salon
Bumble and bumble,"146 E 56th St, New York, NY 10022",Beauty salon,New York,,http://www.bumbleandbumble.com/,,https://www.bumbleandbumble.com/giftcards/egiftcard.tmpl,http://www.bumbleandbumble.com/,Bb.egift card,sign up,1,NY,10022,beauty_salon
Irma's Hair Salon,"129 Grand St, New York, NY 10013",Hair salon,New York,,http://www.laicale.com/,,http://www.laicale.com/gift-certificates,,"
Gift Certificates
",,1,NY,10013,beauty_salon
Salon D'Artista & Spa,"524 Commack Rd, Deer Park, NY 11729",Beauty salon,Deer Park,,http://salondartista.com/,,https://www.salonvision.com/SALONDARTISTA/GiftCertificatePop.aspx,http://salondartista.com/#,"  

BUY GIFT CERTIFICATE
"," CONTACT

",1,NY,11729,beauty_salon
Future You by Julie,"5132 Transit Rd, Depew, NY 14043",Beauty salon,Depew,,http://futureyoubyjulie.com/,,http://futureyoubyjulie.com/gift-cards,http://futureyoubyjulie.com/contact,Gift Cards,Contact,1,NY,14043,beauty_salon
Capello Salon & Spa,"9424 Transit Rd, East Amherst, NY 14051",Hair salon,East Amherst,,http://www.capellosalon.com/,,http://capellosalon.com/store/index.html,https://capellosalon.com/contact-us/,Gift Certificates,Contact Us,1,NY,14051,beauty_salon
Image Solutions Salon,"5781 Bridge St #31, East Syracuse, NY 13057",Beauty salon,East Syracuse,,http://shop.imagesolutionssalon.com/,,http://shop.imagesolutionssalon.com/collections/gift-cards,,"
            Gift Cards
          ",,1,NY,13057,beauty_salon
Painted Lady Studios,"Marshallâ€™s Plaza, Sola Salons, Studio #11, 3409 Erie Blvd E, Syracuse, NY 13214",Beauty salon,Syracuse,,http://paintedladystudios.com/,,https://paintedladystudios.glossgenius.com/gift-cards,,"
        E-Gift Certificates
      ",,1,NY,13214,beauty_salon
The Hair Bar Salon & Spa,"432 3rd Ave, New York, NY 10016",Hair salon,New York,,http://hairbarnyc.com/,,https://hairbarnyc.com/product-category/egiftcard/,https://hairbarnyc.com/contact-us/,E-Gift Card,Contact,1,NY,10016,beauty_salon
Rua Hair Salon,"109 Lake Ave, Tuckahoe, NY 10707",Hair salon,Tuckahoe,,https://www.ruasalon.com/,,https://www.ruasalon.com/giftcards,https://www.ruasalon.com/contact,"
              Gift Card
            ","
                Contact
              ",1,NY,10707,beauty_salon
SETSUKO at Jean Claude,"16 Palmer Ave, Scarsdale, NY 10583",Beauty salon,Scarsdale,,https://www.setsukony.com/,,https://www.setsukony.com/gift-voucher/,https://www.setsukony.com/contact-hair-salon-makeups-stylists/,GIFT CARD,CONTACT,1,NY,10583,beauty_salon
Tao Foot Spa,"1158 Main St, Fishkill, NY 12524",Spa,Fishkill,,http://www.taospainfishkill.com/,,http://www.taospainfishkill.com/buying-gift-certificated,http://www.taospainfishkill.com/contact,buying gift certificated,CONTACT,1,NY,12524,beauty_salon
The Paint Box,"156 Driggs Ave, Brooklyn, NY 11222",Beauty salon,Brooklyn,,http://www.thepaintboxbk.com/,,https://squareup.com/gift/6YJGXV553P8QC/order,http://thepaintboxbk.com/contact/,Gift Cards,Location & Hours,1,NY,11222,beauty_salon
Alexandria's Beauty Salon,"492 Troy Schenectady Rd, Latham, NY 12110",Beauty salon,Latham,,http://www.alexandriasbeautysalon.com/,,https://online-booking.salonbiz.com/olb/!page.widget_start?p_start=2&theme=3263&wbid=c2691t201901311018pd6X452u7bv32i85n7PRV,http://www.alexandriasbeautysalon.com/contact,"
        Gift Cards
      ","
            Contact
          ",1,NY,12110,beauty_salon
Skin Forensics,"255 Lark St, Albany, NY 12210",Spa,Albany,,http://www.skinforensics.com/,,https://squareup.com/gift/CTM8R277NVWSX/order?external_source=postoffice-egift-widget&external_token=JAxxfWKLEKXh3EFZ,,"
Gift Certificates 
",,1,NY,12210,beauty_salon
KarinaNYC Skin & Lash Clinic,"55 Northern Blvd, Greenvale, NY 11548",Facial spa,Greenvale,,http://www.karinanyc.com/,,http://www.karinanyc.com/#giftcards-section,,"
                        GiftCards
                      ",,1,NY,11548,beauty_salon
Bonsignore Studio & Spa,"1669 Penfield Rd, Rochester, NY 14625",Beauty salon,Rochester,,https://bonsignorestudio.com/,,http://bonsignorestudio.boomtime.com/lgift,https://bonsignorestudio.com/contact-us/,Instant Gift Certificate,Contact Us,1,NY,14625,beauty_salon
Skinlogix,"2132 Five Mile Line Rd, Penfield, NY 14526",Beauty salon,Penfield,,http://www.skinlogix.net/,,http://www.spafinder.com/Catalog/spagiftcertificates.jsp?code=MOMDAY20&cmpID=MOMDAY20&spashare=true,,* Gift Certificates Available *,,1,NY,14526,beauty_salon
Fresh Facials & Feet,"1801 Penfield Rd, Penfield, NY 14526",Beauty salon,Penfield,,http://www.freshfacialsandfeet.com/,,http://www.freshfacialsandfeet.com/new-page-1,http://www.freshfacialsandfeet.com/contact,Gift Certificates,Contact,1,NY,14526,beauty_salon
Clarins Skin Spa,"865 Market St, San Francisco, CA 94103",Facial spa,San Francisco,,http://www.clarinsusa.com/,,https://www.clarinsusa.com/en/gift-certificates/,,Clarins.com eGift Certificates,,1,CA,94103,beauty_salon
Edo Salon Oakland,"4245 Piedmont Ave, Oakland, CA 94611",Hair salon,Oakland,,http://www.edosalon.com/,,https://squareup.com/gift/4VCJWKZWDEVTM/order,http://www.edosalon.com/contact,Purchase a Gift Card Here! ,Contact,1,CA,94611,beauty_salon
Polished Nail Bar & Salon,"1941 Wantagh Ave, Wantagh, NY 11793",Beauty salon,Wantagh,,https://polishnailandbar.com/,,https://squareup.com/gift/HYY2CHBK05DQR/order,https://polishnailandbar.com/contact-us,"
        Gift Cards
      ","
            Contact Us
          ",1,NY,11793,beauty_salon
Clarins,"1000 3rd Ave, New York, NY 10022",Cosmetics store,New York,,https://www.clarinsusa.com/,,https://www.clarinsusa.com/en/gift-certificates/,,Clarins.com eGift Certificates,,1,NY,10022,beauty_salon
Cielo Salon,"674 Main St, East Aurora, NY 14052",Beauty salon,East Aurora,,http://cielo-salon.com/,,https://squareup.com/gift/KG1SPGPZX2QPV/order,http://cielo-salon.com/contact,Gift Cards,Contact,1,NY,14052,beauty_salon
Relaxation Station Spa,"3281 Transit Rd, Elma, NY 14059",Massage therapist,Elma,,http://www.relaxationstationwny.com/,,https://squareup.com/gift/DB93DQ4DM6YG5/order,https://www.relaxationstationwny.com,Send a Gift Card,CONTACT,1,NY,14059,beauty_salon
Tupelo Honey Spa,"2330 Bowen Rd, Elma, NY 14059",Waxing hair removal service,Elma,,http://www.tupelohoneyspa.com/,,https://squareup.com/gift/VCQDNPYY0EWDH/order,http://www.tupelohoneyspa.com/contact/,Gift Cards,Contact,1,NY,14059,beauty_salon
Follow Joy  Joy R Storch LMT Esthetician,"100 N Main St #201, Elmira, NY 14901",Massage therapist,Elmira,,https://followjoy.massagetherapy.com/,,https://followjoy.massagetherapy.com/gift-certificates-and-payment,https://followjoy.massagetherapy.com/contact-information,Gift Certificates and Payment,Contact Information,1,NY,14901,beauty_salon
Heaven to Earth Wellness Spa,"120 W 14th St, Elmira Heights, NY 14903",Massage therapist,Elmira Heights,,http://www.heaventoearthmassage.com/,,http://shop.heaventoearthmassage.com,http://www.heaventoearthmassage.com/Contact.html,Gift Certificates,Hair Styling Photos,1,NY,14903,beauty_salon
Transformations Hair Studio,"222 Elmira Rd #200, Ithaca, NY 14850",Beauty salon,Ithaca,,http://www.transformationshairandbody.com/,,https://www.vagaro.com/transformationshairandbody/gift-certificates,https://www.transformationshairstudio.com/contact-hair-salon-transformations-ithaca-ny/,Gift Certificates,Contact,1,NY,14850,beauty_salon
I Love Honeycomb,"101 S Main St, Horseheads, NY 14845",Hair salon,Horseheads,,http://www.ilovehoneycomb.com/,,https://squareup.com/gift/4H1ATKQAJ0KQM/order,,Gift Card,,1,NY,14845,beauty_salon
Robilotti Salon,"2104 Tracy St, Endicott, NY 13760",Beauty salon,Endicott,,https://www.robilotti.biz/,,https://robilotti.biz/product/gift-certificate/,https://robilotti.biz/contact/,gift certificates,contact,1,NY,13760,beauty_salon
The Dollhouse NYC,"101 Washington Ave, Endicott, NY 13760",Beauty salon,Endicott,,https://linktr.ee/,,https://app.acuityscheduling.com/catalog.php?owner=13377931&action=addCart&clear=1&id=807209,,"

        
        	$25 giftcard for only $10

            ",,1,NY,13760,beauty_salon
Signature Styles,"1610 N Lyndonville Rd, Lyndonville, NY 14098",Beauty salon,Lyndonville,,https://www.signaturestyle.com/,,https://www.signaturestyle.com/gift-cards.html,https://www.signaturestyle.com/#,Gift Cards ,contact number link,1,NY,14098,beauty_salon
Haven Spa,"6464 Montgomery St, Rhinebeck, NY 12572",Spa,Rhinebeck,,http://www.havenrhinebeck.com/,,https://www.havenrhinebeck.com/gift-certificates/,,Gifts,"
















Home
About
Services
Products
Specials
Gifts
Parties
Spa Blog
Online Booking
Contact Us









Haven Spa, 6464 Montgomery Street, Rhinebeck, New York 12572 â€¢ (845) 876-7369 â€¢ Closed tuesdays
















",1,NY,12572,beauty_salon
Cuttage,"6929 Erie Rd, Derby, NY 14047",Beauty salon,Derby,,http://www.myblisssalonspa.com/,,http://www.myblisssalonspa.com/services.html#gifts,http://www.myblisssalonspa.com/contact.html,Gift Certificates,Contact Us,1,NY,14047,beauty_salon
Chelsea Leigh Beauty,"2900 Hempstead Turnpike #208, Levittown, NY 11756",Makeup artist,Levittown,,http://chelsealeighbeauty.com/,,https://squareup.com/gift/6MRMBEV5455HD/order,http://chelsealeighbeauty.com/contact.html,"
PURCHASE GIFT CARD
","
				Contact 
			",1,NY,11756,beauty_salon
Fantastic Day Spa,"116 Secatogue Ave, Farmingdale, NY 11735",Day spa,Farmingdale,,http://www.fantasticdayspa.com/,,https://fantasticspa.boomtime.com/lgift,https://fantasticdayspa.com/bellmore/contact/,Gift Certificates,Contact,1,NY,11735,beauty_salon
Allure Hair Co,"495 Fenway Dr # 4, Fenton, MI 48430",Beauty salon,Fenton,,http://allurehairco.com/,,http://stylenet.com/AllureHairCo/gift-certificates/,http://stylenet.com/AllureHairCo/contact-us/,Gift Certificates,Contact Us,1,MI,48430,beauty_salon
Port Salon & Day Spa,"313 Gravois Rd, Fenton, MO 63026",Hair salon,Fenton,,http://www.portsalonanddayspa.com/,,https://www.portsalonanddayspa.com,http://www.portsalonanddayspa.com/mailto:www.portsalonanddayspa@gmail.com,,CONTACT US,1,MO,63026,beauty_salon
MassageLuXe,"1581 Sloat Blvd, San Francisco, CA 94132",Massage spa,San Francisco,,http://massageluxe.com/,,http://massageluxe.com/us,https://massageluxe.com/contact-2/,Gift Certificates,Contact Us,1,CA,94132,beauty_salon
Shear Love Salon,"2350 NY-9D, Wappingers Falls, NY 12590",Hair salon,Wappingers Falls,,http://www.shearloveny.com/,,https://www.salonvision.com/shearlove/GiftCertificatePop.aspx,http://www.shearloveny.com/contact.html,- PURCHASE A GIFT CARD -,Contact,1,NY,12590,beauty_salon
lasermed llc,"17 Old Main St, Fishkill, NY 12524",Spa,Fishkill,,http://www.lasermedllc.com/,,https://www.lasermedllc.com/specialsgift-certificates/,https://www.lasermedllc.com/contact-us/,Specials/Gift Certificates,Contact Us,1,NY,12524,beauty_salon
Somatic Massage Therapy & Spa,"113 Jericho Turnpike, Floral Park, NY 11001",Massage spa,Floral Park,,http://www.somaticmassagepc.com/,,https://clients.mindbodyonline.com/classic/ws?studioid=526186&stype=42,https://somaticmassagepc.com/contacts-us/,Gift Certificates,Contact Us,1,NY,11001,beauty_salon
Body Works Day Spa Yoga Studio,"58 Covert Ave, Stewart Manor, NY 11530",Day spa,Stewart Manor,,http://www.bodyworksspa.com/,,https://clients.mindbodyonline.com/classic/ws?studioid=235472&stype=42,http://www.bodyworksspa.com/contact.html,Gift Cards,Contact,1,NY,11530,beauty_salon
Artistique Hair Salon,"39-11 Bell Blvd, Bayside, NY 11361",Hair salon,Bayside,,http://hairartistique.com/,,https://hairartistique.com/product/gift-card-custom-amount/,https://hairartistique.com/contact-us/,BUY NOW,Contacts,1,NY,11361,beauty_salon
Salon One,"1209 Park Ave, Utica, NY 13501",Hair salon,Utica,,http://salonone.company/,,https://www.salonone.company/gift-card,https://www.salonone.company,GIFT CARD,CONTACT,1,NY,13501,beauty_salon
Facial Expressions Day Spa,"83 Water St, Fredonia, NY 14063",Day spa,Fredonia,,http://facialexpressionsdayspa.com/,,http://facialexpressionsdayspa.com/gift-certificates/,,Gift Certificates,,1,NY,14063,beauty_salon
Fredonia Massage Therapy,"351 E 78th St, New York, NY 10075",Massage therapist,New York,,http://www.eastsidemassage.com/,,https://www.eastsidemassage.com/giftcards,,G I F T - C A R D S,,1,NY,10075,beauty_salon
Trimz Barber Shop,"20 Guy Lombardo Ave, Freeport, NY 11520",Barber shop,Freeport,,http://trimzbarbershop.com/,,http://trimzbarbershop.com/gift_certificates.html,http://trimzbarbershop.com/contact.html, GiftÂ Certificates ,,1,NY,11520,beauty_salon
Vanity Salon,"135 Merrick Ave, Merrick, NY 11566",Beauty salon,Merrick,,https://www.salonbuilder.com/,,https://www.salonbuilder.com/gift-certificates.aspx ,,"
",,1,NY,11566,beauty_salon
Luminez Salon,"2161 Merrick Rd, Merrick, NY 11566",Beauty salon,Merrick,,http://luminezsalon.com/,,https://www.instagram.com/p/B_4t-I0lcfL/,http://luminezsalon.com/contact/,"
Instagram post 2303793391572731851_1429409181

",CONTACT,1,NY,11566,beauty_salon
Feather Wax Shoppe,"294 W Merrick Rd #10, Freeport, NY 11520",Waxing hair removal service,Freeport,,http://www.feather-wax-shoppe.com/,,http://www.feather-wax-shoppe.com/giftcards.html,http://www.feather-wax-shoppe.com/contact.html,"
				Giftcards
			
			","
				Contact
			
			",1,NY,11520,beauty_salon
Integrative Healing Spa,"3 4th Ave, Oswego, NY 13126",Day spa,Oswego,,http://www.integrativehealingspa.com/,,http://www.secure-booker.com/ihs/ShopOnline/GiftCertificate.aspx,http://www.integrativehealingspa.com/contact-us.aspx,Purchase A Gift Certificate,Contact us,1,NY,13126,beauty_salon
Garden City Skin Care Center,"166 7th St B, Garden City, NY 11530",Hair removal service,Garden City,,http://www.kpsearch.com/,,http://www.kpsearch.com/all.asp?action=giftcertificates,http://www.kpsearch.com/all.asp?action=contactus,"Gift
                                      Certificate",Contact,1,NY,11530,beauty_salon
Therapeutic Massage & Bodyworks,"20 Regency Oaks Blvd, Rochester, NY 14624",Massage spa,Rochester,,https://www.massage-bodyworks.com/,,https://go.booker.com/location/tmbrochester/buy/gift-certificate,https://www.massage-bodyworks.com/contact-us/,GIFT CERTIFICATES,Contact,1,NY,14624,beauty_salon
Bodywork Unbound Therapeutic Massage & Spa,"906 Elmgrove Rd #3, Rochester, NY 14624",Day spa,Rochester,,http://www.bodyworkunbound.com/,,https://www.vagaro.com/bodyworkunbound/gift-certificates,https://www.bodyworkunbound.com,GIFT CERTIFICATES,CONTACT,1,NY,14624,beauty_salon
Colorblock,"4149 Lakeville Rd, Geneseo, NY 14454",Nail salon,Geneseo,,https://m.facebook.com/,,https://m.facebook.com/hashtag/giftcards?refid=17&_ft_=mf_story_key.2967027286717430%3Atop_level_post_id.2967027286717430%3Atl_objid.2967027286717430%3Acontent_owner_id_new.1890102827743220%3Athrowback_story_fbid.2967027286717430%3Apage_id.1890102827743220%3Aphoto_id.2967019493384876%3Astory_location.4%3Astory_attachment_style.photo%3Atds_flgs.3%3Apage_insights.%7B%221890102827743220%22%3A%7B%22page_id%22%3A1890102827743220%2C%22page_id_type%22%3A%22page%22%2C%22actor_id%22%3A1890102827743220%2C%22dm%22%3A%7B%22isShare%22%3A0%2C%22originalPostOwnerID%22%3A0%7D%2C%22psn%22%3A%22EntStatusCreationStory%22%2C%22post_context%22%3A%7B%22object_fbtype%22%3A266%2C%22publish_time%22%3A1588517536%2C%22story_name%22%3A%22EntStatusCreationStory%22%2C%22story_fbid%22%3A%5B2967027286717430%5D%7D%2C%22role%22%3A1%2C%22sl%22%3A4%2C%22targets%22%3A%5B%7B%22actor_id%22%3A1890102827743220%2C%22page_id%22%3A1890102827743220%2C%22post_id%22%3A2967027286717430%2C%22role%22%3A1%2C%22share_id%22%3A0%7D%5D%7D%7D%3Athid.1890102827743220%3A306061129499414%3A2%3A0%3A1590994799%3A-4021494522640182171&__tn__=%2As-R,,#GiftCards,,1,NY,14454,beauty_salon
Isabella SpaSalon,"4069 W Lake Rd, Geneva, NY 14456",Beauty salon,Geneva,,http://www.belhurst.com/,,https://www.belhurst.com/gift-certificates/,,Gift Certificates,,1,NY,14456,beauty_salon
Ramona's Family Haircutters,"614 Main St, Cambridge, MA 02139",Beauty salon,Cambridge,,https://www.revelasalon.com/,,https://revelasalon.zenoti.com/webstoreNew/giftcards/1bff72e1-92f3-41fc-8273-4de72d42e421,,"
Gift Cards
",,1,MA,02139,beauty_salon
Studio Bari,"48 Lawrence St, Glens Falls, NY 12801",Nail salon,Glens Falls,,http://studiobari518.com/,,https://www.studiobari518.com/gift-certificates,,Gift Certificates,,1,NY,12801,beauty_salon
Changes Hair Salon,"510 Old Loudon Rd, Cohoes, NY 12047",Beauty salon,Cohoes,,http://www.changesinlatham.com/,,http://www.changesinlatham.com/gift-cards.html,http://www.changesinlatham.com/contact-us.html,"
								gift cards
							","
								contact us
							",1,NY,12047,beauty_salon
Aura Salon & Spa,"1744 Grand Island Blvd, Grand Island, NY 14072",Beauty salon,Grand Island,,http://www.aurasalononline.com/,,http://www.secure-booker.com/aura/ShopOnline/GiftCertificate.aspx,http://www.aurasalononline.com/contacts-us/,Gift Certificates,Contact,1,NY,14072,beauty_salon
HIZAIR Hair Salon,"85 Webster St, North Tonawanda, NY 14120",Beauty salon,North Tonawanda,,http://www.hizairhairsalon.com/,,http://www.secure-booker.com/hizair/InstantGiftCertificate.aspx,,,,1,NY,14120,beauty_salon
Great Neck Medical Spa,"770 Middle Neck Rd, Great Neck, NY 11024",Medical spa,Great Neck,,http://www.greatneckmedicalspa.com/,,https://www.greatneckmedicalspa.com/payment,https://www.greatneckmedicalspa.com/contact,Gift Card & Payment,Contact Us,1,NY,11024,beauty_salon
Nava Beauty,"347 Great Neck Rd, Great Neck, NY 11021",Beauty product supplier,Great Neck,,http://www.navabeautystore.com/,,http://www.navabeautystore.com/giftcard,http://www.navabeautystore.com/index.php?route=information/contact,Giftcards,Contact,1,NY,11021,beauty_salon
Nicole Rose Salon,"1689 Northern Blvd, Manhasset, NY 11030",Beauty salon,Manhasset,,http://www.nicolerosesalon.com/,,http://www.nicolerosesalon.com/gift-certificates,http://www.nicolerosesalon.com/contact-us," GIFT CERTIFICATES
"," CONTACT US
",1,NY,11030,beauty_salon
Glam Squad Beauty,"54 W 21st St #301, New York, NY 10010",Beauty salon,New York,,http://www.glamsquad.com/,,http://www.glamsquad.com/gift-card,,Gift Cards,Modify Appointment,1,NY,10010,beauty_salon
Smooth Generation Facial & Laser,"577 Plandome Rd, Manhasset, NY 11030",Facial spa,Manhasset,,http://www.smoothgeneration.com/,,https://www.smoothgeneration.com/gift-cards,https://www.smoothgeneration.com/contact-manhasset,GIFT CARDS,CONTACT,1,NY,11030,beauty_salon
Nail Spa,"327 E Main St, Elmsford, NY 10523",Beauty salon,Elmsford,,http://www.nailspaelmsford.com/,,http://www.nailspaelmsford.com/gift-cards,,"
            Gift Cards
          ",,1,NY,10523,beauty_salon
Ilda's Salon & Spa,"11 Kaldenberg Pl, Tarrytown, NY 10591",Beauty salon,Tarrytown,,http://www.ildassalonandspa.com/,,https://giftup.app/place-order/95426270-4c2b-4c25-a092-35893c63ab00?platform=Hosted,http://www.ildassalonandspa.com/contact-us/,Gift Certificate,Contact Us,1,NY,10591,beauty_salon
Tatiana Day Spa,"670 White Plains Rd, Tarrytown, NY 10591",Hair salon,Tarrytown,,http://www.tatianadayspa.com/,,https://www.vagaro.com/tatianadayspa/gift-certificates,http://tatianadayspa.com/contactus/,Gift Certificates,Contact Us,1,NY,10591,beauty_salon
DreamDry  Scarsdale,"12 Chase Rd, Scarsdale, NY 10583",Beauty salon,Scarsdale,,https://dreamdry.com/,,https://dreamdry.com/gift-of-glam/,https://dreamdry.com/influencer-contact-form/,GIFT CARD,INFLUENCER CONTACT FORM,1,NY,10583,beauty_salon
Everlasting Beauty Permanent Cosmetics By Nancy,"377 Church St, Saratoga Springs, NY 12866",Beauty salon,Saratoga Springs,,http://permanentcosmeticsbynancy.com/,,http://permanentcosmeticsbynancy.com/Gift-Certificates.html,http://permanentcosmeticsbynancy.com/Contact-Us.html,,,1,NY,12866,beauty_salon
Pro Nails,"423 Broadway #2, Saratoga Springs, NY 12866",Nail salon,Saratoga Springs,,https://lynxinbio.com/,,https://lynxinbio.com/pronailssaratoga/5ed14a34-8d4e-4349-a322-e16d736b192e,,"


















Purchase  E-Giftcard

Purchase  E-Giftcard





",,1,NY,12866,beauty_salon
Garvey Kelly,"222 W Broadway, New York, NY 10013",Nail salon,New York,,http://www.sweetlilyspa.com/,,https://www.sweetlilyspa.com/gift-certificates/,https://www.sweetlilyspa.com/contact/,Gift Certificates,Contact,1,NY,10013,beauty_salon
Sanctuary Spa Of Saratoga Springs,"72 Railroad Pl, Saratoga Springs, NY 12866",Beauty salon,Saratoga Springs,,http://www.sanctuarysaratoga.com/,,http://www.sanctuarysaratoga.com/shop/shop/gift-card/,http://www.sanctuarysaratoga.com/contact,Gift Card,Contact,1,NY,12866,beauty_salon
Nurture green salon & spa,"182 S Broadway, Saratoga Springs, NY 12866",Hair salon,Saratoga Springs,,http://www.nurturegreensalonandspa.com/,,https://nurturegreensalonspa.gettimely.com/giftvouchers,https://www.nurturegreensalonandspa.com/contact,"


GIFT CARDS


",Contact,1,NY,12866,beauty_salon
Saratoga Botanicals Organic Spa & Store,"80 Henry St, Saratoga Springs, NY 12866",Day spa,Saratoga Springs,,http://saratogabotanicals.com/,,https://clients.mindbodyonline.com/ASP/home.asp?studioid=48138,,Buy Gift Card,,1,NY,12866,beauty_salon
GioExpressions Private Spa,"2050 Western Ave #200, Guilderland, NY 12084",Day spa,Guilderland,,http://www.gioexpressions.com/,,https://www.gioexpressions.com/gift-cards,https://www.gioexpressions.com/contact,Gift Cards,CONTACT,1,NY,12084,beauty_salon
Palazzo Nails & Spa,"231 Wade Rd Extension #105, Latham, NY 12110",Nail salon,Latham,,http://palazzonailsspa.co/,,http://palazzonailsspa.co/gift-card,http://palazzonailsspa.co/contactus,E-Gift,Contact Us,1,NY,12110,beauty_salon
Rockin' Beauty,"81 Main St, Hamburg, NY 14075",Facial spa,Hamburg,,http://rockinbeautybuffalo.com/,,https://squareup.com/gift/6E0DF86FJ50QC/order,https://www.rockinbeautybuffalo.com/contact,eGift Cards,questions?,1,NY,14075,beauty_salon
Lotus Salon & Spa,"1183 Highland Ave, Needham, MA 02494",Beauty salon,Needham,,http://www.lotusmb.com/,,http://www.lotusmb.com/product-category/gift-cards/,http://www.lotusmb.com/#,BUY GIFT CARDS,"

Your cart:

0 Items
		- 
		$0.00

",1,MA,02494,beauty_salon
Coco Nail Spa,"12 Rye Ridge Plaza, Rye Brook, NY 10573",Nail salon,Rye Brook,,http://cocospa.com/,,http://cocospa.com/rye/shop/,http://cocospa.com/rye/contact/,Gift Certificate,Contact,1,NY,10573,beauty_salon
GLOW  Rye Brook,"2820, 14 Rye Ridge Plaza #220, Rye Brook, NY 10573",Beauty salon,Rye Brook,,https://www.glow-tone.com/,,https://www.instagram.com/p/B_z1jr6pQhA/,,"


",,1,NY,10573,beauty_salon
Federico Salon & Spa,"57 W 58th St, New York, NY 10019",Beauty salon,New York,,https://www.federicosalon.com/,,https://federicosalon.com/shop/,https://federicosalon.com/contact-us/,Gift Cards,Contact Us,1,NY,10019,beauty_salon
SHEER Aesthetics,"300 Hempstead Turnpike, West Hempstead, NY 11552",Facial spa,West Hempstead,,http://www.sheeraesthetics.com/,,https://squareup.com/gift/AAFBK8SYW5BWQ/order?external_source=postoffice-email&external_token=BGpKZdP4xSoQI3t2,http://www.sheeraesthetics.com/contact-us,Buy Gift card,Contact Us,1,NY,11552,beauty_salon
Nail Candy Salon and Beauty Bar,"49 Wildbriar Rd, Rochester, NY 14623",Nail salon,Rochester,,http://www.nailcandysalon.com/,,http://nailcandysalon.com/gift-certificates/,http://nailcandysalon.com/contact/,Gift Certificates,Contact,1,NY,14623,beauty_salon
Sujana Beauty & Brows,"570 Miracle Mile Dr, Rochester, NY 14623",Beauty salon,Rochester,,http://www.sujanabeautybrows.com/,,http://www.sujanabeautybrows.com/buy.html,http://www.sujanabeautybrows.com/contact.php,Gift Certificate,Contact,1,NY,14623,beauty_salon
Color Bar 51,"2359 NJ-36, Atlantic Highlands, NJ 07716",Beauty salon,Atlantic Highlands,,http://colorbar51.com/,,https://colorbar51.millenniumegift.com/,,"
gift certificates
",,1,NJ,07716,beauty_salon
Blushington MidTown West,"119 W 56th St, New York, NY 10019",Beauty salon,New York,,http://blushington.com/,,https://www.secure-booker.com/blushington/ShopOnline/GiftCertificate.aspx,https://www.blushington.com/contact/,Gift Certificates, Contact ,1,NY,10019,beauty_salon
Studio 210 Salon LLC,"34-17 30th Ave, Astoria, NY 11103",Beauty salon,Astoria,,http://www.gigistylingstudio.com/,,https://www.gigistylingstudio.com/gift-cards/,https://www.gigistylingstudio.com/contact-us/,Gift Card,Contact,1,NY,11103,beauty_salon
Hairzoo,"32 Seneca St, Hornell, NY 14843",Tanning salon,Hornell,,http://hairzoo.com/,,http://hairzoo.com/products/gift-certificates,http://hairzoo.com/contact,Gift Certificates,Contact Us,1,NY,14843,beauty_salon
Namaste Event Spa & Wellness Center,"2667 Corning Rd, Horseheads, NY 14845",Day spa,Horseheads,,http://www.mynamastespa.com/,,https://www.secure-booker.com/Namaste/ShopOnline/GiftCertificate.aspx,http://www.facebook.com/mynamastespa,PURCHASE A GIFT CERTIFICATE,Find us on Facebook,1,NY,14845,beauty_salon
Rivers Edge Day Spa,"147 7th Ave, Brooklyn, NY 11215",Beauty salon,Brooklyn,,http://www.elansalonandspa.com/,,http://www.elansalonandspa.com/gift-certificates,http://www.elansalonandspa.com/contact,Gift Certificates,Contact,1,NY,11215,beauty_salon
Henkel's Barber Shop,"63-12 Roosevelt Ave, Woodside, NY 11377",Barber shop,Woodside,,http://www.filthyrichbarbershop.com/,,https://squareup.com/gift/61A6QVYFJ33XB/order,https://filthyrichbarbershop.com/contact/,Purchase a Gift Card,Locations,1,NY,11377,beauty_salon
Therapeutic Massage,"153 W 27th St #404, New York, NY 10001",Massage therapist,New York,,http://citytouchnyc.com/,,http://citytouchnyc.com/gift-certificates,http://citytouchnyc.com/contact-citytouch,"
                Gift Certificates
              ",Questions or Feedback?,1,NY,10001,beauty_salon
Mindful Massage,"336 W 37th St #540, New York, NY 10018",Massage therapist,New York,,https://bodyworksdw.com/,,https://bodyworksdw.com/book-appointment/massage-gift-cards/,https://bodyworksdw.com/advanced-massage-therapy-at-bodyworks-dw-2/massage-therapy-services/benefits-of-massage-faq-page-2/massage-therapy-nyc-contact-us/,Massage Gift Cards,Contact,1,NY,10018,beauty_salon
Renew with June,"458 Glen St #2, Glens Falls, NY 12801",Massage therapist,Glens Falls,,http://www.renewwithjune.com/,,https://www.massagebook.com/Glens_Falls~Massage~renewwithjune#gift-certificates,,Gift Certificates,,1,NY,12801,beauty_salon
Jon Megaris Hair,"245 Main St #1, Huntington, NY 11743",Beauty salon,Huntington,,http://www.jonmegarishairsalon.com/,,http://www.jonmegarishairsalon.com/gift-cards,http://www.jonmegarishairsalon.com/contact,Gift Cards,Contact,1,NY,11743,beauty_salon
Spa Adriana,"266 Main St, Huntington, NY 11743",Beauty salon,Huntington,,http://www.spaadriana.com/,,http://www.spaadriana.com/gift-certificates.html,http://www.spaadriana.com/contact2.html,GIFT CERTIFICATES,APPOINTMENTS,1,NY,11743,beauty_salon
WAX REPUBLIC,"249 Main St, Huntington, NY 11743",Beauty salon,Huntington,,http://waxrepublic.com/,,http://www.secure-booker.com/waxrep/InstantGiftCertificate.aspx,,Gift Cards - Huntington,,1,NY,11743,beauty_salon
Luxe & Co,"16 Wall St B, Huntington, NY 11743",Hair salon,Huntington,,http://www.luxeblowdrybar.com/,,http://www.luxeblowdrybar.com/giftcard,http://www.luxeblowdrybar.com/contact-us,GIFTCARD,CONTACT,1,NY,11743,beauty_salon
Ritual Salon,"357 Goodman St N, Rochester, NY 14607",Beauty salon,Rochester,,http://www.ritualsalonroc.com/,,https://images.squarespace-cdn.com/content/v1/5a525db918b27de88c8acada/1588689409643-S0Y0BNOREP1RSWOFP62L/ke17ZwdGBToddI8pDm48kEpVg-ILAPna1wRh-xAJ9fRZw-zPPgdn4jUwVcJE1ZvWQUxwkmyExglNqGp0IvTJZUJFbgE-7XRK3dMEBRBhUpwEv36x-EUL2-BSQ5feDhwGCbXuJBFqZ-erYzVouT8yOb9TwqchglLQOCYTRn7ZGxI/image-asset.jpeg,http://www.ritualsalonroc.com/contact,"

",Contact,1,NY,14607,beauty_salon
KPatrick Salon,"1334 Creek St, Webster, NY 14580",Beauty salon,Webster,,http://www.kpatricksalon.com/,,http://www.kpatricksalon.com/gift-certificates-1,http://www.kpatricksalon.com/contact,Gift Certificates,Appointments,1,NY,14580,beauty_salon
Bloom Beauty Lounge,"140 W 19th St, New York, NY 10011",Beauty salon,New York,,http://bloombeautylounge.com/,,https://www.instagram.com/p/B-p0CVZjYWt/,http://bloombeautylounge.com/contact,"

",Contact,1,NY,10011,beauty_salon
Racine Salon & Spa,"341 Main St, Islip, NY 11751",Hair salon,Islip,,http://www.racinespa.com/,,https://racinespa.com/product/gift-certificate/,https://racinespa.com/contact-us/,Instant Gifts,Contact Us,1,NY,11751,beauty_salon
RAZMATAZ Salon by Elisia,"455 Main St, Islip, NY 11751",Beauty salon,Islip,,http://www.razmataz-salon.com/,,https://squareup.com/gift/D8PKVSAEN72PE/order,,"
                eGIFT Card
              ",,1,NY,11751,beauty_salon
Beauty Mark Spa & Bridal Studio,"41 W Main St, East Islip, NY 11730",Beauty salon,East Islip,,http://beautymark-spa.com/,,https://www.beautymark-spa.com/gift-certificates,https://www.beautymark-spa.com/contact,Gift Certificates,Contact,1,NY,11730,beauty_salon
Soul Skin Care,"439 Main St #8, Islip, NY 11751",Facial spa,Islip,,http://soulskincare.net/,,https://soulskincare.net/gift-certificate,https://soulskincare.net/contact/,Buy Gift Certificate,Contact,1,NY,11751,beauty_salon
Christina M Lower,"409 W State St, Ithaca, NY 14850",Massage therapist,Ithaca,"Brazilian waxing services, foot washes & massage services are the specialty at this low-key studio.",http://www.christinamlower.com/,,https://www.genbook.com/bookings/slot/reservation/30286726/giftcerts?bookingSourceId=1000,https://www.christinamlower.com/contact,"Gift Certificates




",Contact,1,NY,14850,beauty_salon
Norabloom Botanicals & Beauty Lounge,"130-132 E State St #201, Ithaca, NY 14850",Cosmetics store,Ithaca,,http://www.norabloom.com/,,https://squareup.com/gift/CEFSSBNTXBDJ4/order,http://www.norabloom.com/#contact,gift cards,contact,1,NY,14850,beauty_salon
abl hair,"240 Kent Ave, Brooklyn, NY 11249",Hair salon,Brooklyn,,https://www.ablhair.com/,,https://squareup.com/gift/0GX285E4W69VN/order,,purchasing an e - gift card now,,1,NY,11249,beauty_salon
Artists and Architects Salon,"580 N Maple Ave, Ridgewood, NJ 07450",Hair salon,Ridgewood,,http://artistsandarchitects.com/,,https://na0.meevo.com/EgiftApp/order?tenantId=101031,http://artistsandarchitects.com/contact-us,Gift Cards,"
                Contact Us
              ",1,NJ,07450,beauty_salon
Medical Aesthetics of the Hudson Valley,"166 Albany Ave, Kingston, NY 12401",Medical spa,Kingston,,http://medicalaestheticshv.com/,,https://go.booker.com/location/MedicalAestheticsoftheHudsonValley/buy,http://medicalaestheticshv.com/contact-us,Buy A Gift Certificate,"
              Contact Us
            ",1,NY,12401,beauty_salon
A'Peel Day Spa & Waxing,"2 Fountain St #103, Clinton, NY 13323",Day spa,Clinton,,http://www.apeeldayspa.com/,,https://apeeldayspa.com/product/gift-certificate/,https://apeeldayspa.com/#contact,Gift Certificates,Contact,1,NY,13323,beauty_salon
BeeUtiful Skin Care & Waxing,"219 Clinton Rd, New Hartford, NY 13413",Beauty salon,New Hartford,,http://beeutiful.co/,,http://beeutiful.co/gift-certificates/,http://beeutiful.co/contact-us/,Gift Certificates,"
								Contact & Scheduling							",1,NY,13413,beauty_salon
Blu Spa & Salon,"3030 Orchard Park Rd, West Seneca, NY 14224",Beauty salon,West Seneca,,https://bluspaandsalon.com/,,https://bluspaandsalon.com/new-gift-cards/,https://bluspaandsalon.com/contact-us/,Buy Gift Cards,CONTACT,1,NY,14224,beauty_salon
NY Grace Nail & Spa,"1320 Stony Brook Rd #135, Stony Brook, NY 11790",Nail salon,Stony Brook,,https://gracenailandspa.com/,,https://gracenailandspa.com/gift-card/,http://gracenailandspa.com/#Contact,Gift Card,Contact,1,NY,11790,beauty_salon
Beach Bum Tanning & Airbrush Salon,"2304 Nesconset Hwy, Stony Brook, NY 11790",Beauty salon,Stony Brook,,http://www.beachbum.com/,,https://shop.beachbum.com,https://beachbum.com/contact/,"

GIFT CARDS 
","

CONTACT  
",1,NY,11790,beauty_salon
Di Lusso Salon and Spa,"3735 Union Rd #700, Cheektowaga, NY 14225",Beauty salon,Cheektowaga,,http://dilussosalonandspa.com/,,http://www.secure-booker.com/dilusso/ShopOnline/GiftCertificate.aspx,https://www.dilussosalonandspa.com/contact-us/,GIFT CARDS AVAILABLE,Contact,1,NY,14225,beauty_salon
Salon Di Marco & Day Spa,"733 Massachusetts St, Lawrence, KS 66044",Hair salon,Lawrence,,http://www.sdimarco.com/,,http://www.sdimarco.com/more/gift-certificates.html,,Gift Certificates,,1,KS,66044,beauty_salon
Beauty Brands,"3514 Clinton Parkway j, Lawrence, KS 66047",Beauty salon,Lawrence,,https://www.beautybrands.com/,,https://www.beautybrands.com/category/gifts/choose+your+gift+card+value.do,https://www.beautybrands.com/category/customer+service/contact+us.do,Choose Your Gift Card Value,contact us,1,KS,66047,beauty_salon
Sean Patricks Hair Salon,"7 South La Grange Road, La Grange, IL 60525",Beauty salon,La Grange,,http://www.spsalonspa.com/,,http://stylenet.com/seanpatrickssalon/gift-certificates/,http://stylenet.com/seanpatrickssalon/contact-us/,Gift Certificates,Contact,1,IL,60525,beauty_salon
D'Amici Salon and Style,"535 South La Grange Road, La Grange, IL 60525",Beauty salon,La Grange,,http://www.damicilagrange.com/,,https://www.vagaro.com/damicisalon/gift-certificates,http://www.damicilagrange.com/Contact_DAMICI_Hair_Salon.html,,CONTACT US,1,IL,60525,beauty_salon
Nova Arts Salon,"787 South Alameda Street #160 Located at: ROW, Los Angeles, CA 90021",Hair salon,Los Angeles,,http://www.novaartssalon.com/,,https://www.instagram.com/p/B_6KMYLgXkF/,http://www.novaartssalon.com/contact,"

","
              Contact
            ",1,CA,90021,beauty_salon
YoC Salon,"225 E 5th St, New York, NY 10003",Beauty salon,New York,,http://www.yocsalon.com/,,https://yo-csalon.com/yo-c-salon/yo-c-salon-gift-certificate-form/,https://yo-csalon.com/yo-c-salon/736-2,Click Here For Gift Certificate,CONTACT US,1,NY,10003,beauty_salon
Lenox Spa and Nails,"1051 3rd Ave, New York, NY 10065",Nail salon,New York,,http://www.lenoxspanyc.com/,,http://www.lenoxspanyc.com/#gift,http://www.lenoxspanyc.com/#contact,GIFT CARDS,CONTACT,1,NY,10065,beauty_salon
Paris Salon,"609 Main St, Ridgefield, CT 06877",Hair salon,Ridgefield,,https://www.parissalonridgefield.com/,,https://parissalonridgefield.salontarget.com/egift/?guestonly=guestonly,https://www.parissalonridgefield.com/contact," Gift Cards

"," Contact

",1,CT,06877,beauty_salon
Adam Broderick Salon & Spa,"89 Danbury Rd, Ridgefield, CT 06877",Beauty salon,Ridgefield,,https://www.adambroderick.com/,,https://www.adambroderick.com/boutique/gift-cards/,https://www.adambroderick.com/about/contact/,gift cards,contact us,1,CT,06877,beauty_salon
Eco Chic Salon Spa & Blow Dry Bar,"16 Center St, Wilton, CT 06897",Beauty salon,Wilton,,https://ecochicsalonct.com/,,https://squaremktg.com/campaigns/lrZiSdErerWqkAuh/landing?source=facebook&fbclid=IwAR3t_l32-oNiHSJI4fIs0tpwft4iZ3zLhJHnXQE72PsXjFIO31C23zAH39w,,Click To Purchase A Promotional COVID-19 Gift Card,,1,CT,06897,beauty_salon
Ridgefield Nail Bar,"590 Danbury Rd, Ridgefield, CT 06877",Nail salon,Ridgefield,,http://ridgefieldnailbar.com/,,http://ridgefieldnailbar.com/gift-card/,http://ridgefieldnailbar.com/location-hours/,Gift Card,Contact & Hours,1,CT,06877,beauty_salon
Rellim Hair & Makeup Studio,"757 Cayuga St, Lewiston, NY 14092",Beauty salon,Lewiston,,http://www.rellimhairandmakeup.com/,,http://www.rellimhairandmakeup.com/services/gift-certificates/,http://www.rellimhairandmakeup.com/contact/,Gift Certificates,Contact,1,NY,14092,beauty_salon
Audrey & Co Hair & Aesthetics,"2769 Coney Island Ave, Brooklyn, NY 11235",Beauty salon,Brooklyn,,http://www.vaestheticspa.com/,,https://vaestheticspa.com/GiftCards,http://www.vaestheticspa.com/index.php?route=information/contact,Gift Cards,Contact,1,NY,11235,beauty_salon
Lotus Nails & Spa,"1617 Military Rd, Niagara Falls, NY 14304",Nail salon,Niagara Falls,,http://www.lotusnails.pro/,,https://lotusnails.pro/shop/,,Buy Gift Card,,1,NY,14304,beauty_salon
Perfection Nail Bar and Organic Spa,"1283 Arsenal St, Watertown, NY 13601",Nail salon,Watertown,,http://perfectionnailsspa.com/,,http://perfectionnailsspa.com/gift-card,http://perfectionnailsspa.com/contactus,E-Gift,Contact Us,1,NY,13601,beauty_salon
Nanettes Hair and Now,"25 W Main St, Le Roy, NY 14482",Beauty salon,Le Roy,,http://www.leroyhairsalon.com/,,http://www.leroyhairsalon.com/gift-cards,http://www.leroyhairsalon.com/contact?map=true,Gift Cards,,1,NY,14482,beauty_salon
Tapestry Salon & Spa,"708 Montauk Hwy, West Babylon, NY 11704",Hair salon,West Babylon,,http://www.tapestrysalon.com/,,https://www.thegiftcardcafe.com/cart/indexpac.php?storeID=1399,https://tapestrysalon.com/contact-us/,Gift Certificate,Contact Us,1,NY,11704,beauty_salon
Tangles Hair & Tanning Salon,"1722 Sheepshead Bay Rd, Brooklyn, NY 11235",Beauty salon,Brooklyn,,http://www.tanglesalonspa.com/,,http://tanglesalonspa.com/gift-cards/,http://tanglesalonspa.com/contact/,Gift Cards,Contact,1,NY,11235,beauty_salon
Essence Medi Spa LLC,"222 NY-299, Highland, NY 12528",Hair removal service,Highland,,http://essencemedispa.com/,,http://essencemedispa.com/contents/gift-certificate-2,http://essencemedispa.com/contactus,"
Gift Certificate
","
Contact
",1,NY,12528,beauty_salon
Shear Madness,"466 High St, Medford, MA 02155",Beauty salon,Medford,,http://www.shearmadnessmedford.com/,,https://shearmadness.salontarget.com/egift/?guestonly=guestonly,http://www.shearmadnessmedford.com/hair-salon-medford-ma-contact-us.html,E-Gift cards,Contact Us,1,MA,02155,beauty_salon
Joseph Christopher For Beauty and Wellness,"254 W Park Ave, Long Beach, NY 11561",Beauty salon,Long Beach,,http://www.josephchristopher.com/,,http://www.josephchristopher.com/gift-certificates/,http://www.josephchristopher.com/index.php?p=page&page_id=contact-us,GIFT CERTIFICATES,Contact Us,1,NY,11561,beauty_salon
Get Beautified Permanent Cosmetics & Lash Extensions,"210 W Park Ave, Long Beach, NY 11561",Beauty salon,Long Beach,,http://www.getbeautifiedspa.com/,,https://www.thegiftcardcafe.com/cart/index.php?storeID=12741,https://www.getbeautifiedspa.com/hours-contact-and-schedule,Gift Certificates             ,HOURS/CONTACT/SCHEDULE,1,NY,11561,beauty_salon
Expressions Salon & Spa,"3477 Long Beach Rd, Oceanside, NY 11572",Spa,Oceanside,,http://expressionssalonandspa.com/,,https://exsalonspa.boomtime.com/lgift,http://expressionssalonandspa.com/contacts.html,Instant Gift Certificates,Contacts,1,NY,11572,beauty_salon
Frasada Hair Salon & Day Spa,"2875 Long Beach Rd, Oceanside, NY 11572",Hair salon,Oceanside,,http://frasada.com/,,https://frasada.com/buy-gift-cards/,https://frasada.com/contact-us/,BUY GIFT CARDS,Contact Us,1,NY,11572,beauty_salon
Michelangelo Spa Inc,"244 Sunrise Hwy, Rockville Centre, NY 11570",Beauty salon,Rockville Centre,,http://michelangelosalonandspa.com/,,http://michelangelosalonandspa.com/gift-certificates/,http://michelangelosalonandspa.com/contact/,Gift Certificates,Contact,1,NY,11570,beauty_salon
Park West Hair Design & Spa,"14 Lakeshore Dr, Canandaigua, NY 14424",Beauty salon,Canandaigua,,http://www.parkwesthairdesignandspa.com/,,http://www.parkwesthairdesignandspa.com/gift_cards.html,http://www.parkwesthairdesignandspa.com/contact.html,Gift Cards(current),Contact Us,1,NY,14424,beauty_salon
European Beauty Nail & Spa,"611 E Boston Post Rd, Mamaroneck, NY 10543",Nail salon,Mamaroneck,,http://www.europeanbeauty.net/,,http://www.europeanbeauty.net/giftcard,http://www.europeanbeauty.net/contact,"
GiftCards
","
Contact
",1,NY,10543,beauty_salon
Do or Dye,"272 Mamaroneck Ave, Mamaroneck, NY 10543",Hair salon,Mamaroneck,,https://doordyewestchester.com/,,https://doordyewestchester.com/gift-certificates,https://doordyewestchester.com/contact-us,Gift Certificates ,Contact Us,1,NY,10543,beauty_salon
Lash Out Loud,"384 North Ave, New Rochelle, NY 10801",Beauty salon,New Rochelle,,https://www.lashoutloudny.com/,,https://squareup.com/gift/1ECVKH1A5PRS0/order,https://www.lashoutloudny.com/contact/,Lash Out Loud Now Offers eGift Cards. Click here to purchase yours today!,Contact,1,NY,10801,beauty_salon
Studio Esthetique Skin & Laser Center,"470 Mamaroneck Ave #206, White Plains, NY 10605",Medical spa,White Plains,,http://www.studioesthetique.com/,,https://studioesthetique.com/egift-cards/,https://studioesthetique.com/contact-us/,eGift Cards,Contact Us,1,NY,10605,beauty_salon
Terra Organic Spa,"201 Highbridge St, Fayetteville, NY 13066",Spa,Fayetteville,,http://www.terraorganicspa.com/,,https://go.booker.com/location/terraorganicspa/buy,http://www.terraorganicspa.com/contact,Gift Certificates,Contact,1,NY,13066,beauty_salon
Chelsea's Esthetic Boutique,"204 W Genesee St, Fayetteville, NY 13066",Facial spa,Fayetteville,,http://www.chelseasestheticboutique.com/,,https://squareup.com/gift/B32S5Y0E7AM99/order,http://www.chelseasestheticboutique.com/contact.html,"
Purchase Giftcard 
","
										Contact
									",1,NY,13066,beauty_salon
BeautyfluffPort Washington,"95A Main St, Port Washington, NY 11050",Facial spa,Port Washington,,http://www.beautyfluff.com/,,https://go.booker.com/#/location/beautyfluff11050/buy,,"
              Gift Certificates 
            ",,1,NY,11050,beauty_salon
Spa on the Wharf,"405 Main St, Port Washington, NY 11050",Day spa,Port Washington,,https://spaonthewharf.com/,,https://spaonthewharf.com/collections/gift-cards,https://spaonthewharf.com/pages/contact-us,Gift Certificates,Contact Us,1,NY,11050,beauty_salon
Fantastic Beauty Salon,"585 Massachusetts Ave, Boston, MA 02118",Nail salon,Boston,,http://vibrantbeautysalon.com/,,https://clients.mindbodyonline.com/classic/ws?studioid=277952&stype=42&sLoc=0&giftCardID=10447,https://vibrantbeautysalon.com/contact-us/,Buy Gift Cards Today By Clicking Here,Contact Us,1,MA,02118,beauty_salon
Lava Spa,"2707 Genesee St, Utica, NY 13501",Waxing hair removal service,Utica,,https://www.thelavaspa.com/,,https://www.secure-booker.com/thelavaspa/MakeAppointment/Search.aspx,https://www.thelavaspa.com/contact,Book now or buy a gift card," Contact

",1,NY,13501,beauty_salon
Dellaria Salon,"Apex Center, 115 Apex Dr, Marlborough, MA 01752",Beauty salon,Marlborough,,http://dellaria.com/,,https://dellaria-egiftcards.salontarget.com/egift/?guestonly=guestonly,https://www.dellaria.com/contacts/,Gift Cards,Contact Corporate Office,1,MA,01752,beauty_salon
J Sisters,"5 E 57th St, New York, NY 10022",Beauty salon,New York,,http://jsisters.com/,,http://jsisters.com/?page_id=23,http://jsisters.com/?page_id=21,Gift Card,Contact Us,1,NY,10022,beauty_salon
Serene Scape Day Spa & Salon,"376 Maple St, Marlborough, MA 01752",Beauty salon,Marlborough,,http://serene-scape.com/,,https://www.serene-scape.com/gift-certificates/,https://www.serene-scape.com/contact/,Gift Certificates,Contact,1,MA,01752,beauty_salon
Denise and Company Salon,"1012 Park Blvd, Massapequa Park, NY 11762",Hair salon,Massapequa Park,,http://www.deniseandcompanysalon.com/,,https://www.deniseandcompanysalon.com/gift-certificate,https://www.deniseandcompanysalon.com/contact,Gift Certificates,Have a Question?,1,NY,11762,beauty_salon
Lacole Salon,"3936 Merrick Rd, Seaford, NY 11783",Beauty salon,Seaford,,http://www.lacolesalon.com/,,http://www.lacolesalon.com/gift-certificate.html,http://www.lacolesalon.com/contact.html,Gift Certificate,Contact,1,NY,11783,beauty_salon
Spa 505,"Holiday Park Shopping Center, 1338 Hicksville Rd, Massapequa, NY 11758",Massage spa,Massapequa,,https://spa505.com/,,https://www.bookspa505.com/giftcard.php,https://spa505.com/contact,"
              Gift Certificates
            ","
                Contact
              ",1,NY,11758,beauty_salon
Brooks and Harlow Salon,"7375 NY-96 #300, Victor, NY 14564",Hair salon,Victor,,https://www.brooksandharlow.com/,,https://www.brooksandharlow.com/book-online,https://www.brooksandharlow.com,GIFT CARDS / SHOP ONLINE,CONTACT,1,NY,14564,beauty_salon
Appearance Salon & Day Spa,"2585 South Rd, Poughkeepsie, NY 12601",Day spa,Poughkeepsie,,http://appearancedayspa.com/,,https://appearancedayspa.com/gift-cards/,https://appearancedayspa.com/contact-us/,Gift Cards,Contact Us,1,NY,12601,beauty_salon
Blowchic Blow Dry Bar And Makeup Studio,"45 Mineola Blvd, Mineola, NY 11501",Hair salon,Mineola,,http://www.blowchic.com/,,https://squareup.com/gift/K1XK53MM3HX3W/order,,"
                Gift Cards
              ",,1,NY,11501,beauty_salon
O Spa,"927 Franklin Ave, Garden City, NY 11530",Spa,Garden City,,http://www.ospany.com/,,http://www.ospany.com/GiftCertificate.html,http://www.ospany.com/contactus.html,,,1,NY,11530,beauty_salon
Haircrafters,"1600 Perrineville Rd, Monroe Township, NJ 08831",Beauty salon,Monroe Township,,http://www.haircrafterssalons.com/,,http://www.haircrafterssalons.com/gift-cards.html,http://www.haircrafterssalons.com/about-signature-style/contact-us.html,Gift Cards ,Contact Us,1,NJ,08831,beauty_salon
Doug's 2 SalonSpa Inc,"8131 Vaughn Rd, Montgomery, AL 36116",Beauty salon,Montgomery,,http://www.dougs2.com/,,https://www.dougs2.com/gift-cards/,https://www.dougs2.com/about/contact-us/,Gift Cards,Contact Us,1,AL,36116,beauty_salon
Broome and Beauty,"519 Broome St #2, New York, NY 10013",Beauty salon,New York,,http://www.broomeandbeauty.com/,,https://squareup.com/gift/K5V1FASQAP0BH/order,http://www.broomeandbeauty.com/contact,"



",Contact,1,NY,10013,beauty_salon
True Blue Salon,"2817 West End Ave #109, Nashville, TN 37203",Beauty salon,Nashville,,http://truebluesalon.com/,,http://truebluesalon.com/specials/buy-gift-cards.html,http://truebluesalon.com/about-us/contact.html,Buy Gift Cards,Contact,1,TN,37203,beauty_salon
The Kartrite Resort & Indoor Waterpark,"555 Resorts World Dr, Monticello, NY 12701",Spa,Monticello,,https://www.thekartrite.com/,,https://www.thekartrite.com/gift-cards/,https://www.thekartrite.com/contact/,Gift Cards,Contact Us,1,NY,12701,beauty_salon
Salon de Lourdes,"2985 Mt Hope Rd #109, Okemos, MI 48864",Beauty salon,Okemos,,http://www.salondelourdes.com/,,https://www.secure-booker.com/salondelourdes/ShopOnline/GiftCertificate.aspx,https://salondelourdes.com/contact/,Gift Cards,Contact Us,1,MI,48864,beauty_salon
Bangz Salon & Wellness Spa,"23 S Fullerton Ave, Montclair, NJ 07042",Beauty salon,Montclair,,https://www.bangz.com/,,https://www.bangz.com/shop/bangz-gift-card/,https://www.bangz.com/contact/,,Contact,1,NJ,07042,beauty_salon
Subi Salon,"1215 B St, Hood River, OR 97031",Hair salon,Hood River,,http://www.subisalon.com/,,https://clients.mindbodyonline.com/classic/ws?studioid=282801&stype=42,https://www.subisalon.com/#contact,"
        GIFT CARDS
      ","
        contact
      ",1,OR,97031,beauty_salon
Facelogic Spa,"145 Kisco Ave, Mt Kisco, NY 10549",Day spa,Mt Kisco,,http://www.facelogickisco.com/,,https://clients.mindbodyonline.com/ASP/main_shop.asp?studioid=31889&tg=&vt=&lvl=&stype=42&view=&trn=0&page=&catid=&prodid=&date=5%2f16%2f2017&classid=0&prodGroupId=&sSU=&optForwardingLink=&qParam=&justloggedin=&nLgIn=&pMode=2&loc=1,https://facelogickisco.com/contact-find-us/,Gift Cards,Contact/Find Us,1,NY,10549,beauty_salon
Relaxation Spa,"153 E Main St, Mt Kisco, NY 10549",Facial spa,Mt Kisco,,http://www.relaxationspa153.com/,,http://www.relaxationspa153.com/giftcard.html,http://www.relaxationspa153.com/contact.html,Gift Card,Contact,1,NY,10549,beauty_salon
Epidavros Day Spa & Salon,"272 N Bedford Rd Ste 3, Mt Kisco, NY 10549",Day spa,Mt Kisco,,http://epidavrosdayspa.com/,,https://epidavrosdayspa.com/gift-cards-products/,https://epidavrosdayspa.com/contacts/,Gift Cards,Contact Us,1,NY,10549,beauty_salon
Oriental Foot Reflexology,"5 N Moger Ave, Mt Kisco, NY 10549",Spa,Mt Kisco,,http://www.orientalfootcare.com/,,http://www.orientalfootcare.com/card.html,,Gift Card,,1,NY,10549,beauty_salon
Suzanna's Spa Suite,"14 Smith Ave #2814, Mt Kisco, NY 10549",Skin care clinic,Mt Kisco,,http://suzannasspasuite.com/,,http://suzannasspasuite.com/gift-cards,,"
                GIFT CARDS
              ",,1,NY,10549,beauty_salon
Salon Blu,"121 S University Ave, Mt Pleasant, MI 48858",Spa,Mt Pleasant,,http://www.salon-blu.com/,,https://www.salon-blu.com/gift-card,,Gift Cards,,1,MI,48858,beauty_salon
Dieci Lifestyle Spa,"90 W Mt Pleasant Ave, Livingston, NJ 07039",Beauty salon,Livingston,,https://www.diecispa.com/,,https://www.diecispa.com/gift-cards,https://www.diecispa.com/appointments,GIFT CARDS,CONTACT,1,NJ,07039,beauty_salon
Amore' Day Spa,"4 Hudson Valley Professional Plaza #3, Newburgh, NY 12550",Spa,Newburgh,,https://www.newburghnyspas.com/,,https://www.newburghnyspas.com/gift_certificates.html,https://www.newburghnyspas.com/contact_us.html,Gift Certificates,Contact,1,NY,12550,beauty_salon
Destination Massage,"9500 Main St # 400, Clarence, NY 14031",Day spa,Clarence,,https://destinationmassagespa.com/,,https://destinationmassagespa.com/gift-certificates,https://destinationmassagespa.com/tel:7164073357,Gift Certificates,(716) 407-3357,1,NY,14031,beauty_salon
Effleurage Day Spa,"3 Campion Rd, New Hartford, NY 13413",Day spa,New Hartford,,https://effleurage-dayspa.com/,,https://effleurage-dayspa.com/giftcerts/new,https://effleurage-dayspa.com/contact,Order gift certificates,Contact Us,1,NY,13413,beauty_salon
Center For Therapeutic Massage,"96 Plains Rd, New Paltz, NY 12561",Massage therapist,New Paltz,,https://www.massagenewpaltz.com/,,https://www.massagenewpaltz.com/book,,"
                Book Now or Purchase a Gift Certificate
              ",,1,NY,12561,beauty_salon
Bodymind Massage Therapy,"10 Main St, New Paltz, NY 12561",Massage therapist,New Paltz,,http://bodymindmassagetherapies.com/,,http://bodymindmassagetherapies.com/gift-certificates.html,http://bodymindmassagetherapies.com/contact-us.html,Gift Certificates,Contact Us,1,NY,12561,beauty_salon
Fringe Salon,"248 Broome St, New York, NY 10002",Beauty salon,New York,,http://www.fringeny.com/,,https://squareup.com/gift/2WFJSY44G4ERR/order,,"
              Gift Cards
            ",,1,NY,10002,beauty_salon
NY Brows & Beauty Salon,"70 Fulton St, New York, NY 10038",Hair removal service,New York,,http://nythreading.com/,,http://nythreading.com/gift-certificates.html,http://nythreading.com/contact.html,Gift Certificates,Contact,1,NY,10038,beauty_salon
Timothy John's Salon NYC,"313 W 53rd St, New York, NY 10019",Beauty salon,New York,,https://www.timothyjohnsalon.com/,,https://tjsalon.snapcerts.com/g_purchase.asp,https://timothyjohnsalon.com/contact/,Gift Cards,Contact,1,NY,10019,beauty_salon
Antonio Prieto Salon,"127 W 20th St, New York, NY 10011",Beauty salon,New York,,http://www.antonioprietosalon.com/,,https://antonioprietosalon.millenniumegift.com,,Gift Certificate,,1,NY,10011,beauty_salon
Urban Betty Salon 38th,"1206 W 38th St #1107, Austin, TX 78705",Beauty salon,Austin,,http://www.urbanbetty.com/,,http://www.urbanbetty.com/gift-cards,http://www.urbanbetty.com/contact,GIFT CARDS,Contact,1,TX,78705,beauty_salon
Coiled Salon,"1305 Nott St, Schenectady, NY 12308",Hair salon,Schenectady,,http://www.lavidabarkley.com/,,https://squareup.com/gift/4CDMTJSBDVB73/order,https://lavidabarkley.com/index.php/contact-me/,E-GIFT CARDS AVAILABLE ,Contact Me,1,NY,12308,beauty_salon
Harbor View Salon,"50 Woodbine Ave, Northport, NY 11768",Beauty salon,Northport,,http://www.harborviewsalon.com/,,http://www.harborviewsalon.com/hair-salon-gift-certificates/,http://www.harborviewsalon.com/contact-us/,Gift Certificates,Contact Us,1,NY,11768,beauty_salon
The Dreaming Tree Massage and Wellness,"801 Fort Salonga Rd, Northport, NY 11768",Massage therapist,Northport,,http://thedreamingtreewellness.com/,,https://thedreamingtreewellness.com/product/gift-card/,https://thedreamingtreewellness.com/contact/,Gift Cards,Contact,1,NY,11768,beauty_salon
Smoothe Wax Studio,"1 Larkfield Rd, East Northport, NY 11731",Waxing hair removal service,East Northport,,http://www.smoothewaxstudio.com/,,https://giftcards.spaweek.com/,http://www.smoothewaxstudio.com/contact/,,Contact,1,NY,11731,beauty_salon
Harry Charles Salon & Spa,"106 Jericho Turnpike, Commack, NY 11725",Beauty salon,Commack,,http://www.harrycharlessalon.com/,,http://www.harrycharlessalon.com/products/gift-card,http://www.harrycharlessalon.com/pages/contact-us,"
          GIFT CARDS",CONTACT US,1,NY,11725,beauty_salon
GLOW  Armonk,"384 Main St, Armonk, NY 10504",Beauty salon,Armonk,,https://glow-tone.com/,,https://www.instagram.com/p/B_z1jr6pQhA/,,"


",,1,NY,10504,beauty_salon
Rustic Roots Salon,"1991 Saranac Ave, Lake Placid, NY 12946",Hair salon,Lake Placid,,http://www.rusticrootslp.com/,,http://www.rusticrootslp.com/gift-certificate,http://www.rusticrootslp.com/tel:5183025551,Gift Certificate ,518-302-5551,1,NY,12946,beauty_salon
The Spa at Mirror Lake Inn,"77 Mirror Lake Dr, Lake Placid, NY 12946",Day spa,Lake Placid,,https://www.mirrorlakeinn.com/,,https://mirror-lake-inn-resort-and-spa.myshopify.com/products/gift-card,https://mirrorlakeinn.com/contact/, Gift Cards  - Opens in new tab , Contact ,1,NY,12946,beauty_salon
Healing Elements,"Crestview plaza, 1996 Saranac Ave, Lake Placid, NY 12946",Massage therapist,Lake Placid,,http://healingelementslp.com/,,http://healingelementslp.com/,http://healingelementslp.com/tel:5185237100,Gift Certificate,518-523-7100,1,NY,12946,beauty_salon
Cynthea's Spa,"102 Church St, Burlington, VT 05401",Day spa,Burlington,,http://cyntheaspa.com/,,http://cyntheaspa.com/gift-certificates.html,,GIFT CERTIFICATES,,1,VT,05401,beauty_salon
PierVana,"1233 Shelburne Rd, South Burlington, VT 05403",Hair salon,South Burlington,,http://www.piervanahair.com/,,http://www.secure-booker.com/piervana/ShopOnline/GiftCertificate.aspx,https://www.piervanahair.com/contact,Gift Certificates,CONTACT,1,VT,05403,beauty_salon
Heart  Soul House of Beauty,"350 Northern Blvd Suite 9, Albany, NY 12204",Hair salon,Albany,,http://www.heartandsoulhob.com/,,https://www.vagaro.com/heartandsoulhob/gift-certificates,http://www.heartandsoulhob.com/contact-us,"
        gift cards
      ","
              about
            ",1,NY,12204,beauty_salon
Lavish Beauty Salon & Spa,"1301 Hempstead Turnpike, Elmont, NY 11003",Beauty salon,Elmont,,https://lavishbeautyspa.com/,,https://www.vagaro.com/lavishbeautyspa/gift-certificates,https://lavishbeautyspa.com/contact-us,Gift Certificates,Contact Us,1,NY,11003,beauty_salon
Rejuvenations Day Spa,"1735 W Genesee St, Syracuse, NY 13204",Day spa,Syracuse,,http://www.rejuvenationsdayspasite.org/,,https://www.salonbuilder.com/website/159487/giftcert.asp,https://www.salonbuilder.com/website/159487/contact.asp,,Appointments,1,NY,13204,beauty_salon
Rejuvn8 at Paparazzi,"4971 Bear Rd, Liverpool, NY 13088",Day spa,Liverpool,,https://www.rejuvn8.com/,,https://www.rejuvn8.com/gift-certificates,https://www.rejuvn8.com/contact," GIFT CERTIFICATES

"," CONTACT

",1,NY,13088,beauty_salon
Elan Therapeutic Massage,"607 Old Liverpool Rd, Liverpool, NY 13088",Massage therapist,Liverpool,,http://www.elan.massagetherapy.com/,,http://www.elan.massagetherapy.com/gift-certificates,http://www.elan.massagetherapy.com/contact-information,Gift Certificates,Contact Information,1,NY,13088,beauty_salon
Wholeness Center,"7 New Lake Rd, Valley Cottage, NY 10989",Spa,Valley Cottage,,http://www.wholenesscenter.com/,,http://www.wholenesscenter.com/gift-cards,,"
        Gift Cards
      ",,1,NY,10989,beauty_salon
Shear Emotion & Caribbean Sun Tanning,"1026 Hilton Parma Corners Rd, Hilton, NY 14468",Beauty salon,Hilton,,http://www.shearemotion.com/,,http://www.shearemotion.com/giftcertificates.php,http://www.shearemotion.com/contact.php,Gift Certificates,Contact Us,1,NY,14468,beauty_salon
Riverview Wellness Center For Well Being,"500 Piermont Ave, Piermont, NY 10968",Day spa,Piermont,,https://www.riverviewwellnesscenter.com/,,https://squareup.com/gift/5Y40W36ZS61C5/order,,Celebrate withÂ A Gift Card,,1,NY,10968,beauty_salon
Celebrity Salons,"348 Kinderkamack Rd, Emerson, NJ 07630",Beauty salon,Emerson,,http://www.celebritysalons.com/,,https://www.egiftify.com/gift-card/celebrity,http://www.celebritysalons.com/#contactus,,contact us,1,NJ,07630,beauty_salon
SM Hair Studio,"Woodhaven Rd, Orchard Park, NY 14127",Hair salon,Orchard Park,,http://smhairstudio.com/,,https://www.vagaro.com/smsalon/services#gift-certificates,https://www.smhairstudio.com/contact,Gift Certificates,CONTACT,1,NY,14127,beauty_salon
Ritual Skincare Spa,"4230 N Buffalo St #3, Orchard Park, NY 14127",Facial spa,Orchard Park,,http://www.ritualskincarespa.com/,,https://squareup.com/gift/EMBY6EDAV3N54/order,https://www.ritualskincarespa.com/contact,GIFT CERTIFICATES,CONTACT,1,NY,14127,beauty_salon
SALON 187 Hair and Nail Specialty,"3402 Orchard Park Rd, Orchard Park, NY 14127",Hair salon,Orchard Park,,http://www.salon187.com/,,http://www.salon187.com/online-gift-cards,http://www.salon187.com/contact,Online Gift Cards,Booking,1,NY,14127,beauty_salon
In Vogue Salon & Spa,"62 W Bridge St, Oswego, NY 13126",Hair salon,Oswego,,http://www.invoguesalonspa.com/,,http://www.invoguesalonspa.com/gift-cards,http://www.invoguesalonspa.com/contact-us,Gift Cards,Contact Us,1,NY,13126,beauty_salon
Port City Day Spa,"9 E Cayuga St, Oswego, NY 13126",Spa,Oswego,,https://www.portcitydayspa.com/,,https://www.portcitydayspa.com/index.php?pg_nm=gift_certificate,https://www.portcitydayspa.com/index.php?pg_nm=contactus,Gift Certificate,Contact Us,1,NY,13126,beauty_salon
The Spa Tanning & Fitness LLC,"330 E 65th St, New York, NY 10065",Tanning salon,New York,,http://bronzeboutiquenyc.com/,,https://www.secure-booker.com/sunpointretreat/ShopOnline/GiftCertificate.aspx,,"
PURCHASE GIFT CARD
",,1,NY,10065,beauty_salon
Scissors Salon & Day Spa,"20 Cold Spring Rd, Syosset, NY 11791",Beauty salon,Syosset,,http://www.scissorssalon.com/,,https://www.scissorssalon.com/gift-certificates/,https://www.scissorssalon.com/contact-2/,Gift Card Promotion,Contact,1,NY,11791,beauty_salon
Natural Nail Lounge,"18 Jackson Ave #1, Syosset, NY 11791",Nail salon,Syosset,,http://www.naturalnaillounge.com/,,https://naturalnaillounge.com/gift-cards/,https://naturalnaillounge.com/contact-us/,Gift Cards,Contact Us,1,NY,11791,beauty_salon
Studio M Salon and Spa,"2465 E Palm Canyon Dr STE 1025, Palm Springs, CA 92264",Beauty salon,Palm Springs,,http://www.studiomsalonandspa.com/,,https://na1.meevo.com/EgiftApp/home?tenantId=200266,http://www.studiomsalonandspa.com/#,Gift Certificates,Contact,1,CA,92264,beauty_salon
Heather's Electrolysis & Day Spa LLC,"550 Latona Rd Bldg D, Suite 407, Rochester, NY 14626",Electrolysis hair removal service,Rochester,,http://heathers.skincaretherapy.net/,,http://heathers.skincaretherapy.net/gift-certificates,http://heathers.skincaretherapy.net/contact-information,Gift Certificates,Contact Information,1,NY,14626,beauty_salon
Seriously Spoiled Salon and Spa,"240 E Main St, Patchogue, NY 11772",Beauty salon,Patchogue,,http://www.seriouslyspoiledsalonandspa.com/,,https://seriouslyspoiledsalonandspa.com/seriously-spoiled-gift-cards/,,Seriously Spoiled Gift Cards,,1,NY,11772,beauty_salon
Salon Brio,"12 Havens Ave, Patchogue, NY 11772",Hair salon,Patchogue,,https://salonbrio.squarespace.com/,,https://www.instagram.com/p/B__FQbxHNNR/,https://salonbrio.squarespace.com/our-salon,"

",Contact Us,1,NY,11772,beauty_salon
Beauty 4 Ever Esthetics,"274 W Main St, Patchogue, NY 11772",Spa,Patchogue,,http://www.beauty4everesthetics.net/,,https://squareup.com/gift/45AYY8RVBS7YN/order,http://www.beauty4everesthetics.net/tel:6317648417,We Now Offer E-GiftCards. (Click here),631-764-8417,1,NY,11772,beauty_salon
Platinum Day Spa,"50 W Main St, Patchogue, NY 11772",Day spa,Patchogue,,http://www.platinumdayspa.net/,,http://www.platinumdayspa.net/site/platinumdayspa/gift-certificates,http://www.platinumdayspa.net/site/platinumdayspa/contact-platinum-day-spa,Gift Certificates,Contact,1,NY,11772,beauty_salon
MegaRich Lashes,"861 County Rd 85, Bayport, NY 11705",Beauty salon,Bayport,,http://www.megarichlashes.com/,,https://www.megarichlashes.com/gift-card,https://www.megarichlashes.com/contact,Gift Card,Contact,1,NY,11705,beauty_salon
Simply Wax,"100 CT-37, New Fairfield, CT 06812",Waxing hair removal service,New Fairfield,,http://www.simplywaxct.com/,,https://www.instagram.com/p/B-zpjtZACkU/,http://www.simplywaxct.com/contact-us,"

","
Contact
",1,CT,06812,beauty_salon
Ganesha Spa,"15 Depew Ct, Peekskill, NY 10566",Day spa,Peekskill,,http://www.ganeshaspa.com/,,http://www.ganeshaspa.com/gift-certificates,http://www.ganeshaspa.com/contact-us,Gift Certificates,Contact Us,1,NY,10566,beauty_salon
JOs Body Shop NY,"810 South St, Peekskill, NY 10566",Massage therapist,Peekskill,,http://www.josbodyshopny.com/,,https://jopro.boomtime.com/lgift,http://www.josbodyshopny.com/contact.html,NEW Online Gift Certificates!,Contact Us,1,NY,10566,beauty_salon
Salon Salon,"9570 Transit Rd # 100, East Amherst, NY 14051",Hair salon,East Amherst,,http://salonsalon14051.com/,,https://squaremktg.com/campaigns/XVw2YtaeAUyCTvbc/landing?source=facebook&fbclid=IwAR0NpA6BEanq2vT2A3hYcnt--cYNMPQIJaRzV0U5IYbXPYRQEIB6nloZyVo,https://www.salonsalon14051.com/contact,"BUY eGIFT CARD




",Contact,1,NY,14051,beauty_salon
Buffalo Aesthetics,"4770 N French Rd, East Amherst, NY 14051",Medical spa,East Amherst,,http://www.buffaloaesthetics.com/,,https://www.instagram.com/p/B_5JE74jiEM/,https://buffaloaesthetics.com/contact/,"
Donâ€™t forget about Mom ðŸ’• Motherâ€™s Day gift 

",BOOK NOW,1,NY,14051,beauty_salon
Honey Bunz Organic Day Spa,"859 Davison Rd, Lockport, NY 14094",Day spa,Lockport,,http://www.honeybunzspa.com/,,https://www.thegiftcardcafe.com/cart/index.php?storeID=11542,, Shop for Gift Cards,,1,NY,14094,beauty_salon
Spa Elan at Woodcliff Hotel,"199 Woodcliff Dr, Fairport, NY 14450",Beauty salon,Fairport,,https://www.woodcliffhotelspa.com/,,https://www.woodcliffhotelspa.com/amenities-services/gift-cards/,https://www.woodcliffhotelspa.com/contact-us/,"
			                                Gift Cards			                                There's no better way to show a loved one that you care ",Contact Us,1,NY,14450,beauty_salon
RELAX The Spa  Rochester,"235 High St Ext, Victor, NY 14564",Day spa,Victor,,http://relaxthespa.com/,,http://relaxthespa.com/gift-cards,http://relaxthespa.com/pages/contact-us,Gift Cards,Contact Us,1,NY,14564,beauty_salon
Fresh Skin and Body,"265 Fairport Village Landing 2nd floor, Fairport, NY 14450",Day spa,Fairport,,http://www.freshskinandbodyfairport.com/,,http://freshskinandbodyfairport.com/gift-certificates/,http://freshskinandbodyfairport.com/contact/,Gift Certificates,Contact,1,NY,14450,beauty_salon
Cold Spring Apothecary,"75 Main St, Cold Spring, NY 10516",Hair salon,Cold Spring,,http://www.coldspringapothecary.com/,,http://www.coldspringapothecary.com/collections/gifts,http://www.coldspringapothecary.com/pages/contact-us,Gift Cards,Contact Us,1,NY,10516,beauty_salon
B Jags Hair Design,"615 NY-32 #3, Highland Mills, NY 10930",Hair salon,Highland Mills,,http://www.bjagssalon.com/,,https://bjags.boomtime.com/lgift,https://www.bjagssalon.com/contact-us/,Instant Gift Certificates,Contact Us,1,NY,10930,beauty_salon
Bella Zen Spa,"1 Grove St #117, Pittsford, NY 14534",Facial spa,Pittsford,,http://www.bellazenskincare.com/,,https://www.bellazenskincare.com/gift-certficates,https://www.bellazenskincare.com/couleurcaramelmakeup,Gift Certificates,contact us,1,NY,14534,beauty_salon
Maria's Nails and Waxing,"1559 Monroe Ave, Rochester, NY 14618",Nail salon,Rochester,,http://mariasnailsandwaxing.com/,,https://mariasnailsandwaxing.com/gift-certificates/,https://mariasnailsandwaxing.com/contact-maria/,Gift Certificates,Contact,1,NY,14618,beauty_salon
Oasis Medispa,"82 N Water St, Poughkeepsie, NY 12601",Medical spa,Poughkeepsie,,http://www.nyfacemd.com/,,https://www.nyfacemd.com/gift-certificates/,https://www.nyfacemd.com/contact-us/,Gift Certificates,Schedule a Consultation,1,NY,12601,beauty_salon
Archer Bodyworks LLC,"44 Broad St, Plattsburgh, NY 12901",Massage therapist,Plattsburgh,,http://www.archerspa.com/,,http://www.archerspa.com/gift-certificates,http://www.archerspa.com/contact-us-%26-directions,Gift Certificates,You can find our hours and directions here,1,NY,12901,beauty_salon
spavia day spa  thornwood,"988 Broadway, Thornwood, NY 10594",Day spa,Thornwood,,https://spaviadayspa.com/,,http://clients.mindbodyonline.com/ws.asp?studioid=464855&stype=42,https://spaviadayspa.com/thornwood-ny/contact-us/,Gift Cards,Contact Us,1,NY,10594,beauty_salon
Bare Skin and Laser,"201 Marble Ave, Pleasantville, NY 10570",Skin care clinic,Pleasantville,,http://www.bareskinandlaser.com/,,https://www.bareskinandlaser.com/gift-cards,https://www.bareskinandlaser.com/map,GIFT CARDS,CONTACT,1,NY,10570,beauty_salon
Nicholas Day Spa & Salon,"203 Wolfs Ln, Pelham, NY 10803",Beauty salon,Pelham,,http://nicholasdayspa.com/,,http://nicholasdayspa.com/about/gift-certificate/,http://nicholasdayspa.com/visit/make-an-appointment/,Nicholas gift certificates available.  Learn More Â»,Contact,1,NY,10803,beauty_salon
Meche,"8820 Burton Way, Beverly Hills, CA 90211",Beauty salon,Beverly Hills,,http://www.mechesalonla.com/,,//instagram.com/p/B-0gxP_DM4g/,https://mechesalonla.com/contact/,,Contact,1,CA,90211,beauty_salon
M Hair Studio,"735 Porter Rd, Nashville, TN 37206",Beauty salon,Nashville,,http://www.mhairstudios.com/,,https://squareup.com/gift/B91AA4XGW617B/order,http://www.mhairstudios.com/contact,Gift Cards Online,Contact,1,TN,37206,beauty_salon
Paintbox,"17 Crosby St, New York, NY 10013",Nail salon,New York,,http://www.paint-box.com/,,https://paint-box.com/products/gift-card-1,http://www.paint-box.com/pages/contact,Gift Card,Contact Us,1,NY,10013,beauty_salon
Salon Blonde,"403 E Main St, Port Jefferson, NY 11777",Beauty salon,Port Jefferson,,http://www.salonblondeny.com/,,https://images.squarespace-cdn.com/content/v1/555cd3c1e4b05f1d49fee12a/1588861539852-XWT34EHJ2R6S42D5ULGE/ke17ZwdGBToddI8pDm48kEpVg-ILAPna1wRh-xAJ9fRZw-zPPgdn4jUwVcJE1ZvWQUxwkmyExglNqGp0IvTJZUJFbgE-7XRK3dMEBRBhUpwEv36x-EUL2-BSQ5feDhwGCbXuJBFqZ-erYzVouT8yOb9TwqchglLQOCYTRn7ZGxI/image-asset.jpeg,http://www.salonblondeny.com/#contact,"

",CONTACT,1,NY,11777,beauty_salon
Arame Salon and Spa,"7 Traders Cove, Port Jefferson, NY 11777",Beauty salon,Port Jefferson,,http://www.aramesalonandspa.com/,,http://www.aramesalonandspa.com/gift-cards.html,http://www.aramesalonandspa.com/contact.html,Gift Cards,Contact,1,NY,11777,beauty_salon
Tapestry Salon & Spa of Mt Sinai,"5507 Nesconset Hwy, Mt Sinai, NY 11766",Beauty salon,Mt Sinai,,http://tapestrysalon.com/,,https://www.thegiftcardcafe.com/cart/indexpac.php?storeID=1399,https://tapestrysalon.com/contact-us/,Gift Certificate,Contact Us,1,NY,11766,beauty_salon
Fedora Lounge Boutique Hair Salon and Hair Replacement Studio,"1303 Main St, Port Jefferson Station, NY 11777",Hair salon,Port Jefferson Station,,https://fedoraloungehair.com/,,https://www.vagaro.com/fedoralounge/gift-certificates,https://fedoraloungehair.com/tel:6313749583,Gift Certificates,(631) 374-9583,1,NY,11777,beauty_salon
Delaware river spa,"298 E Main St, Port Jervis, NY 12771",Massage spa,Port Jervis,,http://www.myriverspa.com/,,http://www.myriverspa.com/buy-gift-card-online,http://www.myriverspa.com/contact,Buy gift card online,CONTACT,1,NY,12771,beauty_salon
MediSpa at St Lawrence Surgery,"West, 800 Cummings Park Dr #2250, Woburn, MA 01801",Medical spa,Woburn,,http://www.woburnmedispa.com/,,http://woburnmedispa.com/shop/,http://woburnmedispa.com/contact/,Gift Cards,ContactGet in touch,1,MA,01801,beauty_salon
Derma Laser Center Inc,"33 Arlington Ave, Poughkeepsie, NY 12603",Laser hair removal service,Poughkeepsie,,http://www.dermalasercenterny.com/,,https://www.dermalasercenterny.com/ecommerce/gift-certificates.html,//www.dermalasercenterny.com/contactme.html,Gift Certificates,Contact Me,1,NY,12603,beauty_salon
Lake George Massage and Day Spa,"1851 U.S. 9, Lake George, NY 12845",Day spa,Lake George,,http://lakegeorgemassage.com/,,https://www.lakegeorgemassage.com/gift-certificates,https://www.lakegeorgemassage.com/contact,GIFT CERTIFICATES,CONTACT,1,NY,12845,beauty_salon
Rejuvenations Spa Services,"340 Aviation Rd, Queensbury, NY 12804",Day spa,Queensbury,,http://www.rejuvenationsspaservices.com/,,http://www.rejuvenationsspaservices.com/purchase-gift-certificates,http://www.rejuvenationsspaservices.com/contact,Purchase Gift Certificates,Contact,1,NY,12804,beauty_salon
Deja Vu Salon & Spa,"33 Park Ave, Suffern, NY 10901",Beauty salon,Suffern,,http://www.mydejavusalonandspa.com/,,http://www.mydejavusalonandspa.com/giftcards.html,http://www.mydejavusalonandspa.com/contact.html,gift cards,Contact Us,1,NY,10901,beauty_salon
Montebello Skin Care Studio,"131 Lafayette Ave UNIT 1, Suffern, NY 10901",Skin care clinic,Suffern,,http://www.montebelloskincarestudio.com/,,http://www.montebelloskincarestudio.com/gift-certificates.html,http://www.montebelloskincarestudio.com/contact-us.html,"
				Gift Certificates
			","
				Contact Us
			",1,NY,10901,beauty_salon
VARIN Salon,"762 Madison Ave, New York, NY 10065",Beauty salon,New York,,http://www.varinnyc.com/,,https://na0.meevo.com/EgiftApp/home?tenantId=11478,http://www.varinnyc.com/#contact-section,GIFT CARDS,"
                        Contact
                      ",1,NY,10065,beauty_salon
Ouidad,"37 W 57th St 4th floor, New York, NY 10019",Beauty salon,New York,,http://www.ouidad.com/,,https://www.ouidad.com/ouidad-e-gift-card.html,https://help.ouidad.com/hc/en-us/requests/new,E-Gift Cards,Contact Us,1,NY,10019,beauty_salon
FACE Stockholm,"47 E Market St, Rhinebeck, NY 12572",Cosmetics store,Rhinebeck,,http://www.facestockholm.com/,,https://facestockholm.com/product/gift-card/,https://facestockholm.com/contact-us/,,CONTACT US,1,NY,12572,beauty_salon
MasterCuts,"2086 Newpark Mall, Newark, CA 94560",Beauty salon,Newark,,https://www.newparkmall.com/,,https://www.newparkmall.com/en/visit/gift-cards.html,https://www.newparkmall.com/en/contact-us.html,Find Out More ,"
                    Contact Us
                ",1,CA,94560,beauty_salon
Mixtape anethetics,"72E Old Country Rd, Mineola, NY 11501",Facial spa,Mineola,,http://beautiologystudioandspa.com/,,http://beautiologystudioandspa.com/gift-cards,http://beautiologystudioandspa.com/contact,"
            Gift Cards
          ","
              Contact
            ",1,NY,11501,beauty_salon
E Day Spa & Salon,"154 W Montauk Hwy, Hampton Bays, NY 11946",Day spa,Hampton Bays,,http://www.edayspaandsalon.com/,,https://edayspaandsalon.com/gift-certificates/,https://edayspaandsalon.com/contact-us/,Gift Certificates,Contact,1,NY,11946,beauty_salon
PARLOR BEAUTY BUNDLES,"439 Monroe Ave, Rochester, NY 14607",Beauty salon,Rochester,,http://parlorbeautybundles.com/,,https://shop.parlorbeautybundles.com/product/e-gift-cards/,https://parlorbeautybundles.com/contact/,Gift Cards & eCards,Contact,1,NY,14607,beauty_salon
need salon and spa,"280 E Broad St, Rochester, NY 14604",Hair salon,Rochester,,http://www.needsalonroc.com/,,http://www.needsalonroc.com/giftcertificates,http://www.needsalonroc.com/contact-us,"
                Gift Certificates 
              ","
              Contact Us
            ",1,NY,14604,beauty_salon
Stache Grooming Lounge,"2229 Monroe Ave, Rochester, NY 14618",Barber shop,Rochester,,http://www.stachegrooming.com/,,https://www.vagaro.com/stachegroominglounge/gift-certificates,,Gift Certificates,,1,NY,14618,beauty_salon
Leonardo's Hair Design,"126 N Long Beach Rd, Rockville Centre, NY 11570",Beauty salon,Rockville Centre,,http://www.leonardoshairdesign.com/,,http://www.leonardoshairdesign.com/gift-certificates/,,Gift Certificates,,1,NY,11570,beauty_salon
Colour Bar Hair,"93A N Park Ave, Rockville Centre, NY 11570",Hair salon,Rockville Centre,,http://www.colourbarhair.com/,,http://www.colourbarhair.com/shop-gift-cards.html,http://www.colourbarhair.com/contact.html,"
				SHOP GIFT CARDS
			","
				Contact
			",1,NY,11570,beauty_salon
Roman K Salon  Tribeca,"317 Church St, New York, NY 10013",Beauty salon,New York,,http://romanksalon.com/,,http://links.vagaro.com/ls/click?upn=-2FzxkQ-2F5BuFnU8de4jFI-2B7j-2FEH2iDRZDKVAAIzrk3m7oEUhg7uqHUNeb506WUImKXJQBIFNgEog18oA6zp-2BgrObwDYnXDg-2BKH056iNaS5-2FRE-3DkIL-_q45YlZwNM3PDGFZ7Hk9c5UJjDaPAxz-2B-2F0yhNfcZntmNILiLKn0eSkzp84dbU9gScOlKcDnTdTML-2B9W8lfQSoPJm25DVoPRnBb1AKQjrJIdWpGgeArmyAdHOjcXgTwBBlWdj3n0TM7RdrPekateG5P4p6LmQ9cdw4AgaZ5eo2dhbzfqJQMgIJEofcfdB0hC1tdWKtlLeumopGMsP4O-2B0C1hbxkgkNVkSursdZSbOpeMcmP-2FbCKp3YU7qgxoN637exowu-2Fr7XxjmMZodHDkejTxz-2F1M8vV1oipoJYYuZLGpxeT-2BZEcXu-2FJLF7QxezqtlNWmTGoDHRtfYYtsDFajcZ3OyxE9NSC8tgxU5sVATXdC8xPqEJ7KB72Tjihvz-2BRef8-2F2YrqhtpIG1Oz7ZSacNPXzQzRKSSP2q93T1QCT098Gc7QkbLNULKTapBgWm21GZlzm1tzJtNh79vlaM8-2BL2oLiB9AxYeDLDJtj7p8Nu8tmdGKqZbpgGFI0GKPF3h8dOB3h4gR2spXoWMV7quBTI0Xddxk4-2BPAq6p5ilCQCrqz-2FuM2ZHmCRKAbyH8DcdGn1vkE,http://romanksalon.com/contact,Support your stylists!Ã‚Â We are offering a 10% discount on all future services through online purchase of E-Gift Cards,Contact us,1,NY,10013,beauty_salon
Fox and Jane,"277 E 10th St, New York, NY 10009",Beauty salon,New York,,http://foxandjanesalon.com/,,https://www.instagram.com/foxandjane/,https://foxandjanesalon.com/eastvillage/contact-us/,,Contact Us,1,NY,10009,beauty_salon
Juvly Aesthetics,"18 E 41st St 12th floor, New York, NY 10017",Medical spa,New York,,https://www.juvly.com/,,https://www.instagram.com/p/B6tuB6VH2yZ/,https://www.juvly.com/contact-us/, 2020 is your year to commit to prioritizing the th  ,Contact Us,1,NY,10017,beauty_salon
Angela Cosmai Salon,"289, Lower Level, Greenwich Ave, Greenwich, CT 06830",Beauty salon,Greenwich,,http://www.angelacosmai.com/,,http://www.angelacosmai.com/giftcertificate,,Gifts,Contact,1,CT,06830,beauty_salon
Tru Cutz BarberShop,"45 Park Pl, Saratoga Springs, NY 12866",Barber shop,Saratoga Springs,,http://trucutzbarbershop.com/,,http://trucutzbarbershop.com/#buy-your-gift-cards-at,,Buy Your Gift Cards at,,1,NY,12866,beauty_salon
Regal Barbershop,"35 Van Dam St, Saratoga Springs, NY 12866",Barber shop,Saratoga Springs,,http://www.regalbarbershop.com/,,https://squareup.com/gift/369B7YWVV0T2W/order,https://www.regalbarbershop.com,eGift Card,Contact,1,NY,12866,beauty_salon
Headspace,"12 Market St, Saugerties, NY 12477",Beauty salon,Saugerties,,http://www.headspacesaugerties.com/,,http://www.headspacesaugerties.com/gift-certificates,,gift certificates,,1,NY,12477,beauty_salon
Union Shave,"106 Partition St, Saugerties, NY 12477",Barber shop,Saugerties,,http://www.unionshave.com/,,https://www.instagram.com/p/B6Yh5ytl-Nz/,,"

",,1,NY,12477,beauty_salon
xpress salon,"12 Garth Rd, Scarsdale, NY 10583",Hair salon,Scarsdale,,https://xpresssalon.com/,,https://xpresssalon.com/gift-certificate-donation-request/,https://xpresssalon.com/contact-us/,,Contact Us,1,NY,10583,beauty_salon
Salon 421,"590 Central Park Ave, Scarsdale, NY 10583",Beauty salon,Scarsdale,,http://www.salon421.com/,,http://salon421.com/promo/,http://salon421.com/contact-us/,Gift Card Promo,Contact Us,1,NY,10583,beauty_salon
Youtherapy Medical,"15 Popham Rd, Scarsdale, NY 10583",Medical spa,Scarsdale,,https://youtherapymedical.com/,,https://go.booker.com/#/location/YoutherapyNYC/buy/gift-certificate,https://youtherapymedical.com/#,NYC Gift Certificates,Contact Us,1,NY,10583,beauty_salon
Brushed Up Studio,"406 Mamaroneck Ave, White Plains, NY 10605",Nail salon,White Plains,,https://www.brushedupnails.com/,,https://squareup.com/gift/A6BF74ZKMC80A/order,https://www.brushedupnails.com/contact,E-Gift Cards,CONTACT,1,NY,10605,beauty_salon
GLOW  Scarsdale,"1513 Weaver St, Scarsdale, NY 10583",Spa,Scarsdale,,http://glow-tone.com/,,https://www.instagram.com/p/B_z1jr6pQhA/,,"


",,1,NY,10583,beauty_salon
Branches of Beauty Skincare and Beauty Boutique,"193 Brook St, Scarsdale, NY 10583",Skin care clinic,Scarsdale,,http://www.branchesofbeauty.net/,,https://clients.mindbodyonline.com/classic/home?studioid=147921,http://www.branchesofbeauty.net/contact/,Gift Cards,Contact,1,NY,10583,beauty_salon
Electric City Skin at Kristin's Terme on Jay,"34 N Jay St, Schenectady, NY 12305",Skin care clinic,Schenectady,,https://www.electriccityskin.com/,,https://www.electriccityskin.com/online-gift-cards,https://www.electriccityskin.com/contact-us,Online Gift Cards,Contact Us,1,NY,12305,beauty_salon
Studio 1 Hair Designers,"3 Forrest Dr, Rensselaer, NY 12144",Hair salon,Rensselaer,,http://studio1hairdesigners.com/,,https://www.salonbuilder.com/website/157892/giftcert.asp,https://www.salonbuilder.com/website/157892/contact.asp,,Contact,1,NY,12144,beauty_salon
Belladerma Wellness Spa,"5500 Bartell Rd, Brewerton, NY 13029",Spa,Brewerton,,http://www.belladermawellnessspa.com/,,https://www.salonbuilder.com/website/172130/giftcert.asp?func=R,https://www.salonbuilder.com/website/172130/contact.asp,"
			Gifts","
			Contact",1,NY,13029,beauty_salon
Connie Hodde LMT,"12 N Park St, Seneca Falls, NY 13148",Massage therapist,Seneca Falls,,http://conniehodde.com/,,https://www.massagebook.com/ConnieHoddeLLC?src=external#gift-certificates,http://conniehodde.com/contact/,"

",Contact,1,NY,13148,beauty_salon
Soon Beauty Lab,"54 W 22nd St #1, New York, NY 10010",Hair salon,New York,,http://www.soonbeautylab.com/,,http://www.soonbeautylab.com/gift-certificates,http://www.soonbeautylab.com/contact-us,"
                  Gift Certificates
                ","
                  Contact Us
                ",1,NY,10010,beauty_salon
POLISH Nail and Bar,"59 E Main St, Smithtown, NY 11787",Nail salon,Smithtown,,http://www.polishnailandbar.com/,,https://squareup.com/gift/HYY2CHBK05DQR/order,http://www.polishnailandbar.com/contact-us,"
        Gift Cards
      ","
            Contact Us
          ",1,NY,11787,beauty_salon
LaVida Massage of Smithtown,"87 NY-111, Smithtown, NY 11787",Massage therapist,Smithtown,,http://www.lavidamassagesmithtownny.com/,http://www.lavidamassagesmithtownny.com/,http://shop.lavidamassage.com/,https://lavidamassage.com/contact/,Gift Cards,Corporate Contact,1,NY,11787,beauty_salon
Prism Wellness Salon,"420 Lake Ave, St James, NY 11780",Hair salon,St James,,http://www.prismwellnessny.com/,,http://www.prismwellnessny.com/giftcardsandspecials,,"
                Giftcards and Specials
              ",,1,NY,11780,beauty_salon
Geomare Wellness Center & Spa,"80 White St, Southampton, NY 11968",Day spa,Southampton,,https://www.geomarewellnesscenter.com/,,https://www.geomarewellnesscenter.com/giftcertificates,https://www.geomarewellnesscenter.com/contact-us,"
                Gift Certificates
              ","
                  Contact Us
                ",1,NY,11968,beauty_salon
Scarlett Rose AVEDA salon of the Hamptons,"80 Division St, Sag Harbor, NY 11963",Beauty salon,Sag Harbor,,http://www.scarlettrosesalon.com/,,https://www.secure-booker.com/scarlettroseny/ShopOnline/GiftCertificate.aspx,http://www.scarlettrosesalon.com/tel:6318994949,Purchase Gift Cards,(631) 899-4949,1,NY,11963,beauty_salon
Accente Salon Danbury,"78 Lake Ave, Danbury, CT 06811",Beauty salon,Danbury,,http://accentesalon.com/,,https://www.accenteonline.com/gift-card,,GIFT CARDS,,1,CT,06811,beauty_salon
Windswept By The Sea Salon,"5 Northview Hills Ct, Sag Harbor, NY 11963",Beauty salon,Sag Harbor,,http://windsweptbythesea.com/,,http://windsweptbythesea.com/gift-certificate,http://windsweptbythesea.com/contact,"
                Gift Certificate
              ","
                Contact
              ",1,NY,11963,beauty_salon
Better Holistic Skincare  Wellness Ritual,"13 Grand Ave, Shelter Island Heights, NY 11965",Massage therapist,Shelter Island Heights,,http://bettersi.com/,,https://www.bettersi.com/gift-certificates,https://www.bettersi.com/contact,Gift Certificates,Contact,1,NY,11965,beauty_salon
Blue Sage Day Spa,"11700 Main Rd, Mattituck, NY 11952",Day spa,Mattituck,,http://www.bluesagedayspa.com/,,https://bluesagedayspa.boomtime.com/lgift,https://bluesagedayspa.com/contact-us/,Gift Certificates,Contact  Us,1,NY,11952,beauty_salon
Utopia Salon and Day Spa,"2557 US-6, Hawley, PA 18428",Beauty salon,Hawley,,http://www.utopiasalonanddayspa.com/,,http://www.utopiasalonanddayspa.com/gift-certificates,http://www.utopiasalonanddayspa.com/contact-us/,Gift Certificates,Contact Us,1,PA,18428,beauty_salon
Fresh Nail Lounge and Spa,"220 Green St, Syracuse, NY 13203",Day spa,Syracuse,,http://freshspalounge.com/,,https://squareup.com/gift/4NFEKEYBGV4EK/order,http://freshspalounge.com/contact,Click Here To Order Your E-Gift Card today!,Contact,1,NY,13203,beauty_salon
Spanail by Nail Quick,"120 Sullivan St, New York, NY 10012",Nail salon,New York,,http://www.spanail.net/,,http://www.spanail.net/#gift-certificate,http://www.spanail.net/tel:TEL. 646-476-3271,GIFT CERTIFICATE,TEL. 646-476-3271,1,NY,10012,beauty_salon
Deborah Thompson Day Spa,"37 The Plaza, Montauk, NY 11954",Facial spa,Montauk,,http://www.deborahthompsondayspa.com/,,http://www.deborahthompsondayspa.com/gift-certificates-and-book-online,http://www.deborahthompsondayspa.com/contact-ushours,Gift Certificates & Book Online ,Contact Us/Hours,1,NY,11954,beauty_salon
Bronxville Wellness Sanctuary,"14 Studio Arcade, Bronxville, NY 10708",Massage spa,Bronxville,,https://www.bronxvillewellness.com/,,http://www.secure-booker.com/bronxvillewellness/ShopOnline/GiftCertificate.aspx,https://www.bronxvillewellness.com/contact-us.html,"
				Gift Certificates
			","

			Contact
		
",1,NY,10708,beauty_salon
Far East Wellness,"2150 Central Park Ave #2, Yonkers, NY 10710",Massage spa,Yonkers,,http://www.fareastwellness-newyork.com/,,http://fareastwellness-newyork.com/gift-card/,http://fareastwellness-newyork.com/contact-us/,GIFT CARD,Contact Us,1,NY,10710,beauty_salon
NJ Hair Studio & Spa,"1420 Burnet Ave, Union, NJ 07083",Beauty salon,Union,,http://www.njhairstudioandspa.com/,,https://www.destinyhairextensions.com/online-store/Destiny-Hair-Extensions-%24100-Gift-Card-p185583870,https://www.njhairstudioandspa.com/contact-us-1,"








",CONTACT USÂ ,1,NJ,07083,beauty_salon
LEAPIA NAIL & ART LOUNGE,"200 E 25th St, New York, NY 10010",Beauty salon,New York,,http://www.leapia.nyc/,,http://www.leapia.nyc/gift-cards,http://www.leapia.nyc/contact,GIFT CARDS,CONTACT,1,NY,10010,beauty_salon
Julian's Barber Shop,"5 Horatio St, New York, NY 10014",Barber shop,New York,,http://www.fellowbarber.com/,,http://www.fellowbarber.com/collections/fellow/products/gift-card-for-in-store-services,http://www.fellowbarber.com/pages/contact,"






",Contact us,1,NY,10014,beauty_salon
Hall of Fame Barbershop,"2265 Downer Street Rd, Baldwinsville, NY 13027",Barber shop,Baldwinsville,,http://www.halloffamecny.com/,,http://www.halloffamecny.com/contact,http://www.halloffamecny.com/contact,,"
Contact Usphone
",1,NY,13027,beauty_salon
Diane's Skin and Body Studio,"175 Front St, Vestal, NY 13850",Facial spa,Vestal,,http://dianesskinandbodystudio.com/,,https://www.thegiftcardcafe.com/cart/index.php?storeID=11572,http://dianesskinandbodystudio.com/contact.html,,Contact,1,NY,13850,beauty_salon
Bare Beauty  Wellness,"27 Maple Ave suite 2, Victor, NY 14564",Facial spa,Victor,,http://www.barebeautyandwellness.com/,,https://www.instagram.com/p/B_yY802hSe0/,http://www.barebeautyandwellness.com/contact-us,"

",Contact Us,1,NY,14564,beauty_salon
Theratopia Spa,"1000 Turk Hill Rd bldg 5, Fairport, NY 14450",Massage therapist,Fairport,,http://theratopiaspa.com/,,http://theratopiaspa.com/gift-certificates,http://theratopiaspa.com/contact,"
            Gift Certificates
          ","
            Contact
          ",1,NY,14450,beauty_salon
Boho Beauty llc,"1895 South Rd Sola Salons, Studio #1, Poughkeepsie, NY 12601",Beauty salon,Poughkeepsie,,http://www.bohobeauty.net/,,https://squareup.com/gift/6CMST8C0ZS3X0/order,https://www.bohobeauty.net,eGift Cards,Contact,1,NY,12601,beauty_salon
Brandi Nichole's Massage & Healing,"1601 NY-376, Wappingers Falls, NY 12590",Massage therapist,Wappingers Falls,,http://www.brandinichole.massagetherapy.com/,,http://www.brandinichole.massagetherapy.com/gift-certificates,http://www.brandinichole.massagetherapy.com/contact-information,Gift Certificates,Contact Information,1,NY,12590,beauty_salon
Alora Laser Spa,"3 St Stephen's Pl #3210, Warwick, NY 10990",Laser hair removal service,Warwick,,http://www.aloralaserspa.com/,,http://www.aloralaserspa.com/tel:1-973-263-4555,http://www.aloralaserspa.com/contact-us.html, Call 973-263-4555 for an Electronic Gift Card!,Contact Us,1,NY,10990,beauty_salon
Distinctive Touch Salon,"140 Airport Rd, Warwick, RI 02889",Beauty salon,Warwick,,http://www.distinctivetouchsalon.com/,,https://na0.meevo.com/EgiftApp/home?tenantId=10473,http://distinctivetouchsalon.com/contact/,Purchase Gift Cards,Contact,1,RI,02889,beauty_salon
KJ & Kompany,"912 W Viking Rd Suite 105, Cedar Falls, IA 50613",Beauty salon,Cedar Falls,,https://www.kjandkompany.com/,,https://na0.meevo.com/EgiftApp/home?tenantId=101256,https://www.kjandkompany.com/contact-us,GIFT CARDS,CONTACT US,1,IA,50613,beauty_salon
Green Tea Esthetics,"40 North Ave Suite 4, Webster, NY 14580",Facial spa,Webster,,http://greenteaesthetics.com/,,http://greenteaesthetics.com/shop-gift-certificates--packages.html,,"

			Shop Gift Certificates & Packages
		
",,1,NY,14580,beauty_salon
Inclusion Wellness Spa,"811 Ridge Rd #111, Webster, NY 14580",Spa,Webster,,http://www.inclusionspa.com/,,https://go.booker.com/location/InclusionSpa/buy/gift-certificate,http://www.inclusionspa.com/tel:5853476100,Buy  Now,(585) 347-6100,1,NY,14580,beauty_salon
Joes Upscale BarberingBeautyLoft,"40 North Ave, Webster, NY 14580",Hair salon,Webster,,http://www.joesupscalebarberingandbeauty.com/,,http://s.thegiftcardcafe.com/BUB2YZ,,GIFT CERTIFICATES,,1,NY,14580,beauty_salon
About Face By Erica,"721 Union Rd, West Seneca, NY 14224",Skin care clinic,West Seneca,,http://aboutfacebyerica.skincaretherapy.net/,,http://aboutfacebyerica.skincaretherapy.net/gift-certificatesspecial-deals,,Gift Certificates/Special Deals,,1,NY,14224,beauty_salon
Hilda Demirjian Laser & Skin Care Center,"34 S Broadway #607, White Plains, NY 10601",Skin care clinic,White Plains,,http://www.hildademirjianlaser.com/,,https://www.amazon.com/s/ref=nb_sb_noss_2?url=search-alias%3Daps&field-keywords=%22hilda+demirjian%22,http://www.hildademirjianlaser.com/contact-locations,REDEEM YOUR AMAZON GIFT CARDS OR POINTS THROUGH OUR AMAZON PAGE!,CONTACT,1,NY,10601,beauty_salon
Olga Florez Aesthetic Center & Spa,"150 Grand St 5th Floor Suite 500, White Plains, NY 10601",Day spa,White Plains,,https://www.olgaflorez.com/,,https://www.olgaflorez.com/gift-cards,https://www.olgaflorez.com/contact-us,Gift Cards,Contact Us,1,NY,10601,beauty_salon
Hope Floats New York,"52 Hillside Avenue, Williston Park, NY 11596",Spa,Williston Park,,http://hopefloatsusa.com/,,http://hopefloatsusa.com/gift-certificates,,Buy a gift certificate â†’,,1,NY,11596,beauty_salon
Radiance Skincare by Rebecca,"376 Broadway, Saratoga Springs, NY 12866",Facial spa,Saratoga Springs,,http://www.radiancebyrebecca.com/,,http://www.radiancebyrebecca.com/gift-certificates,http://www.radiancebyrebecca.com/contact,Gift Certificates,Contact,1,NY,12866,beauty_salon
Salon Innova,"1851 U.S. 9, Lake George, NY 12845",Beauty salon,Lake George,,https://www.saloninnova.com/,,http://www.secure-booker.com/Saloninnova/InstantGiftCertificate.aspx,,Gift Certificates,,1,NY,12845,beauty_salon
Dakotah Salon and Spa,"7950 Jericho Turnpike, Woodbury, NY 11797",Hair salon,Woodbury,,https://dakotahsalonandspa.com/,,https://dakotahsalonandspa.com/gift-cards-%26-promotions,https://dakotahsalonandspa.com/#ddb680b3-5c84-4afa-995f-8250fbd80988,Spoil your Mom and support our salon!,Contact us,1,NY,11797,beauty_salon
Halo Salon,"4406 Martha Ave, Yonkers, NY 10704",Beauty salon,Yonkers,,http://halosalon4406.wixsite.com/,,https://es.salontranscripts.com/4dee72c4000101ce02a0000a/,https://www.halosalonny.com,ONLINE BOOKING/GIFTCARDS,CONTACT,1,NY,10704,beauty_salon
The Skin Source,"115 Lockwood Ave, Yonkers, NY 10701",Beauty salon,Yonkers,,http://www.myonlyskinsource.com/,,https://images.squarespace-cdn.com/content/v1/5347e5dce4b036f444b2c061/1584829836628-GOEFDTCPR668SCJ2CLL9/ke17ZwdGBToddI8pDm48kG-Xfsq4VwsPKZ1ZC-SOwI5Zw-zPPgdn4jUwVcJE1ZvWQUxwkmyExglNqGp0IvTJZUJFbgE-7XRK3dMEBRBhUpy0SrR0IzXz9YWoEtDtJMXpZctbk2EP6lRAcXdS8r25ofAxZ3FR57RaMtu8k6spVv4/image-asset.jpeg,http://www.myonlyskinsource.com/contact-us,"

",Contact,1,NY,10701,beauty_salon
Brows by B,"6003A Riverdale Ave, The Bronx, NY 10471",Beauty salon,The Bronx,,http://squareup.com/,,https://squareup.com/gift/435WY5S5GA1NY/order,,"
Buy now
",,1,NY,10471,beauty_salon
Elite Salon & Spa,"South 65, 2802, NJ-17, Hasbrouck Heights, NJ 07604",Beauty salon,Hasbrouck Heights,,http://www.elitehairstudio.com/,,https://elitehairstudio.com/product-category/gift-cards/,https://elitehairstudio.com/contact-us/,Gift Cards,Contact us,1,NJ,07604,beauty_salon
