name,address,type,place,description,website_url,menu_url,gift_card_website,contact_website,gift_card_txt,contact_txt,searched,state,zipcode,store_type
Ralston Florist Inc,"538 W Trimble Rd, San Jose, CA 95131",Florist,San Jose,,http://www.ralstonflorist.com/,,,http://www.ralstonflorist.com/tel:6505926313,,(650) 592-6313,1,CA,95131,florist
South Shore Florist & Gifts,"1311 Park St, Alameda, CA 94501",Florist,Alameda,This casual florist offers traditional & unique flower arrangements & gifts for all occasions.,http://www.southshoreflorist.com/,http://places.singleplatform.com/south-shore-florist-and-gifts-p/menu?ref=google,,https://www.facebook.com/South-Shore-Florist-6306072489/,," 
",1,CA,94501,florist
BendedKnee Floral Designs,"2917 W Beverly Blvd, Montebello, CA 90640",Florist,Montebello,,https://bended-knee.com/,,,https://policies.google.com/privacy,,Privacy Policy,1,CA,90640,florist
M B Floral Design,"25351 Alicia Pkwy B, Laguna Hills, CA 92653",Florist,Laguna Hills,,http://www.mbflorist.com/,,,http://www.mbflorist.com/page/contact-us,,Contact us,1,CA,92653,florist
Sunny Flowers,"27771 Center Dr, Mission Viejo, CA 92692",Florist,Mission Viejo,,http://www.sunnyflowers.net/,,,http://www.sunnyflowers.net/#contact,,èç³»æä»¬,1,CA,92692,florist
Sami's Flowers,"27772 Vista Del Lago B-13, Mission Viejo, CA 92692",Florist,Mission Viejo,,http://www.samisflowers.com/,,,https://samisflowers.com/contacts,,"
Contact Us
",1,CA,92692,florist
Yorba Linda Flowers,"19685 Yorba Linda Blvd, Yorba Linda, CA 92886",Florist,Yorba Linda,,https://www.ylflowers.com/,,,https://www.ylflowers.com/contact_us.php,,Contact Us,1,CA,92886,florist
Flower Delivery Garden Grove,"13071 S Euclid St, Garden Grove, CA 92843",Florist,Garden Grove,,https://www.flowerdeliverygardengrove.com/,,,https://www.flowerdeliverygardengrove.com/contactus/,,Contact Us,1,CA,92843,florist
DAKINE FLOWERS & LEI,"125 N Tustin St STE D, Orange, CA 92867",Florist,Orange,,http://www.dakineflower.com/,,,https://checkout.bloomnetcommerce.com/contact/?s=oSpJ47X3okqAHLnszeBtRtVAqmylLKd%2Fl2yR%2FIl7%2BK4%3D,,"

 Contact Us
",1,CA,92867,florist
Main Street Florist  Adams Flowers,"405 S Main St, Orange, CA 92868",Florist,Orange,,http://www.mainstreetflorist.org/,,,https://www.facebook.com/Main-Street-Florist-480787995392522/,," 
",1,CA,92868,florist
Everyday Flowers,"1609 E McFadden Ave, Santa Ana, CA 92705",Florist,Santa Ana,"Small, straightforward florist offering custom arrangements for delivery or on-site pickup.",https://www.everydayflowers.com/,,,https://www.everydayflowers.com/contactus.html,,Contact us,1,CA,92705,florist
Cerritos Florist,"12618 South St, Cerritos, CA 90703",Florist,Cerritos,"Custom, exotic & seasonal floral arrangements for birthdays, anniversaries & other occasions.",https://cerritosflorist.net/,,,https://cerritosflorist.net/contacts,,"
Contact Us
",1,CA,90703,florist
Magnolia Florist,"17032 Magnolia St, Fountain Valley, CA 92708",Florist,Fountain Valley,,http://www.magnoliafloristca.com/,,,https://www.facebook.com/Magnolia-Florist-137646446295783/,," 
",1,CA,92708,florist
Funeral Flowers For Less,"15713 E Imperial Hwy suite b, La Mirada, CA 90638",Florist,La Mirada,,https://www.funeralflowersforless.com/,,,https://www.funeralflowersforless.com/contact_us.php,,Contact Us,1,CA,90638,florist
Dave's Flowers,"18685 Main St, Huntington Beach, CA 92648",Florist,Huntington Beach,,https://davesflowershb.com/,,,https://davesflowershb.com/contacts,,"
Contact Us
",1,CA,92648,florist
800RoseBig Wholesale Wedding Florist Orange County,"3849 Birch St, Newport Beach, CA 92660",Wholesale florist,Newport Beach,,https://www.800rosebigweddingflorist.com/,,,https://www.800rosebigweddingflorist.com/contact-800rosebig/,,Contact Us,1,CA,92660,florist
Pocketful of Posies By Appointment Only,"2853 Sunset Ln, Antioch, CA 94509",Flower designer,Antioch,,http://popdreamsinbloom.com/,,,http://popdreamsinbloom.com/contact-us.html,,"
				CONTACT US
			",1,CA,94509,florist
Flower Delivery Sierra Madre,"47 W Sierra Madre Blvd, Sierra Madre, CA 91024",Florist,Sierra Madre,,https://www.flowerdeliverysierramadre.com/,,,https://www.flowerdeliverysierramadre.com/contactus/,,Contact Us,1,CA,91024,florist
Flower Delivery Citrus,"18602 E Petunia St, Azusa, CA 91702",Florist,Azusa,,https://www.flowerdeliverycitrus.com/,,,https://www.flowerdeliverycitrus.com/contact-us/,,Contact Us,1,CA,91702,florist
Log Cabin Florist,"800 19th St, Bakersfield, CA 93301",Florist,Bakersfield,,https://www.logcabinflorist.com/,,,https://logcabinflorist.com/pages/contact_us,,Contact Us,1,CA,93301,florist
White Oaks Florist,"9160 Rosedale Hwy #500, Bakersfield, CA 93312",Florist,Bakersfield,,http://www.whiteoaksflorist.com/,,,http://www.facebook.com/pages/Bakersfield-CA/White-Oaks-Florist/122659864421981,," 
",1,CA,93312,florist
Flower Bar,"13043 Stockdale Hwy #200, Bakersfield, CA 93314",Florist,Bakersfield,,http://www.bakersfieldflowerbar.com/,,,https://bakersfieldflowerbar.com/contacts,,"
Contact Us
",1,CA,93314,florist
All Seasons Florist,"3100 Union Ave, Bakersfield, CA 93305",Florist,Bakersfield,,http://www.allseasonsfloristbks.com/,,,http://www.allseasonsfloristbks.com/Contact-us/de-127046,,Contact Us,1,CA,93305,florist
Cherry Blossom Bouquets,"4903 Stockdale Hwy, Bakersfield, CA 93309",Florist,Bakersfield,,http://www.cherryblossombouquet.com/,,,https://www.cherryblossombouquet.com/contact_us.php,,Contact Us,1,CA,93309,florist
Uniquely Chic Florist & Boutique,"9500 Brimhall Rd #701, Bakersfield, CA 93312",Florist,Bakersfield,,http://www.uniquelychicflorist.com/,,,http://www.uniquelychicflorist.com/pages/contact,,CONTACT,1,CA,93312,florist
Garden District Flowers Inc,"8200 Stockdale Highway #H1, Bakersfield, CA 93311",Florist,Bakersfield,,http://www.gardendistrictflowers.com/,,,http://www.gardendistrictflowers.com/page/aboutus,,Contact us,1,CA,93311,florist
Brundage Lane Florist,"3040 Brundage Ln, Bakersfield, CA 93304",Florist,Bakersfield,,http://www.brundagelaneflorist.net/,,,https://brundagelaneflorist.net/contact-us/,,Contact Us,1,CA,93304,florist
All My Love Fresh Flowers,"1603 S H St, Bakersfield, CA 93304",Florist,Bakersfield,,https://www.allmylovefreshflowers.com/,,,https://www.facebook.com/allmylovefreshflowersca/,," 
",1,CA,93304,florist
Julis Flower Shop,"420 H St, Bakersfield, CA 93304",Florist,Bakersfield,,http://www.julisflowershop.com/,,,https://www.facebook.com/Julis-Home-Decor-236361720039785/#,," 
",1,CA,93304,florist
Flourishing Art Design Studio,"407 E 19th St, Bakersfield, CA 93305",Florist,Bakersfield,,http://www.flourishingart.net/,,,https://www.flourishingart.net/contact/,,Contact,1,CA,93305,florist
Heaven Scent Floral Shop,"2324 Brundage Ln, Bakersfield, CA 93304",Florist,Bakersfield,,https://www.heavenscentfloralshop.com/,,,https://www.heavenscentfloralshop.com/contact_us.php,,Contact Us,1,CA,93304,florist
Sun Country Flowers,"234 Central Ave, Shafter, CA 93263",Florist,Shafter,,http://www.suncountryflowers.com/,,,https://www.suncountryflowers.com/contact_us.php,,Contact Us,1,CA,93263,florist
Flower In Love,"15936 Halliburton Rd, Hacienda Heights, CA 91745",Florist,Hacienda Heights,,https://www.radiantflower.com/,,,https://www.flowerinlove.us/?page_id=414,,Contact Us,1,CA,91745,florist
Flower Delivery City of Industry,"160 S Hacienda Blvd, City of Industry, CA 91745",Florist,City of Industry,,https://www.flowerdeliverycityofindustry.com/,,,https://www.flowerdeliverycityofindustry.com/my-account/lost-password/,,Lost your password?,1,CA,91745,florist
Flower Delivery Pico Rivera,"8963 Washington Blvd, Pico Rivera, CA 90660",Florist,Pico Rivera,,https://www.flowerdeliverypicorivera.com/,,,https://www.flowerdeliverypicorivera.com/contact/,,Contact Us,1,CA,90660,florist
Quality Wholesale Florist,"14638 Francisquito Ave, La Puente, CA 91746",Wholesale florist,La Puente,,http://www.qwflorist.com/,,,http://www.qwflorist.com/contact,,Contact US!,1,CA,91746,florist
Happy Flower Shop & Party Supply,"7344 1/2 Alondra Blvd, Paramount, CA 90723",Florist,Paramount,,http://www.happyflowersshopandpartysupply.vpweb.com/,,,http://www.happyflowersshopandpartysupply.vpweb.com/contact,,Contact,1,CA,90723,florist
The Halo Experience,"4439-1/2, E Village Rd, Long Beach, CA 90808",Florist,Long Beach,,http://www.thehaloexperience.com/,,,http://www.thehaloexperience.com/contact,,"
            Contact
          ",1,CA,90808,florist
Nancy's Flower Shop,"4154 Whittier Blvd, Los Angeles, CA 90023",Florist,Los Angeles,,http://www.nancysflower.com/,,,http://www.nancysflower.com/contact.html,,           Contact      ,1,CA,90023,florist
ViaBella International Inc,"2210 Davie Ave, Commerce, CA 90040",Florist,Commerce,,http://viabellaflowers.com/,,,http://viabellaflowers.com/index.php?route=information/contact,,Contact Us,1,CA,90040,florist
King's Flowers,"3730 Whittier Blvd, Los Angeles, CA 90023",Florist,Los Angeles,,https://weddingflowerslosangeles.com/,,,https://weddingflowerslosangeles.com/contact,,"

                                Contact Us
                            
",1,CA,90023,florist
Rose's Flowers,"774 San Pedro St, Los Angeles, CA 90014",Florist,Los Angeles,,https://www.rosesflowersca.com/,,,https://www.rosesflowersca.com/contact_us.php,,Contact Us,1,CA,90014,florist
Flower Delivery South Gate,"3250 Firestone Blvd, South Gate, CA 90280",Florist,South Gate,,https://www.flowerdeliverysouthgate.com/,,,https://www.flowerdeliverysouthgate.com/contact/,,Contact Us,1,CA,90280,florist
Flour LA Inc  Los Angeles Florist,"1330 Factory Pl, Los Angeles, CA 90013",Florist,Los Angeles,,http://www.flourla.com/,,,http://www.flourla.com/contact-us.html,,"
				Contact Us
			",1,CA,90013,florist
Kuragami Little Tokyo Florist,"333 S Alameda St #110, Los Angeles, CA 90013",Florist,Los Angeles,,http://www.kuragamilittletokyoflorist.com/,,,https://www.kuragamilittletokyoflorist.com/contact-us/,,Contact Us,1,CA,90013,florist
David's Flowers,"606 A E 8th St, Los Angeles, CA 90014",Florist,Los Angeles,,http://www.davidsflowers.org/,,,"http://maps.google.com/?q=606 E 8th St, Los Angeles, CA 90014",,,1,CA,90014,florist
Blooming Flowers by Djoan,"817 San Pedro St unit a, Los Angeles, CA 90014",Florist,Los Angeles,Basic flower & plant shop specializing in arrangements & gift baskets for special occasions.,http://bloomingflowersbydjoan.com/,,,https://bloomingflowersla.com/contact-us/,,Contact Us,1,CA,90014,florist
Fourth Street Flowers,"1800 Fourth St, Berkeley, CA 94710",Flower designer,Berkeley,,http://www.fourthstreet.com/,,,http://www.fourthstreet.com/contact,,Contact,1,CA,94710,florist
Kay Wolff Design,"1177 Grizzly Peak Blvd, Berkeley, CA 94708",Florist,Berkeley,,http://www.kaywolffdesign.com/,,,http://www.kaywolffdesign.com/contact,,"

										Contact															
",1,CA,94708,florist
Toad's Potted Plants,"2904 College Ave, Berkeley, CA 94705",Florist,Berkeley,,http://www.toadspottedplants.com/,,,http://www.toadspottedplants.com/contact,,Contact,1,CA,94705,florist
D'Jour Of Kensington Gardens,"33 Avon Rd, Kensington, CA 94707",Florist,Kensington,,http://www.elcerritoflowershop.com/,,,https://www.flowershopnetwork.com/contactus,,Contact FSN,1,CA,94707,florist
Chloe Hana Flower,"3140 Martin Luther King Jr Way, Berkeley, CA 94703",Florist,Berkeley,,https://chloehanaflower.com/,,,https://chloehanaflower.com/contact,,"
Contact
",1,CA,94703,florist
Oakland Flower Market,"821 Jefferson St, Oakland, CA 94607",Wholesale florist,Oakland,,http://www.oaklandflowermart.com/,,,http://www.oaklandflowermart.com/contact/,,Contact,1,CA,94607,florist
Misaghi Design  Orinda Florist,"99 Brookwood Rd, Orinda, CA 94563",Florist,Orinda,European-style flower shop in a gracious setting featuring original & sustainably-focused bouquets.,http://www.orindafloristca.com/,,,https://www.facebook.com/OrindaFloristCa,," 
",1,CA,94563,florist
Canton Flower Shop,"118 Waverly Pl, San Francisco, CA 94108",Florist,San Francisco,,http://cantonflowersf.com/,,,http://cantonflowersf.com/contact.html,,Contact,1,CA,94108,florist
Sweetheart Florist,"51 Ross Alley, San Francisco, CA 94108",Florist,San Francisco,,http://www.sweetheartfloristsf.com/,,,http://www.sweetheartfloristsf.com/contact-us,,"
                Contact Us 聯 繫 我 們
              ",1,CA,94108,florist
Grand Eclair,"9100 Wilshire Blvd, Beverly Hills, CA 90212",Florist,Beverly Hills,,http://grandeclair.com/,,,http://www.grandeclair.com/contact/,,Contact,1,CA,90212,florist
Petals By David,"8240 Beverly Blvd # 1, Los Angeles, CA 90048",Florist,Los Angeles,,http://www.petalsbydavid.com/,,,http://www.petalsbydavid.com/contact.html,,Contact,1,CA,90048,florist
Rendezvous Flowers,"7961 W 3rd St, Los Angeles, CA 90048",Florist,Los Angeles,"Flower shop for modern arrangements, houseplants & gift baskets, with an online ordering option.",http://www.rendezvousflowers.com/,,,https://www.rendezvousflowers.com/contact-us-contact-us-pagecat.html?cPath=138_167,,Contact Us,1,CA,90048,florist
Lark,"8834 W Pico Blvd, Los Angeles, CA 90035",Florist,Los Angeles,,http://www.larkla.com/,,,http://www.larkla.com/contact,,"
            Contact Us
          ",1,CA,90035,florist
Hidden Garden Flowers,"11054 W Pico Blvd, Los Angeles, CA 90064",Florist,Los Angeles,"Flower shop & event planning service offering arrangements, gifts & decor for various occasions.",http://www.hiddengardenflowers.com/,,,http://www.hiddengardenflowers.com/pages/contact,,contact,1,CA,90064,florist
Dewy Flowers,"6333 W 3rd St, Los Angeles, CA 90036",Florist,Los Angeles,,https://dewyflowers.com/,,,https://dewyflowers.com/contact/,,Contact,1,CA,90036,florist
LA Premier Flowers,"5148 Washington Blvd, Los Angeles, CA 90016",Florist,Los Angeles,"Upscale florist offering special-occasion bouquets, event services & custom arrangements.",https://lapremier.com/,,,https://lapremier.com/contact-us/,,Contact Us,1,CA,90016,florist
Friend's Flowers,"2603 Hauser Blvd, Los Angeles, CA 90016",Florist,Los Angeles,,http://www.friendsflowersla.com/,,,https://www.friendsflowersla.com/contact_us.php,,Contact Us,1,CA,90016,florist
In Flower,"1050 E Imperial Hwy #C-1, Brea, CA 92821",Florist,Brea,,https://www.myinflower.com/,,,https://www.myinflowerdesign.com,,CONTACT,1,CA,92821,florist
Good Scents Florist,"3513 Main St, Oakley, CA 94561",Florist,Oakley,,http://www.goodscentsflorist.com/,,,http://goodscentsflorist@yahoo.com,," 
",1,CA,94561,florist
Valley Florist Studio Design,"14515 Valley View Ave suite r, Santa Fe Springs, CA 90670",Florist,Santa Fe Springs,,http://www.valleyfloristdesignstudio.com/,,,http://www.valleyfloristdesignstudio.com/contact.html,,"
										Contact
									",1,CA,90670,florist
Sarah's Flowers,"30 E Orangethorpe Ave # 1, Anaheim, CA 92801",Florist,Anaheim,,http://sarahsflowers.com/,,,//www.sarahsflowers.com/contactus.html?source=header,,,1,CA,92801,florist
Magnolia Village Flowers,"3301 W Magnolia Blvd, Burbank, CA 91505",Florist,Burbank,,http://www.magnoliavillageflower.com/,,,https://magnoliavillageflower.com/contact/,,Contact,1,CA,91505,florist
Flowers By Dan,"10443 W Magnolia Blvd, North Hollywood, CA 91601",Florist,North Hollywood,,http://www.flowersbydan.com/,,,http://www.flowersbydan.com/contact,,Contact,1,CA,91601,florist
Sky Event Production,"425 S Flower St, Burbank, CA 91502",Florist,Burbank,High-end floral boutique providing plants & exotic arrangements for corporate & special events.,http://www.skyeventproduction.com/,,,https://skyeventproduction.com/contact/,,Contact Us,1,CA,91502,florist
AY FLOWERS,"6500 San Fernando Rd, Glendale, CA 91201",Florist,Glendale,,https://www.ayflowers.com/,,,https://www.ayflowers.com/pages/contact-us,,Contact Us,1,CA,91201,florist
Burbank Florist & Gifts,"3732 San Fernando Rd, Glendale, CA 91505",Florist,Glendale,,https://www.burbankfloristandgifts.com/,,,https://www.burbankfloristandgifts.com/contact,,,1,CA,91505,florist
Garden of Kisses,"13726 Burbank Blvd, Sherman Oaks, CA 91401",Florist,Sherman Oaks,Family-owned flower shop features one-of-a-kind floral arrangements & gifts for occasions & events.,http://www.gardenofkisses.com/,,,http://www.gardenofkisses.com/contact,,Contact,1,CA,91401,florist
The Conservatory Florist,"1900 N Highland Ave #1/2, Los Angeles, CA 90068",Florist,Los Angeles,Renowned florist with celebrity clients offering ornate & elegant flower arrangements for events.,http://www.theconservatoryflorist.com/,,,http://www.theconservatoryflorist.com/pages/contact,,"
                    Store Info
                  ",1,CA,90068,florist
Glam Fleur,"3408 W Burbank Blvd, Burbank, CA 91505",Flower designer,Burbank,,http://www.glamfleur.com/,,,http://www.glamfleur.com/pages/contact-us,,Contact,1,CA,91505,florist
Victoria's Flower Shop,"1074 East Cole Road #9, Calexico, CA 92231",Florist,Calexico,,http://victoriasflowershop.com/,,,//www.hugedomains.com/contact.cfm,,Contact Us,1,CA,92231,florist
Petite Petal,"389 E Campbell Ave, Campbell, CA 95008",Florist,Campbell,,http://www.petitepetalco.com/,,,http://www.petitepetalco.com/contact,,Contact,1,CA,95008,florist
Shanel's Flowers & Frames,"1865 S Winchester Blvd, Campbell, CA 95008",Florist,Campbell,,http://www.freezedryit.com/,,,http://www.freezedryit.com/page-2/index.html,,Contact Us,1,CA,95008,florist
Rosies and Posies,"1581 W Campbell Ave, Campbell, CA 95008",Florist,Campbell,"This straightforward, family-owned florist sells traditional flower arrangements, plants & balloons.",http://www.rosiesandposies.biz/,,,https://www.rosiesandposies.biz/Contact,,Contact Us,1,CA,95008,florist
Cittis Florist,"3100 Stevens Creek Blvd, San Jose, CA 95117",Florist,San Jose,"General flower shop creating everyday & special-occasion arrangements, plants & gift baskets.",http://www.cittisflorist.com/,,,http://www.cittisflorist.com/Custom-7761?id=7761,,Business Hours & Contact,1,CA,95117,florist
Croft flowers,"2309 Kayla Ct, San Jose, CA 95124",Flower designer,San Jose,,https://www.croftflowers.com/,,,https://www.croftflowers.com/contact,,CONTACT,1,CA,95124,florist
Everything's Blooming,"3076 Driftwood Dr, San Jose, CA 95128",Florist,San Jose,"This florist offers custom bouquets, arrangements & gift baskets, with delivery service available.",https://www.everythingsbloomingsanjose.com/,,,https://www.everythingsbloomingsanjose.com/contact_us.php,,Contact Us,1,CA,95128,florist
Flower and Paper,"331 Payne Ave, San Jose, CA 95128",Florist,San Jose,,http://www.flowerandpaper.com/,,,http://www.flowerandpaper.com/contact/,,Contact,1,CA,95128,florist
ingela floral design,"200 Dillon Ave unit c, Campbell, CA 95008",Florist,Campbell,,http://www.ingelafloral.com/,,,http://ingelafloral.com/contact-2/,,Contact,1,CA,95008,florist
Gaeta's Flowers Of Los Gatos,"15495 Los Gatos Blvd e, Los Gatos, CA 95032",Florist,Los Gatos,"Established flower shop providing special-occasion arrangements, stuffed animals, balloons & gifts.",http://www.gaetasflowers.com/,,,//www.gaetasflowers.com/contactus.html,,Contact Us,1,CA,95032,florist
Alvizar Decorations,"1212 S Winchester Blvd, San Jose, CA 95128",Florist,San Jose,,http://www.alvizardecorations.com/,,,http://www.alvizardecorations.com/contact/,,Contact,1,CA,95128,florist
Flowers Forever,"5651 Palmer Way g, Carlsbad, CA 92010",Florist,Carlsbad,,http://www.flowersforever.net/,,,https://www.facebook.com/Flowers-Forever-123274207709002/timeline/,," 
",1,CA,92010,florist
Vicky's Floral Design,"5858 Dryden Pl #4, Carlsbad, CA 92008",Florist,Carlsbad,,http://www.vickysfloraldesign.com/,,,https://www.vickysfloraldesign.com/contact_us.php,,Contact Us,1,CA,92008,florist
Fleur d' Elegance,"3129 Tiger Run Ct #120, Carlsbad, CA 92010",Florist,Carlsbad,,https://www.fleurdelegance.com/,,,https://fleurdelegance.com/contacts/,,Contact Us,1,CA,92010,florist
Ohana Creations,"538 Grand Ave, Carlsbad, CA 92008",Florist,Carlsbad,,http://ohanacreations.com/,,,https://ohanacreations.com/contacts,,"
Contact Us
",1,CA,92008,florist
Moments in Bloom,"2792 Loker Ave W #103, Carlsbad, CA 92010",Florist,Carlsbad,,http://www.momentsinbloom.com/,,,https://momentsinbloom.com/contact/,,Contact,1,CA,92010,florist
San Diego Wholesale Florist,"1969 Kellogg Ave, Carlsbad, CA 92008",Florist,Carlsbad,"Wholesale shop featuring bulk international flowers for events & DIY projects, plus hand delivery.",http://www.sandiegowholesaleflorist.com/,,,https://www.sandiegowholesaleflorist.com/index.php?route=information/contact,,,1,CA,92008,florist
Herradura Growers,"5858 Dryden Pl #9, Carlsbad, CA 92008",Wholesale florist,Carlsbad,,http://herraduragrowers.com/,,,http://herraduragrowers.com/contact.php,,Contact,1,CA,92008,florist
Enchanted Florist  Dianne Memel,"2451 Buena Vista Cir, Carlsbad, CA 92008",Florist,Carlsbad,,http://www.weddingflowerssandiego.com/,,,http://weddingflowerssandiego.com/contact/,,Contact,1,CA,92008,florist
cc gilmore,"2744 Carlsbad Blvd, Carlsbad, CA 92008",Florist,Carlsbad,,http://flowerscarlsbad.com/,,,https://www.doteasy.com/contact-us,,Contact Us,1,CA,92008,florist
La Belle Bloom,"357 Chestnut Ave, Carlsbad, CA 92008",Florist,Carlsbad,"Flower cart offering arrangements for various occasions, local delivery service & cut flowers.",http://www.labellebloom.com/,,,http://www.labellebloom.com/contact-us,,"
            contact us
          ",1,CA,92008,florist
Rudvalis Orchids,"6595 Black Rail Rd, Carlsbad, CA 92011",Florist,Carlsbad,,http://www.rudvalisorchids.com/,,,http://www.rudvalisorchids.com/contact.htm,,,1,CA,92011,florist
petal & plume,"5600 Avenida Encinas, Carlsbad, CA 92008",Florist,Carlsbad,,http://www.petalandplume.com/,,,http://www.petalandplume.com/contact,,Contact Us,1,CA,92008,florist
D & M Wholesale Florist,"3208 La Mirada Dr, San Marcos, CA 92078",Wholesale florist,San Marcos,,http://www.dandmflowers.com/,,,http://www.dandmflowers.com/#contact-form,,Contact Us,1,CA,92078,florist
New Creations Flower Co San Diego,"1205 Magnolia Ave, Carlsbad, CA 92008",Florist,Carlsbad,,http://newcreationsflowerco.com/,,,http://newcreationsflowerco.com/contactus,,"
              Contact Us
            ",1,CA,92008,florist
Forest Flowers,"2580 Pioneer Ave, Vista, CA 92081",Florist,Vista,,https://www.forestflowers.us/,,,https://www.forestflowers.us/contact-us/,,Contact Us,1,CA,92081,florist
Lake View Florist,"325 S Rancho Santa Fe Rd ste b, San Marcos, CA 92078",Florist,San Marcos,,http://www.sanmarcosflowersandgifts.com/,,,https://www.facebook.com/Florist-San-Diego-102840949860744,," 
",1,CA,92078,florist
USA Bouquet Company,"2834 La Mirada Dr, Vista, CA 92081",Florist,Vista,,https://www.usabq.com/,,,https://www.usabq.com/index.php/contact-us,,,1,CA,92081,florist
Flower Frenzy,"1163 S Coast Hwy 101, Encinitas, CA 92024",Florist,Encinitas,,https://flowerfrenzyon101.com/,,,https://flowerfrenzyon101.com/pages/contact,,"
Contact
",1,CA,92024,florist
Flowers Songs & Gifts,"977 S Santa Fe Ave #7, Vista, CA 92083",Florist,Vista,,http://www.flowersongsandgifts.net/,,,https://www.flowersongsandgifts.net/contact_us.php,,Contact Us,1,CA,92083,florist
Flower Impression Corporation,"1250 E 223rd St, Carson, CA 90745",Florist,Carson,,http://flowerimpressioncorp.com/,,,https://flowerimpressioncorp.com/contact-us/,,Contact Us,1,CA,90745,florist
Floreria Mexico 2,"22330 S Western Ave, Torrance, CA 90501",Florist,Torrance,,http://www.floreriamexico2.com/,,,http://www.floreriamexico2.com/contact-us,,"
                        Contact Us
                    ",1,CA,90501,florist
flawed rose,"1647 Sepulveda Blvd, Torrance, CA 90501",Florist,Torrance,,http://www.flawedrose.com/,,,http://www.flawedrose.com/contact-us/,,Contact Us,1,CA,90501,florist
Ary's Flowers,"1844 Atlantic Ave, Long Beach, CA 90806",Florist,Long Beach,,http://www.arysflowers.com/,,,https://checkout.bloomnetcommerce.com/service/contact/?s=ba7B9puKMKNQsSlZrEkYFnGiZd69cG%2BY0NtOEfGRU%2BY%3D,,"

 Contact
",1,CA,90806,florist
Winchester City Florist,"30688 Benton Rd b100, Winchester, CA 92596",Flower delivery,Winchester,,http://www.winchestercityflorist.com/,,,https://winchestercityflorist.com/contacts,,"
Contact Us
",1,CA,92596,florist
David Rohr's Cathedral City Florist,"68733 Perez Rd, Cathedral City, CA 92234",Florist,Cathedral City,,http://shop.davidrohrstudio.com/,,,https://shop.davidrohrstudio.com/contacts,,"
Local Delivery
",1,CA,92234,florist
Unique Kreations,"32475 Date Palm Dr, Cathedral City, CA 92234",Florist,Cathedral City,,http://uniquekreationsca.com/,,,https://www.uniquekreationsca.com/contact_us.php,,Contact Us,1,CA,92234,florist
Rancho Mirage Florist,"70053 CA-111, Rancho Mirage, CA 92270",Florist,Rancho Mirage,,https://www.ranchomirageflorist.com/,,,https://www.ranchomirageflorist.com/contact-us/,,Contact Us,1,CA,92270,florist
Accessories By Silk Forest,"35931 Date Palm Dr suite b, Cathedral City, CA 92234",Florist,Cathedral City,,https://www.silkforestaccessories.com/,,,https://www.silkforestaccessories.com/contact,,Contact,1,CA,92234,florist
Palm Springs Florist Inc,"894 N Palm Canyon Dr, Palm Springs, CA 92262",Florist,Palm Springs,,http://www.palmspringsflorist.net/,,,https://www.palmspringsflorist.net/contact-us,,Contact Us,1,CA,92262,florist
My Little Flower Shop,"861 N Palm Canyon Dr, Palm Springs, CA 92262",Florist,Palm Springs,,http://www.mylittleflowershop.com/,,,https://mylittleflowershop.com/contact-us/,,Contact,1,CA,92262,florist
Lilies Palm Springs,"1775 E Palm Canyon Dr #145, Palm Springs, CA 92264",Florist,Palm Springs,,http://www.liliesps.com/,,,https://www.liliesps.com/contact,,Contact,1,CA,92264,florist
Studio Kate Floral,"190 E Palm Canyon Dr #4d, Palm Springs, CA 92264",Florist,Palm Springs,,http://www.studiokatefloral.com/,,,http://studiokatefloral.com/event-quote/,,CONTACT,1,CA,92264,florist
Plants 4U,"71650 CA-111, Rancho Mirage, CA 92270",Florist,Rancho Mirage,,http://www.plants4urm.com/,,,http://www.plants4urm.com/contact-form/index.php,,Contact,1,CA,92270,florist
Vaso Bello Celebrations,"139 Tamarisk Rd, Palm Springs, CA 92262",Florist,Palm Springs,,http://www.vasobello.com/,,,http://www.vasobello.com/contact,,Say Hello,1,CA,92262,florist
Madison Workshop West,"73812 Dinah Shore Dr #0820, Palm Desert, CA 92211",Florist,Palm Desert,,http://madisonworkshopwest.com/,,,https://www.facebook.com/david.madison.378,,,1,CA,92211,florist
Wes' Flowers,"28007 Jefferson Ave, Temecula, CA 92590",Florist,Temecula,,http://www.wesflowers.com/,,,//www.wesflowers.com/contactus.html,,Contact Us,1,CA,92590,florist
Oopsa Daisy,"8034 6th St, Ceres, CA 95307",Florist,Ceres,,http://oopsadaisyfloral.com/,,,https://www.oopsadaisyfloral.com/contact_us.php,,Contact Us,1,CA,95307,florist
Flowers By Rachelle,"2485 Notre Dame Blvd #260, Chico, CA 95928",Florist,Chico,,http://www.flowersbyrachelle.net/,,,https://www.facebook.com/Flowers-By-Rachelle-272304749689/,," 
",1,CA,95928,florist
Christian & Johnson Co,"1098 E 1st Ave, Chico, CA 95926",Florist,Chico,,http://www.christianandjohnson.com/,,,https://www.christianandjohnson.com/contact,,Contact,1,CA,95926,florist
Cambray Rose Florist,"10 Whitehall Pl, Chico, CA 95928",Florist,Chico,,http://www.cambrayroseflorist.com/,,,http://www.cambrayroseflorist.com/contact-us-1,,"
                Contact Us
              ",1,CA,95928,florist
Carrie Thengvall Floral Design,"1170 E 9th St #2, Chico, CA 95928",Florist,Chico,,http://thengvallfloraldesign.com/,,,http://thengvallfloraldesign.com/contact,,Contact,1,CA,95928,florist
Fuller's Paradise Flowers,"6848 Skyway Paradise D, Paradise, CA 95969",Florist,Paradise,,http://www.fullersflowers.com/,,,https://www.domainmarket.com/contact,,Contact,1,CA,95969,florist
The Wishing Corner,"611 Magnolia St, Gridley, CA 95948",Florist,Gridley,,http://www.wishingcorner.com/,,,https://www.wishingcorner.com/contact_us.php,,Contact Us,1,CA,95948,florist
Tehama floral company,"645 Antelope Blvd UNIT 8, Red Bluff, CA 96080",Florist,Red Bluff,,http://www.tehamafloralcompany.com/,,,https://tehamafloralcompany.com/contacts,,"
Local Delivery
",1,CA,96080,florist
Flowers by Lorena,"12562 Central Ave # C, Chino, CA 91710",Florist,Chino,,http://www.flowersbylorena.com/,,,http://www.flowersbylorena.com/service/contact/,,"

 Contact
",1,CA,91710,florist
Chavez Wholesale Flowers Inc,"309 E I St, Ontario, CA 91764",Wholesale florist,Ontario,,http://chavezflowers.com/,,,http://chavezflowers.com/contact.html,,"
				Contact
			
			",1,CA,91764,florist
Let's Party Entertainment,"13771 Roswell Ave ste c, Chino, CA 91710",Party planner,Chino,,http://www.letspartynow.net/,,,http://www.letspartynow.net/contact-us,,CONTACT US ,1,CA,91710,florist
AAA Florist,"1277 W 6th St, Corona, CA 92882",Florist,Corona,,http://www.coronasaaaflorist.com/,,,https://www.facebook.com/AAA-florist-391653054240745/,," 
",1,CA,92882,florist
Corona Rose Flowers & Gifts,"844 W 6th St, Corona, CA 92882",Florist,Corona,,http://www.coronaroseflowers.net/,,,https://www.facebook.com/coronaroseflorist,," 
",1,CA,92882,florist
Flowers Del Sol,"502 S Sheridan St, Corona, CA 92882",Florist,Corona,,http://www.flowersdelsol.com/,,,https://www.flowersdelsol.com/contact_us.php,,Contact Us,1,CA,92882,florist
Botanica & Flowers,"210 W Grand Blvd, Corona, CA 92882",Florist,Corona,,http://www.botanicaflowersofcorona.com/,,,https://checkout.bloomnetcommerce.com/contact/?s=TKiSUVMFwlw%2Fum9235b%2BR9JNnkwt053hj840TV0y5G8%3D,,"

 Contact Us
",1,CA,92882,florist
Earth Flowers and Gifts,"514 S Smith Ave #110, Corona, CA 92882",Flower designer,Corona,,http://www.earthflowersandgifts.com/,,,https://checkout.bloomnetcommerce.com/service/contact/?s=qYR6vtX%2Fn6WNJdwPED6nmeSX0JRb%2FuwxMLORrAIHrLU%3D,,"

 Contact
",1,CA,92882,florist
Eastlake Floral Design,"962 Eastlake Pkwy, Chula Vista, CA 91914",Florist,Chula Vista,,http://www.eastlakefloraldesign.com/,,,https://eastlakefloraldesign.com/contacts,,"
Local Delivery
",1,CA,91914,florist
Sea of Flowers,"3060 Bonita Rd, Chula Vista, CA 91910",Florist,Chula Vista,"Florist featuring creative arrangements & fresh-cut flowers, some on display in a walk-in cooler.",http://www.seaofflowers.com/,,,http://www.seaofflowers.com/contactus.html,,,1,CA,91910,florist
Love's Florist & Gifts,"245 Broadway, Chula Vista, CA 91910",Florist,Chula Vista,"Store offering a wide array of fresh flowers & arrangements, plus cards & gift baskets.",https://www.lovefloristchulavista.com/,,,https://www.lovefloristchulavista.com/contact_us.php,,Contact Us,1,CA,91910,florist
The Singing Florist,"231 3rd Ave ste d, Chula Vista, CA 91910",Florist,Chula Vista,All-occasion florist offering bouquets & arrangements plus optional serenades upon delivery.,http://www.thesingingflorist.com/,,,http://www.thesingingflorist.com/contact.html,,"
							Contact
						",1,CA,91910,florist
Flower Island,"1094 3rd Ave, Chula Vista, CA 91911",Florist,Chula Vista,"Family-owned florist offering modern & traditional arrangements, plus unique vases & gift baskets.",http://www.chulavistaflowerisland.net/,,,http://www.chulavistaflowerisland.net/service/contact/,,"

 Contact
",1,CA,91911,florist
Midnight Rose Floral,"21 E L St, Chula Vista, CA 91911",Florist,Chula Vista,,http://midnightrosefloral.com/,,,http://midnightrosefloral.com/contact-us/,,Contact Us,1,CA,91911,florist
Windy's Flowers,"45 Broadway suite c, Chula Vista, CA 91910",Florist,Chula Vista,,https://www.windysflowerscv.com/,,,https://www.windysflowerscv.com/contact_us.php,,Contact Us,1,CA,91910,florist
Event Supplier Inc,"1250 Santa Olivia Rd, Chula Vista, CA 91913",Florist,Chula Vista,,http://www.eventsupplierinc.com/,,,http://www.eventsupplierinc.com/Contact.aspx,,CONTACT,1,CA,91913,florist
Bonita Florist,"4362 Bonita Rd, Bonita, CA 91902",Florist,Bonita,,http://www.bonitaflorist.biz/,,,https://www.bonitaflorist.biz/contact_us.aspx?sid=k0gl2zwrlzhb5u12k3y5ilrr&searchwords=&viewedpreviously=,,CONTACT US,1,CA,91902,florist
Flowers Direct,"2304 Highland Ave, National City, CA 91950",Florist,National City,,http://www.flowersdirectbysherri.com/,,,https://www.flowersdirectbysherri.com/contact,,Contact,1,CA,91950,florist
Caroline's Flowers,"301 W 28th St g, National City, CA 91950",Florist,National City,,http://flowersbycaroline.com/,,,https://www.flowersbycaroline.com/contact,,CONTACT,1,CA,91950,florist
American Wholesale Flowers,"2256 Main St Suite 12, Chula Vista, CA 91911",Florist,Chula Vista,,https://www.americanwholesaleflowers.com/,,,https://www.americanwholesaleflowers.com/contact,,"  

Visit Us
",1,CA,91911,florist
ANGEL PETALS,"1542 Highland Ave, National City, CA 91950",Florist,National City,This flower shop crafting all-occasion arrangements also offers a variety of gift items.,http://www.angelpetals.com/,,,https://www.google.com/maps/place/?q=place_id:ChIJ6UroEDxS2YARqXrK-Ct8idg,,Find us,1,CA,91950,florist
Rosita's Flower Shop of San Diego,"2924 National Ave, San Diego, CA 92113",Florist,San Diego,Florist offering custom-designed arrangements for special occasions as well as delivery services.,http://www.rositasflowers.com/,,,https://www.rositasflowers.com/contact/,,Contact,1,CA,92113,florist
Jamul Flowers,"12883 Campo Rd, Spring Valley, CA 91978",Florist,Spring Valley,,http://www.jamulflowers.com/,,,http://www.jamulflowers.com/contact-us.html,,Contact Us,1,CA,91978,florist
Awesome Blossom Flowers & Gifts,"7357 Greenback Ln, Citrus Heights, CA 95621",Flower designer,Citrus Heights,,http://www.aweblossom.com/,,,http://www.aweblossom.com/contact/,,"

 Contact Us
",1,CA,95621,florist
Joy Flower Shop,"7630 Fair Oaks Blvd, Carmichael, CA 95608",Florist,Carmichael,,http://www.myjoyflowershop.com/,,,https://myjoyflowershop.com/contacts,,"
Contact Us
",1,CA,95608,florist
A Secret Garden,"522 Pollasky Ave, Clovis, CA 93612",Florist,Clovis,,http://www.asecretgardenflorist.com/,,,https://www.facebook.com/asecretgardenclovis/,," 
",1,CA,93612,florist
Divine Design Floral Shop,"1650 S E St, San Bernardino, CA 92408",Florist,San Bernardino,,http://divinedesignfloralonline.com/,,,http://divinedesignfloralonline.com/contact/,,"

 Contact Us
",1,CA,92408,florist
Orange Blossom Florist,"424 E Hospitality Ln B6, San Bernardino, CA 92408",Florist,San Bernardino,,http://www.orangeblossomfloristsb.com/,,,https://www.facebook.com/orangeblossomfloristsb,," 
",1,CA,92408,florist
Alan's AAA Florist,"287 E Highland Ave, San Bernardino, CA 92404",Florist,San Bernardino,,http://www.alansaaaflorist.com/,,,https://www.alansaaaflorist.com/contact_us.php,,CONTACT US,1,CA,92404,florist
Flower Bowl Florist,"2325 Boulevard Cir, Walnut Creek, CA 94595",Florist,Walnut Creek,,http://flowerbowlflorist.com/,,,http://flowerbowlflorist.com/contact-us.html,,"

			Contact Us
		
",1,CA,94595,florist
Sacred Romance Floral Design,"1490 W Rincon St STE E, Corona, CA 92880",Florist,Corona,,http://sacredromancefloral.com/,,,http://sacredromancefloral.com/contact,,Let's Talk.,1,CA,92880,florist
The Finishing Touch Wedding Design,"219 Lewis Ct #1812, Corona, CA 92882",Flower designer,Corona,,http://finishingtouchweddings.com/,,,https://finishingtouchweddings.com/contact-us/,,CONTACT,1,CA,92882,florist
Artistic Florists,"2925 College Ave Suite B1, Costa Mesa, CA 92626",Florist,Costa Mesa,,http://www.artisticflorists.com/,,,https://www.facebook.com/Artistic-Florists-162497860446910/,," 
",1,CA,92626,florist
Bloom Box,"930 W 16th St, Costa Mesa, CA 92627",Florist,Costa Mesa,,http://bloomboxdesigns.com/,,,https://bloomboxdesigns.com/contact/,,Contact,1,CA,92627,florist
Flowers De Monet,"2043 Westcliff Dr #106, Newport Beach, CA 92660",Florist,Newport Beach,,http://www.flowersdemonet.com/,,,https://www.facebook.com/FlowersdeMonet/,," 
",1,CA,92660,florist
Three Petals,"3303 Harbor Blvd F-5, Costa Mesa, CA 92626",Florist,Costa Mesa,,http://threepetals.com/,,,http://threepetals.com/#contact-section,,"
                        Contact
                      ",1,CA,92626,florist
XXL Flowers,"890 Baker St #201, Costa Mesa, CA 92626",Flower designer,Costa Mesa,,https://xxlflowers.com/,,,https://xxlflowers.com/contact-us/,,Contact Us,1,CA,92626,florist
Couture Flowers,"363 Old Newport Blvd #4120, Newport Beach, CA 92663",Florist,Newport Beach,,https://coutureflowersbykimberlyperry.com/,,,https://coutureflowersbykimberlyperry.com/contact/,,Contact,1,CA,92663,florist
La Vonne's Florist,"2903 Newport Blvd # A, Newport Beach, CA 92663",Florist,Newport Beach,,http://www.lavonnesflorist.com/,,,http://www.lavonnesflorist.com/contact.htm,,,1,CA,92663,florist
Bliss Fine Florals,"439 31st St, Newport Beach, CA 92663",Florist,Newport Beach,,http://www.blissfineflorals.com/,,,https://www.blissfineflorals.com/contact,,CONTACT,1,CA,92663,florist
Azar's Florist,"19800 MacArthur Blvd f10, Irvine, CA 92612",Florist,Irvine,,http://www.azarflorist.us/,,,//www.azarflorist.us/contactus.html?source=header,,,1,CA,92612,florist
Paradise Delight Floral & Event Productions,"895 Dove St, Newport Beach, CA 92660",Florist,Newport Beach,,http://paradisedelight.com/,,,https://www.paradisedelight.com/contact,,CONTACT,1,CA,92660,florist
Le Petite Jardin,"114 Agate Ave, Newport Beach, CA 92662",Florist,Newport Beach,,http://www.lepetitejardin.net/,,,http://www.lepetitejardin.net/?section=orange-county-wedding-florist-bouquets-centerpieces-special-event-bridal-bouquet-delivery,,Contact Us,1,CA,92662,florist
Floral Art,"3607 Hayden Ave, Culver City, CA 90232",Florist,Culver City,"Elegant shop offering unique, haute floral arrangements, home accessories & modern furniture pieces.",http://floralartla.com/,,,http://floralartla.com/contact,,Contact,1,CA,90232,florist
Ramsgate Floral Designs,"5835 W Slauson Ave, Culver City, CA 90230",Florist,Culver City,Family-owned flower shop offering all-occasion blooms & graveside delivery to Holy Cross Cemetery.,http://ramsgatefloral.com/,,,https://www.ramsgatefloral.com/contact/,,Contact,1,CA,90230,florist
Pac 8 Orchids,"3532 Overland Ave, Los Angeles, CA 90034",Florist,Los Angeles,,http://www.pac8orchids.com/,,,http://www.pac8orchids.com/inquiry/,,Contact Us,1,CA,90034,florist
American Flowers,"12404 Venice Blvd, Los Angeles, CA 90066",Florist,Los Angeles,Enduring family-owned florist creating predesigned & custom floral arrangements for 35+ years.,https://americanflowers.com/,,,https://americanflowers.com/contact-us/,,Contact Us,1,CA,90066,florist
Sayla Flowers,"5412 W Pico Blvd, Los Angeles, CA 90019",Florist,Los Angeles,,https://www.jcflor.com/,,,https://www.jcflor.com/contact-us,,"
                        Contact Us
                    ",1,CA,90019,florist
The Unlikely Florist,"715 Hampton Dr, Venice, CA 90291",Florist,Venice,,https://www.theunlikelyflorist.com/,,,https://www.theunlikelyflorist.com/contact,,"
            Contact
          ",1,CA,90291,florist
O&S Florists Designs Santa Monica,"1748 Ocean Park Blvd, Santa Monica, CA 90405",Florist,Santa Monica,,https://www.oandsfloristsdesignsdeliverysantamonica.com/,,,https://www.oandsfloristsdesignsdeliverysantamonica.com/contact-us/,,Contact Us,1,CA,90405,florist
Mihos Floral Design,"740 Saratoga Ave #206, San Jose, CA 95129",Florist,San Jose,,https://www.mihosfloral.com/,,,https://www.mihosfloral.com/contact/,,CONTACT,1,CA,95129,florist
Lester's Flower Shop,"1250 El Camino Real, Daly City, CA 94014",Florist,Daly City,"Basic florist featuring a variety of bouquets, baskets & plants for special occasions.",http://www.lestersflowerscolma.com/,,,http://www.lestersflowerscolma.com/contact.html,,"
				contact
			",1,CA,94014,florist
Colma Floral Shop,"1360 El Camino Real, Colma, CA 94014",Florist,Colma,Family-run florist offering custom flower arrangements & gift baskets for special occasions.,http://www.colmaflowers.com/,,,https://www.google.com/maps/place/?q=place_id:ChIJMaIZ4uR7j4ARMR_39yc3EIw,,Find us,1,CA,94014,florist
San Francisco Funeral Flowers,"1360 El Camino Real, Colma, CA 94014",Florist,Colma,,http://www.sanfranciscofuneralflowers.com/,,,//www.sanfranciscofuneralflowers.com/ContactUs,,Contact Us,1,CA,94014,florist
D'Lorenza Florist,"376 Imperial Way, Daly City, CA 94015",Florist,Daly City,,http://www.dlorenza.com/,,,https://www.dlorenza.com/441520083,,CONTACT,1,CA,94015,florist
Fiori Per Te,"751 87th St, Daly City, CA 94015",Florist,Daly City,,https://www.fioriperte.com/,,,https://fioriperte.com/?page_id=21,,Contact,1,CA,94015,florist
Flowers and Events by Dani,"1150 El Camino Real, San Bruno, CA 94066",Flower designer,San Bruno,,http://www.flowersandeventsbydani.com/,,,https://www.flowersandeventsbydani.com/contact-us,,Plan My Event,1,CA,94066,florist
Violetta Flowers,"1501 Cortland Ave, San Francisco, CA 94110",Florist,San Francisco,"Bouquets, floral arrangements & designs provided for weddings & other special events since 1992.",http://www.violettaflowers.com/,,,http://www.violettaflowers.com/contact,,Contact,1,CA,94110,florist
Amy Burke Designs,"160 S Linden Ave, South San Francisco, CA 94080",Florist,South San Francisco,,http://www.amyburkedesigns.com/,,,https://amyburkedesigns.com/contact-us/,,Contact Us,1,CA,94080,florist
San Bruno Flower Fashions,"665 San Mateo Ave, San Bruno, CA 94066",Florist,San Bruno,Quaint full-service flower shop featuring arrangements & gifts for special occasions since 1978.,https://www.sanbrunoflowerfashions.com/,,,https://www.sanbrunoflowerfashions.com/service/contact/,,"

 Contact
",1,CA,94066,florist
Flowers & Decor,"530 Baden Ave, South San Francisco, CA 94080",Florist,South San Francisco,,http://flowersndecor.com/,,,http://flowersndecor.com/contact/,,Contact,1,CA,94080,florist
Floramor Studio Florist,"2200 Jerrold Ave # B, San Francisco, CA 94124",Flower designer,San Francisco,,http://floramor.com/,,,http://floramor.com/contact/,,Contact Us,1,CA,94124,florist
Farmgirl Flowers,"901 16th St, San Francisco, CA 94107",Florist,San Francisco,,http://www.farmgirlflowers.com/,,,https://farmgirlflowerssupport.zendesk.com/hc/en-us/articles/360044875114-Contacting-Farmgirl-During-COVID-19,,Contact Us,1,CA,94107,florist
Bell and Trunk Flowers,"1411 18th St, San Francisco, CA 94107",Florist,San Francisco,"Floral boutique providing custom arrangements, including those for weddings & special events.",http://www.bellandtrunk.com/,,,http://www.bellandtrunk.com/pages/contact-us,,Wedding & Event Inquiry,1,CA,94107,florist
Bells & Bloom,"640 Brannan St, San Francisco, CA 94107",Flower designer,San Francisco,,http://www.bellsnbloomfloristsf.com/,,,http://www.bellsnbloomfloristsf.com/contact,,Contact,1,CA,94107,florist
Studio Mondine,"1458 San Bruno Ave, San Francisco, CA 94110",Florist,San Francisco,,http://studiomondine.com/,,,http://studiomondine.com/contact,,Contact,1,CA,94110,florist
The Floral Loft,"1871 Hayes St, San Francisco, CA 94117",Florist,San Francisco,"Artistic florist featuring bouquets, wedding arrangements & specialties such as themed terrariums.",http://www.thefloralloft.com/,,,http://www.thefloralloft.com/contact,,CONTACT,1,CA,94117,florist
Yoko's Designs In Flowers & Plantings,"3661 Sacramento St, San Francisco, CA 94118",Florist,San Francisco,"Flower shop supplying roses, tulips & arrangements for many occasions, plus boutonnieres.",http://www.yokosdesigns.com/,,,https://www.yokosdesigns.com/contact_us.aspx?sid=m0licj4wtjkuf0xupj5fvmut&searchwords=&viewedpreviously=,,CONTACT US,1,CA,94118,florist
The Beach Flower,"32792 Via Del Amo, San Juan Capistrano, CA 92675",Florist,San Juan Capistrano,,http://www.thebeachflowerdp.com/,,,https://www.thebeachflowerdp.com/contact,,CONTACT,1,CA,92675,florist
Flower Company of San Clemente,"647 Camino De Los Mares, San Clemente, CA 92673",Florist,San Clemente,,https://www.flowercompanyofsc.com/,,,https://www.flowercompanyofsc.com/contact,,"
        
        contact
      ",1,CA,92673,florist
Wildflower Florist,"1001 S El Camino Real, San Clemente, CA 92672",Florist,San Clemente,,http://wildflowersanclemente.com/,,,https://wildflowersanclemente.com/contacts,,"
Contact Us
",1,CA,92672,florist
Flowers & Friends,"1844 N El Camino Real, San Clemente, CA 92672",Florist,San Clemente,,http://www.flowersandfriendssanclemente.com/,,,http://www.flowersandfriendssanclemente.com/contact.htm,,,1,CA,92672,florist
La Tulipe floral designs,"28985 Golden Lantern Suite#B111, Laguna Niguel, CA 92677",Florist,Laguna Niguel,,https://latulipefloraldesigns.com/,,,https://latulipefloraldesigns.com/contacts/,,Contact,1,CA,92677,florist
Kimberly's Flowers,"2320 S El Camino Real, San Clemente, CA 92672",Florist,San Clemente,,http://www.kimberlysflowers.co/,,,http://www.kimberlysflowers.co/#,,Contact                                            ,1,CA,92672,florist
Black Iris,"2950 S Coast Hwy, Laguna Beach, CA 92651",Florist,Laguna Beach,,http://www.theblackiris.com/,,,https://www.theblackiris.com/contact_us,,contact us,1,CA,92651,florist
Danville Florist & Gifts,"199 E Linda Mesa Ave suite b, Danville, CA 94526",Florist,Danville,,http://www.danville-florist.com/,,,https://www.danville-florist.com/contact_us.php,,Contact Us,1,CA,94526,florist
Leslie's Custom Floral,"1205 Main St, Delano, CA 93215",Florist,Delano,,http://www.lesliescustomfloral.com/,,,https://www.lesliescustomfloral.com/contact_us.php,,Contact Us,1,CA,93215,florist
Marlin's Flower Shop,"1109 Main St, Delano, CA 93215",Florist,Delano,,https://marlinsflowershop.com/,,,https://marlinsflowershop.com/home/contact-us/,,Contact Us,1,CA,93215,florist
Mad Flower Boutique,"21550 Barbi Ln, Diamond Bar, CA 91765",Florist,Diamond Bar,,https://www.madflowerboutique.com/,,,https://www.madflowerboutique.com/contact-us,,Contact us,1,CA,91765,florist
Upland Florist Upland Flower Boutique,"149 N Euclid Ave, Upland, CA 91786",Florist,Upland,,http://www.uplandflowersandgifts.com/,,,https://uplandflowersandgifts.com/contacts,,"
Contact Us
",1,CA,91786,florist
A & M Flowers & Plants,"618 E A St # A, Upland, CA 91786",Florist,Upland,,http://www.aandmflowers.com/,,,http://www.aandmflowers.com/about/contact.html,,"
联系我们",1,CA,91786,florist
Lola's Flowers,"6730 Brockton Ave, Riverside, CA 92506",Florist,Riverside,,http://lolasflowershop.com/,,,http://lolasflowershop.com/#sample,,Order Today!,1,CA,92506,florist
The Flower Alley,"9253 Magnolia Ave, Riverside, CA 92503",Florist,Riverside,,https://www.riversidefloweralley.com/,,,https://www.riversidefloweralley.com/contact_us.php,,Contact Us,1,CA,92503,florist
Cherry Chill  Ice Cream Rolls,"2448 S Vineyard Ave #110, Ontario, CA 91761",Florist,Ontario,,http://places.singleplatform.com/,http://places.singleplatform.com/cherry-chill/menu?ref=google,,http://www.singleplatform.com/menu-lp?ref=google&sp_source=publisher&sp_campaign=google&sp_channel=viral,,,1,CA,91761,florist
Jackie's Flowers,"9248 Elk Grove Blvd, Elk Grove, CA 95624",Florist,Elk Grove,,http://jackiesflowers.com/,,,https://jackiesflowers.com/contact/,,Contact,1,CA,95624,florist
Floral Falls,"8355 Elk Grove Blvd #600, Elk Grove, CA 95758",Florist,Elk Grove,,http://www.floralfalls.com/,,,https://www.floralfalls.com/about,,Contact,1,CA,95758,florist
Jasmine Creek Florist,"753 Jamacha Road, El Cajon, CA 92019",Florist,El Cajon,"This family-run store creates custom floral bouquets & arrangements, with delivery available.",https://www.jasminecreekflorist.com/,,,https://www.facebook.com/Jasmine-Creek-Florist-116662965120755/,," 
",1,CA,92019,florist
The Barn Florist & Mercantile Store,"13283 I-8BL, El Cajon, CA 92021",Florist,El Cajon,,http://thebarnfloristmercantilestore.com/,,,http://thebarnfloristmercantilestore.com/tel:6193008758,,(619) 300-8758,1,CA,92021,florist
Cynthia's Flower Connection,"739 N Imperial Ave, El Centro, CA 92243",Florist,El Centro,,https://www.cynthiasflowerconnection.org/,,,https://www.cynthiasflowerconnection.org/contact_us.php,,Contact Us,1,CA,92243,florist
Vannash Florist & Gifts,"419 S 4th St, El Centro, CA 92243",Florist,El Centro,,http://www.vannashflorist.com/,,,https://www.vannashflorist.com/contact_us.php,,Contact Us,1,CA,92243,florist
The Flower Lady,"1728 Spring St, Paso Robles, CA 93446",Florist,Paso Robles,,http://www.theflowerlady.org/,,,https://www.facebook.com/#!/flowerladypr?skip_nax_wizard=true,," 
",1,CA,93446,florist
Flowers by Kim,"2555 Adobe Rd, Paso Robles, CA 93446",Florist,Paso Robles,,http://www.flowersbykim.com/,,,https://flowersbykim.com/contact/,,Contact,1,CA,93446,florist
Quixotic Flowers,"250 Whitewater Rd, Templeton, CA 93465",Florist,Templeton,,http://www.quixotic-flowers.com/,,,https://www.quixoticflowers.com,,Contact,1,CA,93465,florist
Adelaide Floral and Kid Corner,"300 S Main St, Templeton, CA 93465",Florist,Templeton,,http://www.adelaidefloral.com/,,,https://www.facebook.com/adelaidefloral/?v=wall,," 
",1,CA,93465,florist
Arlyne's Flowers,"6485 Palma Ave, Atascadero, CA 93422",Florist,Atascadero,,http://www.arlynesflowersandgifts.com/,,,https://arlynesflowersandgifts.com/contacts,,"
Contact Us
",1,CA,93422,florist
Brooke Edelman Floral Design,"845 Climbing Tree Ln, Templeton, CA 93465",Florist,Templeton,,http://www.befloraldesigns.com/,,,https://www.befloraldesigns.com,,Contact,1,CA,93465,florist
Amerie Wedding Floral and Event Design,"9307 Santa Lucia Rd, Atascadero, CA 93422",Florist,Atascadero,,http://www.ameriewedding.com/,,,https://www.ameriewedding.com/amerieweddingevents,,CONTACT,1,CA,93422,florist
Twigs Floral,"1470 Encinitas Blvd # 132, Encinitas, CA 92024",Florist,Encinitas,,http://www.bethetwig.com/,,,http://www.bethetwig.com/pages/contact-us,,Contact,1,CA,92024,florist
Greens & Things,"950 Brittany Ave, Encinitas, CA 92024",Florist,Encinitas,,http://www.greensandthings.net/,,,http://www.greensandthings.net/contactus.htm,,,1,CA,92024,florist
The Posy Peddler,"310 W Mission Ave, Escondido, CA 92025",Florist,Escondido,,http://www.posypeddler.com/,,,https://posypeddler.com/contact-us/,,Contact Us,1,CA,92025,florist
Flower Basket,"1064 Horizon Dr STE 11, Fairfield, CA 94533",Florist,Fairfield,,http://www.flowerbasketca.com/,,,https://www.facebook.com/flowerbasketcali/,," 
",1,CA,94533,florist
Teresita Floral Creations,"750 Texas St, Fairfield, CA 94533",Florist,Fairfield,,https://www.teresitafloralcreations.com/,,,https://www.teresitafloralcreations.com/contact_us.php,,Contact Us,1,CA,94533,florist
Green Valley Floral & Gifts,"4160 Suisun Valley Rd A, Fairfield, CA 94534",Florist,Fairfield,,http://www.greenvalleyfloral.net/,,,http://www.greenvalleyfloral.net/contact.html,,"
				Contact
			",1,CA,94534,florist
The Blossom Shop,"47 Natoma St D, Folsom, CA 95630",Florist,Folsom,,http://www.blossomshopoffolsom.com/,,,http://www.blossomshopoffolsom.com/mailto:contact@blossomshopfolsom.com,,e-mail us,1,CA,95630,florist
Miracle Flowers,"610 E Bidwell St, Folsom, CA 95630",Florist,Folsom,,http://www.miracleflowers.net/,,,https://www.miracleflowers.net/contacts/,,Contact Us,1,CA,95630,florist
Indian Flowers,"14922 Bobcat Ln, Fontana, CA 92336",Florist,Fontana,,https://indian-flowers.com/,,,https://indian-flowers.com/contact-us/,,Contact US,1,CA,92336,florist
Repetto's Florists,"12331 San Mateo Rd, Half Moon Bay, CA 94019",Wholesale florist,Half Moon Bay,Garden center featuring cut flowers grown on-site plus seasonal pumpkins & Christmas trees.,http://www.repettonurseryflorist.com/,,,http://www.repettonurseryflorist.com/contact,,Contact Us,1,CA,94019,florist
Half Moon Bay Lavender,"12511 San Mateo Rd, Half Moon Bay, CA 94019",Florist,Half Moon Bay,,http://www.halfmoonbaylavender.com/,,,https://www.halfmoonbaylavender.com,,Contact,1,CA,94019,florist
Wild Flower,"31 Croxton Ave unit f, Oakland, CA 94611",Flower designer,Oakland,,http://www.bloomingwildflower-jb.com/,,,https://bloomingwildflower-jb.com/contact-us/,,Contact us,1,CA,94611,florist
A Secret Garden Florist,"714 E Adams Ave UNIT 108, Huntington Beach, CA 92648",Florist,Huntington Beach,,http://www.hbsecretgardenflorist.com/,,,https://www.facebook.com/gvthemonster3,," 
",1,CA,92648,florist
XO Flowers & Gifts,"16459 Magnolia St, Westminster, CA 92683",Florist,Westminster,,http://xoflowersandgifts.com/,,,http://xoflowersandgifts.com/mailto:contact@xoflowersandgifts.com,,contact@xoflowersandgifts.com,1,CA,92683,florist
White Sakuras,"16932 Gothard St, Huntington Beach, CA 92647",Florist,Huntington Beach,,http://www.whitesakuras.com/,,,http://www.whitesakuras.com/contact-us/,,Contact Us,1,CA,92647,florist
Enchanted Design Floral LLC,"7922 Rainbow Cir, Huntington Beach, CA 92648",Flower designer,Huntington Beach,,http://www.lagunaenchantress.com/,,,https://www.lagunaenchantress.com/contact-enchanted-design-floral,,Contact,1,CA,92648,florist
Floral Design Studio,"48501 Warm Springs Blvd #115, Fremont, CA 94539",Florist,Fremont,,http://www.floraldesignstudiofremont.com/,,,https://www.floraldesignstudiofremont.com/contact,,CONTACT,1,CA,94539,florist
Abbey Chapel of Lima Family,"48800 Warm Springs Blvd, Fremont, CA 94539",Florist,Fremont,,http://m.dignitymemorial.com/,,,http://m.dignitymemorial.com/contact-us,,Contact Us,1,CA,94539,florist
Flowers and More,"3042 W Bullard Ave, Fresno, CA 93711",Florist,Fresno,,http://www.thefresnoflorist.com/,,,https://www.thefresnoflorist.com/contact_us.php,,CONTACT US,1,CA,93711,florist
Kiku Floral,"3714 N Valentine Ave, Fresno, CA 93722",Florist,Fresno,,http://www.kikufloral.com/,,,http://www.kikufloral.com/tel:559-266-5480 ,,"

",1,CA,93722,florist
Chase Flower Shop,"1405 N Van Ness Ave, Fresno, CA 93728",Florist,Fresno,Enduring family-run shop offering creative & classic floral arrangements & gifts for all occasions.,http://www.chaseflowershop.com/,,,https://www.facebook.com/Chase-Flower-Shop-246612620233/,," 
",1,CA,93728,florist
In Full Bloom,"1760 W Bullard Ave, Fresno, CA 93711",Florist,Fresno,,http://infullbloomfresno.com/,,,http://infullbloomfresno.com/contact-us,,"
            Contact Us
          ",1,CA,93711,florist
Flowers ETC,"222 N Teilman Ave, Fresno, CA 93706",Florist,Fresno,,https://flowersetc.org/,,,https://checkout.bloomnetcommerce.com/service/contact/?s=j4qmSCHGgXvBXdekOrR%2BqA4o0NV2P3ulvi56mvIiCSs%3D,,"

 Contact
",1,CA,93706,florist
Designer Flower Center,"3450 W Gettysburg Ave, Fresno, CA 93722",Florist,Fresno,,http://designerflowercenter.com/,,,http://designerflowercenter.com/contact-us,," CONTACT US

",1,CA,93722,florist
InLove Flower Shop & Home Decor,"2767 W Shaw Ave #108, Fresno, CA 93711",Florist,Fresno,,https://www.inloveflowershopandhomedecor.com/,,,https://www.inloveflowershopandhomedecor.com/contact_us.php,,Contact Us,1,CA,93711,florist
Elegant Orchid Fresno,"420 W Shaw Ave, Fresno, CA 93711",Florist,Fresno,,http://www.elegantorchidfresno.com/,,,http://www.elegantorchidfresno.com/contact/,,CONTACT,1,CA,93711,florist
Event Pro Floral,"2445 N Sunnyside Ave, Fresno, CA 93727",Florist,Fresno,,http://www.eventprowest.com/,,,https://eventprowest.com/contact-us/,,Contact Us,1,CA,93727,florist
Premier Bride Wedding Center,"7075 N West Ave, Fresno, CA 93711",Florist,Fresno,,http://pbshowplace.com/,,,http://pbshowplace.com/./contact-us.php,,  CONTACT US,1,CA,93711,florist
The Palatine Building,"7455 N Fresno St, Fresno, CA 93720",Florist,Fresno,,http://palatinefresno.com/,,,http://palatinefresno.com/#contact,,Contact,1,CA,93720,florist
Apropos For Flowers,"7034 N Cedar Ave, Fresno, CA 93720",florists,Fresno,,http://www.fresnoweddings.net/,,,http://www.fresnoweddings.net/mailto:apropos4flowers@sbcglobal.net?subject=FresnoWeddings.Net Referral&body=Please tell me more about your floral services.  My event date will be_____.  My phone number including area code is_____.  My name is_____.  Thank you.,,,1,CA,93720,florist
Frank's Garden Florist by Expressions Floral,"401 1st St, Gilroy, CA 95020",Florist,Gilroy,,http://www.franksgardenflorist.net/,,,https://www.franksgardenflorist.net/contact_us.php,,Contact Us,1,CA,95020,florist
Dolce Fiore,"407 W Chevy Chase Dr, Glendale, CA 91204",Florist,Glendale,,https://www.dolcefiorela.com/,,,https://dolcefiorela.com/contact/,,Contact,1,CA,91204,florist
Petals LA,"415 W Colorado St, Glendale, CA 91204",Florist,Glendale,Upscale floral design shop specializing in lavish arrangements for events. Open by appointment only.,http://www.petalsla.com/,,,https://petalsla.com/contact-us/,,Contact Us,1,CA,91204,florist
Eddie Zaratsian Custom Florals and Lifestyle,"699 Ivy St, Glendale, CA 91204",Florist,Glendale,,http://www.eddiezaratsian.com/,,,http://www.eddiezaratsian.com/contact,,"
            Contact
          ",1,CA,91204,florist
Ellenari Events Boutique,"3439 Ocean View Blvd, Glendale, CA 91208",Flower designer,Glendale,,https://ellenari.com/,,,https://ellenari.com/pages/contact-us,,Contact Us,1,CA,91208,florist
LinaS Flowers,"1023 E Colorado St, Glendale, CA 91205",Florist,Glendale,,http://linasflowers.com/,,,http://linasflowers.com/florist-near-me,," Contact

",1,CA,91205,florist
Avant Garden Events INC,"4310 Alger St #1206, Los Angeles, CA 90039",Florist,Los Angeles,,http://avantgardenla.com/,,,https://avantgardenla.com/event-design/#contactus,,Contact,1,CA,90039,florist
Elegant Thorn,"4524 Brazil St, Los Angeles, CA 90039",Florist,Los Angeles,,http://www.elegantthorn.com/,,,http://elegantthorn.com/contact/,,Contact,1,CA,90039,florist
la petite fleur,"1783 E Rte 66, Glendora, CA 91740",Florist,Glendora,,https://glendoralapetitefleur.com/,,,https://www.google.com/maps/place/?q=place_id:ChIJ41cxAQAmw4AR2foxDzkN1dk,,Find us,1,CA,91740,florist
Goodland Florist,"5794 Hollister Ave, Goleta, CA 93117",Florist,Goleta,,http://www.goodlandflorist.com/,,,https://goodlandflorist.com/contacts,,"
Contact Us
",1,CA,93117,florist
Jasmin's Flowers & Event Decor,"130 West 7th Road, Hanford, CA 93230",Florist,Hanford,,http://jasminsflowerstore.com/,,,https://jasminsflowerstore.com/contact/,,Contact,1,CA,93230,florist
Divine Creations,"324 N Irwin St #322, Hanford, CA 93230",Florist,Hanford,,https://www.dcdivinecreations.com/,,,https://www.dcdivinecreations.com,,CONTACT,1,CA,93230,florist
Marina Flowers,"5777 W Century Blvd Reading Room, Los Angeles, CA 90045",Florist,Los Angeles,,http://www.laxflowers.com/,,,http://www.laxflowers.com/contactus.html,,,1,CA,90045,florist
LA INTERNATIONAL FLORIST INC,"8635 Truxton Ave, Los Angeles, CA 90045",Florist,Los Angeles,"Longtime flower shop offering custom arrangements, wedding designs & gifts plus delivery.",http://www.lainternationalfloristonline.com/,,,https://checkout.bloomnetcommerce.com/contact/?s=Nki8V8UlI0HY96FRPn2VDJuXeVtxl5BxuxsRwKD35rs%3D,,"

 Contact Us
",1,CA,90045,florist
Boulevard Florist Wholesale Market,"14507 Hawthorne Blvd, Lawndale, CA 90260",Wholesale florist,Lawndale,,https://www.boulevardflst.com/,,,https://visitor.r20.constantcontact.com/d.jsp?llr=chyc84bab&p=oi&m=1101653958882&sit=azvuggkcb&f=92b4e751-c136-4d92-a040-0460a39d321a,,Mailing List,1,CA,90260,florist
Highland House of Flowers,"3297 Highland Ave, Highland, CA 92346",Florist,Highland,,http://www.thehighlandhouseofflowers.com/,,,https://checkout.bloomnetcommerce.com/contact/?s=6F6YVlIYFBoAIplWyglOFXfEcfI4ynJpmoSV4r%2Foe2o%3D,,"

 Contact Us
",1,CA,92346,florist
Stephenson's Flowers,"2393 Del Rosa Ave N, San Bernardino, CA 92404",Florist,San Bernardino,,http://www.stephensonsflowersca.com/,,,http://stephensonsflowersca.com,," 
",1,CA,92404,florist
Chez Rose,"5122 Bolsa Ave #106, Huntington Beach, CA 92649",Florist,Huntington Beach,,http://www.chezrose.net/,,,http://www.chezrose.net/Contact.html,,,1,CA,92649,florist
Bon Mua,"5932 Bolsa Ave #101, Huntington Beach, CA 92649",Florist,Huntington Beach,,http://www.4mua.com/,,,https://www.4mua.com/CDpath1/p37/Contact-Us/pages.html?CDpath=15&osCsid=vcih0cqtll6t5ai94oibrk2ti3,,"
Contact Us		
",1,CA,92649,florist
Sweet Peas Florist,"5918 E Naples Plaza, Long Beach, CA 90803",Flower designer,Long Beach,Cozy floral shop specializing in seasonal flower arrangements plus wedding bouquets.,http://sweetpeasflowerslb.com/,,,https://www.sweetpeasflowerslb.com/contact,,Contact,1,CA,90803,florist
Lauren Drake Designs,"3419 Via Lido #140, Newport Beach, CA 92663",Florist,Newport Beach,,http://www.laurendrakedesigns.com/,,,http://www.laurendrakedesigns.com/contact,,Contact,1,CA,92663,florist
Karen Harlow For The Home,"73131 Country Club Dr, Palm Desert, CA 92260",Florist,Palm Desert,,http://karenharlowforthehome.com/,,,http://karenharlowforthehome.com/contact,,Let's Connect,1,CA,92260,florist
Design By Jasmine Florist Delivery Inglewood,"222 N Market St, Inglewood, CA 90301",Florist,Inglewood,,https://www.flowerdeliveryinglewood.com/,,,https://www.flowerdeliveryinglewood.com/contactus/,,Contact Us,1,CA,90301,florist
CC fine florals,"8 Whatney, Irvine, CA 92618",Florist,Irvine,,https://ccfineflorals.com/,,,https://ccfineflorals.com/contact/,,Contact,1,CA,92618,florist
Beautiful Savage Flowers,"8 McLaren suite n, Irvine, CA 92618",Florist,Irvine,,http://beautifulsavageflowers.com/,,,http://beautifulsavageflowers.com/contact-me,,"
                CONTACT ME
              ",1,CA,92618,florist
The Bloom Of Time,"22511 Aspan St A, Lake Forest, CA 92630",Florist,Lake Forest,,http://thebloomoftime.com/,,,http://thebloomoftime.com/contactus,,"
            Contact Us
          ",1,CA,92630,florist
Symphony Orchids,"8696 56th St, Jurupa Valley, CA 92509",Wholesale florist,Jurupa Valley,,http://www.symphonyorchid.com/,,,https://www.symphonyorchid.com/contact/,,Contact,1,CA,92509,florist
Sun Valley Florist,"677 Main St, Ramona, CA 92065",Florist,Ramona,,http://www.sunvalleyflorist.net/,,,https://www.facebook.com/sunvalleyflorist,," 
",1,CA,92065,florist
Foothill Flowers,"102 W Main St, Grass Valley, CA 95945",Florist,Grass Valley,,http://www.foothillflowers.com/,,,https://www.facebook.com/FoothillFlowers,," 
",1,CA,95945,florist
Cameron Park Florist,"3420 Coach Ln suite 2, Cameron Park, CA 95682",Florist,Cameron Park,,http://cameronparkflorist.com/,,,https://www.facebook.com/cameronpark.florist/,," 
",1,CA,95682,florist
FLOWERFUL,"24191 Paseo De Valencia #D, Laguna Woods, CA 92637",Florist,Laguna Woods,,http://goflowerful.com/,,,"http://goflowerful.com/tel:1.949.586.2110
",,,1,CA,92637,florist
Ivy Guild,"23011 Moulton Pkwy # A14, Laguna Hills, CA 92653",Wholesale florist,Laguna Hills,,http://www.ivyguild.com/,,,https://www.ivyguild.com/contact-us,,Contact/Representatives,1,CA,92653,florist
Fairytale Flowers Inc,"1590 S Coast Hwy #6, Laguna Beach, CA 92651",Florist,Laguna Beach,,http://fairytaleflowersoc.com/,,,https://www.fairytaleflowersoc.com,,Contact,1,CA,92651,florist
Flower Stand,"384 Forest Ave, Laguna Beach, CA 92651",Florist,Laguna Beach,,http://www.theflowerstandlaguna.com/,,,http://www.theflowerstandlaguna.com/contact-2,,"
              CONTACT
            ",1,CA,92651,florist
Cristina's Precious Flowers and Enchanted Gifts,"11646 Rosecrans Ave, Norwalk, CA 90650",Florist,Norwalk,,https://cristinaspreciousflowers.net/,,,https://cristinaspreciousflowers.net/tel:5628054747,,562-805-4747,1,CA,90650,florist
Joyful Blooms,"22961 Mullin Rd, Lake Forest, CA 92630",Flower designer,Lake Forest,,http://www.joyfulbloomsoc.com/,,,http://www.joyfulbloomsoc.com/contact-us,,"
                Contact Us
              ",1,CA,92630,florist
Antelope Valley Florist,"1302 W Ave J, Lancaster, CA 93534",Florist,Lancaster,,http://avflorist.com/,,,https://www.avflorist.com/contact_us.php,,Contact Us,1,CA,93534,florist
The Farmer's Wife Florist,"41961 50th St W, Lancaster, CA 93536",Florist,Lancaster,"Family-operated shop offering fresh flowers, plants & gift baskets for more than 15 years.",http://www.thefarmerswifeflorist.com/,,,https://www.facebook.com/Farmers-Wife-Florist-and-Gift-Shoppe-125755344159233/?__tn__=%2Cd%2CP-R&eid=ARATZlrpbToW9ekB1ARm51FJwECSYZcMgcsEWKxep21Fw5oMOMbjGLuPIlNSkW8i32Eec7CtRsL-IWx5,," 
",1,CA,93536,florist
Fashion Flowers,"1834 E Ave. J, Lancaster, CA 93535",Florist,Lancaster,"Family-run florist selling special-occasion & gift arrangements, plus live plants.",http://www.lancasterfashionflowers.com/,,,http://www.lancasterfashionflowers.com/contact/,,"

 Contact Us
",1,CA,93535,florist
Gonzalez Flower Shop,"344 W Ave I, Lancaster, CA 93534",Florist,Lancaster,,https://www.gonzalezflowershop.com/,,,https://www.gonzalezflowershop.com/contact_us.php,,Contact Us,1,CA,93534,florist
La Mesa Floral Design Shoppe,"8759 La Mesa Blvd, La Mesa, CA 91942",Florist,La Mesa,,https://lmflorals.com/,,,https://lmflorals.com/contact,,"
                Contact
              ",1,CA,91942,florist
San Diego Flower Delivery,"2500 Fletcher Pkwy, El Cajon, CA 92020",Florist,El Cajon,,http://flower-flo.com/,,,http://flower-flo.com/contact-us/,,Help,1,CA,92020,florist
San Diego Interior Foliage,"8963 Tyler St, Spring Valley, CA 91977",Florist,Spring Valley,,http://www.sdinteriorfoliage.com/,,,http://www.sdinteriorfoliage.com/contact/,,Contact Us,1,CA,91977,florist
Dr Orchid Floral Design,"74065 CA-111, Palm Desert, CA 92260",Florist,Palm Desert,,http://www.doctororchids.com/,,,http://www.doctororchids.com/contact-us,,Contact Us,1,CA,92260,florist
O'Malley's Flowers of San Dimas,"169 W Bonita Ave, San Dimas, CA 91773",Florist,San Dimas,Long-running florist providing unique arrangements & sophisticated gifts since 1987.,https://www.floristinsandimas.com/,,,https://www.floristinsandimas.com/contact_us.php,,Contact Us,1,CA,91773,florist
Carrie's Flowers,"19219 Colima Rd b, Rowland Heights, CA 91748",Florist,Rowland Heights,,https://carriesflorist.com/,,,https://carriesflorist.com/contact-us/,,Click Here for Contact / Location Info,1,CA,91748,florist
Knodt's Flowers,"981 Alden Ln, Livermore, CA 94550",Florist,Livermore,"Longstanding florist shop inside Alden Lane Nursery featuring bouquets, arrangements & gifts.",http://www.knodtsflowers.com/,,,https://www.knodtsflowers.com/contact_us.php,,Contact Us,1,CA,94550,florist
Delford West Flowers & Gifts,"3070 Olivoro Ct, Livermore, CA 94550",Florist,Livermore,Full-service floral studio featuring upscale creative arrangements for events & special occasions.,https://www.delfordwestflowers.com/,,,https://www.delfordwestflowers.com/contact,,Contact,1,CA,94550,florist
The Flower House,"2021 Las Positas Ct #153, Livermore, CA 94551",Florist,Livermore,"Specializing in weddings, this full service florist also provides table design, decor & linens.",http://www.theflowerhouse.com/,,,http://www.theflowerhouse.com/contact,,contact,1,CA,94551,florist
The Decor Store,"6909 Las Positas Rd, Livermore, CA 94551",Florist,Livermore,,http://thedecorstore.com/,,,https://www.facebook.com/thedecorstore1/,,"
  
Find us on Facebook
",1,CA,94551,florist
Lodi Flower Shop,"1420 W Kettleman Ln # D, Lodi, CA 95242",Florist,Lodi,,http://www.bellesflowershop.com/,,,http://www.bellesflowershop.com/contact.html,,"



Contact

",1,CA,95242,florist
Woodbridge Florist,"18964 N Lower Sacramento Rd, Woodbridge, CA 95258",Florist,Woodbridge,,http://www.floristlodica.com/,,,https://www.floristlodica.com/contact_us.php,,Contact Us,1,CA,95258,florist
Alma's Flower Shop,"508 E Lodi Ave, Lodi, CA 95240",Florist,Lodi,,https://almasflowers.wordpress.com/,,,https://almasflowers.wordpress.com/contact-us/,,Contact Us,1,CA,95240,florist
Exquisitely Made,"11 W Pine St, Lodi, CA 95240",Florist,Lodi,,http://www.exquisitelymadeco.com/,,,http://www.exquisitelymadeco.com/contact,,Contact Us,1,CA,95240,florist
Bella Florist & Gifts,"101 N H St, Lompoc, CA 93436",Florist,Lompoc,,http://www.bellafloristlompoc.com/,,,https://www.bellafloristlompoc.com/contact_us.php,,Contact Us,1,CA,93436,florist
Flowers By Eryn,"245 Mt Hamilton Ave, Los Altos, CA 94022",Flower designer,Los Altos,,https://flowersbyeryn.com/,,,https://flowersbyeryn.com/contact,,"
              contact
            ",1,CA,94022,florist
DeMartini Orchard,"66 N San Antonio Rd, Los Altos, CA 94022",Florist,Los Altos,"Food market stocking local produce, gourmet items & gift baskets in an upscale, down-home setting.",http://www.demartiniorchard.com/,,,https://demartiniorchard.com/contact-us/,,Contact Us,1,CA,94022,florist
Urban Florist,"5310 W 8th St, Los Angeles, CA 90036",Florist,Los Angeles,"Charming florist offering classic & creative made-to-order arrangements, along with house plants.",http://urbanflorist.net/,,,https://urbanflorist.net/contact-us/,,Contact Us,1,CA,90036,florist
LARCHMONT VILLAGE FLORIST,"420 N Larchmont Blvd, Los Angeles, CA 90004",Florist,Los Angeles,,https://larchmontla.com/,,,https://larchmontla.com/contact/,,Contact Us Today! ,1,CA,90004,florist
Angie's Flowers,"3435 Wilshire Blvd #110, Los Angeles, CA 90010",Florist,Los Angeles,"Full-service locally owned shop offers floral arrangements in a range of styles, gifts & plants.",http://angiesflowers.com/,,,https://www.facebook.com/angiesflowerslosangeles,," 
",1,CA,90010,florist
Flowers With Love,"11640 San Vicente Blvd, Los Angeles, CA 90049",Florist,Los Angeles,Family-owned florist shop specializing in traditional & exotic custom bouquets for weddings.,https://flowerswithloveinla.com/,,,https://flowerswithloveinla.com/,,Contact Us,1,CA,90049,florist
Olympic Town Flowers,"1101 Vermont Ave, Los Angeles, CA 90006",Florist,Los Angeles,,http://www.olympictownflowers.net/,,,https://www.olympictownflowers.net/contact_us.php,,Contact Us,1,CA,90006,florist
Rose Boutique Florist,"1260 W 6th St, Los Angeles, CA 90017",Florist,Los Angeles,Family-owned florist with seasonal arrangements & gifts also offering delivery services.,http://www.roseboutiquelosangeles.com/,,,https://checkout.bloomnetcommerce.com/service/contact/?s=0mSnF%2B4gxJdwG%2BJFk4MBzWdqQp7AEUG%2B48WhTLBNzWs%3D,,"

 Contact
",1,CA,90017,florist
Katherine's Flower Shop,"4400 S Main St A, Los Angeles, CA 90037",Florist,Los Angeles,,http://katherinesflowershop.com/,,,http://katherinesflowershop.com/contact,,          Contact      ,1,CA,90037,florist
LA Quick Flowers,"4215 Beverly Blvd, Los Angeles, CA 90004",Florist,Los Angeles,,http://www.laquickflowers.com/,,,http://www.laquickflowers.com/contact-us.html,,Contact Us,1,CA,90004,florist
Eric Buterbaugh Los Angeles  Floral Design,"7001 Melrose Ave, Los Angeles, CA 90038",Florist,Los Angeles,Modern florist specializing in collections of elegant floral arrangements for special occasions.,http://www.ericbuterbaugh.com/,,,http://www.ericbuterbaugh.com/pages/contact,,Contact,1,CA,90038,florist
Gilly Flowers,"3936 Sunset Blvd, Los Angeles, CA 90029",Florist,Los Angeles,,http://gillyflowers.com/,,,http://gillyflowers.com/contact/,,contact,1,CA,90029,florist
Ninfa's Flowers & Gifts,"2405 Whittier Blvd, Los Angeles, CA 90023",Florist,Los Angeles,"Custom arrangements, wedding bouquets & exotic plants star at an appointment-only flower designer.",http://ninfasflowersngifts.com/,,,http://ninfasflowersngifts.com/contact_us.html,,,1,CA,90023,florist
AAA Petal Pushers,"2809 Flower St, Los Angeles, CA 90007",Florist,Los Angeles,"Quaint, compact flower shop with custom & pre-made arrangements, floral leis & plants.",http://aaapetalpushers.com/,,,http://aaapetalpushers.com/contactus.html,,"Contact 
Us",1,CA,90007,florist
Eighth Street Florist,"801 Vermont Ave # 101A, Los Angeles, CA 90005",Florist,Los Angeles,,http://8thflower.com/,,,http://8thflower.com/contact/,,Contact,1,CA,90005,florist
Allison Flowers Shop and Party Rental,"2822 N Broadway, Los Angeles, CA 90031",Florist,Los Angeles,,http://allisonflowers.com/,,,http://www.ipage.com/controlpanel/pastduesplash.bml,,contact iPage directly,1,CA,90031,florist
Flower World & Wedding,"3805 W 8th St, Los Angeles, CA 90005",Florist,Los Angeles,,http://flowerworld4u.com/,,,http://flowerworld4u.com/contactus/,,,1,CA,90005,florist
Milagra Floral Imports,"770 Wall St, Los Angeles, CA 90014",Florist,Los Angeles,Flower wholesaler offering a wide selection of blooms to floral professionals & the public.,http://www.milagrawholesaleflowers.com/,,,http://www.milagrawholesaleflowers.com/contact,,,1,CA,90014,florist
My Wedding Blooms,"1663 Blake Ave, Los Angeles, CA 90031",Florist,Los Angeles,Florist specializing in bridal bouquets & custom flower arrangements for weddings.,http://www.myweddingblooms.com/,,,http://www.myweddingblooms.com/contact-us/,,Contact Us,1,CA,90031,florist
Roses Only Los Angeles,"742 Maple Ave, Los Angeles, CA 90014",Florist,Los Angeles,,https://rosesonly.com/,,,https://rosesonly.com/pages/contact-us,,Contact,1,CA,90014,florist
Butterfly floral and event design,"2861 W Pico Blvd, Los Angeles, CA 90006",Flower designer,Los Angeles,,http://www.butterflyfloraldesign.com/,,,http://www.butterflyfloraldesign.com/contact-us,, CONTACT ,1,CA,90006,florist
GM Floral Company,"740 Maple Ave, Los Angeles, CA 90014",Florist,Los Angeles,"Sizable emporium for bulk floral supplies, craft accessories, holiday decor, plants & fresh flowers.",http://www.gmfloral.com/,,,http://www.gmfloral.com/contact_us.html,,Contact,1,CA,90014,florist
Mellano & Co,"766 Wall St, Los Angeles, CA 90014",Wholesale florist,Los Angeles,,http://www.mellano.com/,,,http://www.mellano.com/contact,,"
Contact
",1,CA,90014,florist
Los Banos Flower Shop,"624 K St, Los Banos, CA 93635",Florist,Los Banos,,https://www.losbanosflowers.com/,,,https://www.google.com/maps/place/?q=place_id:ChIJ8wqOPeJ-kYARjIUDNKsq4mc,,Find us,1,CA,93635,florist
Lani Elizabeth floral design studio,"359 Village Ln, Los Gatos, CA 95030",Florist,Los Gatos,,http://www.lanielizabeth.com/,,,http://www.lanielizabeth.com/?page_id=20001,,Contact,1,CA,95030,florist
Natural Creations,"108 N Santa Cruz Ave # A, Los Gatos, CA 95030",Florist,Los Gatos,,http://naturalcreationslosgatos.com/,,,http://www.naturalcreationslosgatos.com/contact.shtml,,Contact,1,CA,95030,florist
Plaza Flower Shop,"201 N I St, Madera, CA 93637",Florist,Madera,,https://www.plazaflowershop.net/,,,https://www.plazaflowershop.net/contact_us.php,,Contact Us,1,CA,93637,florist
Manteca Floral Co,"339 S Main St, Manteca, CA 95337",Florist,Manteca,"Longtime floral shop offers custom-made arrangements for all occasions, gifts & same-day delivery.",http://www.mantecafloral.com/,,,https://www.mantecafloral.com/contact/,,Contact,1,CA,95337,florist
Plant Connection,"810 Wentworth Ave, Manteca, CA 95336",Florist,Manteca,,http://www.tplantc.com/,,,http://www.tplantc.com/contact.html,,Contact Us,1,CA,95336,florist
Rose Cart and Gifts of Manteca,"1114 N Main St, Manteca, CA 95336",Florist,Manteca,,http://flowersandgiftsofmanteca.com/,,,https://www.facebook.com/Rose-Cart-and-Gifts-of-Manteca-2047931272176600/?rf=166015190091413,," 
",1,CA,95336,florist
Char's Flower Shop,"516 Main St, Martinez, CA 94553",Florist,Martinez,,https://www.charsflowershop.com/,,,https://www.charsflowershop.com/contact_us.php,,Contact Us,1,CA,94553,florist
Sweet Flowers Weddings & Events,"32575 El Centro Ln, Menifee, CA 92584",Flower designer,Menifee,,http://sweetflowers.net/,,,http://www.sweetflowers.net/contact/,,CONTACT,1,CA,92584,florist
Sweet Pea Floral Creations,"30724 Benton Rd c302, Winchester, CA 92596",Florist,Winchester,,http://www.sweetpeafloralcreations.com/,,,http://www.sweetpeafloralcreations.com/contact.html,,"
				Contact
			",1,CA,92596,florist
Tioga Florist,"759 W 18th St, Merced, CA 95340",Florist,Merced,,https://www.tiogaflorist.com/,,,https://www.tiogaflorist.com/contact_us.php,,Contact Us,1,CA,95340,florist
Floral Filosophy,"22202 El Paseo, Rancho Santa Margarita, CA 92688",Florist,Rancho Santa Margarita,,http://floralfilosophy.com/,,,https://floralfilosophy.com/contacts,,"
Contact Us
",1,CA,92688,florist
All About Flowers,"31961 Dove Canyon Dr # C, Trabuco Canyon, CA 92679",Florist,Trabuco Canyon,,http://www.allaboutflowersonline.net/,,,http://www.allaboutflowersonline.net/pages/contact-us,,"
              Contact Us
            ",1,CA,92679,florist
Fantasy Balloon Designs aka Balloons & Party,"23332 Madero, Mission Viejo, CA 92691",Florist,Mission Viejo,,http://www.balloonsnparty.com/,,,https://www.balloonsnparty.com/contact_us/,, Contact Us,1,CA,92691,florist
Flowers By HP Papadopoulos,"1529 Coffee Rd, Modesto, CA 95355",Florist,Modesto,,https://www.flowersbyhp.com/,,,https://www.flowersbyhp.com/contact_us.php,,Contact Us,1,CA,95355,florist
Rose Garden Florist,"2100 Standiford Ave A2, Modesto, CA 95350",Florist,Modesto,,http://www.modestorosegarden.com/,,,https://www.facebook.com/FlowersBySuzie209/,," 
",1,CA,95350,florist
Flowers By Alis,"1009 McHenry Ave, Modesto, CA 95350",Florist,Modesto,,http://www.flowersbyalis.com/,,,https://www.facebook.com/pages/category/Florist/Flowers-By-Alis-257640673207/,," 
",1,CA,95350,florist
Willow Floral Design,"3400 Finch Rd, Modesto, CA 95354",Florist,Modesto,,http://www.willowfloraldesign.com/,,,http://www.willowfloraldesign.com/contact,,,1,CA,95354,florist
Twigs & Stems Floral Art and Design,"McHenry Village, 1700 McHenry Ave Suite 27A, Modesto, CA 95350",Florist,Modesto,,http://www.twigsandstems.com/,,,https://www.twigsandstems.com/whereaboutsxcontactxhours,,Shop Details,1,CA,95350,florist
Flowers Micaela,"1404-1400 Crows Landing Rd, Modesto, CA 95351",Florist,Modesto,,http://www.flowersmikeila.com/,,,http://www.flowersmikeila.com/#contact,,"
Contact

",1,CA,95351,florist
Petals and Perfume,"321 Downey Ave, Modesto, CA 95354",Florist,Modesto,,http://www.petalsandperfume.com/,,,http://petalsandperfume.com/contact,,Contact,1,CA,95354,florist
Kim Florist San Gabriel,"227 W Las Tunas Dr, San Gabriel, CA 91776",Florist,San Gabriel,,http://www.sangabrielflower.com/,,,http://www.sangabrielflower.com/contact.html,,Contact us,1,CA,91776,florist
Moreno Valley Florist,"12244 Orchid Ln, Moreno Valley, CA 92557",Florist,Moreno Valley,,https://lilysfloristmorenovalley.com/,,,https://lilysfloristmorenovalley.com/contact-us,,CALL NOW>,1,CA,92557,florist
Crazy Daisies Flowers,"13031 Mozart Way, Moreno Valley, CA 92555",Florist,Moreno Valley,,https://www.flowershophemet.com/,,,https://www.flowershophemet.com/#contactTab,,Contact Us,1,CA,92555,florist
Flower Cottage of Morgan Hill,"35 E 1st St, Morgan Hill, CA 95037",Florist,Morgan Hill,,http://theflowercottageofmorganhill.com/,,,https://theflowercottageofmorganhill.com/contacts,,"
Contact Us
",1,CA,95037,florist
Floral Creations by Nasreen,"2085 Merlot Dr, Morgan Hill, CA 95037",Florist,Morgan Hill,,http://www.floralcreationsbynasreen.com/,,,http://www.floralcreationsbynasreen.com/contact-us.html,,"
					Contact Us									",1,CA,95037,florist
Realm Flower Co,"17500 Depot St Suite# 122, Morgan Hill, CA 95037",Florist,Morgan Hill,,http://www.realmflowerco.com/,,,http://www.realmflowerco.com/contact.html,,"
				Contact
			",1,CA,95037,florist
Wine Country Florals,"26834 Bahama Way, Murrieta, CA 92563",Florist,Murrieta,,http://www.winecountryflorals.com/,,,https://winecountryflorals.com/contact/,,Contact Us,1,CA,92563,florist
Brandi Nicole Floral Designer,"40564 Charleston St, Temecula, CA 92591",Florist,Temecula,,http://brandinicolefloraldesigner.com/,,,http://brandinicolefloraldesigner.com/contact,,Contact,1,CA,92591,florist
Soiree Floral Design,"29980 Technology Dr #2, Murrieta, CA 92563",Florist,Murrieta,,https://soireefloraldesigns.com/,,,https://soireefloraldesigns.com/contact,,"
            Contact
          ",1,CA,92563,florist
A Family Tree Florist,"43064 Black Deer Loop suite A, Temecula, CA 92590",Florist,Temecula,Family-run florist since 1977 prepares classic & modern bouquets as well as assorted gift baskets.,https://www.familytreeflorist.net/,,,https://www.familytreeflorist.net/contact_us.php,,Contact Us,1,CA,92590,florist
Heather Christan Designs,"38340 Innovation Ct, Murrieta, CA 92563",Florist,Murrieta,,http://www.heathercdesigns.com/,,,https://www.hcdweddings.com/book-online,,Contact,1,CA,92563,florist
Sal the Flower Guy,"2701 Jefferson St, Napa, CA 94558",Florist,Napa,,http://www.saltheflowerguy.com/,,,https://saltheflowerguy.com/contact-us/,,Contact Us,1,CA,94558,florist
Flower Designs By Karen Brown,"2314 Lakepark Dr, Napa, CA 94558",Florist,Napa,,http://flowersbykb.com/,,,http://flowersbykb.com/contact,,"
        
        Contact
      ",1,CA,94558,florist
Indoor Greenery,"4225 Solano Ave, Napa, CA 94558",Florist,Napa,,http://www.indoorgreenery.com/,,,http://www.indoorgreenery.com/IGContactUsT1.html,,• Contact Us,1,CA,94558,florist
Nostalgia D Glorious Flowers,"1425 Market St, San Diego, CA 92101",Florist,San Diego,,https://www.nostalgiaflowersandgifts.com/,,,http://www.nostalgiaflowersandgifts.com/contact_us.php,,Contact Us,1,CA,92101,florist
jackiejo flowers,"522 Sicard St, San Diego, CA 92113",Florist,San Diego,,https://jackiejoflowers.com/,,,https://jackiejoflowers.com/about-us/,,Contact,1,CA,92113,florist
Corona del Mar Florist,"3337 East Coast Hwy, Corona Del Mar, CA 92625",Florist,Corona Del Mar,,http://www.cdmflorist.com/,,,https://cdmflorist.com/contact/,,Contact Us,1,CA,92625,florist
Alondras Flowers,"536 Alameda del Prado, Novato, CA 94949",Florist,Novato,,http://alondrasflowers.com/,,,https://www.google.com/maps/place/?q=place_id:ChIJta2M2fS9hYARdLctkTE0ttM,,Find us,1,CA,94949,florist
Almas bridal and flowers,"4212 Foothill Blvd, Oakland, CA 94601",Florist,Oakland,,http://almasbridal.net/,,,https://almasbridal.net/contact/,,Contact / Ubicacion,1,CA,94601,florist
Ash  OAK,"839 High St #2a, Oakland, CA 94601",Florist,Oakland,,http://ashandoak.co/,,,http://ashandoak.co/contact-1,,"
              CONTACT
            ",1,CA,94601,florist
Design In Bloom,"2828 Filbert St, Oakland, CA 94608",Florist,Oakland,,http://designinbloom.com/,,,http://designinbloom.com/wp/contact/,,Contact,1,CA,94608,florist
Pistil & Stamen Design,"832 York St # 4, Oakland, CA 94610",Florist,Oakland,,http://pistilandstamen.com/,,,http://pistilandstamen.com/about/contact.html,,联系我们,1,CA,94610,florist
The Lei Company Cooperative,"2530 International Blvd, Oakland, CA 94601",Florist,Oakland,,http://www.theleicompany.com/,,,http://www.theleicompany.com/contact.html,,"
										Contact
									",1,CA,94601,florist
Orchids Fiore D'Amore,"4526 Fair Ave, Oakland, CA 94619",Florist,Oakland,,http://www.orchidsfioridamore.com/,,,http://www.orchidsfioridamore.com/page/contact.html,,Contact Us,1,CA,94619,florist
LGM Global Inc,"3636 Ocean Ranch Blvd, Oceanside, CA 92056",Florist,Oceanside,,http://lgmfloral.com/,,,http://lgmfloral.com/index.php/contact/,,Contact,1,CA,92056,florist
Dos Gringos,"3260 Corporate View, Vista, CA 92081",Florist,Vista,,http://www.dosgringos.com/,,,http://www.dosgringos.com/contact/,, Contact Us,1,CA,92081,florist
Irises Designs  Flowers for Weddings and Events,"290 N Benson Ave #1, Upland, CA 91786",Florist,Upland,,http://www.irisesdesigns.com/,,,http://www.irisesdesigns.com/contactus,,Contact Us,1,CA,91786,florist
Picazo's Flower Designs,"8200 Haven Ave #3106, Rancho Cucamonga, CA 91730",Florist,Rancho Cucamonga,,http://www.picazosflowers.com/,,,http://www.picazosflowers.com/contact-us/,,Contact Us,1,CA,91730,florist
Rolands Decorative Wood,"120 Sierra Pl, Upland, CA 91786",Flower designer,Upland,,http://rolandsdecorativewood.com/,,,https://rolandsdecorativewood.com/index.php?main_page=contact_us&zenid=904f1e32620a33562b2495291acbf338,,Contact Us,1,CA,91786,florist
Magic Flowers,"2323 N Tustin Ave Ste E, Santa Ana, CA 92705",Florist,Santa Ana,,https://www.magicflowersca.com/,,,https://www.magicflowersca.com/contact-us,,"
                        Contact Us
                    ",1,CA,92705,florist
NPD Events,"17592 Irvine Blvd #216, Tustin, CA 92780",Florist,Tustin,,http://www.npdevents.com/,,,http://www.npdevents.com/contact,,"
                Contact Us
              ",1,CA,92780,florist
Fullerton Florist,"1545 S Harbor Blvd, Fullerton, CA 92832",Florist,Fullerton,,https://lilysfloristfullerton.com/,,,https://lilysfloristfullerton.com/contact-us,,CALL NOW>,1,CA,92832,florist
Shinoda Design Center,"601 W Dyer Rd, Santa Ana, CA 92707",Wholesale florist,Santa Ana,,http://www.shinodadesigncenter.net/,,,http://visitor.constantcontact.com/manage/optin/ea?v=001nxNUBQroFr3VkHI756NB1A%3D%3D,,,1,CA,92707,florist
Orange County Wholesale Flowers,"603 W Dyer Rd, Santa Ana, CA 92707",Wholesale florist,Santa Ana,,http://www.ocwholesaleflowers.com/,,,https://www.ocwholesaleflowers.com/contact-us/,,Contact,1,CA,92707,florist
Santos Xpress Inc,"1311 E Palmdale Blvd, Palmdale, CA 93550",Florist,Palmdale,,http://www.santosxpress.com/,,,http://santosxpress.com/contact/,,Contact,1,CA,93550,florist
MOLLER'S GARDEN CENTER INC,"72-235 Painters Path, Palm Desert, CA 92260",Florist,Palm Desert,"Retailer with a big assortment of indoor & outdoor plants plus garden supplies, gifts & decorations.",http://mollersgardencenter.com/,,,https://www.mollersgardencenter.com/contact/,,Contact,1,CA,92260,florist
The Bloomin Gypsy,"55827 Twentynine Palms Highway, Yucca Valley, CA 92284",Florist,Yucca Valley,,http://www.thebloomingypsy.com/,,,http://www.thebloomingypsy.com/contact,,"
                SAY HELLO!
              ",1,CA,92284,florist
Happy Rose Florist,"475 N Lake Ave, Pasadena, CA 91101",Florist,Pasadena,"Family-owned flower shop offering a variety of bouquets for all occasions, plus gifts & plants.",https://www.happyroseflorist.com/,,,https://www.happyroseflorist.com/contact-us,,Contact Us,1,CA,91101,florist
Brad Larsen Florals,"597 E Green St #101, Pasadena, CA 91101",Florist,Pasadena,"Flower shop known for tailor-made arrangements, wreaths, topiaries, bouquets, baskets & more.",http://www.bradlarsenflorals.com/,,,http://www.bradlarsenflorals.com/#ShowHidden,,Contact,1,CA,91101,florist
Wenfloral Design Studio,"2355 E Foothill Blvd, Pasadena, CA 91107",Florist,Pasadena,,http://www.wenfloral.com/,,,http://www.wenfloral.com/contact,,CONTACT,1,CA,91107,florist
TWIGZZ Florists Events  Landscape Design,"40 Smith Alley, Pasadena, CA 91103",Florist,Pasadena,,http://www.twigzzdesignstudio.com/,,,http://www.twigzzdesignstudio.com/contact.html,,Contact,1,CA,91103,florist
Herbs & Wildflowers,"915 Fremont Ave, South Pasadena, CA 91030",Florist,South Pasadena,,https://herbsandwildflowers.com/,,,https://www.bloomnation.com/contact-us/,,Contact Us,1,CA,91030,florist
Hollydale Imperial Florist,"384 E Orange Grove Blvd, Pasadena, CA 91104",Florist,Pasadena,,http://www.hollydaleimperialflorist.com/,,,https://checkout.bloomnetcommerce.com/contact/?s=sznW8jI%2Fek%2BN%2BWNl8XxL34HfG%2BqlDYy0esOaFzcVKKw%3D,,"

 Contact Us
",1,CA,91104,florist
Southern Roots,"1387 E Washington Blvd, Pasadena, CA 91104",Florist,Pasadena,,http://www.southernrootsfloral.com/,,,http://www.southernrootsfloral.com/mailto:SOUTHERNROOTS.PASADENA@GMAIL.COM,,Contact Us,1,CA,91104,florist
JeanPascal Florist,"530 Molino St #203, Los Angeles, CA 90013",Florist,Los Angeles,,https://www.jeanpascallemire.com/,,,https://www.jeanpascallemire.com/contact/,,Contact,1,CA,90013,florist
Vanda Floral Design  Retail Storefront,"501 Petaluma Blvd N, Petaluma, CA 94952",Florist,Petaluma,,http://www.vandafloral.com/,,,http://www.vandafloral.com/contact,,"
Contact
",1,CA,94952,florist
Flower Casita,"140 2nd St #116, Petaluma, CA 94952",Florist,Petaluma,,https://www.flowercasita.com/,,,https://www.flowercasita.com/mailto:contact@flowercasita.com,,contact@flowercasita.com,1,CA,94952,florist
Rhapsody Floral Design,"81 Purrington Rd, Petaluma, CA 94952",Florist,Petaluma,,http://www.rhapsodyfloral.com/,,,https://www.rhapsodyfloral.com/contact-us/,,Contact Us,1,CA,94952,florist
The Warm House,"1 Petaluma Blvd N, Petaluma, CA 94952",Florist,Petaluma,,http://thewarmhouse.co/,,,https://thewarmhouse.co/contact,,CONTACT US,1,CA,94952,florist
Beverly Gardens,"10846 Beverly Blvd, Whittier, CA 90601",Florist,Whittier,,http://www.thebeverlygardens.com/,,,http://www.thebeverlygardens.com/contact.html,,contact,1,CA,90601,florist
Golden Orchid Flower Company,"266 Odessa Ave, Pittsburg, CA 94565",Florist,Pittsburg,,https://golden-orchid-flower-company.ueniweb.com/,,,https://golden-orchid-flower-company.ueniweb.com/#contact_us,,Contact Us,1,CA,94565,florist
JoyFlowerBoxcom,"70 Doray Dr #16-D, Pleasant Hill, CA 94523",Florist,Pleasant Hill,,http://www.joyflowerbox.com/,,,http://www.joyflowerbox.com/contact,,Contact,1,CA,94523,florist
Crystal Gardens Florist,"13654 Poway Rd #180, Poway, CA 92064",Florist,Poway,,http://www.crystalgardensflorist.com/,,,https://crystalgardensflorist.com/contact-us/,,Contact Us,1,CA,92064,florist
John's Flowers,"9960 Stirling Park Dr, Sacramento, CA 95827",Florist,Sacramento,,http://flowerguy.net/,,,https://www.flowerguy.net/page/our-contact-info/,,Contact Us,1,CA,95827,florist
Elizabeth Grace Floral,"Vía La Brea, Palos Verdes Estates, CA 90274",Florist,Palos Verdes Estates,,https://elizabethgracefloral.com/,,,https://elizabethgracefloral.com/about#90cf2a89-582b-4f19-bfc7-2bdc3c97b5fd,,Contact Us,1,CA,90274,florist
Floral Palette,"16079 San Dieguito Rd a2, Rancho Santa Fe, CA 92067",Florist,Rancho Santa Fe,,http://www.floralpalette.com/,,,https://www.floralpalette.com/contact-us/,,Contact,1,CA,92067,florist
Marshall's Florist and Fine Gifts,"870 Hartnell Ave, Redding, CA 96001",Florist,Redding,,http://www.marshallsfloristredding.com/,,,https://marshallsfloristredding.com/contacts,,"
Contact Us
",1,CA,96001,florist
Mallery's Flowers & Gifts,"2172 Market St, Redding, CA 96001",Florist,Redding,,https://www.mallerysflowers.com/,,,https://www.mallerysflowers.com/product/dc1000120/no-contact-delivery,,"


",1,CA,96001,florist
Floranthropist(tm),"1365 Market St, Redding, CA 96001",Florist,Redding,,https://floranthropist.com/,,,https://floranthropist.com/contact/,,Contact,1,CA,96001,florist
Liberty Florist,"810 Lake Blvd G, Redding, CA 96003",Florist,Redding,,http://libertyfloristredding.com/,,,https://checkout.bloomnetcommerce.com/contact/?s=zsktLLDz5alYh74V%2BAAKqrGEU1gTqXl%2BJ5RIVmlf9%2Bk%3D,,"

 Contact Us
",1,CA,96003,florist
Velours Designs,"897 Wingsetter Ct, Redding, CA 96003",Florist,Redding,,http://www.veloursdesigns.com/,,,http://www.veloursdesigns.com/contact,,Contact,1,CA,96003,florist
Anderson Florist,"2820 Freeman St #1, Anderson, CA 96007",Florist,Anderson,,http://www.anderson-florist.com/,,,https://www.facebook.com/anderson.florist/,," 
",1,CA,96007,florist
Hockridge Florist,"8161, 461 Tennessee St STE F, Redlands, CA 92373",Florist,Redlands,,https://hockridgeflorist.com/,,,https://policies.google.com/privacy,,Privacy Policy,1,CA,92373,florist
Flower Delivery Redlands,"111 E State St, Redlands, CA 92373",Florist,Redlands,,https://www.flowerdeliveryredlands.com/,,,https://www.flowerdeliveryredlands.com/contact/,,Contact Us,1,CA,92373,florist
Mariam's Flowers,"12664 San Pablo Ave, Richmond, CA 94805",Florist,Richmond,,http://mariamsflowersdelivery.com/,http://mariamsflowersdelivery.com/,,http://mariamsflowersdelivery.com/contact/,,"



				Contact Us
			

",1,CA,94805,florist
Green Thumb Florist,"1078 Mitchell Way, El Sobrante, CA 94803",Florist,El Sobrante,,http://www.greenthumbflowers.com/,,,https://www.greenthumbflowers.com/contact_us.php,,Contact Us,1,CA,94803,florist
Balloon Team The Balloon Decorators Event Services,"21935 Van Buren St #6, Grand Terrace, CA 92313",Florist,Grand Terrace,,http://balloon-team.com/,,,http://balloon-team.com/contact,,Contact,1,CA,92313,florist
Abstractions Florist,"3119 Strand Rd, Rocklin, CA 95765",Florist,Rocklin,,http://www.abstractionsfloral.com/,,,http://www.abstractionsfloral.com/contact,,Contact,1,CA,95765,florist
Sequoia Floral International,"3245 Santa Rosa Ave, Santa Rosa, CA 95407",Florist,Santa Rosa,,https://www.sequoiafloral.com/,,,https://www.sequoiafloral.com/contact-us/,,Contact,1,CA,95407,florist
Floreria Rosebella,"36 Sebastopol Ave, Santa Rosa, CA 95407",Florist,Santa Rosa,,http://santarosafloreria.com/,,,http://santarosafloreria.com/contact/,,Contact Us,1,CA,95407,florist
Floreria Selena,"1170 Sebastopol Rd, Santa Rosa, CA 95407",Florist,Santa Rosa,,https://www.selenaflorist.net/,,,https://www.selenaflorist.net/contact_us.php,,Contact Us,1,CA,95407,florist
California Sister Plant & Flower,"6790 McKinley St #190, Sebastopol, CA 95472",Florist,Sebastopol,,http://www.californiasister.com/,,,http://www.californiasister.com/eventscontact,,Contact →,1,CA,95472,florist
Point West Wholesale Flower Market,"150 Professional Center Dr suite b, Rohnert Park, CA 94928",Wholesale florist,Rohnert Park,,http://www.pwflowermarket.com/,,,http://pwflowermarket.com/contact/,,Contact,1,CA,94928,florist
Hall of Flowers,"1350 Bennett Valley Rd, Santa Rosa, CA 95404",Garden center,Santa Rosa,,http://www.sonomacountyfair.com/,,,http://www.sonomacountyfair.com/contact.php,,Contact Info,1,CA,95404,florist
Spring Flowers & Gifts,"711 Broadway, Sonoma, CA 95476",Florist,Sonoma,,http://sonomaspringflowers.com/,,,https://checkout.bloomnetcommerce.com/contact/?s=CBbUmK0eFnLOekOjQ8bdQrabtJnI04XFe1iuy5XkRVk%3D,,"

 Contact Us
",1,CA,95476,florist
Anne Appleman Flowers,"19690 8th St E, Sonoma, CA 95476",Florist,Sonoma,,http://www.anneappleman.com/,,,https://www.anneappleman.com/contact/,,CONTACT,1,CA,95476,florist
Atrellis Flowers & Gifts,"816 McClelland Dr, Windsor, CA 95492",Florist,Windsor,,http://www.atrellis.com/,,,https://www.atrellis.com/contact,,Contact,1,CA,95492,florist
Le Florist,"Magnolia Ave, Larkspur, CA 94939",Florist,Larkspur,,http://royal-fleur.com/,,,https://www.royal-fleur.com/index.php?main_page=contact_us&zenid=s1vn6cg4ebb4ds1ms9etrvuvf6,,Contact Us,1,CA,94939,florist
Burns Florist,"1414 4th St, San Rafael, CA 94901",Florist,San Rafael,"Long-running, family-run shop offering floral arrangements & gift baskets, with delivery available.",https://www.burnsflorist.com/,,,https://www.burnsflorist.com/contact_us.php,,Contact Us,1,CA,94901,florist
Florist of Larkspur  Royal Fleur,"282 Magnolia Ave, Larkspur, CA 94939",Florist,Larkspur,"Family-owned florist providing creative arrangements for everyday & special occasions, open 7 days.",https://www.royal-fleur.com/,,,https://www.royal-fleur.com/index.php?main_page=contact_us&zenid=rdth9mrgvoiivpkigbsk82nve2,,Contact Us,1,CA,94939,florist
Annie's Floral,"129 N Cloverdale Blvd #8, Cloverdale, CA 95425",Florist,Cloverdale,,http://www.anniesfloralexpress.com/,,,https://www.anniesfloralexpress.com/contact_us.php,,Contact Us,1,CA,95425,florist
Neve Brothers Wholesale Cut,"2645 Bodega Ave, Petaluma, CA 94952",Wholesale florist,Petaluma,,http://www.nevebros.com/,,,http://www.nevebros.com/locationscontact.html,,"
								LOCATIONS/CONTACT
							",1,CA,94952,florist
Neve Roses II,"4288 Bodega Ave, Petaluma, CA 94952",Wholesale florist,Petaluma,,http://www.neveroses.com/,,,http://www.neveroses.com/contact.html,,,1,CA,94952,florist
Inner Atrium Floral,"Owl Feather Ct, Roseville, CA 95747",Florist,Roseville,,http://chantaclair.com/,,,http://chantaclair.com/mailto:ChantaclairsParlor@Chantaclair.com,,"Contact Me
 ",1,CA,95747,florist
Just Bloom,"1650 Douglas Blvd, Roseville, CA 95661",Florist,Roseville,,https://www.justbloomflorist.com/,,,//www.justbloomflorist.com/contactus.html,,Contact Us,1,CA,95661,florist
Bliss Florist,"4119 Sierra Gold Dr, Antelope, CA 95843",Florist,Antelope,,http://myblissflorist.com/,,,https://myblissflorist.com/contacts,,"
Local Delivery
",1,CA,95843,florist
LeLe Floral,"7909 Walerga Road Ste 112 PMB 238, Antelope, CA 95843",Florist,Antelope,,http://www.lelefloral.com/,,,http://www.lelefloral.com/contactus.htm,,Contact Us,1,CA,95843,florist
Katrione's Blooms and Crafts,"5405 Birk Way, Sacramento, CA 95835",Florist,Sacramento,,https://www.katrionesblooms.com/,,,https://www.katrionesblooms.com,,Contact,1,CA,95835,florist
So Real Factory Inc,"3313 Horseshoe Dr, Sacramento, CA 95821",Florist,Sacramento,,http://www.sorealfactory.com/,,,https://www.sorealfactory.com/contact/,,Contact,1,CA,95821,florist
Marry Contrary Design & Decor,"7300 Folsom Blvd STE 101, Sacramento, CA 95826",Florist,Sacramento,,http://marrycontrary.com/,,,https://www.marrycontrary.com,,CONTACT,1,CA,95826,florist
Flora Fresh Inc,"1127 Fee Dr, Sacramento, CA 95815",Wholesale florist,Sacramento,,http://www.florafreshinc.com/,,,https://www.florafreshinc.com/contact-us/,,CONTACT USNeed more Info?,1,CA,95815,florist
Auburn Blooms Garden & Gifts,"127 Sacramento St, Auburn, CA 95603",Florist,Auburn,,https://auburnblooms.com/,,,https://auburnblooms.com/contact-us,,Contact Us,1,CA,95603,florist
Swenson & Silacci Flowers,"110 John St, Salinas, CA 93901",Florist,Salinas,,http://swensonandsilacciflowers.com/,,,http://swensonandsilacciflowers.com/pages/contact,,Receive A Wedding Package,1,CA,93901,florist
Magda's Flowers,"626 E Market St, Salinas, CA 93905",Florist,Salinas,,http://magdasflores.com/,,,http://magdasflores.com/pages/contact-us,,"
                Contact
            ",1,CA,93905,florist
Red Rose Flowers,"684 E Boronda Rd, Salinas, CA 93906",Florist,Salinas,,http://redroseflowers.net/,,,http://redroseflowers.net/service/contact/,,"

 Contact
",1,CA,93906,florist
Matranga Floral Inc,"607 Brunken Ave STE 3, Salinas, CA 93901",Wholesale florist,Salinas,,http://www.matrangafloral.com/,,,https://policies.google.com/privacy,,Privacy Policy,1,CA,93901,florist
South Coast Wholesale Flowers,"231 E Dyer Rd c, Santa Ana, CA 92707",Wholesale florist,Santa Ana,,http://southcoastwholesaleflowers.com/,,,http://southcoastwholesaleflowers.com/contact-us.html,,"231 E. Dyer Rd. Unit C, Santa Ana, CA. 92707",1,CA,92707,florist
The Twisted Twig,"2315 Chapala St, Santa Barbara, CA 93105",Flower designer,Santa Barbara,,http://www.twistedtwigfineflorals.com/,,,http://www.twistedtwigfineflorals.com/contact-montauk,,Contact,1,CA,93105,florist
Lily's Flowers and Fruity Florets,"209 S Milpas St a, Santa Barbara, CA 93103",Florist,Santa Barbara,,http://www.lilysflowersinsb.com/,,,https://www.lilysflowersinsb.com/contact_us.php,,Contact Us,1,CA,93103,florist
Gazebo Gardens,"1505 E Valley Rd, Santa Barbara, CA 93108",Florist,Santa Barbara,,http://gazebogardens.com/,,,https://www.instagram.com/p/B_NzpMYnHCt/,,"

",1,CA,93108,florist
Floral Jewels,"729 Chiquita Rd, Santa Barbara, CA 93103",Florist,Santa Barbara,,http://floraljewels.com/,,,http://floraljewels.com/contact.php,,,1,CA,93103,florist
In Bloom Orchids,"1187 Coast Village Rd, Santa Barbara, CA 93108",Florist,Santa Barbara,,http://inbloomorchids.com/,,,http://inbloomorchids.com/#/,,contact ,1,CA,93108,florist
S R Hogue & Co Florist,"525 San Ysidro Rd, Montecito, CA 93108",Florist,Montecito,,http://www.srhogue.com/,,,https://www.instagram.com/p/B97XQ0LFgHa/,,"

",1,CA,93108,florist
A Smiling Garden,"875 Veronica Springs Rd, Santa Barbara, CA 93105",Florist,Santa Barbara,,http://asmilinggarden.com/,,,http://asmilinggarden.com/contact.html,,,1,CA,93105,florist
Village Gardener,"734 Cacique Street, Santa Barbara, CA 93103",Florist,Santa Barbara,,http://thevillagegardenersb.com/,,,http://thevillagegardenersb.com/contact,,contact,1,CA,93103,florist
Coco Rose Design,"4650 Carpinteria Ave a, Summerland, CA 93067",Florist,Summerland,,http://www.cocorosedesign.com/,,,http://www.cocorosedesign.com/contact,,"
                Contact
              ",1,CA,93067,florist
Flower Folk SB,"1613 Chapala St, Santa Barbara, CA 93101",Flower designer,Santa Barbara,,https://flowerfolksb.com/,,,https://flowerfolksb.com/pages/about-edit,,Contact,1,CA,93101,florist
Seven Day Nursery,"3301 State St, Santa Barbara, CA 93105",Garden center,Santa Barbara,,http://www.7daynursery.com/,,,http://www.7daynursery.com/location-contact/,,,1,CA,93105,florist
Natural Pack,"121 S Quarantina St, Santa Barbara, CA 93103",Wholesale florist,Santa Barbara,,http://www.naturalpackinc.com/,,,http://www.naturalpackinc.com/contact.html,,Contact,1,CA,93103,florist
Flower Diva's Inc,"3283 De La Cruz Blvd, Santa Clara, CA 95054",Florist,Santa Clara,,http://flowerdivas.com/,,,http://flowerdivas.com/tel:4087274416,,(408) 727-4416,1,CA,95054,florist
Dubon Floral Design,"2855 Stevens Creek Blvd, Santa Clara, CA 95050",Florist,Santa Clara,,http://www.dubonfloraldesign.com/,,,https://www.dubonfloraldesign.com/contact,,CONTACT,1,CA,95050,florist
Van Florist,"696 E Santa Clara St # 100, San Jose, CA 95112",Florist,San Jose,,http://vanflorist.com/,,,http://vanflorist.com/contact.html,,"
    CONTACT US 
",1,CA,95112,florist
U & I Event Design,"1185 Campbell Ave b6, San Jose, CA 95126",Florist,San Jose,,http://uandievents.com/,,,https://uandievents.com/contact/,,CONTACT,1,CA,95126,florist
Claire's Flowers,"27019 Santa Clarita Rd, Santa Clarita, CA 91350",Florist,Santa Clarita,,http://clairesflowers.com/,,,http://clairesflowers.com/contact-us.html,,,1,CA,91350,florist
White Fig Designs,"24262 Walnut St, Newhall, CA 91321",Florist,Newhall,,http://www.whitefigdesigns.com/,,,http://www.whitefigdesigns.com/contact,,Contact,1,CA,91321,florist
Santa Cruz Floral,"1225 Ocean St, Santa Cruz, CA 95060",Florist,Santa Cruz,,http://www.santacruzfloral.com/,,,http://santacruzfloral@yahoo.com,," 
",1,CA,95060,florist
Shay's Flowers & Gifts,"411 Cedar St, Santa Cruz, CA 95060",Florist,Santa Cruz,,http://www.shaysflowers.com/,,,https://www.facebook.com/shays.flowers,," 
",1,CA,95060,florist
Stewart's FloralFranklyn,"1658 Soquel Dr # A, Santa Cruz, CA 95065",Florist,Santa Cruz,,http://stewartsfloral.com/,,,https://www.stewartsfloral.com/contact-info-and-hours,,Contact Info & Hours,1,CA,95065,florist
Bonny Doon Garden Company,"4286 Bonny Doon Rd, Santa Cruz, CA 95060",Florist,Santa Cruz,,http://www.bonnydoongardenco.com/,,,http://www.bonnydoongardenco.com/pages/contact-us,,Contact,1,CA,95060,florist
La Bella Fiori Floral Design,"529 Capitola Ave, Capitola, CA 95010",Florist,Capitola,,http://www.labellafioriflowers.com/,,,http://labellafioriflowers.com/contact/,,Contact Us,1,CA,95010,florist
Ace's Flowers,"7520 Soquel Dr, Aptos, CA 95003",Florist,Aptos,,http://www.acesflowers.com/,,,http://www.acesflowers.com/contact--hours-delivery-areas.html,,"

			Contact / Hours/ Delivery Areas
		
",1,CA,95003,florist
Pink Petals,"1842 Gold Gulch Rd #9503, Felton, CA 95018",Florist,Felton,,http://www.pink-petals.com/,,,http://www.pink-petals.com/contact.html,,contact us,1,CA,95018,florist
Wild Iris Floral and Botanical,"6227 Hwy 9, Felton, CA 95018",Florist,Felton,,http://www.wildirisfloral.com/,,,http://www.wildirisfloral.com/contact,,"
            Contact
          ",1,CA,95018,florist
Susi's Flowers,"25 Rancho Del Mar, Aptos, CA 95003",Florist,Aptos,,http://www.susisflowers.com/,,,http://www.susisflowers.com/contact,,Contact,1,CA,95003,florist
Bunches,"14 N Santa Cruz Ave, Los Gatos, CA 95030",Florist,Los Gatos,,https://www.buncheslosgatos.com/,,,https://www.buncheslosgatos.com/tel:4083955451,,408 395 5451,1,CA,95030,florist
Seascape Flowers,"5 Seascape Blvd, Aptos, CA 95003",Florist,Aptos,,http://seascapeflowers.com/,,,http://seascapeflowers.com/#contact,,Contact,1,CA,95003,florist
Wind Acre Farm Floral,"2902 Glen Canyon Rd, Santa Cruz, CA 95060",Wholesale florist,Santa Cruz,,http://windacrefarm.com/,,,https://www.windacrefarm.com/contact-us/,,Contact Us,1,CA,95060,florist
Rose of Sharon Florist,"703 E Main St, Santa Maria, CA 93454",Florist,Santa Maria,,http://www.roseofsharonflorist.com/,,,http://www.roseofsharonflorist.com/content/admin/contact_info.php,,Contact US,1,CA,93454,florist
The Black Orchid,"1316 S Broadway, Santa Maria, CA 93454",Florist,Santa Maria,,http://www.blackorchidflowershop.com/,,,https://www.facebook.com/TheBlackOrchidFloristSantaMaria?ref=hl,," 
",1,CA,93454,florist
Back Porch Fresh Flowers,"4850 S Bradley Rd, Santa Maria, CA 93455",Florist,Santa Maria,,http://www.backporchflowers.net/,,,https://www.backporchflowers.net/contact_us.php,,Contact Us,1,CA,93455,florist
Dellarobbia Design Studio & Flower Market,"1448 19th St, Santa Monica, CA 90404",Florist,Santa Monica,"Floral shop offering bouquets, centerpieces, delivery & designs for special events.",http://www.dellarobbiaflowers.com/,,,http://www.dellarobbiaflowers.com/Contact_Us.html,,Contact Us,1,CA,90404,florist
Ezai Floral Design,"1014 Broadway, Santa Monica, CA 90401",Florist,Santa Monica,"Florist featuring a selection of unique, contemporary arrangements, plus flowering plants.",http://www.ezaiflowers.com/,,,http://www.ezaiflowers.com/contact,,Contact,1,CA,90401,florist
Lilla Bello,"Bergamot Station, #F1b, 2525 Michigan Avenue, Santa Monica, CA 90404",Florist,Santa Monica,,https://lillabello.com/,,,https://lillabello.com/contact/,,Contact,1,CA,90404,florist
The Flower Lab,"1448 19th St #102, Santa Monica, CA 90404",Florist,Santa Monica,,http://www.theflowerlab.com/,,,http://www.theflowerlab.com/contact,,CONTACT,1,CA,90404,florist
Martha's Flowers,"1725 Ocean Ave, Santa Monica, CA 90401",Florist,Santa Monica,,http://www.marthasflowerssm.com/,,,https://www.marthasflowerssm.com/contact_us.aspx?sid=bylvrflalcjj1jhxay04psob&searchwords=&viewedpreviously=,,CONTACT US,1,CA,90401,florist
Blossom Floral,"2624 Wilshire Blvd, Santa Monica, CA 90403",Florist,Santa Monica,Upmarket flower boutique specializing in weddings & events also selling bouquets.,https://blossomfloral.net/,,,https://blossomfloral.net/consultation/,,Contact Us,1,CA,90403,florist
Holy Chic Los Angeles,"1527 Montana Ave, Santa Monica, CA 90403",Flower designer,Santa Monica,,http://www.holychiclosangeles.com/,,,http://www.holychiclosangeles.com/pages/contact-us,,Contact,1,CA,90403,florist
Flowerboy Project,"824 Lincoln Blvd, Venice, CA 90291",Florist,Venice,Espresso & light fare served in a contemporary space also offering flowers & unique home goods.,http://www.flowerboyproject.com/,,,http://www.flowerboyproject.com/contact,,Contact,1,CA,90291,florist
Lady Frangipani,"1920 Lincoln Blvd, Venice, CA 90291",Florist,Venice,,http://ladyfrangipani.com/,,,http://ladyfrangipani.com/contact,,"
                  Contact
                ",1,CA,90291,florist
Celebrate Flowers and Invitations,"26057 Bouquet Canyon Rd, Santa Clarita, CA 91350",Florist,Santa Clarita,,https://flowersandinvitations.com/,,,https://flowersandinvitations.com/about-us/,,Contact Us,1,CA,91350,florist
1800Flowers  Conroy's North Hollywood,"12901 Victory Blvd, North Hollywood, CA 91606",Florist,North Hollywood,"Longtime, full-service florist providing a variety of bouquets, plants, balloons & gourmet baskets.",https://www.conroysflowersnorthhollywood.net/,,,https://www.conroysflowersnorthhollywood.net/service/contact/,,"

 Contact
",1,CA,91606,florist
Just For Fun Flowers,"16913 Lorne St, Van Nuys, CA 91406",Florist,Van Nuys,,http://www.justforfunflowers.com/,,,http://www.justforfunflowers.com/contact-us.html,,Learn More ›,1,CA,91406,florist
Stems Floral Design,"864 4th St, Santa Rosa, CA 95404",Florist,Santa Rosa,,https://stems-floral.com/,,,https://stems-floral.com/contact-1,,"
Contact
",1,CA,95404,florist
Devoto & Devoto,"655 Gold Ridge Rd, Sebastopol, CA 95472",Florist,Sebastopol,,http://devotogrow.com/,,,http://devotogrow.com/new-page,,Contact Us,1,CA,95472,florist
EV Floral Design,"3431 St Helena Hwy, St Helena, CA 94574",Flower designer,St Helena,,http://evfloraldesign.com/,,,http://evfloraldesign.com/contact/,,Contact,1,CA,94574,florist
Love Sparrows,"21821 E Buckthorne Dr #9203, Cedarpines Park, CA 92322",Florist,Cedarpines Park,,http://www.lovesparrows.com/,,,http://www.lovesparrows.com/contact,,contact,1,CA,92322,florist
Secret Garden Florist,"677 E Main St, Ventura, CA 93001",Florist,Ventura,,https://www.secretgardensflorist.com/,,,https://www.secretgardensflorist.com/Contact,,Contact Us,1,CA,93001,florist
Fleur De Rye,"77 S California St, Ventura, CA 93001",Florist,Ventura,,http://www.fleurderye.com/,,,http://www.fleurderye.com/contact,,"
Contact
",1,CA,93001,florist
Texis Flower Shop,"834 E Main St, Santa Paula, CA 93060",Florist,Santa Paula,,http://www.texisflowershop.com/,,,https://www.texisflowershop.com/contact_us.php,,Contact Us,1,CA,93060,florist
Forage Ojai,"152 Baldwin Rd, Ojai, CA 93023",Florist,Ojai,,http://www.forageojai.com/,,,http://www.forageojai.com/new-page-1,,"
Contact
",1,CA,93023,florist
Angela's Flowers,"226 W Ojai Ave, Ojai, CA 93023",Florist,Ojai,,http://angelasflowersojai.com/,,,https://angelasflowersojai.com/contacts,,"
Contact Us
",1,CA,93023,florist
Maciel's Flowers Inc,"701 N Del Norte Blvd Suite 335, Oxnard, CA 93030",Wholesale florist,Oxnard,,http://www.macielsflowersinc.com/,,,http://www.macielsflowersinc.com/contact.html,,Contact,1,CA,93030,florist
DVFlora,"423 Lambert St, Oxnard, CA 93036",Wholesale florist,Oxnard,,http://www.dvflora.com/,,,http://www.dvflora.com/index.php/contact-us/,,Contact Us,1,CA,93036,florist
Ventura Botanical Gardens Inc,"567 South Poli St, Ventura, CA 93001",Botanical garden,Ventura,"Botanical gardens offering guided & themed tours amid 160+ plant species, plus city & ocean views.",http://www.venturabotanicalgardens.com/,,,http://www.venturabotanicalgardens.com/contact.html,,Directions,1,CA,93001,florist
Blomma Flower Farm,"215 Esplanade, San Clemente, CA 92672",Florist,San Clemente,,http://www.blommaflowerfarm.com/,,,http://www.blommaflowerfarm.com/1_4_contact.html,,Contact,1,CA,92672,florist
Balboa Florist San Diego,"5925 Balboa Ave, San Diego, CA 92111",Florist,San Diego,,http://www.balboaflorist.com/,,,http://www.balboaflorist.com/javascript:void();,,Contact us,1,CA,92111,florist
Mission Hills Florist,"901 W Washington St, San Diego, CA 92103",Florist,San Diego,"Store with a large selection of fresh flowers crafting bouquets & arrangements, plus gift baskets.",http://www.missionhillsflorist.com/,,,https://www.facebook.com/missionhillsflorist,," 
",1,CA,92103,florist
Dave's Flower Box,"2405 El Cajon Blvd, San Diego, CA 92104",Florist,San Diego,"Cheery store with a wide selection of fresh flowers, arranging & delivering bouquets & floral gifts.",http://www.davesflowerbox.com/,,,https://www.facebook.com/DavesFlowerBox/,," 
",1,CA,92104,florist
The SD Flower Shop,"5101 Waring Rd, San Diego, CA 92120",Florist,San Diego,,http://thesdflowershop.com/,,,https://thesdflowershop.com/contact/,,Contact,1,CA,92120,florist
Precious Petals,"10491 San Diego Mission Rd, San Diego, CA 92108",Florist,San Diego,"Family-owned florist crafting & delivering bouquets, arrangements & floral gifts.",https://www.preciouspetalssd.com/,,,https://www.preciouspetalssd.com/Contact,,Contact Us,1,CA,92108,florist
luzneys flowers,"1150 Seventh Ave STE. #2, San Diego, CA 92101",Florist,San Diego,,http://www.luzneysflowers.com/,,,https://www.luzneysflowers.com/form__map,,Contact,1,CA,92101,florist
Camellia Wedding Flowers,"2232 Sunset Cliffs Blvd, San Diego, CA 92107",Florist,San Diego,"Local flower shop featuring traditional & custom arrangements for all occasions, plus event designs.",http://www.camelliaweddingflowers.com/,,,https://www.camelliaweddingflowers.com/contact-us,,CONTACT US,1,CA,92107,florist
Wholesale Flowers and Supplies,"5305 Metro St, San Diego, CA 92110",Florist,San Diego,"Retailer offering fresh flowers, plus vases, candles & decorative accessories, at discounted prices.",https://www.wholesaleflowersandsupplies.com/,,,https://www.wholesaleflowersandsupplies.com/contact-us.html,,"

Contact
",1,CA,92110,florist
My Friend's Flower Shop,"1062 Third Ave, San Diego, CA 92101",Florist,San Diego,,http://myfriendsflowershop.com/,,,http://myfriendsflowershop.com/contact-us/,,Contact Us,1,CA,92101,florist
Little House of Flowers,"6090 Friars Rd, San Diego, CA 92108",Florist,San Diego,,https://www.littlehouseofflowerssd.com/,,,https://www.littlehouseofflowerssd.com/contact_us.php,,Contact Us,1,CA,92108,florist
El Camino Flower Shop Miramar Rosecrans Florist,"5600 Carroll Canyon Rd, San Diego, CA 92121",Florist,San Diego,This florist located at El Camino Memorial Park specializes in funeral & cemetery arrangements.,http://www.elcaminoflorist.com/,,,https://elcaminoflorist.com/contact/,,DELIVERY,1,CA,92121,florist
Briddie's Floret  Luxury Flowers Delivered To Your Door Call For Your Custom Arrangement Today,"3744 India St, San Diego, CA 92103",Florist,San Diego,,http://www.briddiesfloret.com/,,,http://www.briddiesfloret.com/pages/contact-us,,Contact Us,1,CA,92103,florist
Flora Glamor,"4535 30th St UNIT 119, San Diego, CA 92116",Florist,San Diego,"Florist specializing in arrangements & decor for weddings & events, including themed pieces.",http://www.floraglamor.com/,,,http://www.floraglamor.com/index.php/contact-us/,,CONTACT,1,CA,92116,florist
Hartworks Floral,"2625 Ariane Dr, San Diego, CA 92117",Florist,San Diego,,http://www.hartworksfloral.com/,,,http://www.hartworksfloral.com/contact.html,,"
				Contact
			",1,CA,92117,florist
Floral Works and Events by Raphael's,"8604 Miramar Rd Suite B, San Diego, CA 92126",Florist,San Diego,"Spot specializes in event flowers, centerpieces, rentals, linens, lighting & custom decorations.",http://www.floralworksandevents.com/,,,http://www.floralworksandevents.com/contact-us/,,Contact Us,1,CA,92126,florist
Florabella,"1339 Orange Ave Suite 1, Coronado, CA 92118",Florist,Coronado,"Sunny flower shop offering arrangements for many occasions, plus trade shows & hotel lobbies.",https://florabella.com/,,,https://florabella.com/contact/,,CONTACT,1,CA,92118,florist
Craftmossphere,"2360 India St, San Diego, CA 92101",Flower designer,San Diego,,http://craftmossphere.com/,,,https://www.craftmossphere.com,,Contact,1,CA,92101,florist
Thanh Thuy,"4243 University Ave, San Diego, CA 92105",Florist,San Diego,,http://hoatuoisandiego.com/,,,https://www.hoatuoisandiego.com/contact-us,,Contact Us,1,CA,92105,florist
Wildflower San Diego,"3422 Tripp Ct suite c, San Diego, CA 92121",Florist,San Diego,,https://www.wildflowersandiego.com/,,,https://www.wildflowersandiego.com/contact,,Contact,1,CA,92121,florist
Noelia's Party Boutique,"3703 University Ave, San Diego, CA 92105",Florist,San Diego,"Simple neighborhood spot for party supplies such as piñatas, fresh flowers & candy.",http://www.pinatas.biz/,,,http://www.pinatas.biz/contact-form/mail.php,,Contact Us,1,CA,92105,florist
The Coronado Flower Lady,"1050 Orange Ave, Coronado, CA 92118",Florist,Coronado,,http://thecoronadoflowerlady.com/,,,https://thecoronadoflowerlady.com/contact/,,Contact,1,CA,92118,florist
Root 75 Flowers & Home,"845 Orange Ave, Coronado, CA 92118",Florist,Coronado,A vintage vibe fills this flower & gift boutique presenting handmade bouquets & artisanal homewares.,http://root75.com/,,,http://root75.com/contact,,contact,1,CA,92118,florist
Parker and Posies,"9372 Cabot Dr, San Diego, CA 92126",Flower designer,San Diego,,http://www.parkerandposies.com/,,,https://parkerandposies.com/contact/,,Contact,1,CA,92126,florist
marcus and sons,"631 B St # B, San Diego, CA 92101",Florist,San Diego,,https://www.fixcarnow.com/,,,https://www.fixcarnow.com/contact.php,,Contact,1,CA,92101,florist
San Francisco Florist,"188 Spear St #160, San Francisco, CA 94105",Florist,San Francisco,Stylish spot with glass walls & concrete counters offering inventive floral arrangements.,http://www.sanfranciscoflorist.com/,,,https://www.sanfranciscoflorist.com/Contact-Us/,,Contact Us,1,CA,94105,florist
Lydia's Flowers,"5 Embarcadero Center Street Level, San Francisco, CA 94111",Florist,San Francisco,"This unassuming florist offers premade & custom bouquets, plants & gifts for special occasions.",https://www.lydiasflowers.com/,,,https://www.lydiasflowers.com/contact/,,Contact,1,CA,94111,florist
FRESH a floral shop,"499 Golden Gate Ave, San Francisco, CA 94102",Flower designer,San Francisco,,http://fresh4us.com/,,,http://fresh4us.com/contact-us/,,Contact Us,1,CA,94102,florist
Paul Robertson Floral Design,"200 Balboa St, San Francisco, CA 94118",Florist,San Francisco,This appointment-only floral studio offers elaborate special-occasion bouquets & arrangements.,http://paulrobertsonfloraldesign.com/,,,https://paulrobertsonfloraldesign.com/contact/,,Contact,1,CA,94118,florist
Ann's Flowers & Balloons,"915 Geary St, San Francisco, CA 94109",Florist,San Francisco,"Local florist with sprays & bouquets, citywide delivery & balloons for various occasions.",http://www.annsfb.com/,,,https://annsfb.com/contact/,,CONTACT,1,CA,94109,florist
Montbretia Floral Design,"1555 Yosemite Ave STE 43, San Francisco, CA 94124",Florist,San Francisco,,http://www.montbretia.com/,,,http://www.montbretia.com/new-page,,Contact,1,CA,94124,florist
Japonica,"5503 California St, San Francisco, CA 94121",Florist,San Francisco,"Florist featuring Japanese & Hawaiian-inspired arrangements, plus coffee, gifts & outdoor seating.",http://www.japonica.us/,,,http://www.japonica.us/contact-us,,Contact Us,1,CA,94121,florist
Ritoito,"2308 Union St, San Francisco, CA 94123",Florist,San Francisco,,https://www.rito-ito.com/,,,https://www.rito-ito.com/contact/,,Contact,1,CA,94123,florist
Coast Wholesale Dried Flowers,"149 Morris St, San Francisco, CA 94107",Wholesale florist,San Francisco,,http://www.coastwholesaleflorist.com/,,,http://www.coastwholesaleflorist.com/contact.php,,Contact,1,CA,94107,florist
Mayesh Wholesale Florist,"634 Brannan St, Stalls # 5, 64, 66, 73 Brannan St, San Francisco, CA 94107",Wholesale florist,San Francisco,,https://www.mayesh.com/,,,https://www.mayesh.com/contact-us,,Contact Us,1,CA,94107,florist
Rosies & Posies Downtown Florist,"98 Paseo De San Antonio, San Jose, CA 95113",Florist,San Jose,"Glass-walled shop offering fresh floral arrangements for all occasions, plus plants & gifts.",http://rosiesandposies.net/,,,https://www.facebook.com/rosiesandposiesdowntown,," 
",1,CA,95113,florist
Almaden Valley Florist,"1173 Redmond Ave, San Jose, CA 95120",Florist,San Jose,"Resource for a variety of floral arrangements from classic to contemporary, plus various gifts.",http://www.almadenvalleyflowers.com/,,,http://www.almadenvalleyflowers.com/service/contact/,,"

 Contact
",1,CA,95120,florist
Adorable Flowers,"1083 Foxworthy Ave, San Jose, CA 95118",Florist,San Jose,"Snug flower shop featuring custom-made floral arrangements, balloon bouquets & gourmet gift baskets.",https://www.adorableflowers.com/,,,https://www.adorableflowers.com/page/contact-us,,Contact us,1,CA,95118,florist
Tinh Thuong Flowers,"18 S 8th St, San Jose, CA 95112",Florist,San Jose,,http://www.divine-flowers.net/,,,http://www.divine-flowers.net/mailto:divineflowers888@yahoo.com,,Contact,1,CA,95112,florist
Brunettos,"6227 Santa Teresa Blvd, San Jose, CA 95119",Florist,San Jose,Unassuming flower shop providing plants & arrangements for everyday & special occasions.,http://www.brunettosflorist.com/,,,http://www.brunettosflorist.com/page/contact-us,,Contact Us,1,CA,95119,florist
Unique Touch,"2814 Chopin Ave, San Jose, CA 95122",Florist,San Jose,,http://www.uniquetouchflowers.com/,,,http://www.uniquetouchflowers.com/contact.html,,CONTACT,1,CA,95122,florist
Asiel Design,"245 McEvoy St, San Jose, CA 95126",Florist,San Jose,,http://www.asieldesign.com/,,,http://asieldesign.com/contact/,,CONTACT,1,CA,95126,florist
bring her flowers,"3139 Alum Rock Ave, San Jose, CA 95127",Florist,San Jose,,http://bringherflowers.store/,,,http://bringherflowers.store/crm.asp?action=contactus,,Contact Us,1,CA,95127,florist
ASA Floral,"2044 Edison Ave, San Leandro, CA 94577",Florist,San Leandro,,http://www.asafloral.com/,,,http://www.asafloral.com/contactus_maps.asp,,Click here for maps & directions.,1,CA,94577,florist
CTC Supply Inc,"2661 Alvarado St #32, San Leandro, CA 94577",Florist,San Leandro,,http://www.ctc.ca.gov/,,,http://www.ctc.ca.gov/commission/contact-the-commission,,"
Contact Us
",1,CA,94577,florist
Wilder Floral Co,"1349 Chorro St, San Luis Obispo, CA 93401",Florist,San Luis Obispo,,http://www.wilderfloralco.com/,,,http://www.wilderfloralco.com/orders/mothers-day-centerpiece,,"

",1,CA,93401,florist
Sprigs Floral Designs,"Boutique, Design Studio 788 Pismo Street | Ground Floor Retail Boutique in SeaBreeze Cupcakes & Sweet Treats located in The Creamery, 570 Higuera St #135, San Luis Obispo, CA 93401",Florist,San Luis Obispo,,http://www.sprigsfloraldesigns.com/,,,http://www.sprigsfloraldesigns.com/contact-us,,Contact Us,1,CA,93401,florist
Noonan's Wine Country Designs,"710 Fiero Ln #23, San Luis Obispo, CA 93401",Florist,San Luis Obispo,,http://www.noonansdesigns.com/,,,http://www.noonansdesigns.com/contact,,CONTACT,1,CA,93401,florist
clover & branch,"3021 S Higuera St, San Luis Obispo, CA 93401",Florist,San Luis Obispo,,http://cloverandbranch.com/,,,http://cloverandbranch.com/contact,,Contact,1,CA,93401,florist
Albert's Florist,"1357 Monterey St, San Luis Obispo, CA 93401",Florist,San Luis Obispo,,http://albertsflorist.com/,,,https://albertsflorist.com/contacts,,"
Local Delivery
",1,CA,93401,florist
Gordon's Floral Design Studio,"1532 Monterey St, San Luis Obispo, CA 93401",Florist,San Luis Obispo,,http://www.gordonsfloraldesignstudio.com/,,,https://www.gordonsfloraldesignstudio.com/contact_us.aspx?sid=rmmnvmrysghwomt1anmssxtr&searchwords=&viewedpreviously=,,CONTACT US,1,CA,93401,florist
Idlewild Floral,"1185 Monterey St, San Luis Obispo, CA 93401",Florist,San Luis Obispo,,http://www.idlewildfloral.com/,,,http://www.idlewildfloral.com/contact,,"
            Contact
          ",1,CA,93401,florist
Twin Oaks Flowers,"2148 N Twin Oaks Valley Rd, San Marcos, CA 92069",Florist,San Marcos,,https://www.twinoaksflowers.com/,,,https://www.twinoaksflowers.com/contact_us.php,,Contact Us,1,CA,92069,florist
Excellent Designs,"1565 Creek St STE 105, San Marcos, CA 92078",Florist,San Marcos,,http://www.excellentdesigns.org/,,,http://www.excellentdesigns.org/../contact-us.html,,"

",1,CA,92078,florist
Mains & Bloom,"267 Locust Ave, San Rafael, CA 94901",Florist,San Rafael,,http://members.calbar.ca.gov/,,,http://www.calbar.ca.gov/Contact-Us,,Contact,1,CA,94901,florist
Verde Flowers,"572 San Anselmo Ave, San Anselmo, CA 94960",Florist,San Anselmo,,http://verde-flowers.com/,,,https://verde-flowers.com/contact/,,Contact,1,CA,94960,florist
Kathy's Flowers,"19 Library Place, San Anselmo, CA 94960",Florist,San Anselmo,,http://kathysflowersmarin.com/,,,http://kathysflowersmarin.com/contact.html,,Contact,1,CA,94960,florist
Verde Event Flowers,"77 Taylor Dr, Fairfax, CA 94930",Florist,Fairfax,,https://verde-flowers.com/,,,https://verde-flowers.com/contact/,,Contact,1,CA,94930,florist
Swadesh Flowers,"3063 Silva Way, San Ramon, CA 94582",Florist,San Ramon,,http://swadeshflowers.com/,,,http://swadeshflowers.com/contact/,,"



Contact


",1,CA,94582,florist
Belle of the Ball Designs,"2320 Shasta Way STE A, Simi Valley, CA 93065",Florist,Simi Valley,,http://www.belleoftheballdesigns.com/,,,http://www.belleoftheballdesigns.com/contact/,,Contact us,1,CA,93065,florist
Wood Ranch Flower Shop,"543 Country Club Dr Ste E, Simi Valley, CA 93065",Florist,Simi Valley,,http://www.woodranchflowershop.com/,,,//www.woodranchflowershop.com/contactus.html,,Contact Us,1,CA,93065,florist
The English Garden,"31143 Via Colinas #406, Westlake Village, CA 91362",Florist,Westlake Village,,http://www.theenglishgarden.com/,,,http://www.theenglishgarden.com/pages/contact,,Contact,1,CA,91362,florist
XO Bloom,"966 S Westlake Blvd Unit 4, Westlake Village, CA 91361",Florist,Westlake Village,,https://www.xobloom.com/,,,https://xobloom.com/contact/,,Contact,1,CA,91361,florist
Floral Passion,"7851 Alabama Ave unit 13, Canoga Park, CA 91304",Florist,Canoga Park,,http://www.floralpassionevents.com/,,,https://www.floralpassionevents.com/book-online,,CONTACT,1,CA,91304,florist
Rambling Rose Florist,"22428 Gilmore St, West Hills, CA 91307",Florist,West Hills,"Flower shop offering seasonal bouquets & house plants, plus gift baskets with fruit, candy & snacks.",https://www.ramblingrosefloral.com/,,,https://www.ramblingrosefloral.com/contact_us.php,,Contact Us,1,CA,91307,florist
Exotic Green Garden,"31364 Via Colinas #103, Westlake Village, CA 91362",Florist,Westlake Village,,http://www.exoticgreengarden.com/,,,http://www.exoticgreengarden.com/contactus,,Contact Us,1,CA,91362,florist
Westlake Village is IntoBlooms LLC  FLORIST,"4643 Lakeview Canyon Rd, Westlake Village, CA 91361",Florist,Westlake Village,,http://www.into-blooms.com/,,,https://into-blooms.com/contacts,,"
CHECK MY DATE
",1,CA,91361,florist
Flowers by Barbara,"599 Irving Dr, Thousand Oaks, CA 91360",Florist,Thousand Oaks,,https://www.thousandoaksflowershop.net/,,,https://www.thousandoaksflowershop.net/contact_us.php,,Contact Us,1,CA,91360,florist
MTC Trading Co,"550 Eccles Ave #4, South San Francisco, CA 94080",Florist,South San Francisco,,http://shop.mtcmans.com/,,,http://shop.mtcmans.com/contactus.sc,,"
				Contact Us",1,CA,94080,florist
The Garden Home,"4095 Mission St, San Francisco, CA 94112",Florist,San Francisco,,http://tghshop.com/,,,https://www.tghshop.com/contact,,CONTACT,1,CA,94112,florist
Ornamento,"950 Mason St, San Francisco, CA 94108",Flower designer,San Francisco,"Florist specializing in wedding & special event designs, plus contemporary arrangements.",http://www.ornamento.com/,,,http://www.ornamento.com/#contact,,Contact,1,CA,94108,florist
HB FloristQueen's Flowers,"5932 Bolsa Ave STE 101, Huntington Beach, CA 92649",Florist,Huntington Beach,,https://queensflowersngifts.com/,,,https://queensflowersngifts.com/tel:714-840-8429,,"

",1,CA,92649,florist
Fresh Cut Flowers,"13460 Goldenwest St, Westminster, CA 92683",Flower market,Westminster,,http://freshcutflowers.wix.com/,,,https://freshcutflowers.wixsite.com/fresh-cut-flowers/contact,,Contact,1,CA,92683,florist
California Flowers & Supply,"7348 Bolsa Ave, Westminster, CA 92683",Wholesale florist,Westminster,,http://caflowerswholesale.com/,,,http://caflowerswholesale.com/contact-us/,,Contact us,1,CA,92683,florist
Alex Floral Co,"33 N American St, Stockton, CA 95202",Florist,Stockton,,http://alexfloral.net/,,,//www.alexfloral.net/contactus.html,,Contact Us,1,CA,95202,florist
Isabella's Flowers,"445 E Harding Way, Stockton, CA 95204",Florist,Stockton,,http://www.weddingflowersinstocktonca.com/,,,http://www.weddingflowersinstocktonca.com/contact/,,Contact,1,CA,95204,florist
PanoRanch LLC,"365 San Aleso Ave, Sunnyvale, CA 94085",Florist,Sunnyvale,,http://panoranch.com/,,,http://www.panoranch.com/contact-us-2/,,Contact Us,1,CA,94085,florist
Suzanne M Smith Designs,"43705 Altamura Ct, Temecula, CA 92592",Flower designer,Temecula,,http://www.suzannemsmithdesigns.com/,,,http://www.suzannemsmithdesigns.com/?page/18565/contact-us,,"
											Contact Us
										",1,CA,92592,florist
HortenseFirst Avenue Florists,"119 E Olive Ave, Monrovia, CA 91016",Florist,Monrovia,,http://monfloral.com/,,,https://www.monfloral.com/service.htm,,Contact Us,1,CA,91016,florist
Dolce blooms,"Riverside Dr, Valley Village, CA 91607",Florist,Valley Village,,https://dolceblooms.com/,,,https://dolceblooms.com/contact-us/,,Contact Us,1,CA,91607,florist
Bravo's Blooms,"4011 Monterey Ct, Thousand Oaks, CA 91320",Florist,Thousand Oaks,,http://www.bravosblooms.com/,,,https://www.bravosblooms.com/blank,,Contact,1,CA,91320,florist
Melissa's Flower Shop,"828 N Central Ave, Tracy, CA 95376",Florist,Tracy,"Florist offering custom arrangements, inflatables & gift items in a cheerful storefront.",http://www.melissasflowertracy.com/,,,http://www.facebook.com/pages/Melissas-Flower-Shop/126481250738294,," 
",1,CA,95376,florist
The Little Flower Shop,"84 W 11th St, Tracy, CA 95376",Florist,Tracy,Locally owned florist features custom-made arrangements for all occasions & gourmet gift baskets.,http://www.flowersintracy.com/,,,https://www.tracyflowershop.com/contact_us.php,,Contact Us,1,CA,95376,florist
De La Fleur Flowers & Events,"111 W Main St, Turlock, CA 95380",Florist,Turlock,,http://www.delafleurflowers.com/,,,https://delafleurflowers.com/contacts,,"
Contact Us
",1,CA,95380,florist
Dean Floral,"320 E Main St, Turlock, CA 95380",Florist,Turlock,,https://www.deanfloral.com/,,,https://www.flowershopnetwork.com/contactus,,Contact FSN,1,CA,95380,florist
Yonan's Floral,"2425 Geer Rd, Turlock, CA 95382",Florist,Turlock,,http://www.yonansfloral.net/,,,https://www.facebook.com/yonans.floral,," 
",1,CA,95382,florist
De La Fleur Sympathy Flowers,"425 N Soderquist Rd, Turlock, CA 95380",Florist,Turlock,,https://delafleurflowers.com/,,,https://delafleurflowers.com/contacts,,"
Contact Us
",1,CA,95380,florist
Forget Me Not Floral and Gift,"1940 East Ave, Turlock, CA 95380",Florist,Turlock,,http://www.flowersbyforgetmenot.com/,,,http://www.flowersbyforgetmenot.com/contact/,,Contact,1,CA,95380,florist
The Crafty Chicken,"Bryan Ave, Tustin, CA 92780",Florist,Tustin,,https://thecraftychicken.com/,,,https://thecraftychicken.com/tel:7147454067,,714-745-4067,1,CA,92780,florist
Stems Florist,"218 E Main St, Vacaville, CA 95688",Florist,Vacaville,,http://www.stemsfloristvacaville.net/,,,https://www.stemsfloristvacaville.net/contact_us.php,,Contact Us,1,CA,95688,florist
The Red Anthurium,"Northampton Dr, Vacaville, CA 95687",Florist,Vacaville,,https://www.rosacafeflorist.com/,,,https://www.rosacafeflorist.com/contact_us.php,,Contact Us,1,CA,95687,florist
Joyous Spaces,"W J st, Benicia, CA 94510",Florist,Benicia,,http://www.joyousspaces.com/,,,http://www.joyousspaces.com/contact,,Contact,1,CA,94510,florist
Le Fleur D Floral & Wedding Designs,"1375 Sycamore Ave Suite 150-A, Hercules, CA 94547",Florist,Hercules,,http://www.lefleurevents.com/,,,http://lefleurevents.com/home/contact-us/,,Contact Us,1,CA,94547,florist
Touch of RosesVisalia Florist,"2917 S Mooney Blvd, Visalia, CA 93277",Florist,Visalia,,http://visaliaflorist.net/,,,//www.visaliaflorist.net/contactus.html,,Contact Us,1,CA,93277,florist
Creative Flowers,"124 N Willis St, Visalia, CA 93291",Florist,Visalia,,http://www.visaliacreativeflowers.com/,,,https://www.facebook.com/pages/category/Florist/Creative-Flowers-452250958143292/,," 
",1,CA,93291,florist
Flowers By Peter Perkens,"1420 W Center Ave, Visalia, CA 93291",Florist,Visalia,,http://peterperkensflowers.net/,,,https://www.peterperkensflowers.net/contact_us.php,,CONTACT US,1,CA,93291,florist
Fresh Cut Wholesale Flowers,"620 E Main St, Visalia, CA 93292",Wholesale florist,Visalia,,http://www.flowersvisalia.com/,,,http://www.flowersvisalia.com/contact.html,,Contact us,1,CA,93292,florist
Visalia Flower Shop,"530 S Lovers Ln, Visalia, CA 93292",Florist,Visalia,,http://www.visaliaflowershop.com/,,,//www.visaliaflowershop.com/contactus.html?source=header,,,1,CA,93292,florist
Sequoia Plaza Flowers,"601 N Willis St, Visalia, CA 93291",Florist,Visalia,,http://www.sequoiaplazaflowers.com/,,,https://sequoiaplazaflowers.com/contacts,,"
Contact Us
",1,CA,93291,florist
Lily's Florist Visalia,"803 W Oak Ave, Visalia, CA 93291",Florist,Visalia,,https://lilysfloristvisalia.com/,,,https://lilysfloristvisalia.com/contact-us,,CALL NOW>,1,CA,93291,florist
Farmersville Florist,"505 Farmersville Rd, Farmersville, CA 93223",Florist,Farmersville,,http://www.farmersvilleflorist.com/,,,https://www.facebook.com/marievisalia?fref=ts,," 
",1,CA,93223,florist
Exeter Flower Company,"199 E Pine St, Exeter, CA 93221",Florist,Exeter,,https://www.exeterflower.com/,,,https://www.exeterflower.com/contact_us.php,,Contact Us,1,CA,93221,florist
Fringe Flower Company,"1489 Newell Ave, Walnut Creek, CA 94596",Florist,Walnut Creek,,http://www.fringeflowers.com/,,,https://www.fringeflowers.com/contact,,CONTACT,1,CA,94596,florist
Floral Arts Florist,"3584 Mt Diablo Blvd, Lafayette, CA 94549",Florist,Lafayette,Veteran family-owned shop providing creative floral arrangements & gifts in a charming interior.,https://www.floralartsflorist.com/,,,https://www.google.com/maps/place/?q=place_id:ChIJ4eYSnlBihYARsI4Crwen-po,,Find us,1,CA,94549,florist
Bett's Gift Shop Gilroy,"531 Main St, Watsonville, CA 95076",Florist,Watsonville,,http://www.bettysflowersandgifts.net/,,,//www.bettysflowersandgifts.net/contactus.html,,Contact Us,1,CA,95076,florist
Coastline Flowers,"1961 Main St, Watsonville, CA 95076",Florist,Watsonville,,https://www.coastlineflowers.com/,,,https://www.coastlineflowers.com/contact-us,,"

                                        Contact                
",1,CA,95076,florist
Betty's Flowers And Gifts,"51 Main St, Watsonville, CA 95076",Florist,Watsonville,,https://www.bettysflowerscalifornia.com/,,,https://www.bettysflowerscalifornia.com/contact_us.php,,Contact Us,1,CA,95076,florist
California Pajarosa Floral,"133 Hughes Rd, Watsonville, CA 95076",Florist,Watsonville,,http://www.pajarosa.com/,,,http://www.pajarosa.com/contact-us/,,Contact Us,1,CA,95076,florist
Flowertells,"1457C Nogales St, Rowland Heights, CA 91748",Florist,Rowland Heights,,http://www.flowertells.com/,,,http://flowertells.com/contact/,,Contact,1,CA,91748,florist
My Fair Lady's Flowers,"2701 Belden Dr, Hollywood, CA 90068",Florist,Hollywood,,http://www.myfairladysflowers.com/,,,http://www.myfairladysflowers.com/contact,,Contact,1,CA,90068,florist
Dina's Flowers & Party Rentals,"4303 W Pico Blvd, Los Angeles, CA 90019",Florist,Los Angeles,,http://www.dinasflowers.com/,,,https://www.dinasflowers.com/contact,,Contact,1,CA,90019,florist
The Flower by Yoori,"210 N Western Ave UNIT 107, Los Angeles, CA 90004",Florist,Los Angeles,,http://www.theflowerbyyoori.com/,,,https://www.theflowerbyyoori.com/contact,,CONTACT,1,CA,90004,florist
Twig and Vine florals,"13033 Penn St, Whittier, CA 90602",Florist,Whittier,,http://www.twigandvineflorals.com/,,,https://twigandvineflorals.com/contact-us/,,Contact Us,1,CA,90602,florist
Marry Me Rosie,"4835 School St, Yorba Linda, CA 92886",Florist,Yorba Linda,,http://www.marrymerosie.com/,,,https://www.marrymerosie.com/contact,,CONTACT,1,CA,92886,florist
The Garden Gate Florist,"1453 Live Oak Blvd, Yuba City, CA 95991",Florist,Yuba City,,http://www.thegardengate.com/,,,https://thegardengate.com/contacts,,"
Local Delivery
",1,CA,95991,florist
