name,address,type,place,description,website_url,menu_url,gift_card_website,contact_website,gift_card_txt,contact_txt,searched,state,zipcode,store_type
Hennessey  Ingalls,"300 S Santa Fe Ave M, Los Angeles, CA 90013",Book store,Los Angeles,"Spacious bookseller featuring a large inventory of volumes about art, architecture & design.",http://www.hennesseyingalls.com/,,http://www.hennesseyingalls.com/hennessey-ingalls-gift-card,http://www.hennesseyingalls.com/contact-us,GIFT CARDS,CONTACT US,1,CA,90013,book_store
Owl Bookshop Citrus College,"1000 W Foothill Blvd, Glendora, CA 91741",Book store,Glendora,,http://www.owlbookshop.com/,,https://eposweb-674.sequoiars.com/ePOS?store=674&form=shared3%2fcardcenter%2fmain%2ehtml&design=674,,Gift Cards,,1,CA,91741,book_store
Bronco Bookstore,"3801 W Temple Ave, Pomona, CA 91768",Book store,Pomona,"Relaxed, campus retailer offering textbooks, school apparel, electronics & other school essentials.",http://www.broncobookstore.com/,,https://www.foundation.cpp.edu/giftcard/,http://www.broncobookstore.com/mailto:bookstore@cpp.edu,Campus Gift Cards,Email Us Today,1,CA,91768,book_store
Bookhounds Books Records Movies,"2622 Fairhaven Dr, Bakersfield, CA 93308",Book store,Bakersfield,,http://www.bookhoundsonline.com/,,https://www.bookhoundsonline.com/gift-card,https://www.bookhoundsonline.com/contact,GIFT CARDS,CONTACT,1,CA,93308,book_store
Enchanted Cottage,"30 H St, Bakersfield, CA 93304",Book store,Bakersfield,,https://www.enchanted-cottage.net/,,https://www.enchanted-cottage.net/shopping/product-category/giftcards/,,Click Here To Purchase,,1,CA,93304,book_store
The Wonder Emporium Toys and Books,"816 E Whittier Blvd, La Habra, CA 90631",Book store,La Habra,,http://www.wonderemporiumtoys.com/,,https://www.wonderemporiumtoys.com/buy/giftcards/gift-cards-select-your-amount,https://www.wonderemporiumtoys.com/contact,Gift Cards - select your amount,Contact Us,1,CA,90631,book_store
Orinda Books,"276 Village Square, Orinda, CA 94563",Book store,Orinda,"Enduring, indie bookstore with titles for the whole family plus groups, story hour & local art.",http://orindabooks.com/,,http://orindabooks.com/orinda-books-gift-certificate,http://visitor.r20.constantcontact.com/d.jsp?llr=vysrcxcab&p=oi&m=1102433536789&sit=pmsses7db&f=a49f3aca-b615-43ad-90cf-6ff40e11633b,,Sign Up for Our Newsletter,1,CA,94563,book_store
AutobooksAerobooks,"2900 W Magnolia Blvd, Burbank, CA 91505",Book store,Burbank,"Quaint store for used books focused on cars, motorcycles & airplanes, also selling models & DVDs.",http://www.autobooks-aerobooks.com/,,https://www.autobooks-aerobooks.com/?s=gift+card,https://www.autobooks-aerobooks.com/about/,,Contact Us,1,CA,91505,book_store
Five Little Monkeys,"1111 Burlingame Ave, Burlingame, CA 94010",Toy store,Burlingame,Popular store featuring a wide selection of unique children’s toys & gifts in an upbeat atmosphere.,http://www.5littlemonkeys.com/,,https://www.5littlemonkeys.com/categories/gifts-novelty/gift-certificates.html,http://www.5littlemonkeys.com/contacts,Gift Certificates,Mailing List,1,CA,94010,book_store
Fugitive Toys,"1550 Rollins Rd, Burlingame, CA 94010",Toy store,Burlingame,,http://www.fugitivetoys.com/,,http://www.fugitivetoys.com/products/gift-card,,Gift Card,,1,CA,94010,book_store
DIESEL A Bookstore,"12843 El Camino Real Suite 104, San Diego, CA 92130",Book store,San Diego,,https://www.dieselbookstore.com/,,https://www.dieselbookstore.com/online-gift-certificate,https://www.dieselbookstore.com/contact,,Contact Us,1,CA,92130,book_store
Repsychles(tm),"314 N Palm Canyon Dr, Palm Springs, CA 92262",Book store,Palm Springs,,https://www.twigpencils.com/,,https://www.twigpencils.com/giftcertificates.php,https://www.twigpencils.com/contact-customer-service/,Gift Certificates,Contact Customer Service ,1,CA,92262,book_store
Mrs Dalloway's,"2904 College Ave, Berkeley, CA 94705",Book store,Berkeley,"This warm bookstore offers classic & independent literature, author readings & toddler activities.",http://www.mrsdalloways.com/,,http://www.mrsdalloways.com/mrs-dalloways-gift-certificate,https://libro.fm/,Mrs. Dalloway's Gift Certificate,,1,CA,94705,book_store
A Shop Called Quest,"101 N Indian Hill Blvd, Claremont, CA 91711",Comic book store,Claremont,,http://www.ashopcalledquest.com/,,http://www.ashopcalledquest.com/collections/gift-cards,http://www.ashopcalledquest.com/pages/contact-us,Gift Cards,Contact Us,1,CA,91711,book_store
Children's Book World,"10580 W Pico Blvd, Los Angeles, CA 90064",Book store,Los Angeles,"This retailer carries thousands of books for kids, parents & teachers, plus movies & audio books.",http://www.childrensbookworld.com/,,http://www.childrensbookworld.com/gift-certificate,http://www.childrensbookworld.com/how-find-us,Gift Certificates,How to Find Us,1,CA,90064,book_store
Latest Thing,"1576 Newport Blvd, Costa Mesa, CA 92627",Book store,Costa Mesa,,http://latestthing.com/,,https://latestthing.com/gift-cards/,https://latestthing.com/contact-us/,Gift Cards,Contact Us,1,CA,92627,book_store
Fleur De Lys,"369 E 17th St #14, Costa Mesa, CA 92627",Gift shop,Costa Mesa,,http://www.shopfleurdelys.com/,,http://www.shopfleurdelys.com/collections/gift-cards,http://www.shopfleurdelys.com/pages/contact-us,"
          Gift Cards
          
        ","
          Ask Away
          
          
        ",1,CA,92627,book_store
City Lights Booksellers & Publishers,"261 Columbus Ave, San Francisco, CA 94133",Book store,San Francisco,,http://www.citylights.com/,,http://www.citylights.com/bookstore/?fa=books_giftcertificates,http://www.citylights.com/info/?fa=contactus,GIFT CERTIFICATES,Contact Us,1,CA,94133,book_store
The Avid Reader,"617 2nd St, Davis, CA 95616",Book store,Davis,,http://www.avidreaderbooks.com/,,http://www.avidreaderbooks.com/avid-reader-gift-card,http://www.avidreaderbooks.com/contact,GIFT CARDS,CONTACT US,1,CA,95616,book_store
Hawks Nest Bookstore,"8401 Center Pkwy, Sacramento, CA 95823",Book store,Sacramento,,http://bookstore.crc.losrios.edu/,,https://bookstore.crc.losrios.edu/merchlist?ID=26706,https://bookstore.crc.losrios.edu/Contact,Gift Cards,Contact Us,1,CA,95823,book_store
Barnes And Noble Book Store,"900 Rancho San Diego Pkwy, El Cajon, CA 92019",Book store,El Cajon,,http://www.barnesandnoble.com/,,http://www.barnesandnoble.com/b/gift-cards/_/N-8rg,,Gift Cards,,1,CA,92019,book_store
EarthTones Gifts Gallery & Center for Healing,"1319 Park St, Paso Robles, CA 93446",Book store,Paso Robles,,http://www.earthtonesgifts.com/,,http://www.earthtonesgifts.com/collections/gift-cards,,"
               
        Gift Cards                
      
",,1,CA,93446,book_store
Reach and Teach Books Toys and Gifts,"144 W 25th Ave, San Mateo, CA 94403",Book store,San Mateo,"Toys, books, posters & music promoting nonviolence along with social, race & gender equality.",http://www.reachandteach.com/,,http://www.reachandteach.com/reach-teach-gift-card,http://www.reachandteach.com/contact-us,Gift Cards,Contact Us,1,CA,94403,book_store
Brass Unicorn Inc,"1007 N Van Ness Ave, Fresno, CA 93728",Book store,Fresno,,http://www.brassunicorn.com/,,http://www.brassunicorn.com/gift-cards,http://www.brassunicorn.com/contact-us,Gift Cards,Contact Us,1,CA,93728,book_store
Catch of the day books,"11107 Brookhurst St # A, Garden Grove, CA 92840",Religious book store,Garden Grove,,https://catchofthedaybooks.com/,,https://catchofthedaybooks.com/wishlist/,https://catchofthedaybooks.com/contact-us/,    Gift Certificate  ,Contact Us,1,CA,92840,book_store
St Paul Distribution Center,"5003 Whittier Blvd, Los Angeles, CA 90022",Book store,Los Angeles,,http://www.sanpablolax.com/,,http://stores.sanpablolax.com/giftcertificates.php,,Gift Certificates,,1,CA,90022,book_store
King's Cross Christian Bookstore,"1647 W Ave J Suite 105, Lancaster, CA 93534",Christian book store,Lancaster,,http://www.kingscrossbookstore.com/,,http://www.kingscrossbookstore.com/product/gift-cards,http://www.kingscrossbookstore.com/contact,"

Gift Certificates 
$10.00
",Contact,1,CA,93534,book_store
Shades of Afrika,"1001 E 4th St, Long Beach, CA 90802",Gift shop,Long Beach,"Community-minded gift shop offering books, aromatherapy & beauty products, plus occasional events.",http://www.shadesofafrika.com/,,http://www.shadesofafrika.com/giftcertificates.php,https://shadesofafrika.com/products/Smell-Good-Body-Oils.html,Gift Certificates,"



",1,CA,90802,book_store
MADE by Millworks,"240 Pine Ave, Long Beach, CA 90802",Gift shop,Long Beach,"Airy showroom featuring clothing, jewelry, home decor items & more made by local designers.",http://www.madebymillworks.com/,,http://www.madebymillworks.com/collections/gift-cards/products/gift-card-1,http://www.madebymillworks.com/pages/contact-us,"











",Contact Us,1,CA,90802,book_store
Linden Tree Children's Books,"265 State St, Los Altos, CA 94022",Book store,Los Altos,"Long-running indie bookseller offering a range of reading materials, music & gifts for all ages.",http://www.lindentreebooks.com/,,https://www.lindentreebooks.com/gift-cards/,https://www.lindentreebooks.com/service/,Gift Cards,Contact Us/FAQ,1,CA,94022,book_store
iChakras  Chakra Balancing Meditation in Mountain View,"324 Castro St, Mountain View, CA 94041",Book store,Mountain View,,http://www.ichakras.com/,,https://app.gifted.co/gift-card/252920/,https://ichakras.com/contact-ichakras/,Purchase Gift Cards,Contact us,1,CA,94041,book_store
Duranno Bookstore,"3130 Wilshire Blvd #100, Los Angeles, CA 90010",Book store,Los Angeles,,http://duranno.us/,,http://duranno.us/view/giftcard.asp,http://duranno.us/view/contact.asp,기프트카드 조회,문의하기,1,CA,90010,book_store
Automobuild,"100 N Santa Cruz Ave B, Los Gatos, CA 95030",Toy store,Los Gatos,,http://www.automobuild.com/,,https://www.automobuild.com/shop/50/gift-cards,https://www.automobuild.com/contact,Gift Cards,Contact Us,1,CA,95030,book_store
The Wooden Horse,"796 Blossom Hill Rd, Los Gatos, CA 95032",Toy store,Los Gatos,"Opened in 1971, this cozy shop carries educational & artistic toys, games & puzzles for children.",http://woodenhorsetoys.com/,,http://woodenhorsetoys.com/collections/gift-certificates,http://woodenhorsetoys.com/pages/contact-us,Gift Certificates,Contact Us,1,CA,95032,book_store
Rockin' Kidz Music,"15694 Los Gatos Blvd, Los Gatos, CA 95032",Music store,Los Gatos,,https://www.rockinkidz.com/,,https://www.rockinkidz.com/gift-certificates.htm,https://www.rockinkidz.com/contact-us.htm,Purchase online! Thanks for supporting the arts!,Locations,1,CA,95032,book_store
Tabula Rasa Essentials,"919 Manhattan Ave # A, Manhattan Beach, CA 90266",Gift shop,Manhattan Beach,"Store selling gift items such as coffee table books & barnwood signs, plus items with a beach motif.",http://www.tabularasaessentials.com/,,http://www.tabularasaessentials.com/collections/gift-certificate,http://www.tabularasaessentials.com/pages/contact-us,Gift Certificates,Contact,1,CA,90266,book_store
East Bay Booksellers,"5433 College Ave, Oakland, CA 94618",Book store,Oakland,"Airy, independent bookstore also offering cards & gifts, plus readings, karaoke & other events.",http://www.ebbooksellers.com/,,https://squareup.com/gift/34SWDWX26A4PX/order,https://www.ebbooksellers.com/contact?fbclid=IwAR2GAlMHIRDaJcIKKgCpfBHHCGGRIoXruIp7Di2noi4_kvDA3ZC3Edo-6xs,GIFT CERTIFICATE PURCHASES,https://www.ebbooksellers.com/contact,1,CA,94618,book_store
Going In Style,"609 Stanford Shopping Center, Palo Alto, CA 94304",Book store,Palo Alto,"One-stop travel shop with a wide variety of baggage, packing organizers, electronics & accessories.",http://www.goinginstyle-stanfordtravelstore.com/,,https://www.stanfordtravelstore.com/travel-store-gift-card,http://www.goinginstyle-stanfordtravelstore.com/contact-us-goinginstyle-stanford-shopping-center,"
                Gift Card
              ",Contact Us,1,CA,94304,book_store
S HowlettWest Books,"2109 Spring Oak Ct, Modesto, CA 95355",Rare book store,Modesto,,http://www.showlettwestbooks.com/,,http://www.showlettwestbooks.com/shopgiftcards,http://visitor.r20.constantcontact.com/d.jsp?llr=iq7kxokab&p=oi&m=1110743282184,,Join,1,CA,95355,book_store
Puff Monkey Pop Culture Shop,"427 S Myrtle Ave, Monrovia, CA 91016",Toy store,Monrovia,,https://www.puffmonkey.com/,,https://www.puffmonkey.com/giftcertificates.php,https://puffmonkey.com/contact-us/,Gift Certificates,Contact Us,1,CA,91016,book_store
Sanrio,"166 W Foothill Blvd, Monrovia, CA 91016",Gift shop,Monrovia,,https://www.sanrio.com/,,https://www.sanrio.com/products/sanrio-com-e-gift-card,https://www.sanrio.com/contact,"
",Customer Service,1,CA,91016,book_store
Golden Apple Comics,"7018 Melrose Ave, Los Angeles, CA 90038",Comic book store,Los Angeles,"Locally owned shop features a variety of graphic novels, games, toys & collectibles in a snug space.",http://www.goldenapplecomics.com/,,http://www.goldenapplecomics.com/collections/gift-certificates-and-cards,,"

",,1,CA,90038,book_store
Morning Glory,"2152 Montebello Town Center, Montebello, CA 90640",Gift shop,Montebello,,http://morninggloryus.com/,,http://morninggloryus.com/gift-card,http://morninggloryus.com/contacts/,"
Gift & Card
",Contact Us,1,CA,90640,book_store
Comics Conspiracy,"913 W El Camino Real, Sunnyvale, CA 94087",Comic book store,Sunnyvale,"Compact neighborhood store offering a large selection of comic books, action figures & more.",http://www.comicsconspiracy.biz/,,https://www.comicsconspiracy.biz/Category/AdvanceFilter/Gift_Cards,http://www.comicsconspiracy.biz/ContactUs,"
                Gift Certificate

            ",Contact,1,CA,94087,book_store
Issues,"4198 Piedmont Ave, Oakland, CA 94611",Magazine store,Oakland,"Hip shop offering national & international magazines, new & used books, used vinyl & greeting cards.",http://www.issuesshop.com/,,http://www.issuesshop.com/collections/frontpage/products/100-gift-card,http://www.issuesshop.com/#,"








","
        Contact
      ",1,CA,94611,book_store
Good Vibrations Oakland,"3219 Lakeshore Ave, Oakland, CA 94610",Book store,Oakland,,http://www.goodvibes.com/,,http://www.goodvibes.com/s/egift-card,http://www.goodvibes.com/customer-service/, EGIFT CARD,Contact Us,1,CA,94610,book_store
Abednego Book Shoppe,"2682 E Main St, Ventura, CA 93003",Used book store,Ventura,,http://www.abednegobookshoppe.com/,,http://www.abednegobookshoppe.com/GC_Splash.asp,http://www.abednegobookshoppe.com//ContactUsForm.asp,Gift Certificates,Customer Service,1,CA,93003,book_store
Omnivore Books,"3885 Cesar Chavez, San Francisco, CA 94131",Book store,San Francisco,"Cozy, pint-sized shop that specializes in new & used cookbooks & also hosts author/chef events.",https://omnivorebooks.myshopify.com/,,https://omnivorebooks.myshopify.com/collections/gift-certificates,,Gift Certificates,,1,CA,94131,book_store
Collector's Paradise,"319 S Arroyo Pkwy #4, Pasadena, CA 91105",Comic book store,Pasadena,"Bright outpost offering comic books & graphic novels, plus original art prints & in-store events.",http://comicsandcards.net/,,https://www.comicsandcards.net/product-category/gift-cards/,https://www.comicsandcards.net/lets-keep-in-touch/,GIFT CARDS,CONTACT US,1,CA,91105,book_store
The Enchanted Toy Store,"2007 E Orangethorpe Ave, Placentia, CA 92870",Toy store,Placentia,,http://www.enchantedtoystore.com/,,https://www.enchantedtoystore.com/shop/46/gift-card,https://www.enchantedtoystore.com/contact,Gift Card,Contact Us,1,CA,92870,book_store
The Crowning Jewels,"1525 Pine St STE 110, Redding, CA 96001",Book store,Redding,,http://www.thecrowningjewels.com/,,https://shop.thecrowningjewels.com/products/gift-card,//thecrowningjewels-6437901.hs-sites.com/pages/contact-us?hsLang=en,GIFT CARDS,CONTACT US,1,CA,96001,book_store
William Stout Publishers,"1328 S 51st St, Richmond, CA 94804",Book store,Richmond,,https://stoutbooks.com/,,https://stoutbooks.com/collections/gift-certificates,https://stoutbooks.com/pages/contact-us,Gifts,Contact,1,CA,94804,book_store
William Stout Architectural Books,"804 Montgomery St, San Francisco, CA 94133",Book store,San Francisco,"Bi-level bookstore offering 1000s of titles on the subjects of architecture, art & design.",http://www.stoutbooks.com/,,http://www.stoutbooks.com/collections/gift-certificates,http://www.stoutbooks.com/pages/contact-us,Gifts,Contact,1,CA,94133,book_store
The Audio Nerd,"3700 Midas Ave c, Rocklin, CA 95677",Record store,Rocklin,,https://www.theaudionerd.com/,,https://www.theaudionerd.com/products/gift-card,https://www.theaudionerd.com/pages/contact-us,"






            Quickshop
            {""id"":473376435,""title"":""The Audio Nerd Gift Card"",""handle"":""gift-card"",""description"":""\u003cp\u003eShopping for someone else but not sure what to give them? Give them the gift of choice with a The Audio Nerd Gift Card. Good for use in our retail store, or on our website only. \u003c\/p\u003e\n\u003cp\u003eGift cards are delivered by email and contain instructions to redeem them at checkout. Our gift cards have no additional processing fees.\u003c\/p\u003e\n\u003cp\u003eGift cards expire One (1) year from purchase.\u003c\/p\u003e"",""published_at"":""2016-05-26T08:14:00-07:00"",""created_at"":""2015-04-20T15:20:45-07:00"",""vendor"":""The Audio Nerd"",""type"":""Gift Card"",""tags"":[],""price"":1000,""price_min"":1000,""price_max"":100000,""available"":true,""price_varies"":true,""compare_at_price"":null,""compare_at_price_min"":0,""compare_at_price_max"":0,""compare_at_price_varies"":false,""variants"":[{""id"":1267496911,""title"":""$10"",""option1"":""$10"",""option2"":null,""option3"":null,""sku"":""NERD10"",""requires_shipping"":false,""taxable"":false,""featured_image"":null,""available"":true,""name"":""The Audio Nerd Gift Card - $10"",""public_title"":""$10"",""options"":[""$10""],""price"":1000,""weight"":0,""compare_at_price"":null,""inventory_quantity"":-3,""inventory_management"":null,""inventory_policy"":""continue"",""barcode"":""""},{""id"":5483771363360,""title"":""$20"",""option1"":""$20"",""option2"":null,""option3"":null,""sku"":""NERD20"",""requires_shipping"":false,""taxable"":false,""featured_image"":null,""available"":true,""name"":""The Audio Nerd Gift Card - $20"",""public_title"":""$20"",""options"":[""$20""],""price"":2000,""weight"":0,""compare_at_price"":null,""inventory_quantity"":-4,""inventory_management"":null,""inventory_policy"":""continue"",""barcode"":""""},{""id"":1267496915,""title"":""$25"",""option1"":""$25"",""option2"":null,""option3"":null,""sku"":""NERD25"",""requires_shipping"":false,""taxable"":false,""featured_image"":null,""available"":true,""name"":""The Audio Nerd Gift Card - $25"",""public_title"":""$25"",""options"":[""$25""],""price"":2500,""weight"":0,""compare_at_price"":null,""inventory_quantity"":-7,""inventory_management"":null,""inventory_policy"":""continue"",""barcode"":""""},{""id"":1267496919,""title"":""$50"",""option1"":""$50"",""option2"":null,""option3"":null,""sku"":""NERD50"",""requires_shipping"":false,""taxable"":false,""featured_image"":null,""available"":true,""name"":""The Audio Nerd Gift Card - $50"",""public_title"":""$50"",""options"":[""$50""],""price"":5000,""weight"":0,""compare_at_price"":null,""inventory_quantity"":-14,""inventory_management"":null,""inventory_policy"":""continue"",""barcode"":""""},{""id"":5487659679776,""title"":""$75"",""option1"":""$75"",""option2"":null,""option3"":null,""sku"":""NERD75"",""requires_shipping"":false,""taxable"":false,""featured_image"":null,""available"":true,""name"":""The Audio Nerd Gift Card - $75"",""public_title"":""$75"",""options"":[""$75""],""price"":7500,""weight"":0,""compare_at_price"":null,""inventory_quantity"":0,""inventory_management"":null,""inventory_policy"":""continue"",""barcode"":""""},{""id"":1267496923,""title"":""$100"",""option1"":""$100"",""option2"":null,""option3"":null,""sku"":""NERD100"",""requires_shipping"":false,""taxable"":false,""featured_image"":null,""available"":true,""name"":""The Audio Nerd Gift Card - $100"",""public_title"":""$100"",""options"":[""$100""],""price"":10000,""weight"":0,""compare_at_price"":null,""inventory_quantity"":-4,""inventory_management"":null,""inventory_policy"":""continue"",""barcode"":""""},{""id"":5483670601760,""title"":""$200"",""option1"":""$200"",""option2"":null,""option3"":null,""sku"":""NERD200"",""requires_shipping"":false,""taxable"":false,""featured_image"":null,""available"":true,""name"":""The Audio Nerd Gift Card - $200"",""public_title"":""$200"",""options"":[""$200""],""price"":20000,""weight"":0,""compare_at_price"":null,""inventory_quantity"":0,""inventory_management"":null,""inventory_policy"":""continue"",""barcode"":""""},{""id"":5487729672224,""title"":""$300"",""option1"":""$300"",""option2"":null,""option3"":null,""sku"":""NERD300"",""requires_shipping"":false,""taxable"":false,""featured_image"":null,""available"":true,""name"":""The Audio Nerd Gift Card - $300"",""public_title"":""$300"",""options"":[""$300""],""price"":30000,""weight"":0,""compare_at_price"":null,""inventory_quantity"":0,""inventory_management"":null,""inventory_policy"":""continue"",""barcode"":""""},{""id"":5488226435104,""title"":""$400"",""option1"":""$400"",""option2"":null,""option3"":null,""sku"":""NERD400"",""requires_shipping"":false,""taxable"":false,""featured_image"":null,""available"":true,""name"":""The Audio Nerd Gift Card - $400"",""public_title"":""$400"",""options"":[""$400""],""price"":40000,""weight"":0,""compare_at_price"":null,""inventory_quantity"":0,""inventory_management"":null,""inventory_policy"":""continue"",""barcode"":""""},{""id"":5488618536992,""title"":""$500"",""option1"":""$500"",""option2"":null,""option3"":null,""sku"":""NERD500"",""requires_shipping"":false,""taxable"":false,""featured_image"":null,""available"":true,""name"":""The Audio Nerd Gift Card - $500"",""public_title"":""$500"",""options"":[""$500""],""price"":50000,""weight"":0,""compare_at_price"":null,""inventory_quantity"":0,""inventory_management"":null,""inventory_policy"":""continue"",""barcode"":""""},{""id"":5482365255712,""title"":""$1000"",""option1"":""$1000"",""option2"":null,""option3"":null,""sku"":""NERD1000"",""requires_shipping"":false,""taxable"":false,""featured_image"":null,""available"":true,""name"":""The Audio Nerd Gift Card - $1000"",""public_title"":""$1000"",""options"":[""$1000""],""price"":100000,""weight"":0,""compare_at_price"":null,""inventory_quantity"":0,""inventory_management"":null,""inventory_policy"":""continue"",""barcode"":""""},{""id"":18229653438560,""title"":""$30"",""option1"":""$30"",""option2"":null,""option3"":null,""sku"":""NERD30"",""requires_shipping"":false,""taxable"":false,""featured_image"":null,""available"":true,""name"":""The Audio Nerd Gift Card - $30"",""public_title"":""$30"",""options"":[""$30""],""price"":3000,""weight"":0,""compare_at_price"":null,""inventory_quantity"":-7,""inventory_management"":null,""inventory_policy"":""continue"",""barcode"":""""},{""id"":18326634922080,""title"":""$40"",""option1"":""$40"",""option2"":null,""option3"":null,""sku"":""NERD40"",""requires_shipping"":false,""taxable"":false,""featured_image"":null,""available"":true,""name"":""The Audio Nerd Gift Card - $40"",""public_title"":""$40"",""options"":[""$40""],""price"":4000,""weight"":0,""compare_at_price"":null,""inventory_quantity"":-2,""inventory_management"":null,""inventory_policy"":""continue"",""barcode"":""""},{""id"":18790510919776,""title"":""15.00"",""option1"":""15.00"",""option2"":null,""option3"":null,""sku"":""NERD15"",""requires_shipping"":false,""taxable"":false,""featured_image"":null,""available"":true,""name"":""The Audio Nerd Gift Card - 15.00"",""public_title"":""15.00"",""options"":[""15.00""],""price"":1500,""weight"":0,""compare_at_price"":null,""inventory_quantity"":0,""inventory_management"":null,""inventory_policy"":""continue"",""barcode"":""""},{""id"":31588103618656,""title"":""150.00"",""option1"":""150.00"",""option2"":null,""option3"":null,""sku"":""NERD150"",""requires_shipping"":false,""taxable"":false,""featured_image"":null,""available"":true,""name"":""The Audio Nerd Gift Card - 150.00"",""public_title"":""150.00"",""options"":[""150.00""],""price"":15000,""weight"":0,""compare_at_price"":null,""inventory_quantity"":-1,""inventory_management"":null,""inventory_policy"":""continue"",""barcode"":""""}],""images"":[""\/\/cdn.shopify.com\/s\/files\/1\/0662\/8099\/products\/tan_giftcard_product.png?v=1542480709""],""featured_image"":""\/\/cdn.shopify.com\/s\/files\/1\/0662\/8099\/products\/tan_giftcard_product.png?v=1542480709"",""options"":[""Gift Card Amount""],""media"":[{""alt"":null,""id"":21354381408,""position"":1,""preview_image"":{""aspect_ratio"":1.677,""height"":566,""width"":949,""src"":""https:\/\/cdn.shopify.com\/s\/files\/1\/0662\/8099\/products\/tan_giftcard_product.png?v=1568691642""},""aspect_ratio"":1.677,""height"":566,""media_type"":""image"",""src"":""https:\/\/cdn.shopify.com\/s\/files\/1\/0662\/8099\/products\/tan_giftcard_product.png?v=1568691642"",""width"":949}],""content"":""\u003cp\u003eShopping for someone else but not sure what to give them? Give them the gift of choice with a The Audio Nerd Gift Card. Good for use in our retail store, or on our website only. \u003c\/p\u003e\n\u003cp\u003eGift cards are delivered by email and contain instructions to redeem them at checkout. Our gift cards have no additional processing fees.\u003c\/p\u003e\n\u003cp\u003eGift cards expire One (1) year from purchase.\u003c\/p\u003e""}


","
    
    Contact The Nerd
    
",1,CA,95677,book_store
College Store,"3835 Freeport Blvd, Sacramento, CA 95822",Book store,Sacramento,,http://bookstore.scc.losrios.edu/,,https://bookstore.scc.losrios.edu/merchdetail?MerchID=1516362,https://bookstore.scc.losrios.edu/Contact,eGift Cards,Contact,1,CA,95822,book_store
Book Den,"15 E Anapamu St, Santa Barbara, CA 93101",Book store,Santa Barbara,,http://www.bookden.com/,,https://www.bookden.com/book-den-search/?keyw=gift+certificate&spag=0,https://www.bookden.com/contact-location/,Gift Certificates,Contact & Location,1,CA,93101,book_store
Paradise Found,"17 E Anapamu St, Santa Barbara, CA 93101",Book store,Santa Barbara,,http://www.paradisefoundsb.com/,,https://paradisefoundsb.com/product/gift-certificates-online/,https://paradisefoundsb.com/contact/,Gift Certificates,Contact,1,CA,93101,book_store
Level Up Video Games,"113 Locust St, Santa Cruz, CA 95060",Video game store,Santa Cruz,,http://www.levelupvideogames.com/,,http://www.levelupvideogames.com/giftcertificates.php,,Gift Certificates,,1,CA,95060,book_store
The Wellness Living Store,"1412 14th St, Santa Monica, CA 90404",Book store,Santa Monica,"Asian medicine store carrying herbs & supplements, acupuncture supplies, books & natural cosmetics.",http://www.taostar.com/,,http://www.taostar.com/giftcertificates.php,,Gift Certificates,,1,CA,90404,book_store
Burro Flagship,"1409 Abbot Kinney Blvd, Venice, CA 90291",Book store,Venice,"Artsy store offering a selection of women's apparel, handbags, art books, stationery & gifts.",http://www.burrogoods.com/,,http://www.burrogoods.com/collections/gift-cards,http://www.burrogoods.com/pages/contact-us,"
                    GIFT CARDS
                    
                  ",CONTACT US,1,CA,90291,book_store
Burning Torch,"1227 Abbot Kinney Blvd, Venice, CA 90291",Book store,Venice,"Flagship store for a designer of sustainably minded clothing also stocking jewelry, decor & gifts.",http://www.burningtorchinc.com/,,http://www.burningtorchinc.com/products/gift-card,http://www.burningtorchinc.com/pages/contact,Gift Cards,Contact,1,CA,90291,book_store
Giant Robot Store,"2015 Sawtelle Blvd, Los Angeles, CA 90025",Book store,Los Angeles,"Retail store dedicated to Asian-inspired toys, clothing, bags, pop art, books & stationery.",http://www.giantrobot.com/,,http://www.giantrobot.com/collections/gift-certificates,http://www.giantrobot.com/pages/giant-robot-store-and-gr2-gallery,Gift Cards,Contact Us,1,CA,90025,book_store
Sunnyside Cottage Gifts & Toys,"599 Montecito Center, Santa Rosa, CA 95409",Book store,Santa Rosa,,http://sunnysidecottagegifts.com/,,https://shop.sunnysidecottagegifts.com/gift-certificate/,https://shop.sunnysidecottagegifts.com/contact-us/,Gift Certificate,Contact Us,1,CA,95409,book_store
Last Record Store,"1899 Mendocino Ave, Santa Rosa, CA 95401",Music store,Santa Rosa,,http://thelastrecordstore.com/,,http://thelastrecordstore.com/gift-certificates/,,Gift Certificates,,1,CA,95401,book_store
Rileystreet Art Supply,"103 Maxwell Ct, Santa Rosa, CA 95401",Art supply store,Santa Rosa,,http://www.rileystreet.com/,,https://www.rileystreet.com/products/rileystreet-gift-card,https://www.rileystreet.com/pages/contact,"

GIFT CARD
",Contact,1,CA,95401,book_store
Very Ventura Gift Shop & Gallery,"540 E Main St, Ventura, CA 93001",Gift shop,Ventura,,http://www.very-ventura.com/,,http://www.very-ventura.com/products/gift-card,http://www.very-ventura.com/pages/contact-us,"
Gift Card
","
Contact Us
",1,CA,93001,book_store
La Playa Books,"1026 Rosecrans St, San Diego, CA 92106",Book store,San Diego,,http://www.laplayabooks.com/,,https://www.laplayabooks.com/product/e-gift-cards/,https://maps.google.com/?q=1026 Rosecrans Street San Diego CA 92106,Gift Cards,"
 
			     	Find Us			     
",1,CA,92106,book_store
Dog Eared Books,"900 Valencia St, San Francisco, CA 94110",Book store,San Francisco,"Light-filled bookshop shelves a range of new, used & small-press titles in an easygoing atmosphere.",http://www.dogearedbooks.com/,,https://squareup.com/gift/J08260D2GPX2F/order,http://www.dogearedbooks.com/contact,"
      Gift Cards
    ",Contact,1,CA,94110,book_store
HVC Bookstore,"6200 Geary Blvd, San Francisco, CA 94121",Book store,San Francisco,,http://hvcbookstore.com/,,https://hvcbookstore.com/index.php?route=account/voucher,https://hvcbookstore.com/index.php?route=information/contact,Gift Certificates,,1,CA,94121,book_store
Green Apple Books,"506 Clement St, San Francisco, CA 94118",Book store,San Francisco,"More than 60,000 new & 100,000 used books fill the shelves at this beloved bookstore.",http://www.greenapplebooks.com/,,http://www.greenapplebooks.com/gift-cards,,Gift Cards,,1,CA,94118,book_store
Book Passage Cafe,"51 Tamal Vista Blvd, Corte Madera, CA 94925",Book store,Corte Madera,"Store with a curated selection of books, an on-site cafe & a full roster of workshops & classes.",http://www.bookpassage.com/,,http://www.bookpassage.com/book-passage-gift-card,http://www.bookpassage.com/store-locations-hours-0,Gift Card,Contact,1,CA,94925,book_store
Old Monterey Book Co,"136 Bonifacio Pl, Monterey, CA 93940",Book store,Monterey,,https://www.oldmonterey.org/,,https://www.oldmonterey.org/giftcards,https://www.oldmonterey.org/contact-us-0,,Contact Us,1,CA,93940,book_store
Nature Watch,"5312 Derry Ave # R, Agoura Hills, CA 91301",Book store,Agoura Hills,,https://www.nature-watch.com/,,https://www.nature-watch.com/nature-watch-gift-card-p-1191.html,https://www.nature-watch.com/mailto:info@nature-watch.com,Gift Cards,contact us,1,CA,91301,book_store
Acorn Naturalists,"14742 Plaza Dr Suite 100, Tustin, CA 92780",Book store,Tustin,,http://www.acornnaturalists.com/,,https://www.acornnaturalists.com/products/gift-certificates.html,http://www.acornnaturalists.com/contact/,Acorn Naturalists Gift Certificates,contact us as usual.,1,CA,92780,book_store
Ashay By The Bay,"157 Albatrosse Way, Vallejo, CA 94589",Book store,Vallejo,,https://ashaybythebay.com/,,https://ashaybythebay.com/products/rise-ai-giftcard,https://ashaybythebay.com/pages/contact,"
                  Gift Cards
                ","
          Contact
",1,CA,94589,book_store
