name,address,type,place,description,website_url,menu_url,gift_card_website,contact_website,gift_card_txt,contact_txt,searched,state,zipcode,store_type
Tiffany's Hair Studio,"14845 Monarch Blvd R, Victorville, CA 92395",Beauty salon,Victorville,,http://tiffanyshairstudio.com/,,http://stylenet.com/TiffanysHairStudio/gift-certificates/,http://stylenet.com/TiffanysHairStudio/contact-us/,Gift Certificates,Contact Us,1,CA,92395,beauty_salon
Starbaby Studio,"1309 Park St, Alameda, CA 94501",Beauty salon,Alameda,,http://www.starbabystudioalameda.com/,,https://squareup.com/gift/Q33P5RBTV2TSQ/order,http://www.starbabystudioalameda.com/contact,Order A Gift Card,Contact,1,CA,94501,beauty_salon
K'bella Salon,"1505 Broadway, Alameda, CA 94501",Beauty salon,Alameda,,http://kbellasalon.com/,,http://kbellasalon.com/about/buy-gift-cards/,http://kbellasalon.com/contact/,Buy K Bella Gift Cards,Contact,1,CA,94501,beauty_salon
Conscious Skin Care,"2236 Mariner Square Dr, Alameda, CA 94501",Beauty salon,Alameda,,http://myconsciousskincare.com/,,http://myconsciousskincare.com/gift-certificates,http://myconsciousskincare.com/contact,"
            GIFT CERTIFICATES
          ","
            Contact
          ",1,CA,94501,beauty_salon
Club Nails,"27311 La Paz Rd C, Laguna Niguel, CA 92677",Nail salon,Laguna Niguel,,http://clubnailspa.com/,,http://clubnailspa.com/#buy-gift-card,,Purchase,,1,CA,92677,beauty_salon
Niloo Hair Design at home or Studio OC,"23982 Aliso Creek Rd, Laguna Niguel, CA 92677",Beauty salon,Laguna Niguel,,http://hairservicesathome.com/,,http://stylenet.com/NilooHairDesign2/gift-certificates/,http://stylenet.com/NilooHairDesign2/contact-us/,Gift Certificates,Contact,1,CA,92677,beauty_salon
BellaBar Organic Spa and Boutique,"8295 E Monte Vista Rd suite b, Anaheim, CA 92808",Beauty salon,Anaheim,,http://www.bellabaroc.com/,,https://www.bellabarbeauty.com/products/25-gift-card,https://www.bellabaroc.com,buy gift card,CONTACT,1,CA,92808,beauty_salon
AK Esthetics,"107 G St, Antioch, CA 94509",Day spa,Antioch,,http://akesthetics.skincaretherapy.net/,,http://akesthetics.skincaretherapy.net/gift-certificates,http://akesthetics.skincaretherapy.net/contact-information,Gift Certificates,Contact Information,1,CA,94509,beauty_salon
Hair and Nail Republic Beauty SalonEducational Center,"17003 Bear Valley Rd E, Hesperia, CA 92345",Beauty salon,Hesperia,,http://hairandnailrepublic.com/,,https://squareup.com/gift/K7K7HPQ3ZAMB5/order,http://hairandnailrepublic.com/contact,Buy Now,Contact,1,CA,92345,beauty_salon
Arcadia Nail Bar,"21 S 1st Ave, Arcadia, CA 91006",Nail salon,Arcadia,,http://arcadia-nailbar.com/,,https://app.yiftee.com/gifts/egift_and_gift_cards/arcadia-nail-bar,https://www.arcadia-nailbar.com/contact-us-1,Buy GIFT CARD,CONTACT US,1,CA,91006,beauty_salon
Dye Pretty Hair Studio,"Inside Scizzor Group, 122 N Baldwin Ave, Sierra Madre, CA 91024",Beauty salon,Sierra Madre,,http://www.dyeprettyhairstudio.com/,,https://squareup.com/gift/QJXR1DT2P3WKC/order,https://www.dyeprettyhairstudio.com,"Purchase E-Gift Card




",CONTACT,1,CA,91024,beauty_salon
E Salon  Spa,"10930 Stockdale Hwy #104, Bakersfield, CA 93311",Beauty salon,Bakersfield,,http://www.esalonspas.com/,,http://www.esalonspas.com/product/gift-card/,,Gift Card,,1,CA,93311,beauty_salon
Essentiels Spa Et Beaute,"9000 Ming Ave K7, Bakersfield, CA 93311",Beauty salon,Bakersfield,,http://edayspas.com/,,https://edayspas.com/about/gift-cards/,https://edayspas.com/about/contact-us/,Gift Card Sale,Contact Us,1,CA,93311,beauty_salon
Jessica's Hair & Nails,"1400 Brundage Ln #104, Bakersfield, CA 93304",Hair salon,Bakersfield,,https://www.jessicahairandnails.com/,,https://www.jessicahairandnails.com/gift-card,https://www.jessicahairandnails.com/contactus,Gift Card,Contact Us,1,CA,93304,beauty_salon
Privato Salon & Spa,"9500 Brimhall Rd #306, Bakersfield, CA 93312",Hair salon,Bakersfield,,http://www.privatosalonandspa.com/,,http://www.privatosalonandspa.com/gift-cards-1,http://www.privatosalonandspa.com/c-o-n-t-a-c-t,GIFT CARDS,CONTACT,1,CA,93312,beauty_salon
V Nails & Spa,"8116 California Ave D, South Gate, CA 90280",Nail salon,South Gate,,http://www.vnailsspa.com/,,http://www.vnailsspa.com/gift-card,http://www.vnailsspa.com/contactus,E-Gift,Contact Us,1,CA,90280,beauty_salon
Maru Hair Salon,"1400 Shattuck Ave #9, Berkeley, CA 94709",Beauty salon,Berkeley,,http://www.marusalon.com/,,https://www.thegiftcardcafe.com/cart/index.php?storeID=19027,https://www.marusalon.com,GIFT CARDS,CONTACT,1,CA,94709,beauty_salon
Keter Salon,"2030 Fourth St, Berkeley, CA 94710",Beauty salon,Berkeley,,http://ketersalon.com/,,https://www.thegiftcardcafe.com/cart/index.php?storeID=18709,,,,1,CA,94710,beauty_salon
Moonshadow Salon,"2634 Ashby Ave, Berkeley, CA 94705",Beauty salon,Berkeley,,https://www.moonshadowsalon.com/,,https://www.moonshadowsalon.com/dev/gift-cards/,https://moonshadowsalon.com/about-us/contact/,Gift Cards,Contact Us,1,CA,94705,beauty_salon
modena salon,"1722 Solano Ave, Berkeley, CA 94707",Hair salon,Berkeley,,http://www.modenasalon.com/,,http://www.modenasalon.com/gift-cards,http://www.modenasalon.com/#home-upcoming-retreats,"
            Gift Cards
          ","

Home - Contact
",1,CA,94707,beauty_salon
Solemates Nail Spa,"1483 Shattuck Ave, Berkeley, CA 94709",Nail salon,Berkeley,,http://www.solematesnailspa.com/,,https://solemates.boomtime.com/lgift,http://www.solematesnailspa.com/contactus.html,Instant Gift Certificate: ,Contact Us,1,CA,94709,beauty_salon
Organicare Spa Nail and Foot Retreat,"1413 Martin Luther King Jr Way, Berkeley, CA 94709",Nail salon,Berkeley,,https://www.organicarespa.com/,,https://organicarespa.com/e-gift-card/,https://organicarespa.com/contact/,E-Gift Card,Contact,1,CA,94709,beauty_salon
Meche,"8820 Burton Way, Beverly Hills, CA 90211",Beauty salon,Beverly Hills,,http://www.mechesalonla.com/,,//instagram.com/p/B-0gxP_DM4g/,https://mechesalonla.com/contact/,,Contact,1,CA,90211,beauty_salon
Nick Chavez Salon,"9032 Burton Way, Beverly Hills, CA 90211",Beauty salon,Beverly Hills,,http://nickchavezbeverlyhills.com/,,http://nickchavezbeverlyhills.com/giftcertificates.php,,"
          Gift Certificate
        ",,1,CA,90211,beauty_salon
Gavert Atelier Salon,"9666 Brighton Way, Beverly Hills, CA 90210",Beauty salon,Beverly Hills,,http://www.gavertatelier.com/,,https://www.gavertatelier.com/gift-certificates,https://www.gavertatelier.com/contact,Gift Certificates,Contact,1,CA,90210,beauty_salon
DDG Drop Dead Gorgeous Hair & Make Up,"208 S Beverly Dr #205, Beverly Hills, CA 90212",Beauty salon,Beverly Hills,,http://www.ddgsalon.com/,,http://www.ddgsalon.com/gift-card.html,http://www.ddgsalon.com/contact.html,Gift Card,Contact,1,CA,90212,beauty_salon
Angel Nails & Spa,"101 W Central Ave ste a, Brea, CA 92821",Nail salon,Brea,,http://angelnailsspabrea.com/,,https://angelnailsspabrea.com/gift-card/,https://angelnailsspabrea.com/contact-us/,gift card,Contact us,1,CA,92821,beauty_salon
Eyelash Boutique & Co Formally Goddess Beauty Lounge,"8300 Brentwood Blvd, Brentwood, CA 94513",Waxing hair removal service,Brentwood,,http://www.eyelashboutiqueca.com/,,https://www.instagram.com/p/B8crOIzH-yf/,http://www.eyelashboutiqueca.com/contact,"

","
        Contact
      ",1,CA,94513,beauty_salon
Onyx Salon,"1113 Burlingame Ave, Burlingame, CA 94010",Beauty salon,Burlingame,,http://www.onyxsalonburlingame.com/,,https://onyxsalon.millenniumegift.com/,http://www.onyxsalonburlingame.com/contact/,Gift Certificates,Contact,1,CA,94010,beauty_salon
Lunula Nail Spa,"401 Primrose Rd suite b, Burlingame, CA 94010",Beauty salon,Burlingame,,http://lunulanailspa.com/,,https://squareup.com/gift/2R899DDR9K0SA/order,https://www.lunulanailspa.com/contact-us-1,e-Gift Card,CONTACT US,1,CA,94010,beauty_salon
Spa Elysee,"1360 Broadway, Burlingame, CA 94010",Nail salon,Burlingame,,http://www.spaelysee.com/,,http://www.spaelysee.com/gift-card,http://www.spaelysee.com/contact,GIFT CARDS (BUY ONLINE),CONTACT,1,CA,94010,beauty_salon
Face To Face Esthetics,"1000 Paseo Camarillo suite 136, Camarillo, CA 93010",Beauty salon,Camarillo,,http://www.facetofaceesthetics.com/,,https://facetoface1.boomtime.com/lgift,https://www.genbook.com/bookings/slot/reservation/30049531?bookingContactId=2840161241&category=1617509647,Buy A Gift Certificate,reserve your appointment today,1,CA,93010,beauty_salon
Designers Ltd FullService Salon Lash Studio Hair & Skin Care Retail Store,"2523 S Winchester Blvd, Campbell, CA 95008",Hair salon,Campbell,,http://designerscampbell.com/,,http://stylenet.com/DesignersLimited/gift-certificates/,http://stylenet.com/DesignersLimited/contact-us/,Gift Certificates,Contact,1,CA,95008,beauty_salon
The Right Spot Salon,"1645 S Bascom Ave, Campbell, CA 95008",Beauty salon,Campbell,,http://www.therightspotsalon.com/,,https://www.therightspotsalon.com/sherryhair/gift-certificates.html,https://www.therightspotsalon.com/sherryhair/contact-us.html,Gift Certificates,Appointments,1,CA,95008,beauty_salon
Lanny Salon,"2613 S Bascom Ave, Campbell, CA 95008",Beauty salon,Campbell,,https://lannysalon.thepronails.com/,,https://lannysalon.thepronails.com/gift-card,https://lannysalon.thepronails.com/contactus,E-Gift,Contact Us,1,CA,95008,beauty_salon
Natural Nails Boutique,"2145 S Winchester Blvd #120, Campbell, CA 95008",Nail salon,Campbell,,http://www.naturalnailsboutique.com/,,https://squareup.com/gift/6S7Y90GQSJ4Q9/order,,GIFT CARDS,,1,CA,95008,beauty_salon
Entourage Salon,"530 Carlsbad Village Dr, Carlsbad, CA 92008",Beauty salon,Carlsbad,,http://www.entouragesalon.com/,,http://www.entouragesalon.com/gift-items-gift-certificates-2/,http://www.entouragesalon.com/contact-us/,Gift Items & Gift Certificates,Contact Us,1,CA,92008,beauty_salon
Hot Headz Hair Design,"72037 Dinah Shore Dr B-2, Rancho Mirage, CA 92270",Beauty salon,Rancho Mirage,,http://www.hotheadzhair.com/,,http://stylenet.com/hotheadzhair/gift-certificates/,http://stylenet.com/hotheadzhair/contact-us/,Gift Certificates,Contact Us,1,CA,92270,beauty_salon
Quality Massage Therapy and Skin Care Mobile To Your Location or visit our studio,"2601 Golf Club Dr, Palm Springs, CA 92264",Massage therapist,Palm Springs,,http://www.qualitymassagetherapy.com/,,https://aopm56.boomtime.com/lgift,https://qualitymassagetherapy.com/contact/,Gift Certificate,Contact,1,CA,92264,beauty_salon
Evolution Salon,"1778 Mitchell Rd # 204, Ceres, CA 95307",Beauty salon,Ceres,,http://evolutionspasalon.com/,,http://stylenet.com/EvolutionSalon2/gift-certificates/,http://stylenet.com/EvolutionSalon2/contact-us/,GIFT CERTIFICATES,CONTACT,1,CA,95307,beauty_salon
Lotus Nail Spa,"11406 South St, Cerritos, CA 90703",Nail salon,Cerritos,,http://www.lotusnailspa.net/,,http://www.lotusnailspa.net/GiftCards.aspx,http://www.lotusnailspa.net/ContactUs.aspx,Lotus Gift Card,Contact us,1,CA,90703,beauty_salon
Lemon Tree Spa,"11325 183rd St, Cerritos, CA 90703",Beauty salon,Cerritos,,http://www.lemontreedayspa.com/,,http://www.lemontreedayspa.com/gift-card-sales,http://www.lemontreedayspa.com/contact,"
            GIFT CARD SALES
          ","
            Contact
          ",1,CA,90703,beauty_salon
Allure Salon,"2575 Ceanothus Ave #168, Chico, CA 95973",Beauty salon,Chico,,http://www.alluresalonchico.com/,,https://squareup.com/gift/QDHSSA1CCWVVT/order,https://www.alluresalonchico.com,Purchase Gift Certificate,Contact,1,CA,95973,beauty_salon
Beauty by SanMari,"20 Landing Cir UNIT 303, Chico, CA 95973",Beauty salon,Chico,,http://www.facebook.com/,,http://www.facebook.com/beautybysanmari/app/208195102528120/?ref=page_internal,http://www.facebook.com/#,Gift Certificates,Contact Beauty by San-Mari on Messenger,1,CA,95973,beauty_salon
Q Nails & Spa,"3410 Grand Ave STE D, Chino Hills, CA 91709",Beauty salon,Chino Hills,,http://www.qnailsspa.com/,,http://qnailsspa.com/gift-cards/,http://qnailsspa.com/contact/,Gift Cards,Contact Us,1,CA,91709,beauty_salon
GLOW ME & NAILS,"14507 Ramona Ave, Chino, CA 91710",Nail salon,Chino,,http://glowmenails.com/,,https://www.glowmenails.com/gift-card,https://www.glowmenails.com,Gift Card,,1,CA,91710,beauty_salon
Massage Heights,"13925 City Center Dr #2043, Chino Hills, CA 91709",Massage therapist,Chino Hills,,https://www.massageheights.com/,,https://massageheights.zenoti.com/webstoreNew/giftcards/68f089e5-67f0-4c3d-93f2-54b718585772,https://www.massageheights.com/chino-hills/retreat-contact/,Gift Card,Contact Us,1,CA,91709,beauty_salon
Alebrijes Nails and Spa,"#A-108, 1924 E Palomar St, Chula Vista, CA 91913",Nail salon,Chula Vista,,https://www.alebrijesnailsandspa.com/,,https://alebrijesnailsandspa.com/gift-cards-certificates/,https://alebrijesnailsandspa.com/contact-us/,eGift Cards,Contact Us,1,CA,91913,beauty_salon
Boudoir Nail Bar,"1020 Tierra Del Rey unit a, Chula Vista, CA 91910",Nail salon,Chula Vista,,https://www.boudoirnailbar.com/,,https://www.boudoirnailbar.com/nail-salon-gift-cards/,https://www.boudoirnailbar.com/nail-salon-hours/,Gift Certificates,Contact,1,CA,91910,beauty_salon
Macy's Hair & Nails,"7601 Sunrise Blvd #10, Citrus Heights, CA 95610",Nail salon,Citrus Heights,,http://macyshairnailsca.com/,,http://macyshairnailsca.com/giftcards,http://macyshairnailsca.com/contact,Gift Cards,Contact Us,1,CA,95610,beauty_salon
J C Penney Salon,"5100 E Montclair Plaza Ln, Montclair, CA 91763",Beauty salon,Montclair,,http://www.jcpenney.com/,,http://www.jcpenney.com/m/gift-card-m2?cm_re=ZK-_-grid-_-0422-HP-GIFTCARD%7C2%7C,,,,1,CA,91763,beauty_salon
Mia Belleza Salon,"175 E 2nd St, Pomona, CA 91766",Beauty salon,Pomona,,http://www.miabellezasalonandspa.com/,,http://www.miabellezasalonandspa.com/contact_us/gift_cards,http://www.miabellezasalonandspa.com/contact_us,Gift Cards,Contact Us,1,CA,91766,beauty_salon
Alternative Skincare and Wellness,"689 W Foothill Blvd suite c, Claremont, CA 91711",Facial spa,Claremont,,https://www.asandw.com/,,https://squareup.com/gift/VRT0879YBKV00/order,https://www.ASandW.com/#ContactUs,GIFT CARDS,Contact Us,1,CA,91711,beauty_salon
Sherry Mesa THE Salon,"73880 El Paseo, Palm Desert, CA 92260",Beauty salon,Palm Desert,,http://www.sherrymesathesalon.com/,,http://stylenet.com/SherryMesaTheSalon/gift-certificates,http://7684-sherrymesa-2.wpnet.stylenet.com/contact-us/,Gift Them, Email Us,1,CA,92260,beauty_salon
LASH & LUXE,"1819 Broadway St #2614, Concord, CA 94520",Beauty salon,Concord,,http://www.lashandluxe.com/,,https://www.vagaro.com/lashandluxe/gift-certificates,http://www.lashandluxe.com/tel:9253483850,PURCHASE GIFT CARD,(925) 348-3850,1,CA,94520,beauty_salon
Mon Esprit Aveda Hair Salon,"2780 Cabot Dr #105, Corona, CA 92883",Beauty salon,Corona,,http://www.monespritsalon.com/,,https://monespritsalon.com/give-a-gift/,https://monespritsalon.com/contact/,Gift Cards,Contact,1,CA,92883,beauty_salon
Vanity Belle,"2915 Red Hill Ave g102, Costa Mesa, CA 92626",Beauty salon,Costa Mesa,,http://www.thevanitybelle.com/,,https://squareup.com/gift/C8J9SP3ZCWVBS/order,,PURCHASE A GIFT CARD,,1,CA,92626,beauty_salon
The Lash Lounge Costa Mesa - 17th Street,"369 E 17th St Ste. 3, Costa Mesa, CA 92627",Beauty salon,Costa Mesa,,http://www.thelashlounge.com/,,https://clients.mindbodyonline.com/classic/ws?studioid=963208&stype=42,,"
									Purchase A Gift Card
								",,1,CA,92627,beauty_salon
tenoverten,"Platform, 8830 Washington Blvd Suite 102, Culver City, CA 90232",Nail salon,Culver City,,http://www.tenoverten.com/,,https://www.secure-booker.com/tenoverten/ShopOnline/GiftCertificate.aspx,http://www.tenoverten.com/pages/contact-new,salon gift cards,contact,1,CA,90232,beauty_salon
Image Enrichment Group,"10301 S De Anza Blvd #2, Cupertino, CA 95014",Electrolysis hair removal service,Cupertino,,http://www.ieg.net/,,http://www.ieg.net/gift-cards.php,http://www.ieg.net/contact.php,Gift Cards,Contact Us,1,CA,95014,beauty_salon
The Original Facial Bar,"19419 Stevens Creek Blvd Suite 150, Cupertino, CA 95014",Beauty salon,Cupertino,,https://theoriginalfacialbar.com/,,https://go.booker.com/location/TheOriginalFacialBar/buy/gift-certificate,https://theoriginalfacialbar.com/contact-us/,Buy Gift Card,Contact Us,1,CA,95014,beauty_salon
LnL Skin Spa,"20445 Prospect Rd, San Jose, CA 95129",Skin care clinic,San Jose,,http://www.lnlskinspa.skincaretherapy.net/,,http://www.lnlskinspa.skincaretherapy.net/gift-certificates,http://www.lnlskinspa.skincaretherapy.net/contact-information,Gift Certificates,Contact Information,1,CA,95129,beauty_salon
D'Vine Beauty by Karen,"9922 Walker St, Cypress, CA 90630",Beauty salon,Cypress,,http://dvinebeautybykaren.com/,,http://dvinebeautybykaren.com/new-custom.html,http://dvinebeautybykaren.com/contact-us.html,Gift Certificates,Contact Us,1,CA,90630,beauty_salon
LA NOIR LASHES,"10953 Meridian Dr ste h, Cypress, CA 90630",Beauty salon,Cypress,,https://lanoirlashes.favesalon.com/,,https://lanoirlashes.favesalon.com/#buy-gift-card,,Purchase,,1,CA,90630,beauty_salon
Poppy Petal Spa,"6887 Katella Ave Unit 44, Cypress, CA 90630",Facial spa,Cypress,,http://poppypetalspa.com/,,https://poppypetalspa.com/gift-card/,,Gift Certificate,,1,CA,90630,beauty_salon
Body Soul and Spirit Salon,"222 Leland Ave, San Francisco, CA 94134",Beauty salon,San Francisco,,http://www.bodysoulandspiritsalon.com/,,https://go.booker.com/location/bsssalon/buy/gift-certificate,http://www.bodysoulandspiritsalon.com/contact-us.html,Gift Certificates,"
				Contact Us
			
			",1,CA,94134,beauty_salon
Spaya skin clinic,"7455 El Camino Real ste a, Daly City, CA 94014",Medical spa,Daly City,,http://www.spayaskinclinic.com/,,http://www.secure-booker.com/spayaskinclinic/InstantGiftCertificate.aspx,https://www.spayaskinclinic.com/untitled,GIFT CERTIFICATE,CONTACT,1,CA,94014,beauty_salon
D'Modern Beauty Microblading Lash Skin Studio Dana Point,"32525 Street of the, Golden Lantern C, Dana Point, CA 92629",Beauty salon,Dana Point,,https://www.dmodernbeauty.com/,,https://squareup.com/gift/W1HM5H8M8VJ6S/order,,Buy Gift Cards Online,,1,CA,92629,beauty_salon
White Lotus Day Spa,"24582 Del Prado Ave, Dana Point, CA 92629",Day spa,Dana Point,,http://www.whitelotusdayspa.com/,,https://whitelotusdaysp.boomtime.com/lgift,https://www.whitelotusdayspa.com,GIFT CERTIFICATES,CONTACT,1,CA,92629,beauty_salon
Jolie Salon,"551 Hartz Ave, Danville, CA 94526",Beauty salon,Danville,,http://www.joliesalonandspa.com/,,https://www.secure-booker.com/JolieSalonandSpa/ShopOnline/GiftCertificate.aspx,,Gift Certificates,,1,CA,94526,beauty_salon
Ma Jolie Salon & Spa,"2416 San Ramon Valley Blvd #200, San Ramon, CA 94583",Beauty salon,San Ramon,,http://www.majoliesalon.com/,,https://burtonphillipsco.boomtime.com/lgift,https://www.majoliesalon.com/contact,GIFT CARDS,CONTACT,1,CA,94583,beauty_salon
Pomegranate Salon,"123 D St, Davis, CA 95616",Beauty salon,Davis,,http://www.pomsalon.com/,,https://squareup.com/gift/PZ74316F2EF54/order,https://www.pomsalon.com/contact-1,Gift Cards,Contact,1,CA,95616,beauty_salon
Moon's Nails and Spa,"213 F St, Davis, CA 95616",Nail salon,Davis,,http://moonsnails.com/,,https://davisdowntown.com/stimulus-program/,http://moonsnails.com/contact-us,Buy Now,We are temporarily closed due to COVID-19. We apologize for any inconvenience.,1,CA,95616,beauty_salon
eCosway Walnut,"1227 N Grand Ave, Walnut, CA 91789",Beauty salon,Walnut,,http://www.ecosway.com/,,http://shop.cosway.com.my/cosway/my/ProductGiftCardEnquiry_my.jsp,http://www.ecosway.com/en_US/aboutus/contact_us.html,Gift Card ,Contact Us,1,CA,91789,beauty_salon
Anu's Beautique,"6046 Dougherty Rd, Dublin, CA 94568",Beauty salon,Dublin,,http://www.anusbeautique.com/,,https://squareup.com/gift/8VRYS4B0B14W5/order,,Gift Cards,,1,CA,94568,beauty_salon
Dela Antoinette's,"5820 Stoneridge Mall Rd suite 110-23, Pleasanton, CA 94588",Beauty salon,Pleasanton,,http://www.pleasantonlashes.com/,,https://www.pleasantonlashes.com/gift-cards,http://www.pleasantonlashes.com/contact,Book An Appointment,Contact,1,CA,94588,beauty_salon
Dela Antoinette's Eyelash Artistry,"5820 Stoneridge Mall Rd suite 110-23, Pleasanton, CA 94588",Beauty salon,Pleasanton,,https://pleasantonlashes.com/,,https://www.pleasantonlashes.com/gift-cards,https://pleasantonlashes.com/contact,Book An Appointment,Contact,1,CA,94588,beauty_salon
Mona Skincare,"6978 Village Pkwy, Dublin, CA 94568",Facial spa,Dublin,,http://www.monaskincare.com/,,https://www.thegiftcardcafe.com/cart/index.php?storeID=9513,http://www.monaskincare.com/contact-us.html,"
Buy Gift Certificate
","
				Contact Us
			",1,CA,94568,beauty_salon
Rock A Betties Beauty Salon,"158 E Main St, El Cajon, CA 92020",Beauty salon,El Cajon,,http://www.salonvision.com/,,http://www.salonvision.com/gift.aspx,http://www.salonvision.com/contact.aspx,Gift Certificates,,1,CA,92020,beauty_salon
Eroma Day Spa,"596 N Westwind Dr, El Cajon, CA 92020",Beauty salon,El Cajon,,http://www.eromadayspa.com/,,https://secure40.securewebsession.com/eromadayspa1.site.aplus.net/giftcertificate.asp,http://www.eromadayspa.com/contact.asp,Gift Certificates,Info   ,1,CA,92020,beauty_salon
The Spa Central Coast,"617 12th St, Paso Robles, CA 93446",Spa,Paso Robles,,http://thespacentralcoast.com/,,https://www.thespacentralcoast.com/gift-cards/,,Gift Cards,,1,CA,93446,beauty_salon
River Oaks Hot Springs Spa,"800 Clubhouse Dr, Paso Robles, CA 93446",Spa,Paso Robles,,http://www.riveroakshotsprings.com/,,https://clients.mindbodyonline.com/ASP/main_shop.asp?studioid=78037&tg=&vt=&lvl=&stype=42&view=&trn=0&page=&catid=&prodid=&date=7%2f16%2f2019&classid=0&prodGroupId=&sSU=&optForwardingLink=&qParam=&justloggedin=&nLgIn=&pMode=2&loc=1,http://riveroakshotsprings.com/contact/,Gift Certificates,Contact,1,CA,93446,beauty_salon
A Beautiful Face Skin Care Paso Robles Facials Facials Paso Robles,"75B N Main St, Templeton, CA 93465",Beauty salon,Templeton,,http://beautifulface.biz/,,https://abeautifulface.boomtime.com/lgift,https://www.beautifulface.biz/contact/,Gift Certificates,Contact,1,CA,93465,beauty_salon
Station Salon,"345 S Coast Hwy 101 Q, Encinitas, CA 92024",Beauty salon,Encinitas,,https://www.stationsalon.com/,,https://squareup.com/gift/73VFBMVWEPR60/order,https://stationsalon.com/contact/,GIFT CARDS,Contact,1,CA,92024,beauty_salon
Lemongrass Aveda Salon & Spa,"910 2nd St, Encinitas, CA 92024",Day spa,Encinitas,,https://lemongrasscenter.com/,,https://lemongrasscenter.com/gift-cards/,https://lemongrasscenter.com/contact-lemongrass/,Gifts Cards,Contact,1,CA,92024,beauty_salon
Salon Sultry,"217 E Grand Ave, Escondido, CA 92025",Beauty salon,Escondido,,http://www.salonsultry.com/,,https://www.salonvision.com/salonsultry/GiftCertificatePop.aspx,http://www.salonsultry.com/contact,"
        Gift Cards
      ","
            Contact
          ",1,CA,92025,beauty_salon
E and D Hair Salon,"335 W Felicita Ave, Escondido, CA 92025",Beauty salon,Escondido,,http://www.eanddhairsalon.com/,,https://www.eanddhairsalon.com/blank-page,,Gift Cards,,1,CA,92025,beauty_salon
The Looking Glass Salon & Blow Dry Bar,"4455 Central Way B, Fairfield, CA 94534",Hair salon,Fairfield,"Hip local salon in funky confines offering a wide range of cut, color & styling services.",http://thelookingglasshairstudio.com/,,https://squareup.com/gift/A8CR5GJGAB6AF/order,http://thelookingglasshairstudio.com/contact.html,"
Purchase E-Gift card
","
				Contact
			",1,CA,94534,beauty_salon
Solano Wellness Spa,"1530 Webster St STE D, Fairfield, CA 94533",Skin care clinic,Fairfield,,https://solanowellness.com/,,https://squareup.com/gift/3504WK8J255Q9/order,https://www.solanowellness.com,Gift Cards,View our specials! Contact us today and book over the phone or online.,1,CA,94533,beauty_salon
Hoshall's Salon & Spa,"6608 Folsom-Auburn Rd #4, Folsom, CA 95630",Beauty salon,Folsom,,http://www.hoshallsfolsom.com/,,https://hoshalls.boomtime.com/lgift,http://www.hoshallsfolsom.com/contact,Gift Cards,"
        
        Contact
      ",1,CA,95630,beauty_salon
Reflections Salon,"24996 Blue Ravine Rd, Folsom, CA 95630",Beauty salon,Folsom,,http://www.reflectionssalonfolsom.com/,,http://www.reflectionssalonfolsom.com/,http://www.reflectionssalonfolsom.com/tel:9169857510,Purchase the Ultimate gift.  A Gift Card for Mother's Day!,916.985.7510,1,CA,95630,beauty_salon
Lifted Salon,"1725 Iron Point Rd, Folsom, CA 95630",Beauty salon,Folsom,,https://www.liftedsalon.com/,,https://images.squarespace-cdn.com/content/v1/59e0fe5ff43b55bbc636e003/1588275427757-F56OR62GU27W7MLR21L0/ke17ZwdGBToddI8pDm48kEpVg-ILAPna1wRh-xAJ9fRZw-zPPgdn4jUwVcJE1ZvWQUxwkmyExglNqGp0IvTJZUJFbgE-7XRK3dMEBRBhUpwEv36x-EUL2-BSQ5feDhwGCbXuJBFqZ-erYzVouT8yOb9TwqchglLQOCYTRn7ZGxI/image-asset.jpeg,https://www.liftedsalon.com/contact,"

","
            Contact
          ",1,CA,95630,beauty_salon
Tre Salon Spa,"718 Sutter St, Folsom, CA 95630",Day spa,Folsom,,http://www.tresalonspa.com/,,https://clients.mindbodyonline.com/ASP/main_shop.asp?studioid=39574&tg=&vt=&lvl=&stype=42&view=&trn=0&page=&catid=&prodid=&date=1%2f18%2f2019&classid=0&prodGroupId=&sSU=&optForwardingLink=&qParam=&justloggedin=&nLgIn=&pMode=2&directLink=true&loc=1,http://www.tresalonspa.com/contact/,Gift Cards,Contact,1,CA,95630,beauty_salon
Michelle Elliott  Maribou spa salon,"25085 Blue Ravine Rd, Folsom, CA 95630",Beauty salon,Folsom,,http://www.maribouspasalon.com/,,https://maribou.salonultimate.com/checkout/giftCard?storeSelected=1,https://www.maribouspasalon.com,GIFT CARDS,Contact,1,CA,95630,beauty_salon
L Salon & Color Group,"223 S San Mateo Dr, San Mateo, CA 94401",Beauty salon,San Mateo,,https://www.lsalon.com/,,https://clients.mindbodyonline.com/classic/ws?studioid=949489&stype=42,https://lsalon.com/contact/,Buy Gift Cards,Contact,1,CA,94401,beauty_salon
Beautique Beauty Bar,"1019 Alameda de las Pulgas, Belmont, CA 94002",Beauty salon,Belmont,,http://www.beautiquebeautybar.com/,,http://www.beautiquebeautybar.com/products/gift-card,http://www.beautiquebeautybar.com/pages/contact,Gift Card,Contact,1,CA,94002,beauty_salon
Fluffy Lashes,"8888 Warner Ave, Fountain Valley, CA 92708",Beauty salon,Fountain Valley,,https://fluffylashesstudio.favesalon.com/,,https://fluffylashesstudio.favesalon.com/#buy-gift-card,,Purchase,,1,CA,92708,beauty_salon
Jessi Hair Studio,"17110 Magnolia St, Fountain Valley, CA 92708",Hair salon,Fountain Valley,,http://jessihairstudio.com/,,http://jessihairstudio.com/#buy-gift-card,,Purchase,,1,CA,92708,beauty_salon
Visual Image Salon,"5200 Mowry Ave, Fremont, CA 94538",Beauty salon,Fremont,,http://www.visualimagesalon.com/,,http://www.visualimagesalon.com/products/gift-cards,http://www.visualimagesalon.com/pages/contact,"
              GIFT CARDS
            ","
              CONTACT
            ",1,CA,94538,beauty_salon
Beauology,"5371 Mowry Ave, Fremont, CA 94538",Beauty salon,Fremont,,http://beauology.com/,,https://beauology.millenniumegift.com/Home/Index,http://beauology.com/contact/,Gift Cards,Contact us,1,CA,94538,beauty_salon
Rosehip Nail Spa,"5174 Mowry Ave, Fremont, CA 94538",Nail salon,Fremont,,http://www.rosehipnailspa.com/,,http://www.secure-booker.com/rosehip/ShopOnline/GiftCertificate.aspx,http://www.rosehipnailspa.com/contact.html,GIFTCERTIFICATES,Contact,1,CA,94538,beauty_salon
The Spa & Hungry Hair Salon in Fig Garden Village  Beauty Spa,"680 W Shaw Ave, Fresno, CA 93704",Beauty salon,Fresno,,http://www.thespaatfgv.com/,,http://www.thespaatfgv.com/shop.html,http://www.thespaatfgv.com/contact-us.html,"

			Shop- Gift Cards & Packages
		
","
				Contact Us
			",1,CA,93704,beauty_salon
Amenities,"5054 N Palm Ave, Fresno, CA 93704",Hair salon,Fresno,,http://amenitiesspa.com/,,http://amenitiesspa.com/appointments-and-gcs/,http://amenitiesspa.com/contact-amenities-spa-salon/,Gift Certificates,Contact Us,1,CA,93704,beauty_salon
Preen,"711 W Alluvial Ave, Fresno, CA 93711",Beauty salon,Fresno,,http://www.preensalon.com/,,http://www.preensalon.com/gift-cards/,http://www.preensalon.com/contact/,Gift Cards,Contact,1,CA,93711,beauty_salon
Timeless Beauty Salon & Spa,"1475 N Van Ness Ave, Fresno, CA 93728",Beauty salon,Fresno,,http://timelessbeautysalonandspa.com/,,http://timelessbeautysalonandspa.com/meet-our-team#5143a65e-b25b-4062-97b9-3f4bb973480e,http://timelessbeautysalonandspa.com/tel:5594930770,EGift cards ,(559) 493-0770,1,CA,93728,beauty_salon
Salon Lujon,"216 N Harbor Blvd, Fullerton, CA 92832",Beauty salon,Fullerton,,http://www.salonlujon.com/,,https://www.salonlujon.com/gift-card,https://www.salonlujon.com,Gift Card,Contact Us,1,CA,92832,beauty_salon
PaulDavid Salon,"403 E Commonwealth Ave, Fullerton, CA 92832",Beauty salon,Fullerton,"Sleek spot for on-trend hairstyles like balayage, Brazilian blowouts & extensions, plus makeup.",http://pauldavidsalon.com/,,http://pauldavidsalon.com/gift-cards,,"
                Gift Cards
              ",,1,CA,92832,beauty_salon
WAX OFF,"139 N Raymond Ave, Fullerton, CA 92831",Waxing hair removal service,Fullerton,,http://waxoff.acuityscheduling.com/,,http://waxoff.acuityscheduling.com/catalog.php?action=addCart&id=345963&owner=14266429&back=%2Fschedule.php%3Fowner%3D14266429%26&PHPSESSID=r6aflb06fq28mnjjlpt84ubo9l,,"
$100 WAX OFF GIFT CERTIFICATE 
$95.00
 This $100 WAX OFF Gift Certificate can be used towards any Wax Off service. Purchase this gift online for your Betty or Johnny today!  ",,1,CA,92831,beauty_salon
BodyCentre Fullerton,"535 W Commonwealth Ave, Fullerton, CA 92832",Spa,Fullerton,,http://www.bodycentrefullerton.com/,,https://www.bodycentrefullerton.com/gift-certificates/,https://www.bodycentrefullerton.com/contact-us/,Gift Certificates,Contact Us,1,CA,92832,beauty_salon
nailwholesale,"10852 Forbes Ave, Garden Grove, CA 92843",Beauty salon,Garden Grove,,https://www.nailwholesale.com/,,https://www.nailwholesale.com/giftcertificates.php,,Gift Certificates,,1,CA,92843,beauty_salon
Alchemy Hair,"8060 Santa Teresa Blvd suite 150, Gilroy, CA 95020",Hair salon,Gilroy,,http://alchemyhairgilroy.com/,,https://squareup.com/gift/TNSY94774BX2Z/order,,Gift Card,,1,CA,95020,beauty_salon
XM Nails,"725 S Glendale Ave, Glendale, CA 91205",Beauty salon,Glendale,,http://www.xmnailsspa.com/,,http://www.xmnailsspa.com/gift-card,http://www.xmnailsspa.com/contactus,E-Gift,Contact Us,1,CA,91205,beauty_salon
Sour Lashes Studio,"1135 E Rte 66 #201, Glendora, CA 91740",Beauty salon,Glendora,,http://www.sourlashes.com/,,https://squareup.com/gift/31YGD2X2ARSNY/order,https://www.sourlashes.com/contact,eGift Cards,Contact,1,CA,91740,beauty_salon
Cutting Edge Hair and Body Salon,"5779 Calle Real, Goleta, CA 93117",Beauty salon,Goleta,,http://www.cuttingedgehairandbodysalon.com/,,https://cuttingedge.boomtime.com/lgift,https://www.cuttingedgehairandbodysalon.com/contact/,Gift Certificates,Contact,1,CA,93117,beauty_salon
Illusions Hair & Nails,"208 W Lacey Blvd, Hanford, CA 93230",Beauty salon,Hanford,,http://illusionshairandnailstudio.com/,,http://illusionshairandnailstudio.com/gift_certificates.html,,Gift Certificates,,1,CA,93230,beauty_salon
Adaora Beauty Supply & Salon,"13052 Hawthorne Blvd, Hawthorne, CA 90250",Beauty supply store,Hawthorne,,http://www.adaorabeauty.com/,,http://www.adaorabeauty.com/giftcertificates.php,http://www.adaorabeauty.com/find-a-store/,Gift Certificates,Find a store,1,CA,90250,beauty_salon
Sears Hair Studio,"Southland Mall, 660 W Winton Ave, Hayward, CA 94545",Beauty salon,Hayward,,https://www.purebeauty.com/,,http://www.purebeauty.com/gifts/,https://www.purebeauty.com/contact-us/,,Contact Us,1,CA,94545,beauty_salon
Esthetics Queendom LLC,"1398 B St suite b, Hayward, CA 94541",Waxing hair removal service,Hayward,,http://www.estheticsqueendom.com/,,https://app.acuityscheduling.com/catalog.php?category=Gift%20Certificates&owner=14872356,http://www.estheticsqueendom.com/contact,Gift Certificates,"
            CONTACT
          ",1,CA,94541,beauty_salon
Claudia's Body & Skin Care Center,"24309 Southland Dr, Hayward, CA 94545",Medical spa,Hayward,,https://www.claudiascenter.com/,,https://www.claudiascenter.com/instant-gift-certificates-card,https://www.claudiascenter.com/contact-us,GIFT CARDS,CONTACT US,1,CA,94545,beauty_salon
Complexions etc,"627 E Florida Ave C, Hemet, CA 92543",Facial spa,Hemet,,http://complexions-etc.com/,,http://complexions-etc.com/gift-certificates/,http://complexions-etc.com/contact-us/,Gift Certificates,Contact Us,1,CA,92543,beauty_salon
Paradiso Spa & Salon,"750 San Benito St, Hollister, CA 95023",Beauty salon,Hollister,,http://www.paradisospasalon.com/,,https://paradisospasalon.com/about-us/gift-certificates/,https://paradisospasalon.com/contact/,Gift Certificates,Contact Us,1,CA,95023,beauty_salon
Salon Deja Vu Spa,"204-205, 341 Tres Pinos Rd, Hollister, CA 95023",Beauty salon,Hollister,,http://www.salondejavu831.com/,,https://salondejavu831.com/gift-cards/,https://salondejavu831.com/contact-us/,Gift Cards,Contact,1,CA,95023,beauty_salon
From Head 2 Toez Salon,"7011 Warner Ave Suite A,B,C, Huntington Beach, CA 92647",Beauty salon,Huntington Beach,,https://www.head2toezsalon.com/,,https://www.head2toezsalon.com/gift-certs,https://www.head2toezsalon.com/contact,GIFT CERTIFICATE,LOCATION,1,CA,92647,beauty_salon
Sassy Ladies Beauty Bar,"6218 W Manchester Ave B, Westchester, CA 90045",Beauty salon,Westchester,,http://www.thesassyladiesbeautybar.com/,,http://www.thesassyladiesbeautybar.com/gift-certificates,,"
            Gift Certificates
          ",,1,CA,90045,beauty_salon
Beauty Heaven,"2626 Dupont Dr # 30, Irvine, CA 92612",Beauty salon,Irvine,,http://www.beauty-heaven.net/,,http://clients.mindbodyonline.com/ws.asp?studioid=2249&stype=42,http://www.constantcontact.com/safesubscribe.jsp,,,1,CA,92612,beauty_salon
Gina Salon Studio 30,"15333 Culver Dr #200, Irvine, CA 92604",Hair salon,Irvine,,https://ginasalonstudio30.com/,,https://squareup.com/gift/CMFHYJPEW1QGJ/order,https://ginasalonstudio30.com/pages/contact/,eGift Cards,Contact,1,CA,92604,beauty_salon
Laguna Spa & Nails Salon,"25732 La Paz Rd, Laguna Hills, CA 92653",Nail salon,Laguna Hills,,http://lagunanailspa.com/,,http://lagunanailspa.com/product/gift-card/,http://lagunanailspa.com/contacts/,buy,Contacts,1,CA,92653,beauty_salon
Professional Nails,"25292 McIntyre St B, Laguna Hills, CA 92653",Nail salon,Laguna Hills,,http://professionalnailslagunahills.com/,,http://professionalnailslagunahills.com/p/gift-certificates,http://professionalnailslagunahills.com/contact,Gift Certificates,Contact Us,1,CA,92653,beauty_salon
Advance Beauty College,"25332 McIntyre St, Laguna Hills, CA 92653",Beauty salon,Laguna Hills,,https://advancebeautycollege.com/,,https://abcgg.favesalon.com/index.html?action=buy-gift-card,https://advancebeautycollege.com/contact-us/,Gift Card Garden Grove location,Contact Us,1,CA,92653,beauty_salon
Apple Nail Salon,"30001 Crown Valley Pkwy # A2, Laguna Niguel, CA 92677",Nail salon,Laguna Niguel,,http://applenailsalon.com/,,http://applenailsalon.com/p105/gift-certificate,http://applenailsalon.com/p107/contact-us,Gift Certificate,Contact Us,1,CA,92677,beauty_salon
Everything Beauty by Marisa Wolfe,"30100 Crown Valley Pkwy #34, Laguna Niguel, CA 92677",Beauty salon,Laguna Niguel,,http://www.everythingbeautyoc.com/,,https://squareup.com/gift/W1HM5H8M8VJ6S/order,,Buy Gift Cards Online,,1,CA,92677,beauty_salon
Nail Polish,"5472 Del Amo Blvd, Long Beach, CA 90808",Nail salon,Long Beach,,http://www.shop-nailpolish.com/,,https://www.shop-nailpolish.com/gift-card,https://www.shop-nailpolish.com/contact-us,Gift Card,Contact Us,1,CA,90808,beauty_salon
Salon Medusa Aveda Concept Salon,"4232 Atlantic Ave, Long Beach, CA 90807",Beauty salon,Long Beach,,http://www.salonmedusalongbeach.com/,,http://www.salonmedusalongbeach.com/gift-cards.html,http://www.salonmedusalongbeach.com/contact-us.html,Gift Cards,Contact Us,1,CA,90807,beauty_salon
Surrender Salon,"1092 E Wardlow Rd, Long Beach, CA 90807",Beauty salon,Long Beach,,http://www.surrendersalon.com/,,https://shop.surrendersalon.com/gift-certificate-for-in-salon-products-and-service.html?id=44591011,,Buy Now,,1,CA,90807,beauty_salon
Finely Kneaded,"3203 E Carson St Ste 1, Lakewood, CA 90712",Day spa,Lakewood,,http://finelykneaded.com/,,https://finelykneaded.boomtime.com/lgift,https://finelykneaded.com/contact-us/,Gift Cards,CONTACT US,1,CA,90712,beauty_salon
Purdie Makeup,"31682 Railroad Canyon Rd #5, Canyon Lake, CA 92587",Beauty salon,Canyon Lake,,http://purdiemakeup.com/,,http://purdiemakeup.com/services,http://purdiemakeup.com/contact,"
GIFT CERTIFICATE
","
Contact
",1,CA,92587,beauty_salon
Deka Lash Lake Forest,"23628 El Toro Rd #4D, Lake Forest, CA 92630",Beauty salon,Lake Forest,,https://dekalash.com/,,http://www.secure-booker.com/DekaLashEcommerce/ShopOnline/GiftCertificate.aspx,https://dekalash.com/contact/,"
Buy Gift Cards
","
									Contact us
								",1,CA,92630,beauty_salon
Fusion Hair Studio,"651 W Lancaster Blvd, Lancaster, CA 93534",Beauty salon,Lancaster,,http://www.fusionhairav.com/,,http://www.fusionhairav.com/fusion-hair-studio-gift-certificates.html,http://www.fusionhairav.com/contact-us.html,Gift Certificates,,1,CA,93534,beauty_salon
Antelope Springs Day Spa,"1672 W Ave J UNIT 202, Lancaster, CA 93534",Beauty salon,Lancaster,,http://www.antelopesprings.net/,,http://www.antelopesprings.net/GiftCertificates.html,,,,1,CA,93534,beauty_salon
Permanently Beautiful Solutions,"742 W Lancaster Blvd, Lancaster, CA 93534",Beauty salon,Lancaster,,http://www.permanentlybeautifulsolutions.com/,,https://squareup.com/gift/KB9AN97RBXAJ9/order,https://www.permanentlybeautifulsolutions.com,Gift Cards Available,Contact me for your complimentary consultation and pricing!,1,CA,93534,beauty_salon
Hair On the Run,"246 CA-1, Hermosa Beach, CA 90254",Beauty salon,Hermosa Beach,,http://hairontherun1.com/,,http://hairontherun1.com/gift-certificates,http://hairontherun1.com/tel:3103744247,Gift Certificates,(310) 374-4247,1,CA,90254,beauty_salon
Top Shelf Studio,"2518 Artesia Blvd, Redondo Beach, CA 90278",Beauty salon,Redondo Beach,,http://topshelfredondo.com/,,https://squareup.com/gift/F84PQ6HNWSRSM/order,,Buy Now,,1,CA,90278,beauty_salon
Envy Nails & Spa,"641-643 S Beach Blvd, La Habra, CA 90631",Beauty salon,La Habra,,https://envynailsspalahabra.com/,,https://envynailsspalahabra.com/giftcards,https://envynailsspalahabra.com/contact,Giftcards,Contact Us,1,CA,90631,beauty_salon
Skin Care by Rebecca,"601 W Whittier Blvd, La Habra, CA 90631",Facial spa,La Habra,,http://skincarebyrebecca.org/,,http://skincarebyrebecca.org/gift-certificates,http://skincarebyrebecca.org/tel:5622250320,Gift Certificates,(562)- 225-0320,1,CA,90631,beauty_salon
Silhouette Hair Design,"15028 Imperial Hwy, La Mirada, CA 90638",Beauty salon,La Mirada,,http://silhouettehair.com/,,http://stylenet.com/Silhouette/gift-certificates/,http://stylenet.com/Silhouette/contact-us/,Gift Certificates,Contact,1,CA,90638,beauty_salon
Super Brows,"5500 Grossmont Center Dr, La Mesa, CA 91942",Beauty salon,La Mesa,,http://www.superbrows.com/,,http://www.superbrows.com/gifts.html,http://www.superbrows.com/contact.html,,,1,CA,91942,beauty_salon
Aesthetic Collective,"8356 Allison Avenue Suite#D2, La Mesa, CA 91942",Waxing hair removal service,La Mesa,,https://www.acskinandwax.com/,,https://www.acskinandwax.com/contact--gift-cards.html,https://www.acskinandwax.com/contact--gift-cards.html,"
				Contact & Gift Cards
			","
				Contact & Gift Cards
			",1,CA,91942,beauty_salon
Revive Day Spa,"5480 Baltimore Dr #210, La Mesa, CA 91942",Day spa,La Mesa,,http://revive-yourself.com/,,https://www.revive-yourself.com/gift-certificates/,https://www.revive-yourself.com/contact-us/,Gift Cards,Contact Us,1,CA,91942,beauty_salon
Natura Sugaring Melt & Wax Spa,"8211 La Mesa Blvd, La Mesa, CA 91942",Waxing hair removal service,La Mesa,,http://www.naturawaxspa.com/,,http://www.secure-booker.com/naturaspasd/ShopOnline/GiftCertificate.aspx,https://naturawaxspa.com/we-love-to-listen-to-you/,Follow a manual added link,CONTACT US,1,CA,91942,beauty_salon
Couture Salon & Spa,"14536 Whittier Blvd, Whittier, CA 90605",Beauty salon,Whittier,,https://www.couturesalonspa.com/,,http://bit.ly/couturegiftcards,https://www.couturesalonspa.com/contactus,Purchase Now,Contact Us,1,CA,90605,beauty_salon
Fejjab Spa  Skin Care & Massage,"15030 Whittier Blvd, Whittier, CA 90603",Skin care clinic,Whittier,,http://www.fejjabspa.com/,,https://squareup.com/gift/FPZ1SBD3QFM5H/order,https://www.fejjabspa.com/contact,Gift Cards,CONTACT,1,CA,90603,beauty_salon
Habitat Beauty Co,"737 Glendora Ave #101, La Puente, CA 91744",Beauty salon,La Puente,,http://www.habitatbeauty.com/,,https://squareup.com/gift/5GTY2CQYH1B0S/order,http://www.habitatbeauty.com/contact,Buy Gift Card For Future Reservation,Contact,1,CA,91744,beauty_salon
Eyelash Extension  Sirena Beauty Center,"2019 S Hacienda Blvd, Hacienda Heights, CA 91745",Beauty salon,Hacienda Heights,,http://sirenabeauty.com/,,https://www.vagaro.com/mermaidbeautycenter/gift-certificates,,GIFT CARD,,1,CA,91745,beauty_salon
Spa La Quinta,"49499 Eisenhower Dr, La Quinta, CA 92253",Day spa,La Quinta,,http://www.laquintaresort.com/,,https://www.laquintaresort.com/gift-cards/,http://www.laquintaresort.com/map-and-contact/#resort-map,Gift Cards,Map,1,CA,92253,beauty_salon
Karina Mussari Advanced Skin Care,"2221 3rd Street, Livermore, CA 94550",Skin care clinic,Livermore,,http://www.karinamskincare.com/,,https://www.vagaro.com/karinamskincare,http://www.karinamskincare.com/about%2Fcontact,Gift Certificates available at www.vagaro.com/karinamskincare ,About/Contact,1,CA,94550,beauty_salon
Perfect Balance Day Spa,"401 W Pine St, Lodi, CA 95240",Beauty salon,Lodi,,http://www.perfectbalancedayspa.com/,,http://www.perfectbalancedayspa.com/gift-certificates,http://www.perfectbalancedayspa.com/contact-us,GIFT CERTIFICATES,CONTACT US,1,CA,95240,beauty_salon
Envy Beauty Studio,"314 Elm Ave, Long Beach, CA 90802",Beauty salon,Long Beach,"Hair salon with an eco-friendly focus offering styling & coloring, plus makeup & bridal services.",http://envybeautystudio.com/,,http://envybeautystudio.com/gift-certificates.html,,"

			Gift Certificates
		
","
						CONTACT
					",1,CA,90802,beauty_salon
Therapy Salon Aveda concepts,"660 Fremont Ave, Los Altos, CA 94024",Beauty salon,Los Altos,,http://www.therapysalon.net/,,https://therapysalon.net/gift-cards/,https://therapysalon.net/about-us/contact/,Gift Cards,Contact Us,1,CA,94024,beauty_salon
Cezanne Hair Color Studio,"199 2nd St, Los Altos, CA 94022",Beauty salon,Los Altos,,http://www.cezannesalon.com/,,http://www.cezannesalon.com/gift-cards-2/,http://www.cezannesalon.com/contact-us-2/,GIFT CARDS,CONTACT,1,CA,94022,beauty_salon
Salon 121,"121 Main St, Los Altos, CA 94022",Beauty salon,Los Altos,,http://thesalon121.com/,,http://stylenet.com/Salon121/gift-certificates/,http://stylenet.com/Salon121/contact-us/,Gift Certificates,Contact,1,CA,94022,beauty_salon
Farzana's Salon & Boutique,"335 Plaza Central, Los Altos, CA 94022",Beauty salon,Los Altos,,http://www.farzanasalon.com/,,http://app.gifted.co/gift-card/253818/,http://www.farzanasalon.com/contact-us.html,Gift Card,Contact Us,1,CA,94022,beauty_salon
Hygia Nails & Spa,"177 Main St, Los Altos, CA 94022",Nail salon,Los Altos,,http://www.hygianails.com/,,http://hygianails.com/general/pid/173,http://hygianails.com/contact,Group Party and Gift Cards,Contact Us,1,CA,94022,beauty_salon
Bliss Beauty Center,"682 Rancho Shopping Ctr, Los Altos, CA 94024",Beauty salon,Los Altos,,https://www.blisslosaltos.com/,,https://go.booker.com/location/BlissLosAltos/buy/gift-certificate,https://www.blisslosaltos.com/contact-us,"
Gift Certificates
","
Contact Us
",1,CA,94024,beauty_salon
Taka Hair Salon,"1845 Westwood Blvd, West Los Angeles, CA 90025",Beauty salon,West Los Angeles,,http://www.takahair.com/,,https://takahair.millenniumegift.com/,http://www.takahair.com/contact-us.html,"gift
                        certificates",contact us,1,CA,90025,beauty_salon
The Hive Los Angeles,"1402 Micheltorena St, Los Angeles, CA 90026",Beauty salon,Los Angeles,,http://www.thehive.la/,,http://www.thehive.la/gift-cards,,Gift Cards,contact us,1,CA,90026,beauty_salon
Beauty Box,"2131 N Broadway, Los Angeles, CA 90031",Beauty salon,Los Angeles,,http://www.beautyboxla.com/,,https://www.beautyboxla.com/beauty-box-gift-cards/,https://www.beautyboxla.com/contact/,Purchase Gift Cards,Contact,1,CA,90031,beauty_salon
The Powder Room Silver Lake,"3022 Sunset Blvd #2130, Los Angeles, CA 90026",Beauty salon,Los Angeles,,http://www.thepowderroomla.com/,,https://www.thepowderroomla.com/gift-card,https://www.thepowderroomla.com,Gift Card,Contact,1,CA,90026,beauty_salon
Aesthetic Beauty Salon,"19755 Vanowen St suite a-20, Winnetka, CA 91306",Beauty salon,Winnetka,,http://www.aestheticbeautysalon.com/,,http://www.aestheticbeautysalon.com/specials.html,http://www.aestheticbeautysalon.com/contact-us.html,Gift cards ,Contact Us,1,CA,91306,beauty_salon
The Establishment Salon  Los Angeles,"2894 Rowena Ave, Los Angeles, CA 90039",Beauty salon,Los Angeles,"Upscale salon offering a big menu of beauty services, ranging from chic cuts to skin care.",http://establishmentla.com/,,https://squareup.com/gift/7BXK27TMSR84T/order,https://establishmentla.com/about/contact-us/,Gift Cards,Contact,1,CA,90039,beauty_salon
iBrows Microblading,"223 N Santa Cruz Ave, Los Gatos, CA 95030",Beauty salon,Los Gatos,,http://ibrowsmicroblading.com/,,https://squareup.com/gift/1QSDYVQA5RCBA/order,https://policies.google.com/privacy,Gift Card,Privacy Policy,1,CA,95030,beauty_salon
Shea Clinical Skincare,"15951 Los Gatos Blvd # 11, Los Gatos, CA 95032",Beauty salon,Los Gatos,,http://www.sheaclinicalskincare.com/,,https://www.yourskinmatters.co/products/gift-card,http://www.sheaclinicalskincare.com/contact,ttps://www.yourskinmatters.co/products/gift-card,"
            BOOK NOW
          ",1,CA,95032,beauty_salon
BOTOX Specialist  Dr Omeed Sani,"15075 Los Gatos Blvd Ste #150, Los Gatos, CA 95032",Beauty salon,Los Gatos,,https://saniaesthetics.com/,,https://saniaesthetics.com/specials/,https://saniaesthetics.com/contact-info-scheduling/,Gift Cards & Specials,Schedule a FREE Consultation!,1,CA,95032,beauty_salon
Solgirl Enterprises,"16000 Los Gatos Blvd, Los Gatos, CA 95032",Beauty salon,Los Gatos,,http://www.solgirl.com/,,https://solgirl.com/gifts/gift-card,https://solgirl.com/contact/,Gift Card,Contact Us,1,CA,95032,beauty_salon
Nails 4 You,"633 University Ave, Los Gatos, CA 95032",Beauty salon,Los Gatos,,http://nails4youlosgatos.com/,,https://www.giftly.com/gift-card/nails-4-you-los-gatos,http://nails4youlosgatos.com/contacts.html,,Contacts,1,CA,95032,beauty_salon
Tress Salon & Spa,"1603 Howard Rd, Madera, CA 93637",Beauty salon,Madera,,http://tresssalonandspa.com/,,https://www.tresssalonandspa.com/blank,,Gift Card,,1,CA,93637,beauty_salon
Polish by Sand Spa,"3219 Highland Ave, Manhattan Beach, CA 90266",Nail salon,Manhattan Beach,,http://sandspamb.com/,,http://sandspamb.com/gift-certificates,http://sandspamb.com/contact,Gift Certificates,Contact,1,CA,90266,beauty_salon
Well Manicured,"505 N Sepulveda Blvd, Manhattan Beach, CA 90266",Nail salon,Manhattan Beach,,http://www.wellmanicured.com/,,https://www.vagaro.com/WellManicured,http://www.wellmanicured.com/contact/,GIFT CERTIFICATES AVAILABLE FOR PURCHASE,Contact Us|,1,CA,90266,beauty_salon
Citrus Salon,"620 Main St, Martinez, CA 94553",Beauty salon,Martinez,,http://www.citrus-salon.com/,,https://www.citrus-salon.com/new-products/gift-card,http://www.citrus-salon.com/contact-1,"
              Gift Cards
            ","
            Contact
          ",1,CA,94553,beauty_salon
Golden Reef Luxury Day Spa & Beauty Bar,"621 1st St, Benicia, CA 94510",Beauty salon,Benicia,,http://www.goldenreefdayspa.com/,,http://www.secure-booker.com/goldenreef/ShopOnline/GiftCertificate.aspx,https://www.goldenreefdayspa.com/contact,Gift Certificates,CONTACT,1,CA,94510,beauty_salon
Habibi's Salon,"1925 Menalto Ave, Menlo Park, CA 94025",Beauty salon,Menlo Park,,http://www.habibissalon.com/,,https://squareup.com/gift/YYCPDV1CMH6RE/order,https://www.habibissalon.com/contact-us/,"

Buy Gift Card 
",Contact Us,1,CA,94025,beauty_salon
Charisma Salon,"203 El Camino Real, Menlo Park, CA 94025",Beauty salon,Menlo Park,,http://charismasalonmenlopark.com/,,http://charismasalonmenlopark.com/giftcards,http://charismasalonmenlopark.com/contact,Gift Card,Contact us,1,CA,94025,beauty_salon
Skin Solution,"1030 Curtis St, Menlo Park, CA 94025",Beauty salon,Menlo Park,,http://skinsolutionfacial.com/,,https://squareup.com/gift/725JZYDKKC3HC/order,https://www.skinsolutionfacial.com/contact,GIFT CARD,CONTACT US,1,CA,94025,beauty_salon
Chava Pelo Salon,"627 S Main St, Milpitas, CA 95035",Beauty salon,Milpitas,,http://chavapelosalon.com/,,http://stylenet.com/ChavaPeloSalon/gift-certificates/,http://stylenet.com/ChavaPeloSalon/contact-us/,Gift Certificates,Contact,1,CA,95035,beauty_salon
STARSCUT Barber Shop,"1774 Milmont Dr, Milpitas, CA 95035",Hair salon,Milpitas,,http://www.vagaro.com/,,http://www.vagaro.com/myaccount/gift,https://sales.vagaro.com/contact,Gift Certificates,Contact,1,CA,95035,beauty_salon
Tricia's Hair Studio,"25761 Obrero Dr #B, Mission Viejo, CA 92691",Beauty salon,Mission Viejo,,https://www.google.com/,,https://www.google.com/url?q=https://www.giftly.com/hair-salon-gift-cards/lake-forest-ca&sa=U&ved=2ahUKEwj-1P-LgZbpAhXPsZ4KHc5RBEoQFjASegQIBRAB&usg=AOvVaw0JRSNl9Ks6BNQqCwn-rZZb,,Lake Forest Hair Salon Gift Cards - California | Giftlyhttps://www.giftly.com › ... › Spa & Beauty › Hair Salons,,1,CA,92691,beauty_salon
Salon Salon Modesto,"1700 McHenry Ave, Modesto, CA 95350",Hair salon,Modesto,,http://www.salonsalonmodesto.com/,,http://www.salonsalonmodesto.com/gift_cards.html,http://www.salonsalonmodesto.com/contact.html,Gift Cards,Contact Us,1,CA,95350,beauty_salon
Mena and Company Salon,"3900 Pelandale Ave Ste 425, Modesto, CA 95356",Beauty salon,Modesto,,http://www.menaandco.com/,,https://online-booking.salonbiz.com/olb/!page.widget_start?wbid=c1604t201602241056p9n3nE864SvEHE9n3H579&theme=1284&p_mobile=y,,APPOINTMENTS/GIFT CARDS,,1,CA,95356,beauty_salon
Xylem An AVEDA Concept Salon & Spa,"198 S Myrtle Ave, Monrovia, CA 91016",Hair salon,Monrovia,,http://salonxylem.com/,,https://salonxylem.com/services/gift-cards/,https://salonxylem.com/contact/,Gift Cards,Contact,1,CA,91016,beauty_salon
Urbane Nail Care,"108 S Myrtle Ave, Monrovia, CA 91016",Nail salon,Monrovia,,http://www.urbanenailcare.com/,,http://www.urbanenailcare.com/gift-cards,http://www.urbanenailcare.com/contact-us,URBANE NAIL CAREURBANE NAIL CAREURBANE NAIL CAREURBANE NAIL CARE,Contact Us,1,CA,91016,beauty_salon
Spa Botanicals Day Spa,"248 E Foothill Blvd #201, Monrovia, CA 91016",Day spa,Monrovia,,http://spa-botanicals.com/,,http://spa-botanicals.com/gift-certificates,http://spa-botanicals.com/contact-us,Gift Certificates,Contact Us,1,CA,91016,beauty_salon
Bellas Nails & Spa,"2099 S Atlantic Blvd E, Monterey Park, CA 91754",Nail salon,Monterey Park,,http://www.bellavouspa.com/,,https://www.bellavouspa.com/gift-certificates,https://www.bellavouspa.com/contact,Gift Certificates,Contact,1,CA,91754,beauty_salon
Euodia Salon & Day Spa,"142 Los Angeles Ave, Moorpark, CA 93021",Beauty salon,Moorpark,,http://www.euodiasalon.com/,,http://stylenet.com/euodia/gift-certificates/,http://stylenet.com/euodia/contact-us/,Gift Cards,Contact Us,1,CA,93021,beauty_salon
Hair Cuttery,"252 Los Angeles Ave suite c, Moorpark, CA 93021",Hair salon,Moorpark,,https://www.haircuttery.com/,,https://secure.ratnerco.com/haircuttery/gc_order.html,https://www.haircuttery.com/about-us/contact-us.html,GIFT CARDS,Contact Us,1,CA,93021,beauty_salon
Rustic Retreat Spa & Make Up Studio,"537 New Los Angeles Ave d, Moorpark, CA 93021",Day spa,Moorpark,,http://www.rusticretreatspa.com/,,https://squareup.com/gift/XM7G9C4SZ17CW/order,http://visitor.r20.constantcontact.com/d.jsp?llr=ub59hcwab&p=oi&m=1123209279540&sit=u8pgdzgkb&f=42f6af18-01e6-4193-bf7a-0b5d94c6268c,Buy Gift Cards,Sign Up For Email Updates,1,CA,93021,beauty_salon
Cherisse's Hair Salon,"84 W 2nd St, Morgan Hill, CA 95037",Beauty salon,Morgan Hill,,http://www.cherisseshairsalon.com/,,http://www.cherisseshairsalon.com/get-your-gift-certificate,http://www.cherisseshairsalon.com/contact,"  

Buy a Gift Certificate for Yourself or as a Gift for Someone Else!
"," CONTACT

",1,CA,95037,beauty_salon
A Visionary Salon,"17100 Monterey Rd ste 1a-b, Morgan Hill, CA 95037",Beauty salon,Morgan Hill,,http://www.avisionarysalon.com/,,https://www.salonbuilder.com/website/161244/giftcert.asp?func=R,https://www.salonbuilder.com/website/161244/contact.asp," 
Purchase Gifts",Contact,1,CA,95037,beauty_salon
Serenity Spa of Morgan Hill,"17705 Hale Ave bldg h suite 6, Morgan Hill, CA 95037",Spa,Morgan Hill,,http://www.serenityspamh.net/,,https://squareup.com/gift/RV642DJBNE4BN/order,https://www.serenityspamh.net/contact,Gift Certificates,Contact,1,CA,95037,beauty_salon
Mountain View Facial Beauty,"990 Bay St Unit 1, Mountain View, CA 94040",Facial spa,Mountain View,,http://www.mtnviewfacial.com/,,http://www.mtnviewfacial.com/new-page,http://www.mtnviewfacial.com/contact-location,Gift Certificate,Contact & Location,1,CA,94040,beauty_salon
Sugar Spa,"746 Villa St, Mountain View, CA 94041",Hair removal service,Mountain View,,http://www.sugarspa.net/,,https://clients.mindbodyonline.com/classic/ws?studioid=20384&stype=42&sLoc=0&giftCardID=404,http://www.sugarspa.net/contact.html,"
Please consider supporting your local business by CLICKING HERE to purchase a gift card. All sales will go directly to our staff DURING THIS INDEFINITE CLOSURE. We appreciate you.
","
										Contact
									",1,CA,94041,beauty_salon
Ultimate Look,"2407 California Blvd #3, Napa, CA 94558",Beauty salon,Napa,,http://theultimatelook.me/,,https://squareup.com/gift/SQP4HA1DRB07P/order,http://theultimatelook.me/contact,Gift Cards ,Contact,1,CA,94558,beauty_salon
Poetic Beauty,"2407 California Blvd, Napa, CA 94559",Facial spa,Napa,,http://www.poeticbeauty.love/,,https://squareup.com/gift/CCRTGXMECN3E0/order,,GIFT CARDS,,1,CA,94559,beauty_salon
Laguna Hair Lounge,"3900 Newpark Mall Rd #105, Newark, CA 94560",Hair salon,Newark,,http://www.lhlounge.com/,,https://scontent-ort2-2.xx.fbcdn.net/v/t51.2885-15/90180321_104561364441621_5250203551625631071_n.jpg?_nc_cat=110&_nc_sid=8ae9d6&_nc_ohc=7vZycY2Viv4AX8kufWE&_nc_ht=scontent-ort2-2.xx&oh=7ff0ea477f445a4f1336254408b9afcb&oe=5ED36071,http://www.lhlounge.com/#contact,"

",CONTACT,1,CA,94560,beauty_salon
Makeup Mandy Newport Beach,"2902 West Coast Hwy, Newport Beach, CA 92663",Beauty salon,Newport Beach,,http://www.makeupmandy.com/,,https://www.lashx.shop/products/lashx-makeup-mandy-gift-certificate,http://makeupmandy.com/the-salon/contact/,Gift Certificates,Contact,1,CA,92663,beauty_salon
Facial Fitness,"419 Old Newport Blvd # D, Newport Beach, CA 92663",Beauty salon,Newport Beach,,http://facialfitnessspa.com/,,http://facialfitnessspa.com/products__gift_certificates,http://facialfitnessspa.com/contact_us,Products & Gift Certificates,Contact Us,1,CA,92663,beauty_salon
TwoToneUmbrella  Hair Makeup Cosmetics & Skincare,"2700 Newport Blvd, Newport Beach, CA 92663",Beauty salon,Newport Beach,,http://www.twotoneumbrella.com/,,https://www.twotoneumbrella.com/giftcertificates.php,https://www.twotoneumbrella.com/contact-us/,Gift Certificates,Contact Us,1,CA,92663,beauty_salon
Luminous Nail Bar,"11243 183rd St, Cerritos, CA 90703",Nail salon,Cerritos,,https://luminousnailbar.com/,,https://luminousnailbar.com/product-category/gift-cards/,https://luminousnailbar.com/contact-us/,"



Gift Card Deals

",Contact Us,1,CA,90703,beauty_salon
NH2 Salon,"208 Vintage Way Suite K-29, Novato, CA 94945",Beauty salon,Novato,,http://www.nh2salon.com/,,https://squareup.com/gift/6MDH58GC8KJEN/order,http://www.nh2salon.com/contact,"
              ONLINE GIFTCARD
            ","
                Contact
              ",1,CA,94945,beauty_salon
Jessa Skincare & Sugaring,"1615 Hill Rd ste i, Novato, CA 94947",Beauty salon,Novato,,http://www.jessaskin.com/,,http://jessaskin.com/gift-certificate/,http://jessaskin.com/about/directions/,Gifts,Contact Us,1,CA,94947,beauty_salon
Sally's Nail Care,"115 San Marin Dr, Novato, CA 94945",Nail salon,Novato,,https://www.sallybeauty.com/,,https://www.sallybeauty.com/hair/gift-cards/,https://www.sallybeauty.com/customer-service/email-sally/,Gift Cards,Contact Us,1,CA,94945,beauty_salon
Moonstone Skin And Body Care,"818 Grant Ave, Novato, CA 94945",Skin care clinic,Novato,,http://www.moonstoneskincare.com/,,https://www.vagaro.com/moonstoneskincare/gift-certificates,http://www.moonstoneskincare.com/contact,Gift Cards,"
            Contact
          ",1,CA,94945,beauty_salon
Givae Salon,"3869 Piedmont Ave, Oakland, CA 94611",Beauty salon,Oakland,,http://givaesalon.com/,,https://givaesalon.com/gift-card-policy/,https://givaesalon.com/contact-us/,Gift Card Policy,Contact ,1,CA,94611,beauty_salon
Fig & Clover,"4928 Telegraph Ave, Oakland, CA 94609",Hair salon,Oakland,,http://figandclover.com/,,https://squareup.com/gift/M4YD2QPTWRJ5R/order,https://www.figandclover.com,GIFT CARDS,CONTACT,1,CA,94609,beauty_salon
Pin and Tonic Salon,"807 Washington St, Oakland, CA 94607",Beauty salon,Oakland,,http://www.pinandtonicsalon.com/,,https://www.instagram.com/p/B-lqDh5BtPW/,,"

",,1,CA,94607,beauty_salon
Line 54 Hair Studio,"335 14th St, Oakland, CA 94612",Hair salon,Oakland,,https://www.line54hairstudio.com/,,https://squareup.com/gift/7M42PXD31MGPH/order,https://www.line54hairstudio.com/contact,Gift Card,Contact,1,CA,94612,beauty_salon
Oakland Glow Studio  Eyebrow Microblading,"471B 9th St, Oakland, CA 94607",Beauty salon,Oakland,,http://www.oaklandglow.com/,,https://squareup.com/gift/G8D511MXZE132/order,http://www.oaklandglow.com/contact,GIFT CERTIFICATE,"
        
        CONTACT
      ",1,CA,94607,beauty_salon
Bloom Healing Botanical Spa,"525 Bellevue Ave, Oakland, CA 94610",Skin care clinic,Oakland,,http://www.bloomspa.care/,,https://www.bloomspa.care/gift-cards/,,Gift Cards,,1,CA,94610,beauty_salon
Bare Bronze Beauty,"1242 Sheldon Dr, Brentwood, CA 94513",Tanning salon,Brentwood,,https://barebronzebeauty.com/,,https://barebronzebeauty.com/,https://barebronzebeauty.com/tel:9258722511,Mother’s Day May Special - Purchase a $100 e-gift card & get $50 off any Hydrafacial,(925) 872-2511,1,CA,94513,beauty_salon
Slight Edge Hair Salon,"1839 S Coast Hwy, Oceanside, CA 92054",Beauty salon,Oceanside,,http://www.slightedgehairsalonoceanside.com/,,https://www.vagaro.com/slightedgehairsalon/gift-certificates,,Gift Cards,,1,CA,92054,beauty_salon
Oceanshine Salon and Day Spa,"613 Mission Ave, Oceanside, CA 92054",Beauty salon,Oceanside,,https://www.oceanshinedayspa.net/,,https://www.oceanshinedayspa.net/#giftCards,,"
Gift Cards
",,1,CA,92054,beauty_salon
Adora Salon,"4161 Oceanside Blvd suite 101-35, Oceanside, CA 92056",Hair salon,Oceanside,,http://www.adorasalon.com/,,http://www.adorasalon.com/giftcards.html,http://www.adorasalon.com/contact-us.html,Gift Cards,contact us,1,CA,92056,beauty_salon
Face Appeal Beauty Studio,"365 S Mountain Ave #13, Upland, CA 91786",Beauty salon,Upland,,http://www.faceappealbeauty.com/,,https://squareup.com/gift/MCV315Y5MTJW0/order,,Gift cards,,1,CA,91786,beauty_salon
Theory Nail Lounge,"141 W Foothill Blvd unit a, Upland, CA 91786",Nail salon,Upland,,http://www.theorynaillounge.com/,,https://www.secure-booker.com/theorynail/ShopOnline/GiftCertificate.aspx,,Buy Gift Certificate,,1,CA,91786,beauty_salon
Kawehi Skin,"2133 W Chapman Ave suite a, Orange, CA 92868",Beauty salon,Orange,,http://www.kawehiskin.com/,,https://www.salonbuilder.com/website/186876/giftcert.asp,https://www.salonbuilder.com/website/186876/contact.asp,Gift CertificatesGift Certificates make a great gift for any loved one. Click here to purchase one online right now.,Appointments,1,CA,92868,beauty_salon
Lollipop Nail Studio Orange,"146 S Glassell St, Orange, CA 92866",Nail salon,Orange,,http://www.lollipopnailstudio.com/,,https://www.instagram.com/p/BxXjaljAhf1/,http://www.lollipopnailstudio.com/contact,"

",Contact,1,CA,92866,beauty_salon
Maxwell's For Hair,"823 S Tustin St, Orange, CA 92866",Beauty salon,Orange,,http://www.maxwellsforhair.com/,,https://squareup.com/gift/48T44MYDQCR4G/order,,BUSHWICK,,1,CA,92866,beauty_salon
Sky Salon,"1161 S Victoria Ave, Oxnard, CA 93035",Beauty salon,Oxnard,,http://www.sky-salon.com/,,https://sky-salon.millenniumegift.com/,https://sky-salon.com/contact/,Gift Cards,Contact,1,CA,93035,beauty_salon
Kriza Salon,"580 Town Center Dr, Oxnard, CA 93036",Beauty salon,Oxnard,,http://krizasalon.com/,,https://krizasalon.com/gift-cards/,https://krizasalon.com/about-us/contact/,Gift Cards,Contact Us,1,CA,93036,beauty_salon
Hair Techniques,"1305 Palmetto Ave, Pacifica, CA 94044",Beauty salon,Pacifica,,http://www.hairtechniques.net/,,https://hairtechniques.net/gift-certificates/,,Gift Certificates,,1,CA,94044,beauty_salon
Mindfully Beautiful,"450 Dondee Way #8, Pacifica, CA 94044",Hair salon,Pacifica,,http://www.mindfullybeautiful.com/,,http://www.mindfullybeautiful.com/gift-certificates.html,,"
				GIFT CERTIFICATES
			",,1,CA,94044,beauty_salon
Bella Nirvana,"450 Dondee Way, Pacifica, CA 94044",Day spa,Pacifica,,http://www.bellanirvana.com/,,http://www.bellanirvana.com/index.php?p=gift-certificates,http://www.bellanirvana.com/index.php?p=contact,,,1,CA,94044,beauty_salon
Tyra Marie Skin Care Studio,"1041 W Ave M 14, Palmdale, CA 93551",Day spa,Palmdale,,http://tyramarie.skincaretherapy.net/,,http://tyramarie.skincaretherapy.net/gift-certificates,http://tyramarie.skincaretherapy.net/contact-information,Gift Certificates,Contact Information,1,CA,93551,beauty_salon
Spa Joli Belle,"1110 W Ave L12, Lancaster, CA 93534",Facial spa,Lancaster,,http://cindysspajolibelle.com/,,http://cindysspajolibelle.com/spa-joli-belles-egift-cards-1,http://cindysspajolibelle.com/details,Spa Joli Belle's EGift Cards,Contact Spa Joli Belle,1,CA,93534,beauty_salon
Salon Castillo,"41750 Rancho Las Palmas Dr Building I, Rancho Mirage, CA 92270",Beauty salon,Rancho Mirage,,http://www.argeliavargas.com/,,http://stylenet.com/ArgeliaVargas/gift-certificates,https://www.argeliavargas.com/contact/,Gift Certificates,Contact,1,CA,92270,beauty_salon
Flutter & Glo,"73550 Alessandro Dr, Palm Desert, CA 92260",Skin care clinic,Palm Desert,,http://www.flutterandglo.com/,,http://s.thegiftcardcafe.com/vzv8S9,https://www.flutterandglo.com/contact,~ PURCHASE ONLINE GIFT CARDS HERE ~,CONTACT,1,CA,92260,beauty_salon
Studio M Salon and Spa,"2465 E Palm Canyon Dr #1025, Palm Springs, CA 92264",Beauty salon,Palm Springs,,http://www.studiomsalonandspa.com/,,https://na1.meevo.com/EgiftApp/home?tenantId=200266,http://www.studiomsalonandspa.com/#,Gift Certificates,Contact,1,CA,92264,beauty_salon
188 Palm Springs Fine Men's Salon,"750 E Tahquitz Canyon Way #3, Palm Springs, CA 92262",Hair salon,Palm Springs,,https://eighteeneight.com/,,https://eighteeneight.zenoti.com/webstore/?CenterId=2455dc87-e251-4929-91d4-b66c5201cef8,https://eighteeneight.com/palm-springs-ca/contact/,Purchase E-Gift Cards,Contact,1,CA,92262,beauty_salon
Organic Glow Skin Studio Palm Springs,"1546-1548, N Palm Canyon Dr, Palm Springs, CA 92262",Day spa,Palm Springs,,http://www.organicglowskinstudio.com/,,http://www.organicglowskinstudio.com/gift-cards,,"
                Gift Cards
              ",,1,CA,92262,beauty_salon
Grounded Bodyworks,"1701 N Palm Canyon Dr ste c, Palm Springs, CA 92262",Day spa,Palm Springs,,http://groundedbodyworks.com/,,https://clients.mindbodyonline.com/classic/ws?studioid=315889&stype=42,http://groundedbodyworks.com/pages/contact,Gift Cards,Contact,1,CA,92262,beauty_salon
Estrella Spa,"415 S Belardo Rd, Palm Springs, CA 92262",Spa,Palm Springs,,https://www.avalon-hotel.com/,,https://properhospitality.egiftify.com/landingpage,https://www.avalon-hotel.com/contact/,Gift Cards,Contact,1,CA,92262,beauty_salon
Brows & beauty by Grisel,"530A University Ave, Palo Alto, CA 94301",Beauty salon,Palo Alto,,http://www.simplybebeautifulpa.com/,,https://simplybe.boomtime.com/gift,http://www.simplybebeautifulpa.com/contact.html,"
				Gift Certificates
			","
				Contact
			",1,CA,94301,beauty_salon
Forest Spa Boutique,"530 Ramona St, Palo Alto, CA 94301",Spa,Palo Alto,,http://www.forestspaboutique.com/,,http://www.forestspaboutique.com/Giftcards.html,,Gift Cards,,1,CA,94301,beauty_salon
Watercourse Way Bath House Spa,"165 Channing Ave, Palo Alto, CA 94301",Day spa,Palo Alto,,http://www.watercourseway.com/,,http://www.watercourseway.com/gift-cards/,,gift cards,,1,CA,94301,beauty_salon
Salon Sonik Hair Salon Pasadena,"325 Cordova St UNIT 160, Pasadena, CA 91101",Beauty salon,Pasadena,,https://www.salonsonik.com/,,https://www.salonsonik.com/gift-card,https://www.salonsonik.com/contact-location-phone-number-map-contact-form-email-us-google-map,"
            GIFT CARD / COLOR KITS
          ","
            Contact
          ",1,CA,91101,beauty_salon
Bravo,"455 S Lake Ave Suite 101, Pasadena, CA 91101",Beauty salon,Pasadena,,http://www.bravosalon.com/,,http://www.secure-booker.com/bravosalon/ShopOnline/GiftCertificate.aspx,http://www.bravosalon.com/contact_us.html,,,1,CA,91101,beauty_salon
The Spa Sante and Salon,"3410 E Foothill Blvd, Pasadena, CA 91107",Beauty salon,Pasadena,,http://thespasante.com/,,https://spasante.boomtime.com/lgift,//twitter.com/thespasante,Buy Instant Giftcard,,1,CA,91107,beauty_salon
Jean Robert Salon,"2447 E Washington Blvd, Pasadena, CA 91104",Beauty salon,Pasadena,,http://www.hairsalonpasadena.com/,,http://www.hairsalonpasadena.com/gift-card,http://www.hairsalonpasadena.com/contact-location-phone-number-map-contact-form-email-us-google-map,"
            GIFT CARD / COLOR KITS
          ","
            Contact
          ",1,CA,91104,beauty_salon
Ava Lane Hairdressing,"27 Western Ave, Petaluma, CA 94952",Hair salon,Petaluma,,http://avalanehairdressing.com/,,http://avalanehairdressing.com/giftcards,http://avalanehairdressing.com/reservations,"
                Send a gift card
              ","
                Reservations/Contact
              ",1,CA,94952,beauty_salon
Stardust Salon & Spa,"410 Petaluma Blvd S suite d, Petaluma, CA 94952",Skin care clinic,Petaluma,,http://www.stardustsalonandspa.com/,,https://squareup.com/gift/25PY5TVQ3CDMK/order,http://www.stardustsalonandspa.com/contact/,GIFT CARDS AVAILABLE FOR PURCHASE…CLICK HERE TO CLAIM!,Contact,1,CA,94952,beauty_salon
Soft Shell,"18 Kentucky St, Petaluma, CA 94952",Day spa,Petaluma,,http://www.softshellpetaluma.com/,,https://www.softshellpetaluma.com/more-information,,Gift Certificates,,1,CA,94952,beauty_salon
Cielo Beauty Bar,"6743 Greenleaf Ave suite b, Whittier, CA 90601",Hair removal service,Whittier,,http://www.cielobeautybar.com/,,http://www.cielobeautybar.com/gift-certificates,,Gift Certificates,,1,CA,90601,beauty_salon
Mimi's Beauty Supply Salon & Skincare,"638 N Rose Dr, Placentia, CA 92870",Beauty supply store,Placentia,,http://www.mimisbeautysupply.com/,,https://www.mimisbeautysupply.com/service/payment-methods/,https://www.mimisbeautysupply.com/service/,"

",Contact Us!,1,CA,92870,beauty_salon
Aesthetics By Jennifer,"620 N Rose Dr #134, Placentia, CA 92870",Beauty salon,Placentia,,http://www.myaestheticsbyjennifer.com/,,https://www.myaestheticsbyjennifer.com/policies-gift-certificates/,https://www.myaestheticsbyjennifer.com/contact/,Policies & Gift Certificates,Contact Me,1,CA,92870,beauty_salon
3 Thirty 3 Nail Bar  Brea,"3453 E Imperial Hwy, Brea, CA 92823",Nail salon,Brea,,http://www.3thirty3nailbar.com/,,https://www.instagram.com/p/B_p8NA6JU4L/,http://maps.google.com/maps?q=brea+.+costa+mesa+.+uci+irvine,"We donated to our Front lines 100 x 19.75 with $1975 gift cards for services to Honor the Nailing It for America! Thank you for your partnership!

https://3thirty3nailbar.com “No amount is too small as each donation fills our energy and lifts our spirits in the work we do collectively to make an impact.”⁣ Donate: ⁣
Designate it to “Nailing It” ⁣
https://www.unitedwayoc.org/get-involved/nailing-it-for-health-care-workers/⁣
⁣
Learn more⁣:
unitedwayoc.org/viet⁣
unitedwayoc.org/espanol⁣
unitedwayoc.org/nailingit

#333nailbar #actsofkindness #NailsIndustry #1975services #LittleSaigonRestaurants #1975meals #HelpingOthersInNeed #GivingBackInToughUncertainTimes⁣
#OCsmallbusinessowners #texas #Houston #Dallas #Boston #NYC #nailingitforhealthcareworkers #conquercovid #COVID19 #CoronaVirusEmergency #NailingItForAmerica #love2yeu","
Location   BREA . COSTA MESA . UCI IRVINE
",1,CA,92823,beauty_salon
iBeauty & Tan Salon,"4625 First St #150, Pleasanton, CA 94566",Beauty salon,Pleasanton,,http://www.ibeautytansalon.com/,,http://www.ibeautytansalon.com/gift-certificate.html,http://www.ibeautytansalon.com/contact.html,"
				GIFT CERTIFICATE
			","
				CONTACT
			",1,CA,94566,beauty_salon
Gamma Salon,"739 Main St H, Pleasanton, CA 94566",Beauty salon,Pleasanton,,http://www.gammasalon.com/,,http://stylenet.com/GammaSalon/gift-certificates/,http://stylenet.com/GammaSalon/contact-us/,Gift Certificates,Contact Us,1,CA,94566,beauty_salon
Pure Organic Nail Salon,"6754 Bernal Ave #760, Pleasanton, CA 94566",Nail salon,Pleasanton,,http://www.pureorganicnailsalon.com/,,https://www.paypal.com/cgi-bin/webscr?cmd=_s-xclick&hosted_button_id=U8MAGLBWY5WTG,,Gift Card - $25,,1,CA,94566,beauty_salon
spavia day spa  pleasant hill,"45A Crescent Dr, Pleasant Hill, CA 94523",Day spa,Pleasant Hill,,http://spaviadayspa.com/,,http://clients.mindbodyonline.com/ws.asp?studioid=421128&stype=42,https://spaviadayspa.com/pleasant-hill-ca/contact-us/,Gift Cards,Contact Us,1,CA,94523,beauty_salon
Back 2 Perfect,"2651 Pleasant Hill Rd, Pleasant Hill, CA 94523",Skin care clinic,Pleasant Hill,,http://www.back2perfect.com/,,http://www.back2perfect.com/gift-certificates/,https://back2perfect.com/contact-us/,,Contact Us,1,CA,94523,beauty_salon
Susan Roxby Skin Care and Waxing,"81 Gregory Ln #230, Pleasant Hill, CA 94523",Skin care clinic,Pleasant Hill,,http://susanroxby.com/,,https://squareup.com/gift/3FGRM4FW8G3MY/order,https://www.susanroxby.com/contact,GIFT CARDS,CONTACT,1,CA,94523,beauty_salon
Rock Paper Scissors  Hair Art More,"1095 W Linda Vista Ave, Porterville, CA 93257",Beauty salon,Porterville,,http://www.hairartandmore.com/,,http://hairartandmore.com/product-category/gift-certificates/salon/,http://hairartandmore.com/contact/,Order Products and Services,Contact,1,CA,93257,beauty_salon
Joelle's Salon and Day Spa,"11740 Carmel Mountain Rd #198, San Diego, CA 92128",Beauty salon,San Diego,,http://www.joellessalon.com/,,https://joellessalon.com////product/gift-card/,https://joellessalon.com/contact/,Gift Cards,Contact,1,CA,92128,beauty_salon
The Beauty Bungalow,"12759 Poway Rd #102, Poway, CA 92064",Hair salon,Poway,,http://www.thebeautybungalow.salon/,,https://squareup.com/gift/8NDH0FQGSVS88/order,http://www.thebeautybungalow.salon/contact,"
              GIFT CARD
            ","
CONTACT
",1,CA,92064,beauty_salon
Skin Perfect Kwok Gideon DO,"10380 Foothill Blvd, Rancho Cucamonga, CA 91730",Beauty salon,Rancho Cucamonga,,http://www.skinperfectmedical.com/,,https://www.instagram.com/p/B6BdKHFJW4y/,https://skinperfectmedical.com/contact/,"
Instagram post 2198166331279633970_599426837
 
",Contact,1,CA,91730,beauty_salon
Spa Gregorie's Day Spa & Salon,"30212 Tomas #150, Rancho Santa Margarita, CA 92688",Beauty salon,Rancho Santa Margarita,,http://spagregories.com/,,https://www.spagregories.com/gift-certificates/,,Gift Certificates,,1,CA,92688,beauty_salon
Athena Spa at Ayres Hotel Mission Viejo,"28951 Los Alisos Blvd, Mission Viejo, CA 92692",Day spa,Mission Viejo,,http://www.athenaspa-mv.com/,,http://www.athenaspa-mv.com/spa-parties,http://www.athenaspa-mv.com/contact-us,Gift Certificates,Contact Us,1,CA,92692,beauty_salon
Boheme Salon and Spa,"961 Dana Dr Suite 130, Redding, CA 96003",Beauty salon,Redding,,http://www.bohemesalon.com/,,http://www.bohemesalon.com/gift-cards/,http://www.bohemesalon.com/contact-us/,Gift Cards,Contact,1,CA,96003,beauty_salon
amarte Salon,"1475 Placer St, Redding, CA 96001",Beauty salon,Redding,,http://www.amartesalon.com/,,https://amartesalon.com/gift-cards/,https://amartesalon.com/contact-us/,Gifts,Contact,1,CA,96001,beauty_salon
Razors Edge Salon,"1600 E Cypress Ave, Redding, CA 96002",Beauty salon,Redding,,https://www.razorsedgesalon.com/,,https://www.razorsedgesalon.com/home#gift-certificate,https://www.razorsedgesalon.com/home#contact,"
        Gift Certificate
      ","
        Contact
      ",1,CA,96002,beauty_salon
Troux Studio,"1436 Industrial Park Ave Ste #23, Redlands, CA 92374",Beauty salon,Redlands,,http://www.trouxstudio.com/,,https://squareup.com/gift/PVYPKANSQ54VG/order,https://www.trouxstudio.com/contact,Purchase  Egift Cards Here,Contact,1,CA,92374,beauty_salon
Lash Out Studio,"108 Orange St, Redlands, CA 92373",Beauty salon,Redlands,,http://lashoutstudio19.com/,,https://squareup.com/gift/6GG5HY6HYKBER/order,https://www.lashoutstudio19.com,Purchase A EGift card,CONTACT,1,CA,92373,beauty_salon
Sun Nails & Spa,"330 6th St, Redlands, CA 92374",Nail salon,Redlands,,http://sunnailsspa.com/,,http://sunnailsspa.com/gift-card,http://sunnailsspa.com/contactus,E-Gift,Contact Us,1,CA,92374,beauty_salon
Sugar Cove  Redondo Beach,"211 Torrance Blvd, Redondo Beach, CA 90277",Beauty salon,Redondo Beach,,https://thesugarcove.com/,,https://scontent-lax3-2.xx.fbcdn.net/v/t51.2885-15/89919204_2479524072362992_7798884439747802166_n.jpg?_nc_cat=111&_nc_sid=8ae9d6&_nc_ohc=pVxe_AK0jg0AX-iBdNb&_nc_ht=scontent-lax3-2.xx&oh=58e40654152d9c2298ec73693997446a&oe=5ED2F7EE,,"
Open
",,1,CA,90277,beauty_salon
Beauty Cult,"1312 Aviation Blvd Suite 103, Redondo Beach, CA 90278",Medical spa,Redondo Beach,,https://www.joinbeautycult.com/,,https://clients.mindbodyonline.com/classic/ws?studioid=759204&stype=42,https://www.joinbeautycult.com/contact-med-spa-redondo-beach,Gift Cards,"
            Contact
          ",1,CA,90278,beauty_salon
HEADLINES a cut above,"993 Laurel St, San Carlos, CA 94070",Beauty salon,San Carlos,,http://headlinesalon.net/,,http://stylenet.com/HeadlinesSalon2/gift-certificates/,http://stylenet.com/HeadlinesSalon2/contact-us/,Gift Certificates,Contact Us,1,CA,94070,beauty_salon
Llumier Wellness,"2115 Broadway #10, Redwood City, CA 94063",Day spa,Redwood City,,http://www.llumier.com/,,https://www.llumier.com/giftcard,https://www.llumier.com,gift cards,find us,1,CA,94063,beauty_salon
Baysix Health Center,"636 El Camino Real, Redwood City, CA 94063",Massage therapist,Redwood City,,http://www.baysixhealthcenter.com/,,http://clients.mindbodyonline.com/ws.asp?studioid=9971&stype=42,https://www.baysixhealthcenter.com/contact,Gift Certificates,Contact,1,CA,94063,beauty_salon
Le Charm Beautique,"1369 Laurel St, San Carlos, CA 94070",Day spa,San Carlos,,http://www.lecharmbeautique.com/,,https://lecharmbeautique.boomtime.com/lgift,http://www.lecharmbeautique.com/#spu-283,Gift Certificates,Contact Us Now,1,CA,94070,beauty_salon
The Nail Pope,"110 Railroad Ave, Richmond, CA 94801",Nail salon,Richmond,,http://www.thenailpope.com/,,https://thenailpope.com/gift-cards/,https://thenailpope.com/contato/,Gift Cards,Contact,1,CA,94801,beauty_salon
Ginger Springs Day Spa,"146 Washington Ave, Point Richmond, CA 94801",Day spa,Point Richmond,,http://www.gingersprings.com/,,http://gingersprings.com/gift-certificates/,,Gift Certificates,,1,CA,94801,beauty_salon
True Heart Salon,"El ceritto Plaza, 460 San Pablo Ave Suite 11, El Cerrito, CA 94530",Beauty salon,El Cerrito,,http://trueheartbeauty.weebly.com/,,http://trueheartbeauty.weebly.com/gift-certificates.html,http://trueheartbeauty.weebly.com/contact.html,"
				Gift Certificates
			","
				Contact
			",1,CA,94530,beauty_salon
Tenth Street Hair Lounge,"4033 Brockton Ave, Riverside, CA 92501",Hair salon,Riverside,,http://www.tenthstreethairlounge.com/,,https://www.instagram.com/p/B99fEvgFFD1/,http://www.tenthstreethairlounge.com/contact,"

","
                  Contact
                ",1,CA,92501,beauty_salon
Deluxe Esthetics,"4240 Rocklin Rd #1, Rocklin, CA 95677",Beauty salon,Rocklin,,http://www.cabeautylounge.com/,,https://www.deluxe.salon/gift,,GIFT CARDS,,1,CA,95677,beauty_salon
Pure Balance Skin and Body,"50 Arlen Dr, Rohnert Park, CA 94928",Beauty salon,Rohnert Park,,http://www.purebalanceskinandbody.com/,,https://www.thegiftcardcafe.com/cart/index.php?storeID=10200,http://www.purebalanceskinandbody.com/?page_id=53,,Contact,1,CA,94928,beauty_salon
The Best Day Spa,"5850 Commerce Blvd A, Rohnert Park, CA 94928",Day spa,Rohnert Park,,http://www.thebestdayspa.com/,,http://www.thebestdayspa.com/gift/,http://www.thebestdayspa.com/contact/,Gift certificates,Contact,1,CA,94928,beauty_salon
Charmed Salon,"104 Church St, Roseville, CA 95678",Beauty salon,Roseville,,http://www.charmedsalonroseville.com/,,http://www.charmedsalonroseville.com/certificates.htm,http://www.charmedsalonroseville.com/contact.htm,Gift Certificates,,1,CA,95678,beauty_salon
Nevaeh Salon,"3984 Douglas Blvd #120, Roseville, CA 95661",Hair salon,Roseville,,http://www.nevaeh.com/,,https://gift-cards.phorest.com/salons/nevaehsalonllc,https://www.nevaeh.com/contact/nevaeh-hair-salon-roseville-ca/,Buy Gift Cards Online,Contact,1,CA,95661,beauty_salon
Halo Salon & Day Spa,"1245 Pleasant Grove Blvd, Roseville, CA 95678",Beauty salon,Roseville,,http://halosalondayspa.com/,,http://stylenet.com/HaloSalonDaySpa/gift-certificates/,http://stylenet.com/HaloSalonDaySpa/contact-us/,Gift Certificates,Contact Us,1,CA,95678,beauty_salon
Luxe Hair Lounge & Day Spa,"2015 J St #203, Sacramento, CA 95811",Beauty salon,Sacramento,,http://www.luxe-midtown.com/,,http://www.luxe-midtown.com/gift-certificates,http://www.luxe-midtown.com/contact," GIFT CERTIFICATES

"," CONTACT

",1,CA,95811,beauty_salon
Salon Bravissimo LLC,"2358 Fair Oaks Blvd, Sacramento, CA 95825",Beauty salon,Sacramento,,http://www.salonbravissimo.com/,,http://www.salonbravissimo.com/#section-orange-bar-booking-giftcard,http://www.salonbravissimo.com/#section-location-hours,Booking,Find Us,1,CA,95825,beauty_salon
Allure Salon & Spa,"815 16th St, Sacramento, CA 95814",Beauty salon,Sacramento,,http://www.alluresalonandspa.com/,,http://stylenet.com/AllureSalonandSpa2/gift-certificates/,http://stylenet.com/AllureSalonandSpa2/contact-us-2/,Gift Certificates,Contact Us,1,CA,95814,beauty_salon
Pureskin Aesthetic Salon,"369 Main St #207, Salinas, CA 93901",Beauty salon,Salinas,,http://pureskin-salon.com/,,https://www.thegiftcardcafe.com/cart/index.php?storeID=13979,https://pureskin-salon.com/contact/,gift cards,Contact,1,CA,93901,beauty_salon
Taylor Paige Aesthetics,"116 E Yanonali St d1, Santa Barbara, CA 93101",Beauty salon,Santa Barbara,,http://www.taylorpaigeaesthetics.com/,,http://www.taylorpaigeaesthetics.com/gift-cards,http://www.taylorpaigeaesthetics.com/contact,"
              Gift Cards
            ","
              Contact
            ",1,CA,93101,beauty_salon
LeJJBelle Pedicure,"2291 The Alameda, Santa Clara, CA 95050",Nail salon,Santa Clara,,http://lejjbellepedicure.com/,,http://lejjbellepedicure.com/giftcards,http://lejjbellepedicure.com/contact,,Contact Us,1,CA,95050,beauty_salon
Winx Lash & Brow Bar,"1190 Homestead Rd, Santa Clara, CA 95050",Eyebrow bar,Santa Clara,,https://www.winxlnb.com/,,https://squareup.com/gift/35F0MD807XJSE/order,https://www.winxlnb.com/contact,Gift Certificates,Contact,1,CA,95050,beauty_salon
Atelier Studio,"377 Santana Row #1175, San Jose, CA 95128",Beauty salon,San Jose,,http://www.ateliersalon.com/,,https://ateliersalon.com/online-booking/,,Book Online / Gift Cards,,1,CA,95128,beauty_salon
Entourage Hair Studio,"24305 Town Center Dr #150, Valencia, CA 91355",Beauty salon,Valencia,,http://entouragehairstudio.com/,,https://entouragehairstudiostaff.com/gift-certificates-now/,,Gift Certificates,,1,CA,91355,beauty_salon
Oasis Hair & Skin Care,"1664 Soquel Dr, Santa Cruz, CA 95065",Beauty salon,Santa Cruz,,http://www.oasishairandskin.com/,,http://www.oasishairandskin.com/skin/#skin-certificates,http://www.constantcontact.com/jmml/email-marketing.jsp,Click here to Buy Your Gift Certificate Online!,Email Marketing,1,CA,95065,beauty_salon
Simply Skin Esthetics,"500 Soquel Ave, Santa Cruz, CA 95062",Beauty salon,Santa Cruz,,http://www.simplyskinesthetics.com/,,http://s.thegiftcardcafe.com/SdKa6h,http://www.simplyskinesthetics.com/contact,Gift Certifcates,Contact,1,CA,95062,beauty_salon
Santa Cruz Thread,"605 Front St, Santa Cruz, CA 95060",Beauty salon,Santa Cruz,,http://www.santacruzthread.com/,,https://clients.mindbodyonline.com/classic/ws?studioid=265917&stype=42,,Buy gift cards,,1,CA,95060,beauty_salon
Pacific Skin Care,"2628 Soquel Dr, Santa Cruz, CA 95065",Beauty salon,Santa Cruz,,http://www.pacificskincaresc.com/,,https://www.thegiftcardcafe.com/cart/index.php?storeID=5452,https://pacificskincaresc.com/contact/,Purchase Online,CONTACT,1,CA,95065,beauty_salon
Indie Salon,"1231 E Grand Ave STE 102, Arroyo Grande, CA 93420",Beauty salon,Arroyo Grande,,http://indie-salon.com/,,http://indie-salon.com/giftcard,http://indie-salon.com/contact,"
            GIFT CARD
          ","
            CONTACT
          ",1,CA,93420,beauty_salon
Salon Tru Santa Monica,"614 Santa Monica Blvd, Santa Monica, CA 90401",Beauty salon,Santa Monica,,http://salontru.com/,,https://salontru.com/gift-cards/,https://salontru.com/contact/,GIFT CARDS,Contact,1,CA,90401,beauty_salon
Brambila Salon,"1327 Ocean Ave, Santa Monica, CA 90401",Beauty salon,Santa Monica,,http://www.brambilasalon.com/,,https://www.brambilasalon.com/shop/gift-cards,http://www.brambilasalon.com/contact,"
              Gift Cards
            ","
            Contact
          ",1,CA,90401,beauty_salon
Hairzoo,"510 Wilshire Blvd, Santa Monica, CA 90401",Beauty salon,Santa Monica,,https://www.hairzoosantamonica.com/,,https://www.hairzoosantamonica.com/products/gift-certificates,https://www.hairzoosantamonica.com/contact,Gift Certificates,Contact Us,1,CA,90401,beauty_salon
Ouidad Salon,"1230 Montana Ave, Santa Monica, CA 90403",Beauty salon,Santa Monica,,https://www.ouidad.com/,,https://www.ouidad.com/ouidad-e-gift-card.html,https://help.ouidad.com/hc/en-us/requests/new,E-Gift Cards,Contact Us,1,CA,90403,beauty_salon
Leading Edge Salon,"1235 N Dutton Ave suite b, Santa Rosa, CA 95401",Beauty salon,Santa Rosa,,https://leadingedgesalon.com/,,https://leadingedgesalon.com/gift-cards/,https://leadingedgesalon.com/contact/,Gift Cards,Contact,1,CA,95401,beauty_salon
Dolce Vita Salon,"614 College Ave, Santa Rosa, CA 95404",Beauty salon,Santa Rosa,,http://dolcevitasalon-sr.com/,,https://dolcevitasalon-sr.com/gift-certificates/,https://dolcevitasalon-sr.com/contact-us/,Gift Certificates,Contact Us,1,CA,95404,beauty_salon
Salon West,"2470 W 3rd St, Santa Rosa, CA 95401",Beauty salon,Santa Rosa,,http://www.salonwestnow.com/,,https://salonwest.salonultimate.com/checkout/giftCard?store_id=1,http://www.salonwestnow.com/contact,Gift Cards,Contact,1,CA,95401,beauty_salon
The Beauty Spot Santa Rosa,"838 4th St b, Santa Rosa, CA 95404",Beauty salon,Santa Rosa,,http://www.thebeautyspotsantarosa.com/,,https://go.booker.com/location/thebeautyspotsantarosa/buy/gift-certificate,,Gift Certificates,,1,CA,95404,beauty_salon
Seraphic Skincare,"214A Town Center Pkwy Suite 109, Santee, CA 92071",Beauty salon,Santee,,https://seraphic-skincare.com/,,https://www.vagaro.com/seraphicskincare/gift-certificates,https://seraphic-skincare.com/contact-us,Gift Certificates,Contact,1,CA,92071,beauty_salon
skinFIT by Vanessa,"10201 Mission Gorge Rd, Santee, CA 92071",Facial spa,Santee,,http://skinfitsd.com/,,http://skinfitsd.com/buy-a-gift-certificate.html,,"
							Buy a Gift Certificate
						",,1,CA,92071,beauty_salon
Beauty Queen,"425 Grand Ave, South San Francisco, CA 94080",Facial spa,South San Francisco,,http://www.beautyqueenskincare.com/,,https://beautyqueenskincare.com/product-category/gift-certificates/,https://beautyqueenskincare.com/contact/,Gift Certificates,Contact,1,CA,94080,beauty_salon
Alana Connelly Coastal SkinCare,"428 Poli St #2c, Ventura, CA 93001",Beauty salon,Ventura,,http://coastalskincare.net/,,https://coastal.boomtime.com/lgift,,Shop For Gift Certificates,,1,CA,93001,beauty_salon
Nourished Nails,"73 N Palm St m1, Ventura, CA 93001",Nail salon,Ventura,,http://www.nourishednailsventura.com/,,https://squareup.com/gift/XNGGHFXPG18KT/order,http://www.nourishednailsventura.com/tel:8058240606,eGift Cards,(805) 824-0606,1,CA,93001,beauty_salon
Joy's Skin Care,"2045 E Main St, Ventura, CA 93001",Beauty salon,Ventura,,http://www.joysskincare.com/,,http://joysskincare.com/gift,http://joysskincare.com/contact,instant gift certificates,Contact us,1,CA,93001,beauty_salon
freddie b salon & spa,"1023 E Thompson Blvd, Ventura, CA 93001",Spa,Ventura,,http://www.freddiebsalon.com/,,https://freddiebsalon.boomtime.com/lgift,http://www.freddiebsalon.com/contact.html,,contact,1,CA,93001,beauty_salon
Blondies Hair Design,"1752 S. Victoria Ave. S C, Ventura, CA 93003",Hair salon,Ventura,,http://www.ventura-salon.com/,,https://ventura-salon.com/book-now-gift-cards/,https://ventura-salon.com/about-us/contact/,Book Now / Gift Cards,Contact Us,1,CA,93003,beauty_salon
Modest Spot Salon,"106 W Mariposa, San Clemente, CA 92672",Beauty salon,San Clemente,,http://www.modestspotsalon.com/,,http://www.secure-booker.com/modestspot/InstantGiftCertificate.aspx,http://www.modestspotsalon.com/contact,Gift Certificates,Book Now,1,CA,92672,beauty_salon
The Green Room,"1810 S El Camino Real, San Clemente, CA 92672",Beauty salon,San Clemente,,http://scgreenroom.com/,,http://www.skincareroom.com/giftcertificates.php,http://www.skincareroom.com/contact-us/,Gift Certificates,Contact Us,1,CA,92672,beauty_salon
Belli Belli Salon & Boutique,"3461 Ingraham St, San Diego, CA 92109",Beauty salon,San Diego,,http://bellibelli.com/,,http://bellibelli.com/online-booking-1,http://bellibelli.com/info-request,Purchase Gift Cards,Contact Salon,1,CA,92109,beauty_salon
The Lab A Salon,"3034 University Ave, San Diego, CA 92104",Beauty salon,San Diego,,http://thelabasalon.com/,,https://www.gofundme.com/f/the-lab-a-salon-employee-relief-fund?sharetype=teams&member=4236954&utm_medium=copy_link&utm_source=customer&utm_campaign=p_na+share-sheet&rcid=1a8765b2a20a4da195cba38cde5100b9,https://www.thelabasalon.com/contact,SEE GIFT CARDS,CONTACT,1,CA,92104,beauty_salon
Gracy International Hair Design,"1259 Morena Blvd Suite C, San Diego, CA 92110",Beauty salon,San Diego,"Salon offering haircuts, color, extensions, mani/pedis, massage, waxing, spray tans & more.",http://www.gracyhair.com/,,http://stylenet.com/GracyInternationalHairDesign/gift-certificates/,http://stylenet.com/GracyInternationalHairDesign/contact-us/,Gift Certificates,Contact Us,1,CA,92110,beauty_salon
Omnia Salon,"3828 Fifth Ave, San Diego, CA 92103",Hair salon,San Diego,,http://www.omniasalon.com/,,https://omniasalon.com/gift-cards-2/,https://omniasalon.com/contact-us/,GIFT CARD,CONTACT US,1,CA,92103,beauty_salon
Aloha Skin,"840 W Arrow Hwy Suite 119, San Dimas, CA 91773",Facial spa,San Dimas,,http://alohaskin.com/,,https://squareup.com/gift/54SNVH3Z05Q2F/order,,Gift Cards,,1,CA,91773,beauty_salon
Cinta Salon,"23 Grant Ave, San Francisco, CA 94108",Beauty salon,San Francisco,,http://www.cinta.com/,,http://www.cinta.com/#collapseGifts,http://www.cinta.com/#sectionContact,"
												Cinta Salon Gift Certificates
											","
						Contact
					",1,CA,94108,beauty_salon
Hair Saloon,"254 W Fairview Ave, San Gabriel, CA 91776",Hair salon,San Gabriel,,https://hairsaloon.com/,,https://hairsaloon.com/buy-gift-card/,,Buy A Gift Card,,1,CA,91776,beauty_salon
Special FX Salon & Day Spa,"1711 Branham Ln a13, San Jose, CA 95118",Beauty salon,San Jose,,http://www.specialfxsalon.com/,,https://saloncloudsplus.com/wsnewgiftcard/giftcard_form/467356112/,https://www.specialfxsalon.com/contact-us.php, GIFT CARDS,CONTACT,1,CA,95118,beauty_salon
Hair's Inn,"6531 Crown Blvd # 1, San Jose, CA 95120",Beauty salon,San Jose,,http://www.hairsinn.com/,,https://www.hairsinn.com/gift-cards/,https://www.hairsinn.com/contact/,Gift Cards,Contact,1,CA,95120,beauty_salon
Para Brows,"32035 Camino Capistrano, San Juan Capistrano, CA 92675",Waxing hair removal service,San Juan Capistrano,,http://www.parabrows.com/,,https://squareup.com/gift/2BNZ6FD7SFJTZ/order?fbclid=IwAR2tBPA3pJGbha-T88FG5SSGaepb3LKBK451ydqrwxZZn2b-NypTJS75IMA,http://www.parabrows.com/contact/,Gift Card,Contact,1,CA,92675,beauty_salon
Gold & Braid,"31654 Rancho Viejo Rd suite i, San Juan Capistrano, CA 92675",Beauty salon,San Juan Capistrano,,https://www.salongoldandbraid.com/,,https://www.instagram.com/p/B_a7n24DA2P/,https://www.salongoldandbraid.com/find-us,"

","
            Contact
          ",1,CA,92675,beauty_salon
South County Skin Skincare by Marilee,"30290 Rancho Viejo Rd #210, San Juan Capistrano, CA 92675",Day spa,San Juan Capistrano,,https://www.skincarebymarilee.com/,,https://www.skincarebymarilee.com/gift-cards,,ORDER HERE,,1,CA,92675,beauty_salon
Hands of Healing Massage & Spa Studio hohspa,"2076 Washington Ave, San Leandro, CA 94577",Beauty salon,San Leandro,,http://www.hohspa.com/,,https://squareup.com/gift/8MEPX3RHQTRJ1/order,https://www.hohspa.com/contact,Gift Cards,Contact Us Today,1,CA,94577,beauty_salon
Clinically Clear(r) Skin Rehab Center,"333 Estudillo Ave STE 103, San Leandro, CA 94577",Skin care clinic,San Leandro,"Acne treatments, peels & other skincare services are the specialty at this contemporary clinic.",https://clinicallyclear.com/,,https://www.clinicallyclear.com/gift-certificates/,https://clinicallyclear.com/contact,Gift Certificates,Contact,1,CA,94577,beauty_salon
Bluebird Salon,"742 Marsh St, San Luis Obispo, CA 93401",Beauty salon,San Luis Obispo,,http://www.bluebirdsalon.com/,,https://clients.mindbodyonline.com/classic/ws?studioid=11756&stype=42&giftCardID=54,http://www.bluebirdsalon.com/contact.html,,CONTACT,1,CA,93401,beauty_salon
Twig & Arrow Salon,"720 Marsh St, San Luis Obispo, CA 93401",Beauty salon,San Luis Obispo,,http://www.twigandarrowsalon.com/,,https://www.instagram.com/p/B_kaLajjx4P/,,"
Don't forget :: We now have e-gift cards available

",,1,CA,93401,beauty_salon
Salon62,"1112 Garden St, San Luis Obispo, CA 93401",Beauty salon,San Luis Obispo,,http://www.salon62.com/,,https://images.squarespace-cdn.com/content/v1/51c76883e4b03003eaa26fe1/1584474968574-SMYD36PV6JWC9NS7HPXV/ke17ZwdGBToddI8pDm48kEpVg-ILAPna1wRh-xAJ9fRZw-zPPgdn4jUwVcJE1ZvWQUxwkmyExglNqGp0IvTJZUJFbgE-7XRK3dMEBRBhUpwEv36x-EUL2-BSQ5feDhwGCbXuJBFqZ-erYzVouT8yOb9TwqchglLQOCYTRn7ZGxI/image-asset.jpeg,https://images.squarespace-cdn.com/content/v1/51c76883e4b03003eaa26fe1/1587412326364-PCFQJRQKPQTDL1S22CYB/ke17ZwdGBToddI8pDm48kHem505q6McQd8XRhQc9zkRZw-zPPgdn4jUwVcJE1ZvWQUxwkmyExglNqGp0IvTJZUJFbgE-7XRK3dMEBRBhUpxpEURhgSBEh9ILe0HKIG3CcOCklsxWwam3CdWF6Xw7jwVv5P97BEtB5XaVnmvMtTA/image-asset.jpeg,"

","

",1,CA,93401,beauty_salon
Faces a la Mode,"1601 Osos St, San Luis Obispo, CA 93401",Beauty salon,San Luis Obispo,,http://facesalamode.com/,,https://clients.mindbodyonline.com/classic/ws?studioid=79087&stype=42&sLoc=0&giftCardID=50929,http://facesalamode.com/contact, PURCHASE A GIFT CARD,LET'S CHAT,1,CA,93401,beauty_salon
Beauty Box Salon,"17 Chorro St, San Luis Obispo, CA 93405",Waxing hair removal service,San Luis Obispo,,http://www.beautyboxslo.com/,,https://clients.mindbodyonline.com/classic/ws?studioid=547286&stype=42&sessionChecked=true,,Gift Card,,1,CA,93405,beauty_salon
Eyebrows Threading at Minny's Hair Studio,"1892 El Norte Pkwy, Escondido, CA 92026",Beauty salon,Escondido,,http://www.sdthreading.com/,,http://www.sdthreading.com/gifts.html,http://www.sdthreading.com/contact.html,,,1,CA,92026,beauty_salon
Jaime Nicole Salon,"1116 Sycamore Ave ste d, Vista, CA 92081",Beauty salon,Vista,,http://www.jaimenicolesalon.com/,,https://www.jaimenicolesalon.com/gift-card/,https://www.jaimenicolesalon.com/contact-us/,Gift Card,Contact Us,1,CA,92081,beauty_salon
Strands Salon,"44 West 42nd Ave, San Mateo, CA 94403",Hair salon,San Mateo,,http://strandsforhair.com/,,http://strandsforhair.com/specials/gift-certificates/,https://strandsforhair.com/appointments-location/contact-us/,"

 

",Contact,1,CA,94403,beauty_salon
Les Amis  Salon et Spa,"113 De Anza Blvd, San Mateo, CA 94402",Hair salon,San Mateo,,http://www.salonlesamis.com/,,http://www.salonlesamis.com/slider/share-the-les-amis-love-holiday-gift-certificates-are-here/,http://www.salonlesamis.com/contuct-us/,Read more,CONTACT US,1,CA,94402,beauty_salon
Lana's Esthetics,"1117 S B St #2, San Mateo, CA 94401",Beauty salon,San Mateo,,http://www.lanasesthetics.com/,,http://www.lanasesthetics.com/gift-certificates,,Gift Certificates Available,,1,CA,94401,beauty_salon
Tina Canada And Company,"205 E 3rd Ave, San Mateo, CA 94401",Beauty salon,San Mateo,,http://www.tinacanada.com/,,http://www.tinacanada.com/index.php?page=gift_certificates,http://www.tinacanada.com/index.php?page=contact,GIFT CERTIFICATES,CONTACT,1,CA,94401,beauty_salon
HER Beauty Lounge,"118 De Anza Blvd, San Mateo, CA 94402",Nail salon,San Mateo,,http://beautyloungeher.com/,,https://squareup.com/gift/JKH26QH281GWA/order,,Buy E-Gift Card,,1,CA,94402,beauty_salon
DAVID JAMES,"1018 B St, San Rafael, CA 94901",Beauty salon,San Rafael,,http://www.davidjamessalons.com/,,https://www.instagram.com/p/B-X6ovGDPi5/,http://www.davidjamessalons.com/mailto:david@davidjamessalons.com?subject=DJS.%20Contact,"

",email us,1,CA,94901,beauty_salon
Heroes & Hairoines,"915 4th St, San Rafael, CA 94901",Hair salon,San Rafael,,http://www.heroesandhairoines.com/,,http://www.heroesandhairoines.com/shop,https://www.heroesandhairoines.com/contact-us,Gift Certificates,Contact Us,1,CA,94901,beauty_salon
The Beauty Resort,"14584 Big Basin Way, Saratoga, CA 95070",Beauty salon,Saratoga,,http://www.thebeautyresort.com/,,https://squareup.com/gift/JKJSDB1E18ZKE/order,,,,1,CA,95070,beauty_salon
In Lashes We Trust,"205 Montecito Ave suite b, Monterey, CA 93940",Beauty salon,Monterey,,https://www.ilwt.us/,,https://squareup.com/gift/67CNX84AJWPHA/order,https://www.ilwt.us/contact.html,"
				Gift Cards
			","
				Contact
			",1,CA,93940,beauty_salon
Glam Bam Lashes,"1015 Cass St #1a, Monterey, CA 93940",Beauty salon,Monterey,,http://www.glambamstudios.com/,,https://squareup.com/gift/PK1EXQE9CN2ZH/order,,Purchase Gift Card,,1,CA,93940,beauty_salon
Euphoria THE Salon,"2513 Tapo St, Simi Valley, CA 93063",Hair salon,Simi Valley,,http://www.euphoriathesalon.net/,,https://www.mytime.com/users/sign_in,,or Buy a Gift Certificate!,,1,CA,93063,beauty_salon
LookAfter Hair Company,"4124 Tweedy Blvd, South Gate, CA 90280",Hair salon,South Gate,,http://www.lookafterhairco.com/,,https://lookafterhairco.zenoti.com/webstoreNew/giftcards/4551e8eb-530f-4b0e-8236-5c67bb0b47f3,https://lookafterhairco.com/contact/,"

",Media,1,CA,90280,beauty_salon
Honeycomb Salon,"3915 24th St C, San Francisco, CA 94114",Hair salon,San Francisco,,http://www.honeycombsalon.com/,,https://squareup.com/gift/CTY7CYBPR202H/order,,purchase an e-gift certificate online »,,1,CA,94114,beauty_salon
Pink Mani Nails,"905 S Brookhurst St, Anaheim, CA 92804",Nail salon,Anaheim,,http://www.pinkmaninails.com/,,http://www.pinkmaninails.com/#buy-gift-card,,Purchase,,1,CA,92804,beauty_salon
HAIR SALON UNIQO,"36 N California St, Stockton, CA 95202",Hair salon,Stockton,,https://www.uniqosalon.com/,,https://www.uniqosalon.com/gift-cards,https://www.uniqosalon.com/contact,"
Gift Cards
",Contact,1,CA,95202,beauty_salon
Bliss,"2355 Waterloo Rd, Stockton, CA 95205",Beauty salon,Stockton,,https://www.blissworld.com/,,https://www.blissworld.com/gift-cards/,https://locations.blissworld.com,Gift Cards,Find Us,1,CA,95205,beauty_salon
Sand Dollar Organic Day Spa,"2324 Grand Canal Blvd #7, Stockton, CA 95207",Beauty salon,Stockton,,http://www.sanddollarorganicspa.com/,,http://www.sanddollarorganicspa.com/gift-cards,http://www.sanddollarorganicspa.com/contact-us,Gift Cards,Contact Us,1,CA,95207,beauty_salon
Salon De Cheveux,"31938 Temecula Pkwy, Temecula, CA 92592",Beauty salon,Temecula,"Hip haircuts, eyelash extensions & waxing services on offer in this quaint local salon & day spa.",http://www.salondecheveux.net/,,https://salondecheveux.net/gift-cards/,https://salondecheveux.net/contact/,Gift Cards,Contact,1,CA,92592,beauty_salon
Bel Mondo Salon & Day Spa,"41257 Margarita Rd, Temecula, CA 92591",Beauty salon,Temecula,"Low-key beauty salon for haircuts & highlights, plus nail care, facials, full-body massage & waxing.",http://www.belmondosalon.com/,,https://www.belmondosalon.com/products/gift-certificates,https://www.genbook.com/bookings/slot/reservation/30212794?bookingContactId=1818962826&category=828300745,Gift Card,Hair Care,1,CA,92591,beauty_salon
Acappella Hair Design & Color Studio,"28780 Old Town Front St C6, Temecula, CA 92590",Beauty salon,Temecula,,http://www.acappellasalon.com/,,https://acappellasalon.com/boutique/#giftc,https://acappellasalon.com/contact/," Gift Certificates
"," Contact
",1,CA,92590,beauty_salon
Hair EXT at trends,"2693 Thousand Oaks Blvd, Thousand Oaks, CA 91362",Beauty salon,Thousand Oaks,,http://hairextattrends.com/,,http://stylenet.com/TrendsLAHairCentral/gift-certificates/,http://stylenet.com/TrendsLAHairCentral/contact-us/,Gift Certificates,Contact Us,1,CA,91362,beauty_salon
Aveda Salon & Products,"3835 Thousand Oaks Blvd, Westlake Village, CA 91362",Beauty salon,Westlake Village,,https://www.aveda.com/,,https://www.aveda.com/gift-cards,https://www.aveda.com/customer-service-contact-us-page,egift card,EMAIL US,1,CA,91362,beauty_salon
Wakeup Beauty Full Service Salon,"4126 Sepulveda Blvd, Torrance, CA 90505",Beauty salon,Torrance,"Unfussy beauty studio providing haircuts & coloring, plus hair removal, waxing & henna tattoos.",http://www.wakeupbeautysalon.com/,,http://www.wakeupbeautysalon.com/gift-certificate.html,http://www.wakeupbeautysalon.com/contact-us.html,"
","
Contact Us		",1,CA,90505,beauty_salon
Salon Vivace,"4127 CA-1 suite a, Torrance, CA 90505",Hair salon,Torrance,,http://www.salonvivace.com/,,https://www.salonvivace.com/gc_buy.php,https://www.salonvivace.com/locations/,Gift Certificates,Locations | Services | Prices | Contact,1,CA,90505,beauty_salon
Inspirations Salon,"121 W Main St # B, Turlock, CA 95380",Beauty salon,Turlock,,http://inspirationssalonca.com/,,http://inspirationssalonca.com/gift-cards/,http://inspirationssalonca.com/contact/,Gift Certificates,Contact Us,1,CA,95380,beauty_salon
Elegant Lashes by Katie,"13112 Newport Ave unit k, Tustin, CA 92780",Beauty salon,Tustin,,http://www.elegantlashesbykatie.com/,,https://squareup.com/gift/Q4KP2Z7BWRWKZ/order,https://www.elegantlashesbykatie.com/contact-us,Gift Cards,Contact us,1,CA,92780,beauty_salon
Oceren Skincare Spa,"12581 Newport Ave STE B, Tustin, CA 92780",Skin care clinic,Tustin,,http://oceren.com/,,https://oceren.com/gift-certificates/,,Gift Certificates,,1,CA,92780,beauty_salon
World of Wigs,"2305 17th St, Santa Ana, CA 92705",Beauty salon,Santa Ana,,http://www.worldofwigs.com/,,https://www.worldofwigs.com/index.php?route=account/voucher,http://www.worldofwigs.com/index.php?route=information/contact,Gift Certificates, Email Us,1,CA,92705,beauty_salon
Hand & Stone Massage and Facial Spa,"903 W Foothill Blvd, Upland, CA 91786",Massage therapist,Upland,,https://www.handandstoneupland.com/,,https://handstone.boomtime.com/lgift,https://www.handandstoneupland.com/#,Instant Gift Cards,Contact Us,1,CA,91786,beauty_salon
Hairendipity Salon,"329 Parker St, Vacaville, CA 95688",Beauty salon,Vacaville,,https://hairendipityvacaville.com/,,https://squareup.com/gift/0TZ7AKGWEE9BT/order,https://hairendipityvacaville.com/tel:7074505424,PURCHASE E-GIFT CARD,707 . 450 . 5424,1,CA,95688,beauty_salon
The Beautyque,"372 Merchant St, Vacaville, CA 95688",Beauty salon,Vacaville,,http://www.thebeautyque.org/,,http://www.thebeautyque.org/general-4,,"
        
        E-Gift Cards
      ",,1,CA,95688,beauty_salon
Estheem Spa Boutique,"418 Elizabeth St, Vacaville, CA 95688",Day spa,Vacaville,,http://www.estheem.com/,,http://www.estheem.com/gift-certificates--specials.html,http://www.estheem.com/contact.html,"
				Gift Certificates & Specials
			","
				Contact
			",1,CA,95688,beauty_salon
 Skin & Body Refuge,"418 Elizabeth St, Vacaville, CA 95688",Beauty salon,Vacaville,,http://skinandbodyrefuge.com/,,http://skinandbodyrefuge.com/gift-certificates--specials.html,http://skinandbodyrefuge.com/location--hours--contact.html,"
				Gift Certificates & Specials
			","
				Location / Hours / Contact
			",1,CA,95688,beauty_salon
Tune Up Holistic Care,"236 Georgia St Ste 101, Vallejo, CA 94590",Massage therapist,Vallejo,,http://www.tuneupholisticcare.com/,,https://squareup.com/gift/3JRW9A4QFJHST/order,,,,1,CA,94590,beauty_salon
By the Bay SkinCare And Massage,"2006 Columbus Pkwy, Benicia, CA 94510",Beauty salon,Benicia,,http://bythebayskincare.com/,,https://sales53044.wixsite.com/btbscm/copy-of-specials,https://sales53044.wixsite.com/btbscm/contact,Gift Card,By Appointment Only,1,CA,94510,beauty_salon
Maven Skin and Beauty,"118 N Willis St, Visalia, CA 93291",Facial spa,Visalia,,http://mavenskinandbeauty.com/,,https://www.instagram.com/p/B6TjDPEAXHm/,,"

",,1,CA,93291,beauty_salon
Creekside Day Spa & Skin Center,"2824 W Main St, Visalia, CA 93291",Day spa,Visalia,,http://www.creeksidedayspa.com/,,http://www.creeksidedayspa.com/spa-skin-center/spa-packages/,http://www.creeksidedayspa.com/contact-us/,Spa Packages & Gift Certificates,Contact,1,CA,93291,beauty_salon
Modern Love Salon,"2210 E Vista Way #12, Vista, CA 92084",Beauty salon,Vista,,http://www.modernlovesalon.com/,,https://squareup.com/gift/DHE31GG9NH7WR/order,,"

			GIFT CARD
		
",,1,CA,92084,beauty_salon
Golden Nails,"1450 N Santa Fe Ave, Vista, CA 92083",Nail salon,Vista,,http://www.golden-nails.net/,,http://www.golden-nails.net/specials.php,http://www.golden-nails.net/contact-us.php,GIFT CARDS,CONTACT US,1,CA,92083,beauty_salon
Custom Rawhide & Braiding,"980 Miramar Dr, Vista, CA 92081",Beauty salon,Vista,,http://www.customrawhide.com/,,http://www.customrawhide.com/cgi-bin/store/agora.cgi?cart_id=3209922.23840*Oa7qq4&page=GiftCert.html,http://www.customrawhide.com/cgi-bin/store/agora.cgi?cartlink=contact_us.html,Gift Certificates  |,Contact Us,1,CA,92081,beauty_salon
One South Salon,"1310 Mt Diablo Blvd, Walnut Creek, CA 94596",Beauty salon,Walnut Creek,,http://www.onesouthsalon.com/,,http://stylenet.com/raymondmarcsalonandspa/gift-certificates,https://www.onesouthsalon.com/contact/,Gift Certificates,Contact,1,CA,94596,beauty_salon
Raymond Marc Salon And Spa,"1310 Mt Diablo Blvd, Walnut Creek, CA 94596",Beauty salon,Walnut Creek,,https://www.onesouthsalon.com/,,http://stylenet.com/raymondmarcsalonandspa/gift-certificates,https://www.onesouthsalon.com/contact/,Gift Certificates,Contact,1,CA,94596,beauty_salon
Paradise Salon & Day Spa,"15440 Beach Blvd #129, Westminster, CA 92683",Beauty salon,Westminster,,https://paradisesalon.favesalon.com/,,https://paradisesalon.favesalon.com/#buy-gift-card,,Purchase,,1,CA,92683,beauty_salon
Kimble Hair Studio ,"8280 Santa Monica Blvd, West Hollywood, CA 90046",Beauty salon,West Hollywood,,http://kimkimble.com/,,http://kimkimble.com/products/gift-card,http://kimkimble.com/pages/contact,"
                    E-Gift Card
                ",Contact Us,1,CA,90046,beauty_salon
Blushington,"8591 Sunset Blvd, West Hollywood, CA 90069",Beauty salon,West Hollywood,,http://www.blushington.com/,,https://www.secure-booker.com/blushington/ShopOnline/GiftCertificate.aspx,https://www.blushington.com/contact/,Gift Certificates, Contact ,1,CA,90069,beauty_salon
BELLAMI Beauty Bar,"645 N Robertson Blvd, West Hollywood, CA 90069",Beauty salon,West Hollywood,,http://www.secure-booker.com/,,http://www.secure-booker.com/bellamibeautybar/ShopOnline/Default.aspx,,"

														Printable Gift Certificates
													
",,1,CA,90069,beauty_salon
Face Place,"8701 Santa Monica Blvd, West Hollywood, CA 90069",Beauty salon,West Hollywood,,https://faceplace.com/,,https://faceplace.com/products/gift-card,https://faceplace.com/javascript:void(0);,Gift Cards,Contact,1,CA,90069,beauty_salon
Dorene Green,"7720 Painter Ave, Whittier, CA 90602",Beauty salon,Whittier,,https://dorenegreen.com/,,http://www.secure-booker.com/dorenegreenbeautyretreat/ShopOnline/Products.aspx,http://www.secure-booker.com/dorenegreenbeautyretreat/ShopOnline/GiftCertificate.aspx,for your PRODUCTS AND Gift Certificates,,1,CA,90602,beauty_salon
The Skin Room,"7013 Washington Ave, Whittier, CA 90602",Facial spa,Whittier,,http://theskinroom.org/,,https://squareup.com/gift/JH69HQVG110WF/order,,PURCHASE GIFT CARD,,1,CA,90602,beauty_salon
Simply Kneaded Performance Therapy,"36068 Hidden Springs Rd ste a, Wildomar, CA 92595",Massage therapist,Wildomar,,http://simplykneaded.com/,,https://www.thegiftcardcafe.com/cart/index.php?storeID=12318,,"
Gift Certificates
",,1,CA,92595,beauty_salon
Salon Prive,"712 Main St #104, Woodland, CA 95695",Beauty salon,Woodland,,http://salonprive.skincaretherapy.net/,,http://salonprive.skincaretherapy.net/gift-certificates,http://salonprive.skincaretherapy.net/hours-scheduling-contact-information,"
						Gift Certificates						","
						Hours, Scheduling & Contact Information						",1,CA,95695,beauty_salon
The Dry Lounge,"18172 Imperial Hwy, Yorba Linda, CA 92886",Beauty salon,Yorba Linda,,http://www.drylounge.net/,,http://www.secure-booker.com/thedry/ShopOnline/GiftCertificate.aspx,https://www.thedrylounge.net,Buy Now,Contact,1,CA,92886,beauty_salon
Purty Day Spa,"21540 Yorba Linda Blvd ste a, Yorba Linda, CA 92887",Massage spa,Yorba Linda,,http://www.gardenspaoc.com/,,https://thegardenswellnessspa.com/gift-certificates-gardens-wellness-spa/,http://www.gardenspaoc.com/#!,Gift Certificates,Contact,1,CA,92887,beauty_salon
Image Salon & Day Spa,"1548 Starr Dr, Yuba City, CA 95993",Beauty salon,Yuba City,,http://imagesalonspa.com/,,https://imagesalonspa.boomtime.com/lgift,http://imagesalonspa.com/contact-us.html,Giftcards,Contact Us,1,CA,95993,beauty_salon
Headlines Salon & Spa,"878 Richland Rd, Yuba City, CA 95991",Hair salon,Yuba City,,https://headlinesyc.com/,,https://na1.meevo.com/EgiftApp/order?tenantId=200382,https://headlinesyc.com/contact-us/,Gift Cards,Contact Us,1,CA,95991,beauty_salon
Skin Essentials,"33490 Oak Glen Rd # C, Yucaipa, CA 92399",Beauty salon,Yucaipa,,http://skinessentials-dayspa.com/,,https://skinessentilas.boomtime.com/lgift,https://www.skinessentials-dayspa.com/visit-us,Buy A Gift Certificate,Contact us / Directions,1,CA,92399,beauty_salon
