name,address,type,place,description,website_url,menu_url,gift_card_website,contact_website,gift_card_txt,contact_txt,searched,state,zipcode,store_type
Micaela Greg,"1202 Lincoln Ave, Alameda, CA 94501",Women's clothing store,Alameda,,http://micaelagreg.com/,,,http://micaelagreg.com/pages/contact,,Contact,1,CA,94501,clothing_store
Janene's Bridal Boutique,"2226 S Shore Center, Alameda, CA 94501",Bridal shop,Alameda,"Cozy full-service salon with dresses from a range of designers, plus alterations, jewelry & more.",http://janenesbridal.com/,,,http://janenesbridal.com/contact,,Contact,1,CA,94501,clothing_store
Offhand Designs,"918 Central Ave, Alameda, CA 94501",Clothing store,Alameda,,http://www.offhanddesigns.com/,,,http://www.offhanddesigns.com/pages/contact-info,,Contact Us,1,CA,94501,clothing_store
Vidorra,"100 E Main St #120, Alhambra, CA 91801",Women's clothing store,Alhambra,,http://www.shopvidorra.com/,,,https://www.shopvidorra.com/service/,,Contact,1,CA,91801,clothing_store
Second Time Around Antiques Vintage & Thrift Shop,"2801 W Valley Blvd ste a, Alhambra, CA 91803",Thrift store,Alhambra,"Enduring, family-run business stocking antique furniture & vintage clothing, plus odds & ends.",https://www.secondtimearoundca.com/,,,https://www.secondtimearoundca.com/contact,,"
            Contact
          ",1,CA,91803,clothing_store
Sky Hosiery Inc,"1088 Westminster Ave, Alhambra, CA 91803",Women's clothing store,Alhambra,,https://musiclegs.com/,,,https://www.musiclegs.com/contacts/,,Contact Us,1,CA,91803,clothing_store
TK Garment Supply Inc,"515 S Palm Ave #5, Alhambra, CA 91803",Vintage clothing store,Alhambra,,http://tkgarmentsupply.com/,,,http://tkgarmentsupply.com/contact/,,CONTACT,1,CA,91803,clothing_store
Dynashape Intima Corporation,"2121 Orange St, Alhambra, CA 91803",Clothing store,Alhambra,,http://dynashapeintima.com/,,,http://dynashapeintima.com/Contact_Us.html,,Contact Us,1,CA,91803,clothing_store
Monterey Park Outlet,"214 S Garfield Ave, Monterey Park, CA 91755",Clothing store,Monterey Park,,http://montereyparkoutlet.weebly.com/,,,http://montereyparkoutlet.weebly.com/contact.html,,"
				Contact
			",1,CA,91755,clothing_store
Mujer Moderna Inc,"508 Monterey Pass Rd, Monterey Park, CA 91754",Women's clothing store,Monterey Park,,http://www.mujermodernausa.com/,,,https://www.mujermodernausa.com/contacto/,,CONTACTO,1,CA,91754,clothing_store
iCollection,"3038 W Valley Blvd, Alhambra, CA 91803",Lingerie store,Alhambra,,http://icollectionlingerie.com/,,,http://icollectionlingerie.com/contact.html,,"
				Contact
			",1,CA,91803,clothing_store
Soultique,"23976 Aliso Creek Rd, Laguna Niguel, CA 92677",Clothing store,Laguna Niguel,,http://soultique.net/,,,http://soultique.net/contact.html,,Contact,1,CA,92677,clothing_store
Alicia,"2058 E Lincoln Ave, Anaheim, CA 92806",Clothing store,Anaheim,,http://www.anaheimtownsquare.com/,,,https://www.anaheimtownsquare.com/contact-us/,,Contact Us,1,CA,92806,clothing_store
ValueMaxx,"2316 S Harbor Blvd, Anaheim, CA 92802",Clothing store,Anaheim,Strip-mall outlet offering an array of brand-name clothing for children & adults at discount prices.,http://shopvaluemaxx.com/,,,http://shopvaluemaxx.com/pages/contact-us,,Contact us,1,CA,92802,clothing_store
BST Clothing,"12277 Apple Valley Rd, Apple Valley, CA 92308",Clothing store,Apple Valley,,http://bstclothing.com/,,,http://www.livelifekustom.com/contact/,,Contact,1,CA,92308,clothing_store
Xtra Fab Plus Size Boutique,"1189 E Arrow Hwy, Azusa, CA 91702",Plus size clothing store,Azusa,,https://xtrafab.shop/,,,https://xtrafab.shop/collections/contact-us,,Contact Us,1,CA,91702,clothing_store
Paris Blues,"16014 Adelante St, Azusa, CA 91702",Clothing store,Azusa,,http://www.parisblues.com/,,,http://www.parisblues.com/contact.html,,Contact,1,CA,91702,clothing_store
Pn Jone,"1143 W Foothill Blvd, Azusa, CA 91702",Clothing store,Azusa,,http://pnjone.com/,,,http://pnjone.com/contact-us/,,Contact Us,1,CA,91702,clothing_store
Golyta,"955 W 5th St, Azusa, CA 91702",Lingerie store,Azusa,,http://www.golyta.com/,,,http://www.golyta.com/contact.html,,"
				Contact
			",1,CA,91702,clothing_store
Glitter Lingerie,"955 W 5th St, Azusa, CA 91702",Lingerie store,Azusa,,http://www.glitterlingerie.com/,,,http://www.glitterlingerie.com/contact-us/,,Contact,1,CA,91702,clothing_store
Cocomelody  Azusa Bridal Alterations,"1344 W Foothill Blvd, Azusa, CA 91702",Clothing alteration service,Azusa,,https://www.cocomelody.com/,,,https://www.cocomelody.com/contact-us,,Contact Info,1,CA,91702,clothing_store
Andrews Inc,"111 N Glendora Ave, Glendora, CA 91741",Clothing store,Glendora,,http://andrewsinc.aliofthevalley.com/,,,http://andrewsinc.aliofthevalley.com/contact.php,,Contact Us.,1,CA,91741,clothing_store
Honey By J Bee,"100 N Glendora Ave UNIT 106, Glendora, CA 91741",Women's clothing store,Glendora,,http://shopjbee.com/,,,http://shopjbee.com/contact-us/,,CONTACT US,1,CA,91741,clothing_store
Kamana Clothing,"2397 Miguel Miranda Ave, Irwindale, CA 91010",Women's clothing store,Irwindale,,http://www.kamanaclothing.com/,,,https://www.kamanaclothing.com/index.php?route=information/contact,,"
Contact Us
",1,CA,91010,clothing_store
Urban X,"14404 Ramona Blvd #3319, Baldwin Park, CA 91706",Clothing store,Baldwin Park,,http://myurbanx.com/,,,http://myurbanx.com/contact/,,Contact,1,CA,91706,clothing_store
Attractive RD,"1370 Maine Ave f, Baldwin Park, CA 91706",Women's clothing store,Baldwin Park,,http://www.attractive-rd.com/,,,http://www.attractive-rd.com/contact-us/,,Contact Us,1,CA,91706,clothing_store
Yvonne's Fashions,"4451 Maine Ave, Baldwin Park, CA 91706",Women's clothing store,Baldwin Park,,http://yvonnesfashions.com/,,,//www.hugedomains.com/contact.cfm,,Contact Us,1,CA,91706,clothing_store
Fenini,"13453 Brooks Dr # B, Baldwin Park, CA 91706",Clothing store,Baldwin Park,,http://www.fenini.com/,,,http://www.fenini.com/contact.html,,contact,1,CA,91706,clothing_store
Comeco Inc,"4517 Littlejohn St, Baldwin Park, CA 91706",Women's clothing store,Baldwin Park,,https://www.comecoinc.com/,,,https://www.comecoinc.com/contactus.asp,,	Contact Us,1,CA,91706,clothing_store
Texas Tuff International,"4611 Littlejohn St, Baldwin Park, CA 91706",Clothing store,Baldwin Park,,http://www.tuffusa.com/,,,http://www.tuffusa.com/id18.htm,,Contact us,1,CA,91706,clothing_store
SLW APPAREL INC,"14412 Joanbridge St, Baldwin Park, CA 91706",Clothing store,Baldwin Park,,http://www.slwapparel.com/,,,http://www.slwapparel.com/contact-us/,,Contact Us,1,CA,91706,clothing_store
PGM Dress Form,"5041 Heintz St, Baldwin Park, CA 91706",Dressmaker,Baldwin Park,,https://www.pgmdressform.com/,,,https://www.pgmdressform.com/Contact-PGM-Dress-Form-Company,,Contact US,1,CA,91706,clothing_store
The Rowdy Rose,"1879 W Lincoln St Building E, Banning, CA 92220",Western apparel store,Banning,,http://www.therowdyrose.com/,,,http://www.therowdyrose.com/crm.asp?action=contactus,,Contact Us,1,CA,92220,clothing_store
Brands On Sale,"700 S Hathaway St, Banning, CA 92220",Costume store,Banning,,http://www.brandsonsale.com/,,,http://www.brandsonsale.com/contact.html,,Contact Us,1,CA,92220,clothing_store
Adorable Children's Apparel,"6339 Atlantic Ave #1254, Bell, CA 90201",Clothing store,Bell,,http://www.adorablechildrensapparel.com/,,,https://adorablechildrensapparel.com/contact-us-2/,,Contact Us,1,CA,90201,clothing_store
J & F Design,"5578 Bandini Blvd, Bell, CA 90201",Clothing store,Bell,,http://www.bobbyjackbrand.com/,,,http://www.bobbyjackbrand.com/pages/contact,,Contact Us,1,CA,90201,clothing_store
James Tattersall Clothing,"4921 Eastern Ave, Bell, CA 90201",Men's clothing store,Bell,,http://jamestattersall.clothing/,,,http://jamestattersall.clothing/pages/contact-us,,Contact,1,CA,90201,clothing_store
Elliecom,"5553 Bandini Blvd, Bell, CA 90201",Women's clothing store,Bell,,http://www.ellie.com/,,,http://www.ellie.com/pages/get-in-touch,,Contact Us,1,CA,90201,clothing_store
Curvy Sense,"5578 Bandini Blvd, Bell, CA 90201",Clothing store,Bell,,http://curvysense.com/,,,http://curvysense.com/pages/business,,"Contact For Govt, Hospitals & Businesses",1,CA,90201,clothing_store
Gioberti,"2230 S Tubeway Ave, Commerce, CA 90040",Clothing store,Commerce,,https://gioberti.com/,,,https://gioberti.com/pages/contact-us,,Contact Us,1,CA,90040,clothing_store
Robin's Jean,"6760 Foster Bridge Blvd, Bell Gardens, CA 90201",Fashion designer,Bell Gardens,,https://robinsjean.com/,,,https://robinsjean.com/contact/,,Contact Us,1,CA,90201,clothing_store
mittoshop,"6041 Triangle Dr, Commerce, CA 90040",Women's clothing store,Commerce,"Showroom selling contemporary women's clothing, including rompers, dresses, bottoms & more.",http://www.mittoshop.com/,,,https://www.mittoshop.com/contacts/,,Contact Us,1,CA,90040,clothing_store
Kathyana,"3328 Garfield Ave, Commerce, CA 90040",Clothing store,Commerce,,https://kathyana.com/,,,https://www.kathyana.com/contact/,,CONTACT US,1,CA,90040,clothing_store
AMA Fashion  Big and Tall Family Clothing,"7822 Rosemead Blvd, Pico Rivera, CA 90660",Clothing store,Pico Rivera,,https://www.ebay.com/,,,https://ocsnext.ebay.com/ocs/home,, Help & Contact,1,CA,90660,clothing_store
Hi Fashion Production Inc,"2933 Supply Ave, Commerce, CA 90040",Women's clothing store,Commerce,,http://www.shoulderpads.com/,,,http://www.shoulderpads.com/index.php?controller=contact,,contact,1,CA,90040,clothing_store
Bancroft Clothing Co,"2530 Bancroft Way, Berkeley, CA 94704",Clothing store,Berkeley,"Vendor of a range of merchandise including University of California, Berkeley licensed apparel.",http://www.bancroftclothing.com/,,,http://www.bancroftclothing.com/index.php?sc_page=42,,TO CONTACT USCLICK HERE,1,CA,94704,clothing_store
Foxglove,"1746 Shattuck Ave, Berkeley, CA 94709",Clothing store,Berkeley,,http://www.foxglovestyle.com/,,,http://www.foxglovestyle.com/contact,,Contact,1,CA,94709,clothing_store
Malibu Clothes,"259 S Beverly Dr, Beverly Hills, CA 90212",Men's clothing store,Beverly Hills,"Third-floor men's retailer offering classic suits, sport coats, tuxedos & ties, plus tailoring.",http://malibuclothesbh.com/,,,http://malibuclothesbh.com/contact/,,Contact Us,1,CA,90212,clothing_store
Avant Garde Boutique,"9612 Brighton Way #5110, Beverly Hills, CA 90210",Women's clothing store,Beverly Hills,,http://avantgardebeverlyhills.com/,,,https://www.avantgardebeverlyhills.com/contact,,CONTACT US,1,CA,90210,clothing_store
The Beverly Hills Bikini Shop,"245 S Beverly Dr, Beverly Hills, CA 90212",Swimwear store,Beverly Hills,"Longtime retailer for women's swimwear, including one-piece, cover-ups & bikinis in various styles.",http://www.thebeverlyhillsbikinishop.com/,,,https://www.thebeverlyhillsbikinishop.com/contact-us/,,Contact Us,1,CA,90212,clothing_store
Battaglia Shop,"332 N Rodeo Dr, Beverly Hills, CA 90210",Men's clothing store,Beverly Hills,"Men's clothing store features designer fashions including Italian suits, coats, shoes & accessories.",http://battaglia-beverlyhills.com/,,,"https://www.google.ca/maps/place/332 N. Rodeo Drive, Beverly Hills CA 90210",,"










",1,CA,90210,clothing_store
ISAIA Beverly Hills,"9527 Brighton Way, Beverly Hills, CA 90210",Men's clothing store,Beverly Hills,,https://us.isaia.it/,,,https://us.isaia.it/contact-us,,Get In Touch,1,CA,90210,clothing_store
Escada,"9502 Wilshire Blvd, Beverly Hills, CA 90212",Clothing store,Beverly Hills,,http://www.escada.com/,,,http://www.escada.com/pages/contact-form,,,1,CA,90212,clothing_store
OSKA Beverly Hills,"9693 Wilshire Blvd, Beverly Hills, CA 90212",Women's clothing store,Beverly Hills,,https://beverlyhills.oska.com/,,,https://beverlyhills.oska.com/en/contact-legal/,,"
            
                Contact & Legal
            
        ",1,CA,90212,clothing_store
Peanuts Headquarters,"8039 Beach Blvd, Buena Park, CA 90620",Boutique,Buena Park,,https://www.knotts.com/,,,https://www.knotts.com/help/contact-us,,"


Contact Us    ",1,CA,90620,clothing_store
Wedding Design Center WDC Gown,"8220 On the Mall, Buena Park, CA 90620",Boutique,Buena Park,,http://www.wdcgown.com/,,,http://www.wdcgown.com/contact-us.html,,"
										Contact Us
									",1,CA,90620,clothing_store
Sports Treasures,"8308 On the Mall, Buena Park, CA 90620",Sportswear store,Buena Park,,http://www.sports-treasures.com/,,,http://www.sports-treasures.com/index.php/contact-us,,Contact Us,1,CA,90620,clothing_store
Shop Sara Jane,"6950 Beach Blvd e204, Buena Park, CA 90621",Clothing store,Buena Park,,http://www.shopbjclothes.com/,,,https://shopbjclothes.com/contact-us/,,Contact Us,1,CA,90621,clothing_store
Geeky Mamas,"8308 On the Mall, Buena Park, CA 90620",Clothing store,Buena Park,,http://www.geekymamas.com/,,,http://www.geekymamas.com/#,,Contact Geeky Mamas Store on Messenger,1,CA,90620,clothing_store
Clint Tux Shoppe,"8405 La Palma Ave, Buena Park, CA 90620",Tuxedo shop,Buena Park,,http://www.clintsformalwear.com/,,,http://clintstuxshop.com/contact/,,Contact,1,CA,90620,clothing_store
Swift Vintage,"3216 W Magnolia Blvd, Burbank, CA 91505",Vintage clothing store,Burbank,,http://iloveswift.com/,,,//www.hugedomains.com/contact.cfm,,Contact Us,1,CA,91505,clothing_store
Playclothes,"3100 W Magnolia Blvd, Burbank, CA 91505",Vintage clothing store,Burbank,"Quirky shop stocking a selection of vintage threads for men & women in unique, Victorian-style digs.",http://www.playclothesvintage.com/,,,http://www.playclothesvintage.com/contact-us,,contact us ,1,CA,91505,clothing_store
Toadstool Farm,"1388 N Catalina St, Burbank, CA 91505",Vintage clothing store,Burbank,,https://www.toadstoolfarmvintage.com/,,,https://www.toadstoolfarmvintage.com/pages/contact-us,,Get In Touch,1,CA,91505,clothing_store
Trina Turk  Burlingame Boutique,"1223 Burlingame Ave, Burlingame, CA 94010",Women's clothing store,Burlingame,,https://www.trinaturk.com/,,,https://www.trinaturk.com/pages/contact-us,,"
                          Contact Us
                        ",1,CA,94010,clothing_store
Les Deux Copines,"1433 Burlingame Ave, Burlingame, CA 94010",Women's clothing store,Burlingame,"Compact, chic women’s clothing & accessory boutique emphasizing French & European designers.",http://www.lesdeuxcopines.com/,,,http://www.lesdeuxcopines.com/pages/location,,"
Find Us
",1,CA,94010,clothing_store
Garlan's Inc,"235 E W 2nd St, Calexico, CA 92231",Clothing store,Calexico,,http://www.garlans.com/,,,http://www.garlans.com/pages/contact-us,,Contact Us,1,CA,92231,clothing_store
Blanca's Fashion,"1893, 2451 Rockwood Ave suite 117, Calexico, CA 92231",Women's clothing store,Calexico,,http://www.blancasfashion.com/,,,//www.hugedomains.com/contact.cfm,,Contact Us,1,CA,92231,clothing_store
Bob Kildee Clothing,"606 N Las Posas Rd, Camarillo, CA 93010",Tuxedo shop,Camarillo,,https://www.bobkildeeclothing.com/,,,https://www.bobkildeeclothing.com/contato-1,,CONTACT,1,CA,93010,clothing_store
Green Goddess Boutique,"2215 Ventura Blvd, Camarillo, CA 93010",Vintage clothing store,Camarillo,,http://greengoddess.boutique/,,,http://greengoddess.boutique/contact-us,,Contact Us,1,CA,93010,clothing_store
Simply Smashing,"241 E Campbell Ave B, Campbell, CA 95008",Clothing store,Campbell,,http://simplysmashingstyle.com/,,,http://www.constantcontact.com/safesubscribe.jsp,,"

",1,CA,95008,clothing_store
23 Skidoo,"2082 S Winchester Blvd, Campbell, CA 95008",Clothing store,Campbell,"Funky independent shop featuring a broad range of retro & vintage clothing, accessories & footwear.",http://23skidoovintage.com/,,,http://23skidoovintage.com/pages/contact-us,,Contact Us,1,CA,95008,clothing_store
TRUDYS,"1875 S Bascom Ave, Campbell, CA 95008",Bridal shop,Campbell,"Intimate shop for wedding & formalwear, including plus sizes, along with accessories.",http://www.trudysbrides.com/,,,http://www.trudysbrides.com/contact-us,,"

Contact



",1,CA,95008,clothing_store
Retail Therapy Boutique,"565 Grand Ave, Carlsbad, CA 92008",Women's clothing store,Carlsbad,,https://retailtherapysd.com/,,,https://retailtherapysd.com/pages/contact-us,,Contact us,1,CA,92008,clothing_store
Cotton N Stuff,"300 Carlsbad Blvd # 111, Carlsbad, CA 92008",Clothing store,Carlsbad,,http://www.cottonnstuff.com/,,,http://www.cottonnstuff.com/Contact-Us.html,,,1,CA,92008,clothing_store
Dollhouse Boutique,"2957 State St, Carlsbad, CA 92008",Women's clothing store,Carlsbad,,https://dollhouseboutiquecarlsbad.com/,,,https://dollhouseboutiquecarlsbad.com/pages/contact,,CONTACT US,1,CA,92008,clothing_store
Clothing Cottage,"620 Grand Ave, Carlsbad, CA 92008",Women's clothing store,Carlsbad,,http://www.clothingcottage.com/,,,//www.hugedomains.com/contact.cfm,,Contact Us,1,CA,92008,clothing_store
Cindy's Swimwear,"2965 Carlsbad Blvd, Carlsbad, CA 92008",Swimwear store,Carlsbad,,https://www.cindysswimwear.com/,,,https://www.cindysswimwear.com/pages/contact-us,,Contact,1,CA,92008,clothing_store
Lucy's Island Fashion,"500 E Carson St # 109, Carson, CA 90745",Clothing store,Carson,,http://www.liftislandfashion.com/,,,http://www.liftislandfashion.com/contact-us.html,,"
				Contact Us
			",1,CA,90745,clothing_store
Barong & Formal Shoppe,"22118 S Main St, Carson, CA 90745",Clothing store,Carson,"Straightforward retailer selling traditional, formal Filipino apparel for men, women & children.",http://barongandformalshoppe.com/,,,http://barongandformalshoppe.com/contact-us/,,Contact Us,1,CA,90745,clothing_store
WHATSDADEAL TEE'S,"20320 S Avalon Blvd, Carson, CA 90746",Clothing store,Carson,,http://www.whatsdadealtees.com/,,,http://www.whatsdadealtees.com/contact,,Contact,1,CA,90746,clothing_store
CRAZE FASHION,"1520 E Hatch Rd, Modesto, CA 95351",Clothing store,Modesto,,https://craze-fashion.com/,,,https://craze-fashion.com/pages/send-us-a-message,,Contact Us,1,CA,95351,clothing_store
Timeless Threads Boutique,"1200 F St suite b, Modesto, CA 95354",Vintage clothing store,Modesto,,https://www.modestovintagebridalshop.com/,,,https://www.modestovintagebridalshop.com/contact,,"

                                Contact Us
                            
",1,CA,95354,clothing_store
The Boutique at Salon Salon,"1700 McHenry Ave #29a, Modesto, CA 95350",Women's clothing store,Modesto,,http://theboutiquemodesto.com/,,,https://theboutiquemodesto.com/contact-us/,,Contact Us,1,CA,95350,clothing_store
Royal Robbins Modesto Store,"1700 McHenry Ave, Modesto, CA 95350",Clothing store,Modesto,,https://www.royalrobbins.com/,,,https://www.royalrobbins.com/pages/contact-us,,Contact Us,1,CA,95350,clothing_store
For Elyse,"228 Broadway St, Chico, CA 95928",Women's clothing store,Chico,,http://www.forelyse.com/,,,http://www.forelyse.com/pages/contact-us-for-elyse,,Contact Us,1,CA,95928,clothing_store
Western Fashion,"5236 Bell Ct, Chino, CA 91710",Women's clothing store,Chino,,http://www.westernfashioninc.com/,,,https://westernfashioninc.com/contact-us/,,Contact us,1,CA,91710,clothing_store
FR Fashion Co,"15256 Aqueduct Ln, Chino Hills, CA 91709",Men's clothing store,Chino Hills,,http://www.frfashionco.com/,,,http://www.frfashionco.com/pages/contact-us,,Sales Tax Policy,1,CA,91709,clothing_store
DTO LIFE,"14071 Peyton Dr, Chino Hills, CA 91709",Clothing store,Chino Hills,,https://www.dtolife.com/,,,https://www.dtolife.com/pages/contact-us,,CONTACT US,1,CA,91709,clothing_store
Fans Club Bag Accessories,"5455 Vine St, Chino, CA 91710",Clothing store,Chino,,http://cartoonfansclub.com/,,,http://cartoonfansclub.com/contact.html,,Contact,1,CA,91710,clothing_store
Lineage Trading,"4200 Chino Hills Pkwy #310, Chino Hills, CA 91709",Thrift store,Chino Hills,,http://lineagetradingco.com/,,,http://lineagetradingco.com/new-page-1,,"
            Contact
          ",1,CA,91709,clothing_store
Chino Spectrum Marketplace,"3808 Grand Ave Suite B, Chino, CA 91710",Clothing store,Chino,,https://www.shopcsmp.com/,,,https://www.shopcsmp.com/contact,,CONTACT US,1,CA,91710,clothing_store
YogaBody Studios,"14677 Ramona Ave, Chino, CA 91710",Clothing store,Chino,,http://www.yogabodystudios.com/,,,http://www.yogabodystudios.com/contact,,"
            Connect with us!
          ",1,CA,91710,clothing_store
Christina's Fashion,"681 Palomar St, Chula Vista, CA 91911",Dress store,Chula Vista,"Longtime shop with women's formalwear & jewelry, including styles for mothers of the bride & groom.",http://www.christinasfashion.com/,,,http://www.christinasfashion.com/./t8/contact-us.html,,Contact Us,1,CA,91911,clothing_store
El Centenario Western Wear,"645 H St, Chula Vista, CA 91910",Western apparel store,Chula Vista,"Store carrying a full range of western wear for men & women, from cowboy boots to 10-gallon hats.",https://centurywesternwear.com/,,,https://centurywesternwear.com/contact/,,Contact,1,CA,91910,clothing_store
Forever Deals,"1141 Bay Blvd, Chula Vista, CA 91911",Clothing store,Chula Vista,,http://foreverdealsstore.com/,,,http://foreverdealsstore.com/chula-vista/4702027,,CONTACT,1,CA,91911,clothing_store
Little Kid's Wear,"510 Broadway #7, Chula Vista, CA 91910",Children's clothing store,Chula Vista,"This spacious store sells dressy kid's clothes for parties, christenings, quinceaneras & weddings.",http://www.littlekidswear.us/,,,https://www.littlekidswear.us/contact-us/,,Contact Us,1,CA,91910,clothing_store
Billion Creation,"687 Palomar St #3, Chula Vista, CA 91911",Clothing store,Chula Vista,Casual store offering men's streetwear & shoes alongside a large array of baseball caps.,http://www.billioncreation.com/,,,https://www.billioncreation.com/contact/,,Contact,1,CA,91911,clothing_store
Susa Boutique,"140 N Indian Hill Blvd, Claremont, CA 91711",Clothing store,Claremont,,http://susaboutique.com/,,,http://susaboutique.com/#contact,,Get in Touch,1,CA,91711,clothing_store
Tattle Tails Boutique,"309 Yale Ave, Claremont, CA 91711",Children's clothing store,Claremont,,http://www.ttkidsclothes.com/,,,http://www.ttkidsclothes.com/contact-us/,,Contact us,1,CA,91711,clothing_store
Michael Ferrera Custom Clothing,"915 W Foothill Blvd #362, Claremont, CA 91711",Men's clothing store,Claremont,,http://www.michaelferrera.com/,,,https://michaelferrera.com/contact/,,CONTACT,1,CA,91711,clothing_store
The Alley Cat Groom Shack,"5045 South Montclair Plaza Lane, Montclair, CA 91763",Men's clothing store,Montclair,,http://thealleycatworldwide.bigcartel.com/,,,http://thealleycatworldwide.bigcartel.com/contact,,Contact,1,CA,91763,clothing_store
Sassano's Mens Wear,"448 Pollasky Ave, Clovis, CA 93612",Men's clothing store,Clovis,,http://www.sassanosmenswear.com/,,,http://www.sassanosmenswear.com/contactus.html,,"
				Contact
			",1,CA,93612,clothing_store
De Lucas Clothing Store,"1612 6th St, Coachella, CA 92236",Uniform store,Coachella,,https://www.delucaclothing.com/,,,https://www.delucaclothing.com/contact,,CONTACT US,1,CA,92236,clothing_store
Gina's Fashion Boutique,"51335 Harrison St, Coachella, CA 92236",Boutique,Coachella,,http://ginasfashion.homestead.com/,,,http://ginasfashion.mybigcommerce.com/contact-us/,,CONTACT US,1,CA,92236,clothing_store
El Fanta Sports,"49271 Grapefruit Blvd, Coachella, CA 92236",Sporting goods store,Coachella,,http://www.elfantasports.com/,,,http://www.elfantasports.com/contact-us,,Contact Us,1,CA,92236,clothing_store
BeauTiful,"82152 US Highway 111, Indio, CA 92201",Clothing store,Indio,,https://beautifulonlineinc.com/,,,https://beautifulonlineinc.com/contact-us/,,Contact Us,1,CA,92201,clothing_store
Kung fu 4 Less,"1593 Walter Ct, Colton, CA 92324",Clothing store,Colton,,http://kungfu4less.com/,,,http://kungfu4less.com/contact-us.html,,Email,1,CA,92324,clothing_store
The legend fashion,"1440 S E St #A1, San Bernardino, CA 92408",Men's clothing store,San Bernardino,,http://www.thelegendfashion.net/,,,https://www.thelegendfashion.net/contact,,Contact,1,CA,92408,clothing_store
Fashion Effect Store,"18626 S Wilmington Ave #105, Compton, CA 90220",Clothing store,Compton,,http://fashioneffectstore.com/,,,http://fashioneffectstore.com/pages/contact-us,,Contact Us,1,CA,90220,clothing_store
House of Posh Boutique,"319 W 6th St, Corona, CA 92882",Clothing store,Corona,,http://www.houseofposhboutique.com/,,,http://www.houseofposhboutique.com/mailto:contact@houseofposhboutique.com,,,1,CA,92882,clothing_store
CROWN,"591 N McKinley St #101, Corona, CA 92879",Clothing store,Corona,,http://www.shopcrownonline.com/,,,http://www.shopcrownonline.com/contact,,Contact,1,CA,92879,clothing_store
2nd STREET Costa Mesa,"2937 Bristol St d101, Costa Mesa, CA 92626",Used clothing store,Costa Mesa,,https://2ndstreetusa.com/,,,https://2ndstreetusa.com/contact,,Contact,1,CA,92626,clothing_store
B Side Shop,"130 Shoppers Ln, Covina, CA 91723",Clothing store,Covina,,http://www.bsideshow.net/,,,http://bsideshow.net/contact/,,Contact,1,CA,91723,clothing_store
Community Thrift Store,"19720 E Arrow Hwy, Covina, CA 91724",Thrift store,Covina,,http://redwhiteandbluethriftstore.com/,,,http://redwhiteandbluethriftstore.com/contact-us/,,Contact Us,1,CA,91724,clothing_store
Alandales,"9705 Washington Blvd, Culver City, CA 90232",Men's clothing store,Culver City,,http://www.alandales.com/,,,https://www.alandales.com/contact-us-alandales-mens-clothing-culver-city/,,Contact Us,1,CA,90232,clothing_store
The Modest Goddess,"20128 Stevens Creek Blvd, Cupertino, CA 95014",Women's clothing store,Cupertino,,http://www.themodestgoddess.com/,,,//www.hugedomains.com/contact.cfm,,Contact Us,1,CA,95014,clothing_store
Le Caprice,"10055 E Estates Dr, Cupertino, CA 95014",Boutique,Cupertino,"Small shop offers bridal alterations, women's formalwear & accessories including jewelry & purses.",http://lecaprice.com/,,,http://lecaprice.com/contact-us/,,Contact Us,1,CA,95014,clothing_store
Ardyss  Body Magic  Levive,"Visit Us Online, Cupertino, CA 95014",Women's clothing store,Cupertino,,http://www.aardyss.com/,,,"http://www.aardyss.com/javascript:__doPostBack('ctl00$LinkButton2','')",,Contact us,1,CA,95014,clothing_store
Sun Action Textiles,"11272 Knott St, Garden Grove, CA 92841",Clothing store,Garden Grove,,http://www.sunactiontextiles.com/,,,http://www.sunactiontextiles.com/contact_us,,Contact Us,1,CA,92841,clothing_store
Heavenly Affair,"5115 Ball Rd, Cypress, CA 90630",Bridal shop,Cypress,,http://www.aheavenlyaffaircandy.com/,,,http://www.aheavenlyaffaircandy.com/contactus.html,,Contact Us,1,CA,90630,clothing_store
Costumes4lesscom(r),"4171 Ball Rd #250, Cypress, CA 90630",Costume store,Cypress,,https://www.costumes4less.com/,,,https://www.costumes4less.com/contactus.aspx,,Contact us,1,CA,90630,clothing_store
Top Brass,"34679 Golden Lantern, Dana Point, CA 92629",Men's clothing store,Dana Point,,https://danapointharbor.com/,,,https://danapointharbor.com/contact/,,Contact,1,CA,92629,clothing_store
Hobie Surf Shop Dana Point,"34174 CA-1, Dana Point, CA 92629",Clothing store,Dana Point,,http://www.hobiesurfshop.com/,,,http://www.hobiesurfshop.com/contact,,Contact Us,1,CA,92629,clothing_store
Inheiding,"34062 Aurelio, Dana Point, CA 92629",Clothing store,Dana Point,,http://inheiding.com/,,,http://inheiding.com/contact,,Contact,1,CA,92629,clothing_store
Woody Hut,"34493 Golden Lantern, Dana Point, CA 92629",Gift shop,Dana Point,,http://www.thewoodyhut.com/,,,http://www.thewoodyhut.com/crm.asp?action=contactus,,Contact Us,1,CA,92629,clothing_store
ADX Apparel Inc,"24661 Del Prado Ave, Dana Point, CA 92629",Clothing store,Dana Point,,http://adxapparel.com/,,,//www.hugedomains.com/contact.cfm,,Contact Us,1,CA,92629,clothing_store
Island Tribe,"24551 Del Prado Ave, Dana Point, CA 92629",Clothing store,Dana Point,,https://islandtribe.co/,,,https://islandtribe.co/pages/contact,,"

  Contact

",1,CA,92629,clothing_store
Lingerie Paradis USA,"24040 Camino Del Avion D, Dana Point, CA 92629",Lingerie store,Dana Point,"Chic store featuring high-end lingerie, sleepwear & loungewear, with bra-fitting services.",http://www.lingerieparadisusa.com/,,,http://lingerieparadisusa.com/contact-us/,,CONTACT US,1,CA,92629,clothing_store
Boheme Hip Used Clothing,"409 3rd St, Davis, CA 95616",Thrift store,Davis,,http://bohemethreads.com/,,,http://bohemethreads.com/contact.html,,"
				Contact
			",1,CA,95616,clothing_store
Crucial Vibes Unlimited LLC,"204 E St, Davis, CA 95616",Clothing store,Davis,,http://www.crucialvibesunlimited.com/,,,https://www.crucialvibesunlimited.com/contact,,Contact,1,CA,95616,clothing_store
Perfect Silhouette,"816 11th Ave, Delano, CA 93215",Clothing store,Delano,,http://www.perfectsilhouette27.com/,,,http://www.perfectsilhouette27.com/tel:6613442960,,(661) 344-2960,1,CA,93215,clothing_store
Toppers Tuxedos,"718 High St., Delano, CA 93215",Tuxedo shop,Delano,,http://topperstuxx.com/,,,https://topperstuxx.com/contact/,,Contact,1,CA,93215,clothing_store
The Fire Connection,"2137 S Brea Canyon Rd, Diamond Bar, CA 91765",Clothing store,Diamond Bar,,http://www.thefireconnection.com/,,,http://www.thefireconnection.com/contactus.sc,,"
				Contact Us",1,CA,91765,clothing_store
BAIT,"2753 S Diamond Bar Blvd Ste B, Diamond Bar, CA 91765",Clothing store,Diamond Bar,"Modern retailer offering brand-name sneakers, athletic streetwear, funky collectibles & accessories.",https://goo.gl/,,,http://www.baitme.com/help/contact-us,,CONTACT US,1,CA,91765,clothing_store
One Stop Wedding LA & Bridal Shop,"402 S Prospectors Rd suite e, Diamond Bar, CA 91765",Bridal shop,Diamond Bar,,http://www.onestopweddingla.com/,,,https://www.onestopweddingla.com/contact,,CONTACT 聯絡,1,CA,91765,clothing_store
M2 Dancewear,"818 N Diamond Bar Blvd, Diamond Bar, CA 91765",Clothing store,Diamond Bar,,http://magicalsteps.org/,,,https://www.magicalsteps.org/music-vocals/,,"






						Music / Vocals					

						Contact us today to learn more					


						Learn More					


",1,CA,91765,clothing_store
La Bomba Vintage Clothing,"195 W 2nd St, Pomona, CA 91766",Clothing store,Pomona,"Store featuring hip styles of the past, from 1950s cocktail dresses to 1970s disco wear.",http://labombavintage.com/,,,https://www.domainmarket.com/contact,,Contact,1,CA,91766,clothing_store
Fashion Rush,"17709 Valley Blvd, City of Industry, CA 91744",Clothing store,City of Industry,,http://www.fashionrushclothing.com/,,,http://www.fashionrushclothing.com/#,,,1,CA,91744,clothing_store
Adore Fashion,"12053 Paramount Blvd, Downey, CA 90242",Women's clothing store,Downey,,http://www.adorefashion.net/,,,http://www.adorefashion.net/pages/contact-us,,Contact Us,1,CA,90242,clothing_store
GLADYS FASHION,"11404 Downey Ave, Downey, CA 90241",Women's clothing store,Downey,,http://www.gladysfashions.bigcartel.com/,,,http://www.gladysfashions.bigcartel.com/contact,,Contact,1,CA,90241,clothing_store
Zealouz Boutique,"12555 Lakewood Blvd B, Downey, CA 90242",Women's clothing store,Downey,,http://www.zealouzboutique.com/,,,http://www.zealouzboutique.com/contact,,Contact,1,CA,90242,clothing_store
Little Bazaar LLC,"5154 Persimmon Dr, Dublin, CA 94568",Women's clothing store,Dublin,,https://www.thelittlebazaar.com/,,,https://www.thelittlebazaar.com/Contactus.html,,Contact Us,1,CA,94568,clothing_store
Cassaras Italian Men's Wear,"7372 San Ramon Rd, Dublin, CA 94568",Men's clothing store,Dublin,"Independent retailer featuring a variety of men’s suits, ties & accessories, plus custom tailoring.",http://www.cassaras.com/,,,http://www.cassaras.com/contact,,"
            Contact
          ",1,CA,94568,clothing_store
Little Duchess Chic Boutique,"14608 Alpaca Ct, Eastvale, CA 92880",Children's clothing store,Eastvale,,http://www.littleduchesschicboutique.com/,,,http://www.littleduchesschicboutique.com/pages/contact-us,,Contact Us,1,CA,92880,clothing_store
Soccer Wearhouse,"12762 Limonite Ave, Eastvale, CA 92880",Sportswear store,Eastvale,,http://soccerwearhouse.com/,,,http://soccerwearhouse.com/pages/contact-us,,CONTACT US,1,CA,92880,clothing_store
Gemma's Jewelers,"12257 Limonite Ave #850, Eastvale, CA 91752",Jewelry store,Eastvale,,http://www.gemmasjewelers.com/,,,http://www.gemmasjewelers.com/pages/contact-us,,"
          Financing",1,CA,91752,clothing_store
Rebecca's Design,"8662 Quiet Woods St, Chino, CA 91708",Clothing store,Chino,,http://rebeccasdesign.com/,,,http://rebeccasdesign.com/contact.html,,"
				Contact
			",1,CA,91708,clothing_store
The Baby Exchange,"721 Arnele Ave, El Cajon, CA 92020",Baby clothing store,El Cajon,"Store with new & gently worn clothing for kids up to size 12, plus discounted nursery furnishings.",http://www.babyexchangechildrensresale.com/,,,http://www.babyexchangechildrensresale.com/contact-us-1.html,,Contact Us,1,CA,92020,clothing_store
Driscoll's Sports,"1470 W State St #4, El Centro, CA 92243",Men's clothing store,El Centro,,http://www.driscolls.net/,,,http://www.driscolls.net/contact,,Contact,1,CA,92243,clothing_store
Thienes Apparel Inc,"1811 Floradale Ave, South El Monte, CA 91733",Clothing store,South El Monte,,http://www.thienes.com/,,,http://thienes.com/index.php/contact/,,Contact,1,CA,91733,clothing_store
Sara Fashion,"10823 Main St, El Monte, CA 91731",Women's clothing store,El Monte,,http://sarafashionstyle.com/,,,http://sarafashionstyle.com/contact-us/,,Contact Us,1,CA,91731,clothing_store
El Vaquero,"10721 Main St, El Monte, CA 91731",Western apparel store,El Monte,,http://www.thecowboystore.com/,,,http://www.thecowboystore.com/b3cfd45f.com/contact.html,,          Contact      ,1,CA,91731,clothing_store
Little Angels,"10915 Main St, El Monte, CA 91731",Children's clothing store,El Monte,,https://little-angels-3.ueniweb.com/,,,https://little-angels-3.ueniweb.com/#contact_us,,Contact Us,1,CA,91731,clothing_store
Sunrise Sportswear,"1819 Floradale Ave, South El Monte, CA 91733",Clothing store,South El Monte,,https://www.sunrisewear.com/,,,https://www.sunrisewear.com/contact/,,Contact us,1,CA,91733,clothing_store
Y&F Jeans,"10915 Rush St, South El Monte, CA 91733",Clothing store,South El Monte,,http://www.yfjeans.com/,,,http://www.yfjeans.com/contact,,Contact,1,CA,91733,clothing_store
A Touch of Fashion,"1900 Tyler Ave # G, South El Monte, CA 91733",Clothing store,South El Monte,,http://www.freebra.com/,,,http://www.freebra.com/contact.htm,,,1,CA,91733,clothing_store
Styles I Love Inc,"12335 Denholm Dr d, El Monte, CA 91732",Baby clothing store,El Monte,,http://www.stylesilove.com/,,,http://www.stylesilove.com/pages/contact-us,,"
            Contact Us
          ",1,CA,91732,clothing_store
Himalaya Clothing,"3939 Maxson Rd, El Monte, CA 91732",Clothing store,El Monte,,http://himalaya-clothing.com/,,,https://himalaya-clothing.com/public/contact,,Contact,1,CA,91732,clothing_store
SpotLight Hosiery,"2311 Durfee Ave, El Monte, CA 91732",Women's clothing store,El Monte,,http://spotlighthosiery.com/,,,http://spotlighthosiery.com/wholesale/contactus.php,,contact us,1,CA,91732,clothing_store
Vibes Base Enterprises,"9328 Telstar Ave, El Monte, CA 91731",Clothing store,El Monte,,http://www.vibesbase.com/,,,https://www.vibesbase.com/blank-pvj6y,,Contact,1,CA,91731,clothing_store
Orchid Apparel llc,"1505 Santa Anita Ave, South El Monte, CA 91733",Women's clothing store,South El Monte,,http://toppy-t.com/,,,https://toppy-t.com/contact/,,Contact,1,CA,91733,clothing_store
Bijou,"815 12th St, Paso Robles, CA 93446",Women's clothing store,Paso Robles,,https://www.bijouonthepark.com/,,,https://www.bijouonthepark.com/contact-us.htm,, CONTACT US,1,CA,93446,clothing_store
Apropos,"840 11th St STE 103, Paso Robles, CA 93446",Women's clothing store,Paso Robles,,https://shopapropos.com/,,,https://shopapropos.com/#contact,,Contact,1,CA,93446,clothing_store
Goodwill Central Coast,"1020 Park St, Paso Robles, CA 93446",Used clothing store,Paso Robles,,http://www.ccgoodwill.org/,,,https://www.ccgoodwill.org/about/contact-us/,,Contact Us,1,CA,93446,clothing_store
The Blenders,"538 12th St, Paso Robles, CA 93446",Women's clothing store,Paso Robles,,http://theblenderspasorobles.com/,,,http://theblenderspasorobles.com/contact/,,Contact,1,CA,93446,clothing_store
Firefly,"839 12th St, Paso Robles, CA 93446",Boutique,Paso Robles,,http://www.fireflypaso.com/,,,https://www.fireflypaso.com/contact-us/,,Contact Us,1,CA,93446,clothing_store
Gatherings Emporium,"1335 Park St, Paso Robles, CA 93446",Thrift store,Paso Robles,,http://www.gatheringsemporium.org/,,,http://www.gatheringsemporium.org/contact-us.html,,"
				Contact Us
			",1,CA,93446,clothing_store
Vuori Clothing,"625 S Coast Hwy 101, Encinitas, CA 92024",Clothing store,Encinitas,"Flagship boutique for the local brand's active apparel, with events like yoga classes & art shows.",http://www.vuoriclothing.com/,,,https://vuori-clothing.myshopify.com/pages/faq#contact-customer-service,,Contact Us / FAQ,1,CA,92024,clothing_store
UNIV,"1053 S Coast Hwy 101 B, Encinitas, CA 92024",Clothing store,Encinitas,"Small, cool shop for men spotlighting high-end denim, graphic tees & footwear, plus accessories.",http://univbrand.com/,,,http://univbrand.com/pages/contact-us,,Contact Us,1,CA,92024,clothing_store
ZIA Fashion Store,"282 N El Camino Real E, Encinitas, CA 92024",Women's clothing store,Encinitas,,https://shopatzia.com/,,,https://shopatzia.com/pages/contact-us,,Contact us,1,CA,92024,clothing_store
Pacific Coast Apparel,"1106 2nd St #622, Encinitas, CA 92024",Beach clothing store,Encinitas,,https://pacificcoastapparel.com/,,,https://pacificcoastapparel.com/pages/frontpage,,Contact Us,1,CA,92024,clothing_store
VIXEN,"422 N Coast Hwy 101, Encinitas, CA 92024",Women's clothing store,Encinitas,,http://www.shopvixenstyle.com/,,,http://www.shopvixenstyle.com/pages/contact-us,,"
        Contact
      ",1,CA,92024,clothing_store
EL RODEO WESTERN WEAR,"1936 N Texas St, Fairfield, CA 94533",Western apparel store,Fairfield,,https://botinescharros.com/,,,https://botinescharros.com/pages/contacto,,Contacto,1,CA,94533,clothing_store
Erika's Boutique,"8960 Sierra Ave, Fontana, CA 92335",Clothing store,Fontana,,https://erikas-boutique01.com/,,,https://erikas-boutique01.com/pages/contact-us,,Contact,1,CA,92335,clothing_store
Culture Wear,"16731 Santa Ana Ave #310991, Fontana, CA 92337",Clothing store,Fontana,,http://www.culturewear.net/,,,http://www.culturewear.net/pages/contact-us,,"
          Contact Us
          


",1,CA,92337,clothing_store
tees geek,"18245 Mt Baldy Cir, Fountain Valley, CA 92708",Clothing store,Fountain Valley,,https://teesgeek.com/,,,https://teesgeek.com/pages/contact-us,,"
Contact Us
",1,CA,92708,clothing_store
Faces Apparel,"17150 Newhope St, Fountain Valley, CA 92708",Clothing store,Fountain Valley,,http://facesapparel.com/,,,http://facesapparel.com/contact-us/,,Contact Us,1,CA,92708,clothing_store
Beyond The Links,"17151 Newhope St, Fountain Valley, CA 92708",Clothing store,Fountain Valley,,http://www.beyondthelinks.com/,,,https://www.beyondthelinks.com/contact-us/,,CONTACT US,1,CA,92708,clothing_store
Stacy's Closet,"8598 Warner Ave, Fountain Valley, CA 92708",Boutique,Fountain Valley,"Women's consignment shop spotlighting high-end clothing, shoes & accessories from designer labels.",http://www.stacyscloset.com/,,,http://visitor.r20.constantcontact.com/d.jsp?llr=gghhgrhab&p=oi&m=1107604774086&sit=ak8sxujgb&f=c7f51686-d11f-4aa5-ad5f-f8e9758411c4,,HERE,1,CA,92708,clothing_store
Miel,"3313 Hyland Ave, Costa Mesa, CA 92626",Clothing store,Costa Mesa,,http://www.mielboutique.com/,,,http://www.mielboutique.com/pages/contact-us,,"
                          Contact Us
                        ",1,CA,92626,clothing_store
Adrienne Designs,"17150 Newhope St # 514, Fountain Valley, CA 92708",Clothing store,Fountain Valley,,http://www.adgoldchain.com/,,,http://www.adgoldchain.com/contact,,Contact Us,1,CA,92708,clothing_store
Bra Garden,"8582 Warner Ave, Fountain Valley, CA 92708",Lingerie store,Fountain Valley,,http://www.bragarden.com/,,,http://www.bragarden.com/pages/contact-us-1,,Contact Us,1,CA,92708,clothing_store
Nikhar Fashion,"3870 Carol Ave, Fremont, CA 94538",Women's clothing store,Fremont,,http://www.nikharfashion.com/,,,http://www.nikharfashion.com/contact.html,,"
				Contact
			",1,CA,94538,clothing_store
Lolo,"305 N Harbor Blvd # 107, Fullerton, CA 92832",Women's clothing store,Fullerton,,http://www.loloboutique.com/,,,http://www.loloboutique.com/contact.html,,Contact,1,CA,92832,clothing_store
The Dresser Bridal,"112 W Commonwealth Ave, Fullerton, CA 92832",Dress store,Fullerton,"Established salon offering designer, couture bridal gowns & adornments in a sophisticated setting.",http://www.thedresserbridal.com/,,,https://www.thedresserbridal.com/contact,,Contact,1,CA,92832,clothing_store
Swagg Boutique,"13967 Van Ness Ave, Gardena, CA 90249",Women's clothing store,Gardena,"Women's clothing store selling form-fitting dresses, hip-hugging skirts, cut-off shorts & more.",http://www.swaggboutique.com/,,,http://www.swaggboutique.com/pages/contact-us,,Contact us,1,CA,90249,clothing_store
Urban Royalty Boutique,"14800 S Western Ave Suite 101, Gardena, CA 90249",Women's clothing store,Gardena,,http://www.urbanroyaltyla.com/,,,http://www.urbanroyaltyla.com/pages/contact-us,,Contact Us,1,CA,90249,clothing_store
American Recycled Clothing Co,"1715 W 132nd St, Gardena, CA 90249",Used clothing store,Gardena,,http://www.arclothing.com/,,,https://www.arclothing.com/contact-us/,,Contact Us,1,CA,90249,clothing_store
CC LAVISH,"1703 W El Segundo Blvd, Gardena, CA 90249",Clothing store,Gardena,,https://cclavish.com/,,,https://cclavish.com/pages/contact-us,,CONTACT US,1,CA,90249,clothing_store
Budget Uniform Rental,"1702 W 134th St, Gardena, CA 90249",Uniform store,Gardena,,https://www.budget-uniform.com/,,,https://www.budget-uniform.com/los-angeles-work-uniforms-rental-service-contact/,,Contact Us,1,CA,90249,clothing_store
Kucharik's Bicycle Clothing,"1745 W 182nd St, Gardena, CA 90248",Sportswear store,Gardena,Showroom for a company that makes a variety of bicycling clothes & accessories for men & women.,http://www.kucharik.com/,,,http://www.kucharik.com/contact_us.php,,Contact Us,1,CA,90248,clothing_store
Nordic Worker,"1866 W 169th St, Gardena, CA 90247",Work clothes store,Gardena,,http://www.nordicworker.com/,,,//www.hugedomains.com/contact.cfm,,Contact Us,1,CA,90247,clothing_store
Qsuit,"333 W Alondra Blvd, Gardena, CA 90248",Clothing store,Gardena,"Brand-name formalwear for men, including big & tall options, is in abundance at this large outlet.",http://warehousesuitsale.com/,,,https://www.warehousesuitsale.com/contact-warehouse-suit-sale,,Contact,1,CA,90248,clothing_store
Working Wardrobes Resale Shop  Garden Grove,"12761 S Harbor Blvd, Garden Grove, CA 92840",Clothing store,Garden Grove,,http://www.workingwardrobes.org/,,,https://workingwardrobes.org/contact-us/,,Contact Us,1,CA,92840,clothing_store
Georgio's Tuxedo,"1000 E Rte 66 unit p, Glendora, CA 91740",Men's clothing store,Glendora,,https://georgiostuxedo.com/,,,https://georgiostuxedo.com/contact-us,,Contact us,1,CA,91740,clothing_store
Born Aggressive Clothing Company,"449 W Foothill Blvd, Glendora, CA 91741",Clothing store,Glendora,,https://www.bornaggressive.com/,,,https://www.bornaggressive.com/about/contact,,"Contact Us

Cart

Log In
",1,CA,91741,clothing_store
Feral Outdoor Gear LLC,"449 W Foothill Blvd #446, Glendora, CA 91741",Outdoor clothing and equipment shop,Glendora,,http://feraloutdoorgear.com/,,,http://feraloutdoorgear.com/pages/contact-us,,Contact Us,1,CA,91741,clothing_store
Domenic's Tailor & Tux,"1200 E Rte 66 # 115, Glendora, CA 91740",Tuxedo shop,Glendora,,http://domenicstailoringandtuxedo.com/,,,http://domenicstailoringandtuxedo.com/contact/3768531,,CONTACT,1,CA,91740,clothing_store
MSTKN Society Clothing,"210 W Arrow Hwy, San Dimas, CA 91773",Clothing store,San Dimas,,http://www.mistakenclothing.com/,,,http://www.mistakenclothing.com/pages/contact-us,,Contact Us,1,CA,91773,clothing_store
R G Costumes & Accessories Inc,"726 Arrow Grand Cir, Covina, CA 91722",Costume store,Covina,,http://www.rgcostume.com/,,,http://www.rgcostume.com/contactus.asp,,CONTACT US ,1,CA,91722,clothing_store
Jasmin Michelle Designs,"100 N Glendora Ave #105, Glendora, CA 91741",Wedding planner,Glendora,,http://www.jasminmichelledesigns.com/,,,https://jasminmichelledesigns.com/contact-us/,,Contact Us,1,CA,91741,clothing_store
Rev Varsity,"301 E Arrow Hwy #102, San Dimas, CA 91773",Clothing store,San Dimas,,http://revvarsity.com/,,,http://revvarsity.com/contact-us,," Contact Us

",1,CA,91773,clothing_store
Island View Outfitters,"6565 Trigo Rd, Goleta, CA 93117",Clothing store,Goleta,,http://islandviewoutfitters.com/,,,http://islandviewoutfitters.com/pages/contact,,"
 Contact
",1,CA,93117,clothing_store
Peacocks Marching World,"325 Rutherford St, Goleta, CA 93117",Uniform store,Goleta,,http://www.marchingworld.com/,,,https://marchingworld.com/contact/,,Contact Us,1,CA,93117,clothing_store
Alpha Thrift Store  Goleta,"5624 Hollister Ave, Goleta, CA 93117",Thrift store,Goleta,,http://alphathriftstore.com/,,,http://alphathriftstore.com/contact,,Contact,1,CA,93117,clothing_store
Deedy'z Lane,"14129 Crenshaw Blvd, Hawthorne, CA 90250",Women's clothing store,Hawthorne,,http://deedyzlane.com/,,,http://deedyzlane.com/tel:3233147600,,(323) 314-7600,1,CA,90250,clothing_store
Designs By Arma,"14035 Crenshaw Blvd #6, Hawthorne, CA 90250",Women's clothing store,Hawthorne,,http://designsbyarma.storenvy.com/,,,http://designsbyarma.storenvy.com/contact,,Contact,1,CA,90250,clothing_store
Plata O Plomo Clothing,"14000 Cordary Ave #15, Hawthorne, CA 90250",Clothing store,Hawthorne,,http://www.plataoplomo.la/,,,http://www.plataoplomo.la/contact-us,,Contact Us,1,CA,90250,clothing_store
XTreme Activewear,"12703 Cerise Ave, Hawthorne, CA 90250",Clothing store,Hawthorne,,http://xtreme-goldsgym.com/,,,http://xtreme-goldsgym.com/contact-us.php,,Contact Us,1,CA,90250,clothing_store
Vintage Alley,"1037 B St, Hayward, CA 94541",Vintage clothing store,Hayward,,https://www.vintagealleyhayward.com/,,,https://www.vintagealleyhayward.com/#contact,,"
Contact

",1,CA,94541,clothing_store
Glorias,"3460 20th St, Highland, CA 92346",Clothing store,Highland,,https://glorias-1.ueniweb.com/,,,https://glorias-1.ueniweb.com/#contact_us,,Contact Me,1,CA,92346,clothing_store
Blueprnt Apparel Company,"1185 S Bascom Ave, San Jose, CA 95128",Western apparel store,San Jose,"Unpretentious retailer offering a wide assortment of traditional Western wear, boots & accessories.",http://www.winchesterwesternwearsj.com/,,,http://www.winchesterwesternwearsj.com/contact-us,," Contact Us

",1,CA,95128,clothing_store
Bella Charm,"1709 Airline Hwy, Hollister, CA 95023",Boutique,Hollister,,http://www.mybellacharm.com/,,,http://mybellacharm.com/contact/,,Bottoms,1,CA,95023,clothing_store
San Benito Bene,"615 San Benito St, Hollister, CA 95023",Gift shop,Hollister,,http://www.sanbenitobene.com/,,,http://www.sanbenitobene.com/contact.php,,Contact Us,1,CA,95023,clothing_store
Savage Designs,"1700 Lana Way, Hollister, CA 95023",Clothing store,Hollister,,http://savagedesigns4u.com/,,,https://savagedesigns4u.espwebsite.com/ContactUs/?referrerPage=Home&refPgId=523238356&PCUrl=1,,Contact Us,1,CA,95023,clothing_store
Buckaroo Brand Wild Rags,"106 Third St, Hollister, CA 95023",Clothing store,Hollister,,http://buckaroobrand.com/,,,http://buckaroobrand.com/contact_us.htm,,"Contact
                Us",1,CA,95023,clothing_store
Alpaca Headquarters  Your Peruvian Store,"312 a Third St, San Juan Bautista, CA 95045",Women's clothing store,San Juan Bautista,,https://alpacaheadquarters.com/,,,https://alpacaheadquarters.com/contact-us,,"
        Contact Us
    ",1,CA,95045,clothing_store
American Vintage Clothing,"945 Broxton Ave, Los Angeles, CA 90024",Vintage clothing store,Los Angeles,,http://www.thewestwoodvillage.com/,,,https://thewestwoodvillage.com/doing-business/emergency-contacts/,,Emergency Contacts,1,CA,90024,clothing_store
Heavenly Couture,"200 Main St #113, Huntington Beach, CA 92648",Women's clothing store,Huntington Beach,,https://heavenlycouture.com/,,,https://heavenlycouture.com/pages/contact-us,,"
                        Contact Us
                      ",1,CA,92648,clothing_store
Smocking Birds,"21034 CA-1 c250, Huntington Beach, CA 92648",Baby clothing store,Huntington Beach,"Hip, colorful baby shop carrying children's apparel, including organic gear, plus toys & supplies.",http://smockingbirdsboutique.com/,,,https://www.smockingbirdsboutique.com/contact-us,,Where to find us,1,CA,92648,clothing_store
Surf City Store,"315 Pacific Coast Hwy, Huntington Beach, CA 92648",Clothing store,Huntington Beach,,http://www.surfcityusa.com/,,,https://www.surfcityusa.com/partner/about-visit-huntington-beach/contact-us/,,Request Info,1,CA,92648,clothing_store
El Norteno Family Store,"6801 Pacific Blvd, Huntington Park, CA 90255",Men's clothing store,Huntington Park,,http://www.elgeneralexpress.com/,,,http://www.elgeneralexpress.com/pages/contact,,,1,CA,90255,clothing_store
Palace,"6518 Pacific Blvd, Huntington Park, CA 90255",Dress store,Huntington Park,,http://palacebridals.com/,,,http://palacebridals.com/member/contactus.php,,Contact Us,1,CA,90255,clothing_store
Cali Queen Dresses,"7012 Pacific Blvd, Huntington Park, CA 90255",Bridal shop,Huntington Park,,https://caliqueendresses.com/,,,https://caliqueendresses.com/tel:3233620761,,(323)362-0761,1,CA,90255,clothing_store
Cutie Zone,"6528 Pacific Blvd # C, Huntington Park, CA 90255",Children's clothing store,Huntington Park,,http://www.cutiezone.com/,,,http://cutiezone.com/category/contact.html,,欧美免费全部免费观看,1,CA,90255,clothing_store
Yay Boutique,"7615 State St, Huntington Park, CA 90255",Women's clothing store,Huntington Park,,https://www.yayboutique.shop/,,,https://www.yayboutique.shop,,CONTACT ME,1,CA,90255,clothing_store
Diego Medel,"6810 Pacific Blvd, Huntington Park, CA 90255",Clothing store,Huntington Park,,http://www.diegomedelfashion.com/,,,https://www.diegomedelfashion.com/contact-diego-medel,,Contacts,1,CA,90255,clothing_store
CYSM Shapers,"5807 Pacific Blvd, Huntington Park, CA 90255",Lingerie store,Huntington Park,Chic merchant selling a range of lingerie plus activewear & casual clothing for women.,https://cysm.com/,,,https://cysm.com/pages/contacto,,"
                          Contact 
                        ",1,CA,90255,clothing_store
Luna de Miel,"7219 Pacific Blvd, Huntington Park, CA 90255",Lingerie store,Huntington Park,Established shop specializing in intimate lingerie & accessories for men & women.,http://www.lunademiel.biz/,,,https://www.lunademiel.biz/contact-us,,Contact Us,1,CA,90255,clothing_store
Scrubs & Stitches,"81557 Dr Carreon Blvd #B-3, Indio, CA 92201",Uniform store,Indio,,http://scrubsandstitches.com/,,,http://scrubsandstitches.com/contact-us,,Contact Us,1,CA,92201,clothing_store
Jhalae,"740 Centinela Ave UNIT 101, Inglewood, CA 90302",Women's clothing store,Inglewood,,https://jhalae.com/,,,https://jhalae.com/pages/contact,,CONTACT,1,CA,90302,clothing_store
TOP DIVERSIFIED AFRICAN FASHIONS AND ACCESSORIES,"238 S Market St, Inglewood, CA 90301",Clothing store,Inglewood,,http://www.coquettekouture.com/,,,https://www.coquettekouture.com/contact,,CONTACT,1,CA,90301,clothing_store
SHOE FANATIX CLOTHES ACCESSORIES  High Quality Women's Clothing Boutique Inglewood CA,"209 E Nutwood St, Inglewood, CA 90301",Women's clothing store,Inglewood,,http://www.shoefanatix.com/,,,http://www.shoefanatix.com/contact,,Contact,1,CA,90301,clothing_store
Sandhaya's Boutique,"2691 Richter Ave #114, Irvine, CA 92606",Clothing store,Irvine,,http://sandhayasboutique.com/,,,https://sandhayasboutique.com/elements/map-contact-us/,,Map – Contact US,1,CA,92606,clothing_store
Renoir Fashion Inc,"3647 De Forest Cir, Jurupa Valley, CA 91752",Clothing store,Jurupa Valley,,http://www.renoirclothes.com/,,,http://www.renoirclothes.com/contact.html,,"
CONTACT
",1,CA,91752,clothing_store
pmc apparel,"9440 Corral St, Riverside, CA 92509",Clothing store,Riverside,,http://pmcapparel.com/,,,http://www.promotionusa.us/index.php?route=information/contact,,Contact Us,1,CA,92509,clothing_store
High Seas Trading Co,"23482 Peralta Dr D2, Laguna Hills, CA 92653",Clothing store,Laguna Hills,,http://www.highseastradingco.com/,,,http://www.highseastradingco.com/t-contact.aspx,,Contact Us,1,CA,92653,clothing_store
Z Cavaricci,"23161 Mill Creek Dr, Laguna Hills, CA 92653",Men's clothing store,Laguna Hills,,https://www.zcavaricci.com/,,,https://www.zcavaricci.com/contact/,,Contact Us,1,CA,92653,clothing_store
Cluburbancom,"23151 Alcalde Dr, Laguna Hills, CA 92653",Clothing store,Laguna Hills,,http://www.cluburban.com/,,,http://www.cluburban.com/contacts,,Contact us,1,CA,92653,clothing_store
OC Sparkle,"27881 La Paz Rd A, Laguna Niguel, CA 92677",Formal wear store,Laguna Niguel,,http://www.ocsparkle.com/,,,https://ocsparkle.com/contact-us,,Contact Us,1,CA,92677,clothing_store
Eros Sport Inc,"29911 Niguel Rd #7062, Laguna Niguel, CA 92607",Men's clothing store,Laguna Niguel,,http://www.erossport.com/,,,http://www.erossport.com/contact.html,,"
				CONTACT US
			",1,CA,92607,clothing_store
The Hanger,"28051 Greenfield Dr, Laguna Niguel, CA 92677",Boutique,Laguna Niguel,Men's & women's clothing consignment shop benefiting a career development nonprofit organization.,http://thehangerboutiques.org/,,,https://workingwardrobes.org/contact-us/,,Contact Us,1,CA,92677,clothing_store
J Trendy,"54 Lakewood Center Mall, Lakewood, CA 90712",Women's clothing store,Lakewood,,http://www.shoplakewoodcenter.com/,,,http://www.shoplakewoodcenter.com/Contact,,CONTACT US,1,CA,90712,clothing_store
Love Scrubs Medical Uniforms Orange County,"23708 El Toro Rd suite b, Lake Forest, CA 92630",Uniform store,Lake Forest,,http://www.lovescrubsuniforms.com/,,,http://www.lovescrubsuniforms.com/contact-us,,Contact Us,1,CA,92630,clothing_store
First Ladies Knit Suits,"725 W Lancaster Blvd #33, Lancaster, CA 93534",Clothing store,Lancaster,,http://www.rapturegold.com/,,,http://www.rapturegold.com/womenschurchsuits.html,,"
		    Contact Us
		  ",1,CA,93534,clothing_store
New 4U Kids Consignment,"4200, 42741 45th St W ste.g, Lancaster, CA 93536",Used clothing store,Lancaster,"Quaint consignment shop featuring secondhand kids' clothing, furniture & toys in a relaxed setting.",http://www.new4ukids.com/,,,http://www.new4ukids.com/dGVsOjY2MS43MjIuNzY0MQ==,,NjYxLjcyMi43NjQx,1,CA,93536,clothing_store
Rapture Gold Church Suits & Donna Vinci,"727 W Lancaster Blvd, Lancaster, CA 93534",Women's clothing store,Lancaster,,http://rapturegold.com/,,,http://rapturegold.com/womenschurchsuits.html,,"
		    Contact Us
		  ",1,CA,93534,clothing_store
Ootd Fash Boutique,"2067 W Whittier Blvd, La Habra, CA 90631",Clothing store,La Habra,,https://www.ootdfash.com/,,,https://www.ootdfash.com/pages/contact-us,,Contact Us ,1,CA,90631,clothing_store
CostLess Wholesale,"1403 E Lambert Rd, La Habra, CA 90631",Clothing store,La Habra,"Sprawling wholesale shop carrying closeout brand-name home goods, apparel & electronics.",https://costlesswholesale.com/,,,https://costlesswholesale.com/contact-us/,,Contact,1,CA,90631,clothing_store
Winsome Brides,"8630 La Mesa Blvd, La Mesa, CA 91942",Bridal shop,La Mesa,,https://www.bridalshoplamesa.com/,,,https://www.bridalshoplamesa.com/contactus/,,contact,1,CA,91942,clothing_store
KORE Essentials,"8333 Case St Suite # A, La Mesa, CA 91942",Clothing store,La Mesa,,http://www.koreessentials.com/,,,https://www.koreessentials.com/pages/contact-us,,CONTACT US,1,CA,91942,clothing_store
Blackbird,"8201 La Mesa Blvd, La Mesa, CA 91942",Gift shop,La Mesa,,http://www.blackbirdlamesa.com/,,,https://www.blackbirdlamesa.com/contact-us,,LOCATION/CONTACT US,1,CA,91942,clothing_store
Looks Better On Me,"6940, C, Alvarado Rd, San Diego, CA 92120",Vintage clothing store,San Diego,"Consignment boutique offering designer apparel, shoes & accessories for women in a variety of sizes.",http://looksbetteronme.com/,,,https://looksbetteronme.com/contact/,,CONTACT,1,CA,92120,clothing_store
Scrub Mart La Mesa,"7200 Parkway Dr #101, La Mesa, CA 91942",Uniform store,La Mesa,"Retailer carrying a wide selection of medical professionals' uniforms, like scrubs & lab coats.",http://www.scrubmart.com/,,,http://www.scrubmart.com/chinst.html,,Contact Information,1,CA,91942,clothing_store
Fashion I Land,"15300 Valley View Ave o6, La Mirada, CA 90638",Women's clothing store,La Mirada,,http://www.fashioniland.com/,,,https://fashioniland.com/contact-us/,,Contact Us,1,CA,90638,clothing_store
Tiara Apparel,"14808 Beach Blvd, La Mirada, CA 90638",Women's clothing store,La Mirada,,http://tiaraocapparel.com/,,,https://www.tiaraocapparel.com/contact,,Contact,1,CA,90638,clothing_store
A Total Woman,"12743 Valley View Ave, La Mirada, CA 90638",Lingerie store,La Mirada,"Store selling bras ranging from 28 to 56 & A to N, including post-mastectomy bras & swimwear.",http://www.atotalwoman.com/,,,http://www.atotalwoman.com/a/locations/contact/10433?return_to=%2F,,"

                Email
",1,CA,90638,clothing_store
La Mirada RentATux,"15019 Imperial Hwy, La Mirada, CA 90638",Tuxedo shop,La Mirada,,http://www.go2rentatux.com/,,,https://www.go2rentatux.com/contact,,CONTACT,1,CA,90638,clothing_store
J & A Formal Wear,"15817 Main St, La Puente, CA 91744",Tuxedo shop,La Puente,,http://www.jandaformalwear.com/,,,http://www.jandaformalwear.com/contact_us.html,," 
               
                     
                   
                   
                   
                     Contact Us 
                      
               
             ",1,CA,91744,clothing_store
Teeheesocks,"235 S 6th Ave, La Puente, CA 91746",Clothing store,La Puente,,http://teeheesocks.com/,,,http://teeheesocks.com/pages/contact-us,,Contact Us,1,CA,91746,clothing_store
Tsg Mensuit,"166 S 6th Ave, La Puente, CA 91746",Clothing store,La Puente,,http://www.tsgmensuit.com/,,,http://www.tsgmensuit.com/contact-us.html,,Contact Us ,1,CA,91746,clothing_store
Precious Bride,"14316 Amar Rd, La Puente, CA 91744",Bridal shop,La Puente,,http://preciousbride.net/,,,http://preciousbride.net/#,,Contact Me,1,CA,91744,clothing_store
Menswear eCollection,"14145 Proctor Ave, La Puente, CA 91746",Clothing store,La Puente,,http://www.menswearecollection.com/,,,http://www.menswearecollection.com/pages/contact-us,,"
Contact Us
",1,CA,91746,clothing_store
Soulmates Dresses,"510 Coralridge Pl, La Puente, CA 91746",Clothing store,La Puente,,https://soulmatesdress.com/,,,https://soulmatesdress.com/pages/contact,,Contact,1,CA,91746,clothing_store
DoodleUsPrint,"235 S 6th Ave, La Puente, CA 91746",Clothing store,La Puente,,https://doodleusprint.com/,,,https://doodleusprint.com/contact/,,Contact,1,CA,91746,clothing_store
A Place In Time Children's Boutique,"2334 D St, La Verne, CA 91750",Children's clothing store,La Verne,,https://www.a-placeintime.com/,,,https://www.a-placeintime.com/,,Contact us,1,CA,91750,clothing_store
Spit Clothing Co,"4651 Wheeler Ave, La Verne, CA 91750",Clothing store,La Verne,,http://www.spitclothingco.com/,,,http://www.spitclothingco.com/contact,,Contact,1,CA,91750,clothing_store
Hollywood Babe Inc,"113 E Arrow Hwy, San Dimas, CA 91773",Clothing store,San Dimas,,http://hollywoodbabetv.com/,,,http://www.hollywoodbabe.com/contact-us/,,Contact,1,CA,91773,clothing_store
Aerithe Bridal,"1743 Genesee Ave, La Verne, CA 91750",Bridal shop,La Verne,,http://www.aerithe.com/,,,http://www.aerithe.com/contact.html,,"
				Contact
			",1,CA,91750,clothing_store
Alma's Bridal Boutique,"543 Lincoln Blvd, Lincoln, CA 95648",Bridal shop,Lincoln,,http://almasbridalboutique.net/,,,http://almasbridalboutique.net/contactus/,,Contact Us,1,CA,95648,clothing_store
Pineapples and Palm Trees,"2916 Sugarhouse Ln, Lincoln, CA 95648",Women's clothing store,Lincoln,,http://www.pineapplesandpalmtrees.net/,,,http://www.pineapplesandpalmtrees.net/pages/contact,,Contact,1,CA,95648,clothing_store
Dom's Outdoor Outfitters,"1870 First St, Livermore, CA 94550",Outdoor clothing and equipment shop,Livermore,"Longtime retailer carrying a variety of outdoor clothing, gear & accessories & camping equipment.",http://www.domsoutdoor.com/,,,http://www.domsoutdoor.com/contact-us/a/5/,,Contact Us,1,CA,94550,clothing_store
Van Heusen  IZOD Company Store,"2774 Livermore Outlets Dr, Livermore, CA 94551",Clothing store,Livermore,,http://vanheusen.com/,,,https://help.vanheusen.partnerbrands.com/s/brand-form,,Contact Us,1,CA,94551,clothing_store
Diva In U,"21 S Livermore Ave #105, Livermore, CA 94550",Clothing store,Livermore,,http://divainu.com/,,,//www.hugedomains.com/contact.cfm,,Contact Us,1,CA,94550,clothing_store
Logo Wear,"1421 S Ham Ln, Lodi, CA 95242",Clothing store,Lodi,,http://www.drlogowear.com/,,,http://www.drlogowear.com/index.html#contact,,CONTACT US,1,CA,95242,clothing_store
Hidden Treasures,"124 N I St, Lompoc, CA 93436",Thrift store,Lompoc,,http://www.vtc-sm.org/,,,https://www.vtc-sm.org/contact-us/,,Contact Us,1,CA,93436,clothing_store
La Bomba,"2222 E 4th St, Long Beach, CA 90814",Clothing store,Long Beach,Low-key store selling men's & women's vintage clothing from the 1930s through the 1990s.,http://www.labombavintage.com/,,,https://www.domainmarket.com/contact,,Contact,1,CA,90814,clothing_store
Goldie's On 4th,"2106 E 4th St, Long Beach, CA 90814",Clothing store,Long Beach,,http://goldieson4th.com/,,,http://goldieson4th.com/pages/contact-us,,About Us,1,CA,90814,clothing_store
The Girls  Los Altos,"239 State St, Los Altos, CA 94022",Children's clothing store,Los Altos,,http://www.thegirlsla.com/,,,http://www.thegirlsla.com/pages/contact-us,,Contact Us,1,CA,94022,clothing_store
Belle de Jour Boutique,"334 Main St, Los Altos, CA 94022",Women's clothing store,Los Altos,,https://www.belledejourboutique.net/,,,https://www.belledejourboutique.net/contact,,CONTACT,1,CA,94022,clothing_store
Revelation in Fit,"386 State St, Los Altos, CA 94022",Lingerie store,Los Altos,,http://www.revelationinfit.com/,,,http://www.revelationinfit.com/contact-us,,"
            Contact Us
          ",1,CA,94022,clothing_store
Diamond Brokers of Los Altos,"333 1st St, Los Altos, CA 94022",Jewelry store,Los Altos,"Simple showroom for a venerable jeweler offering loose diamonds, bridal sets, appraisals & repairs.",http://www.diamondbrokerslosaltos.com/,,,https://www.diamondbrokerslosaltos.com/contact-feedback/,,Contact,1,CA,94022,clothing_store
Foothill College Campus Store,"12345 El Monte Rd, Los Altos Hills, CA 94022",Clothing store,Los Altos Hills,,http://books.foothill.edu/,,,http://books.foothill.edu/Contact,,Contact Us,1,CA,94022,clothing_store
Black Market,"2060 Sawtelle Blvd, Los Angeles, CA 90025",Clothing store,Los Angeles,"Lifestyle boutique with an eclectic collection of clothing, accessories & gifts for men & women.",http://www.blackmarketla.com/,,,http://www.blackmarketla.com/pages/contact-us,,Contact Us,1,CA,90025,clothing_store
Half Off Clothing Store,"1748 N Vermont Ave, Los Angeles, CA 90027",Clothing store,Los Angeles,"Modest shop selling discount adult outfits & accessories, including T-shirts with humorous slogans.",http://www.halfoffclothingstore.com/,,,https://www.halfoffclothingstore.com/about-us-copy,,Contact Us,1,CA,90027,clothing_store
Karen Michelle BoutiqueDestiny Candle,"1460 S Robertson Blvd, Los Angeles, CA 90035",Women's clothing store,Los Angeles,,https://karenmichelle.com/,,,https://karenmichelle.com/contact,,Contact Us,1,CA,90035,clothing_store
Lush Clothing,"1100 San Pedro St Suite A-12, Los Angeles, CA 90015",Clothing store,Los Angeles,"Boutique carrying a line of trendy, relaxed women's styles with a boho-chic flair.",http://www.lushclothing.com/,,,http://www.lushclothing.com/contact,,Contact Us,1,CA,90015,clothing_store
Over The Limit Apparel,"1316 S Main St #5, Los Angeles, CA 90015",Clothing store,Los Angeles,,http://www.overthelimitapparel.com/,,,http://www.overthelimitapparel.com/pages/contact-us,,Contact Us,1,CA,90015,clothing_store
Apolis Print Shop,"806 E 3rd St, Los Angeles, CA 90013",Clothing store,Los Angeles,"Shop for customizable bags, for kids & adults, plus information about the mothers crafting each bag.",https://www.apolisglobal.com/,,,https://www.apolisglobal.com/service/contact/,,Service,1,CA,90013,clothing_store
WestStar Integrated Systems,"WestStar Integrated Systems, Los Banos, CA 93635",Clothing store,Los Banos,,http://weststarsystems.com/,,,http://weststarsystems.com/contact.php,,Request an Estimate Here!,1,CA,93635,clothing_store
Kitsch Couture,"10 N Santa Cruz Ave, Los Gatos, CA 95030",Clothing store,Los Gatos,"Boutique with chic, women's casualwear, including dresses, T-shirts, jeans, shoes & accessories.",http://www.kitschcouture.com/,,,http://www.kitschcouture.com/contact-us/,,CONTACT US,1,CA,95030,clothing_store
Viva O Sol,"155 N Santa Cruz Ave, Los Gatos, CA 95030",Boutique,Los Gatos,,https://vivaosol.com/,,,https://vivaosol.com/pages/contact-us,,"

  Contact Us

",1,CA,95030,clothing_store
The Library,"34 N Santa Cruz Ave, Los Gatos, CA 95030",Men's clothing store,Los Gatos,,http://www.thelibrarylg.com/,,,http://www.thelibrarylg.com/tel:4089307575,,(408) 930-7575,1,CA,95030,clothing_store
She She Shoes,"130 N Santa Cruz Ave suite d, Los Gatos, CA 95030",Shoe store,Los Gatos,,http://shesheshoes.com/,,,http://shesheshoes.com/pages/contact-us,,CONTACT,1,CA,95030,clothing_store
Kmbroz Shoes And Boots,"14910 Garfield Ave, Paramount, CA 90723",Clothing store,Paramount,"Western retailer offering a selection of exotic cowboy boots, unique leather jackets & hats.",http://www.losaltosboots.com/,,,http://www.losaltosboots.com/index.php?main_page=contact_us&zenid=j4lm6bh1m35teqt8ct8ik0jea1,,Contact Us,1,CA,90723,clothing_store
Ellie's Boutique,"3100 E Imperial Hwy, Lynwood, CA 90262",Boutique,Lynwood,,https://ellie-s-boutique.ueniweb.com/,,,https://ellie-s-boutique.ueniweb.com/#contact_us,,Contact Us,1,CA,90262,clothing_store
Fresh Produce Sportswear,"451 Manhattan Beach Blvd #d116, Manhattan Beach, CA 90266",Women's clothing store,Manhattan Beach,,http://freshproduceclothes.com/,,,http://freshproduceclothes.com/contacts/index,,Contact Us,1,CA,90266,clothing_store
Greigh Goods,"1300 Highland Ave STE 108, Manhattan Beach, CA 90266",Women's clothing store,Manhattan Beach,,http://www.greighgoods.com/,,,http://www.greighgoods.com/pages/contact,,"
                Contact
            ",1,CA,90266,clothing_store
Turquoise,"1149 Manhattan Ave, Manhattan Beach, CA 90266",Clothing store,Manhattan Beach,,http://www.turquoise-shop.com/,,,https://www.turquoise-shop.com/contact-us,,Contact Us,1,CA,90266,clothing_store
Craze Fashion,"1261 W Yosemite Ave, Manteca, CA 95337",Clothing store,Manteca,,http://craze-fashion.com/,,,http://craze-fashion.com/pages/send-us-a-message,,Contact Us,1,CA,95337,clothing_store
Preet Fashion,"402 N Main St, Manteca, CA 95337",Clothing store,Manteca,,http://preetfashion.us/,,,http://preetfashion.us/./contact.php,,Contact Us,1,CA,95337,clothing_store
Function & Fringe,"828 Main St, Martinez, CA 94553",Clothing store,Martinez,,http://www.functionandfringe.com/,,,http://www.functionandfringe.com/pages/contact-us,,Contact Us,1,CA,94553,clothing_store
 CIMStorecom,"1330 Arnold Dr, Martinez, CA 94553",Clothing store,Martinez,,https://www.cimstore.com/,,,https://www.cimstore.com/contact-us.html,,"
				Contact
			",1,CA,94553,clothing_store
CC Kelly Accessories,"2246 Bridgeport Way, Martinez, CA 94553",Women's clothing store,Martinez,,http://www.cckellyaccessories.com/,,,http://www.cckellyaccessories.com/contact,,Contact,1,CA,94553,clothing_store
White Rabbit Boutique,"529 Main St, Martinez, CA 94553",Boutique,Martinez,"Outpost offering an eclectic selection of cards, local art, jewelry, incense & clothing.",http://whiterabbitboutique.net/,,,http://whiterabbitboutique.net/contactus.html,,,1,CA,94553,clothing_store
Hall Closet Thrift Store,"100 Glacier Dr, Martinez, CA 94553",Thrift store,Martinez,,http://www.reachingouryouth.org/,,,http://www.reachingouryouth.org/contact-us.html,,"
				Contact Us
			",1,CA,94553,clothing_store
Benicia Fashion Runway,"370 1st St, Benicia, CA 94510",Clothing store,Benicia,,http://www.beniciafashionrunway.com/,,,http://www.beniciafashionrunway.com/contact/,,Contact,1,CA,94510,clothing_store
TriLakes School Uniforms Letterman Jackets Banners Screenprinting,"32100 Menifee Rd, Menifee, CA 92584",Uniform store,Menifee,,http://trilakessportswear.com/,,,http://trilakessportswear.com/contact,,Contact Us,1,CA,92584,clothing_store
California Arabian Costumes,"25480 Craig Ave, Menifee, CA 92584",Costume store,Menifee,,http://www.californiaarabiancostumes.com/,,,http://www.californiaarabiancostumes.com/contact-us/,,Contact Us,1,CA,92584,clothing_store
Vanessa Alfaro Bridal & Couture By Appointment only,"32633 Comet Chase Ct, Menifee, CA 92584",Bridal shop,Menifee,,http://www.vanessaalfaro-store.com/,,,http://www.vanessaalfaro-store.com/pages/contact-us,,CONTACT US,1,CA,92584,clothing_store
Collezione,"3485 Edison Way, Menlo Park, CA 94025",Clothing store,Menlo Park,,http://www.collezioneusa.com/,,,http://www.collezioneusa.com/contact.html,,Contact Us,1,CA,94025,clothing_store
Healthy Horizons Silicon Valley Breastfeeding Center,"671 Oak Grove Ave #P, Menlo Park, CA 94025",Baby store,Menlo Park,,http://www.healthyhorizonsonline.com/,,,https://www.healthyhorizonsonline.com/contactus,,Contact,1,CA,94025,clothing_store
Nonchalant Casual Boutique,"2307 Oakdale Rd #804, Modesto, CA 95355",Women's clothing store,Modesto,,http://www.nonchalantboutique.com/,,,https://nonchalantboutique.com/contact/,,Contact,1,CA,95355,clothing_store
Dancewear,"403 S Myrtle Ave, Monrovia, CA 91016",Clothing store,Monrovia,,https://www.enchanteddancewear.org/,,,https://www.enchanteddancewear.org/pages/contact-us,,Contact Us,1,CA,91016,clothing_store
Nicole Bakti,"144 E Chestnut Ave, Monrovia, CA 91016",Clothing store,Monrovia,,http://www.nicolebakti.com/,,,http://www.nicolebakti.com/contact,,Contact,1,CA,91016,clothing_store
Fashion For Less,"146 E Duarte Rd, Arcadia, CA 91006",Clothing store,Arcadia,,http://www.stylesforless.com/,,,https://stylesforless.com/contacts/,,Contact Us,1,CA,91006,clothing_store
Saint Clark Bridal Suite,"519 S Myrtle Ave, Monrovia, CA 91016",Bridal shop,Monrovia,,http://www.saintclarkbridalsuite.com/,,,https://saintclarkbridalsuite.com/contact/,,Contact,1,CA,91016,clothing_store
Pacific Fly Group,"730 E Huntington Dr, Monrovia, CA 91016",Clothing store,Monrovia,,http://www.pacificfly.com/,,,http://www.pacificfly.com/contact.htm,,,1,CA,91016,clothing_store
2nd To None,"suite #5170, 5060 E N Montclair Plaza Ln suite #5170, Montclair, CA 91763",Clothing store,Montclair,,http://www.2ndtononeco.com/,,,http://www.2ndtononeco.com/pages/contact-us,,Contact Us,1,CA,91763,clothing_store
Roxy's Bridal,"4457 Holt Blvd, Montclair, CA 91763",Bridal shop,Montclair,"Unpretentious boutique providing wedding & bridesmaid dresses, plus prom attire & tuxedo rentals.",http://www.roxysbridalca.com/,,,http://www.roxysbridalca.com/Formal-Wear-Contact-Montclair-CA.html,,Contact,1,CA,91763,clothing_store
Lotion & Lace  One Stop Love Shop,"9197 Central Ave M, Montclair, CA 91763",Lingerie store,Montclair,"Unassuming, strip-mall retailer providing a selection of lingerie, novelty gifts & adult movies.",http://www.lotionsnlace.com/,,,https://lotionsnlace.com/contact/,,Contact,1,CA,91763,clothing_store
Hallowich,"4438 Brooks St unit a, Montclair, CA 91763",Clothing store,Montclair,,http://www.hallowitchcostumes.com/,,,http://www.hallowitchcostumes.com/pages/contact-us,,Contact Us,1,CA,91763,clothing_store
Pro Image Sports,"2154 N Montclair Plaza Ln, Montclair, CA 91763",Clothing store,Montclair,,https://proimagesports.com/,,,https://proimagesports.com/proimage-contact,,Contact Us                                           ,1,CA,91763,clothing_store
THURDY8,"810B S Atlantic Blvd, Monterey Park, CA 91754",Clothing store,Monterey Park,,http://thurdy8.com/,,,http://thurdy8.com/contact-us/,,Contact Us,1,CA,91754,clothing_store
Cutie Patootie Clothing Inc,"644 Monterey Pass Rd, Monterey Park, CA 91754",Clothing wholesaler,Monterey Park,,http://www.cutiepatootieclothing.com/,,,https://www.cutiepatootieclothing.com/index.php?route=information/contact,,Contact Us,1,CA,91754,clothing_store
Cecelia's Closet,"35 Peebles Ave, Morgan Hill, CA 95037",Clothing store,Morgan Hill,,http://edwardbossprado.org/,,,http://edwardbossprado.org/contact/,,Contact,1,CA,95037,clothing_store
Royal Clothiers,"17375 Monterey Rd, Morgan Hill, CA 95037",Men's clothing store,Morgan Hill,,https://rclothiers.com/,,,https://rclothiers.com/contact-us/,,Contact Us,1,CA,95037,clothing_store
Racer Gloves USA,"16035 Caputo Dr Suite G, Morgan Hill, CA 95037",Clothing store,Morgan Hill,,http://www.racerglovesusa.com/,,,http://www.racerglovesusa.com/pages/contact-racer-gloves-usa,,Contact Us,1,CA,95037,clothing_store
Creaciones Barron,"16999 Monterey Rd #B, Morgan Hill, CA 95037",Clothing store,Morgan Hill,,https://creaciones-barron.ueniweb.com/,,,https://creaciones-barron.ueniweb.com/#contact_us,,Contact Us,1,CA,95037,clothing_store
Tu Si Bella Boutique,"16195 Monterey Rd Suite 60, Morgan Hill, CA 95037",Women's clothing store,Morgan Hill,,http://tusibellaboutique.com/,,,https://www.tusibellaboutique.com/contact,,Contact,1,CA,95037,clothing_store
East West Bookshop,"324 Castro St, Mountain View, CA 94041",Clothing store,Mountain View,"Resource for metaphysical books, gifts, jewelry & art, plus yoga, psychics, workshops & more.",https://www.eastwestbooks.org/,,,https://www.eastwestbooks.org/contact,,"
                  Contact
                ",1,CA,94041,clothing_store
Google Merchandise Store,"1981 Landings Dr, Mountain View, CA 94043",Gift shop,Mountain View,"Shop selling Google-branded T-shirts & hoodies as well as gifts like coffee mugs, tote bags & pens.",https://shop.googlemerchandisestore.com/,,,https://shop.googlemerchandisestore.com/tel:8553002945,,phone 1-855-300-2945,1,CA,94043,clothing_store
beep beep car seat & baby proofing,"2485 Hospital Dr, Mountain View, CA 94040",Baby store,Mountain View,,http://beepbeepcarseat.com/,,,http://beepbeepcarseat.com/contact,,"
        Contact
      ",1,CA,94040,clothing_store
Swetka's Tennis Shop,"1039 El Monte Ave # J, Mountain View, CA 94040",Sporting goods store,Mountain View,,http://swetkas.com/,,,https://www.swetkas.com/contact-us/,,Contact Us,1,CA,94040,clothing_store
Temecula Men's Suit Outlet,"26023 Jefferson Ave suite c, Murrieta, CA 92562",Men's clothing store,Murrieta,,http://suitstemecula.com/,,,https://suitstemecula.com/contact/,,Contact,1,CA,92562,clothing_store
Gypsy Sunset Boutique,"24619 Washington Ave STE 103, Murrieta, CA 92562",Boutique,Murrieta,,http://www.gypsysunset.com/,,,http://www.gypsysunset.com/tel:9518942001,,951-894-2001,1,CA,92562,clothing_store
HTT Headware And Apparel,"41185 Raintree Ct, Murrieta, CA 92562",Clothing store,Murrieta,,http://www.httapparel.com/,,,https://www.httapparel.com/contact,,Contact Us,1,CA,92562,clothing_store
Ann's Classic Affairs,"40477 Murrieta Hot Springs Rd, Murrieta, CA 92563",Bridal shop,Murrieta,"Formalwear shop carrying bridal, prom & cocktail dresses, plus suits & rental tuxedos.",http://annsclassicaffairs.com/,,,http://annsclassicaffairs.com/contact-us/,,Contact Us,1,CA,92563,clothing_store
Deadstock Connect Inc,"41690 Ivy St Suite B8, Murrieta, CA 92562",Clothing store,Murrieta,,http://www.deadstockconnect.com/,,,http://www.deadstockconnect.com/contact,,Contact,1,CA,92562,clothing_store
Urban Exchange,"27309 Jefferson Ave # 105, Temecula, CA 92590",Clothing store,Temecula,"Store buying, selling & trading contemporary, designer clothing, handbags & accessories.",http://urban-exchange.org/,,,http://urban-exchange.org/contact/,,Contact Us,1,CA,92590,clothing_store
2 Hot Activewear,"26205 Jefferson Ave #100, Murrieta, CA 92562",Uniform store,Murrieta,"Local store offering activewear, uniforms & accessories for firefighters & medical professionals.",http://www.2hotactivewear.net/,,,http://www.2hotactivewear.net/contact_us.php,,Contact Us,1,CA,92562,clothing_store
How Cute Clothing Co,"42075 Remington Ave STE 103, Temecula, CA 92590",Women's clothing store,Temecula,,http://www.howcuteonline.com/,,,http://www.howcuteonline.com/pages/contact,,Contact,1,CA,92590,clothing_store
Scott Lyall Clothes For Men,"614 Main St, Napa, CA 94559",Men's clothing store,Napa,,http://scottlyallclothes.com/,,,http://scottlyallclothes.com/contact.php,,Contact,1,CA,94559,clothing_store
Marker Express Inc,"2773 Napa Valley Corporate Dr, Napa, CA 94558",Women's clothing store,Napa,,http://www.markerxpress.com/,,,http://www.markerxpress.com/contact/,,Contact,1,CA,94558,clothing_store
Toda Moda Fashion Outlet,"2401 E Plaza Blvd, National City, CA 91950",Women's clothing store,National City,,http://www.todamodafs.com/,,,https://www.todamodafs.com/copy-of-shipping-returns,,CONTACT US,1,CA,91950,clothing_store
Mistero Men's Fashion Boutique,"3030 Plaza Bonita Rd #1018, National City, CA 91950",Men's clothing store,National City,,http://misterofashion.com/,,,http://misterofashion.com/contact-mistero/,,Contact,1,CA,91950,clothing_store
Princesa,"3030 Plaza Bonita Rd #2382, National City, CA 91950",Clothing store,National City,,http://princesaplazabonita.com/,,,http://princesaplazabonita.com/Contact_Us.html,,Contact Us,1,CA,91950,clothing_store
Mens District,"3030 Plaza Bonita Rd #1052, National City, CA 91950",Men's clothing store,National City,,http://www.mensdistrict.net/,,,http://mensdistrict.net/contact/,,Contact,1,CA,91950,clothing_store
Indu Fashions,"220 W 25th St # B, National City, CA 91950",Clothing store,National City,,http://www.indufashions.com/,,,http://indufashions.com/contact-us/,,Contact Us,1,CA,91950,clothing_store
CURVEGIRL,"39899 Balentine Dr #125, Newark, CA 94560",Plus size clothing store,Newark,,https://curvegirl.com/,,,https://curvegirl.com/pages/contact-us,,Contact Us,1,CA,94560,clothing_store
Honeydew,"5437 Central Ave Ste 10, Newark, CA 94560",Children's clothing store,Newark,,https://honeydewusa.com/,,,https://honeydewusa.com/pages/contact-us,,Contact Us,1,CA,94560,clothing_store
Bardot,"2043 Westcliff Dr, Newport Beach, CA 92660",Women's clothing store,Newport Beach,,http://www.shop-bardot.com/,,,http://www.shop-bardot.com/contact/,,Contact Us,1,CA,92660,clothing_store
Scout & Molly's Boutique Newport Beach,"1130 Irvine Ave, Newport Beach, CA 92660",Women's clothing store,Newport Beach,,https://www.scoutandmollys.com/,,,"https://www.google.com/maps/dir//Westcliff+Plaza,+1000+-+1150+Irvine+Ave,+Newport+Beach,+CA+92660/data=!4m6!4m5!1m1!4e2!1m2!1m1!1s0x80dcdfe8ce8a88d3:0xe5d05a2e66b368fd?sa=X&ved=2ahUKEwiw9I6zz6PkAhULj1kKHXOqB8cQ48ADMAB6BAgJEBw",,Find us with Google Maps,1,CA,92660,clothing_store
Zigie Apparel,"12440 Firestone Blvd #306, Norwalk, CA 90650",Women's clothing store,Norwalk,,http://zigieapparel.com/,,,https://zigieapparel.com/contacts/,,Contact Us,1,CA,90650,clothing_store
Daniels Tuxedo and Bridal Center,"13933 San Antonio Dr, Norwalk, CA 90650",Formal wear store,Norwalk,"Unfussy formalwear shop featuring wedding gowns, tuxedos & dresses for other celebrations.",http://www.danielstuxedoandbridal.com/,,,http://www.danielstuxedoandbridal.com/new-page,,Contact,1,CA,90650,clothing_store
Zamong Clothing,"12440 Firestone Blvd, Norwalk, CA 90650",Clothing store,Norwalk,,http://www.zamongclothing.com/,,,http://www.zamongclothing.com/pages/contact-us,,CONTACT US,1,CA,90650,clothing_store
Infantity Brand,"12018 Summer Ave, Norwalk, CA 90650",Baby clothing store,Norwalk,,https://infantity-brand.ueniweb.com/,,,https://infantity-brand.ueniweb.com/#contact_us,,Contact Us,1,CA,90650,clothing_store
Goodie's Uniforms,"12158 Firestone Blvd, Norwalk, CA 90650",Uniform store,Norwalk,"Small, straightforward retailer of police & public safety uniforms, accessories & equipment.",https://www.goodiesuniforms.com/,,,https://www.goodiesuniforms.com/contact,," Contact

",1,CA,90650,clothing_store
Spoiled Boutique,"300 Frank H. Ogawa Plaza, Oakland, CA 94612",Women's clothing store,Oakland,"Trendy local boutique selling an assortment of fashion-forward womenswear, accessories & footwear.",http://www.thespoiledboutique.com/,,,http://www.thespoiledboutique.com/pages/contact-us,,"
Email/Call Us
",1,CA,94612,clothing_store
Beast Oakland,"3720 MacArthur Blvd, Oakland, CA 94619",Clothing store,Oakland,,http://www.beastoakland.com/,,,http://www.beastoakland.com/contact-us,,Contact Us,1,CA,94619,clothing_store
AMG7 Clothing Store,"425 Lee St, Oakland, CA 94610",Clothing store,Oakland,,http://thejacksoncollection.bigcartel.com/,,,http://thejacksoncollection.bigcartel.com/contact,,Contact,1,CA,94610,clothing_store
Captain's Helm,"1832 S Coast Hwy, Oceanside, CA 92054",Vintage clothing store,Oceanside,,http://www.captainshelm.com/,,,http://www.captainshelm.com/contact,,Contact,1,CA,92054,clothing_store
511 Tactical,"3186 Vista Way #100, Oceanside, CA 92056",Clothing store,Oceanside,,http://www.511tactical.com/,,,http://www.511tactical.com/customer-service/contact/,,Contact Us,1,CA,92056,clothing_store
Quality Resale Store,"1950 Oceanside Blvd H, Oceanside, CA 92054",Clothing store,Oceanside,,http://www.qualityresalestoreoceanside.com/,,,http://www.qualityresalestoreoceanside.com/contact-us.html,,Contact Us,1,CA,92054,clothing_store
RANSACK,"1639 S Coast Hwy unit b, Oceanside, CA 92054",Vintage clothing store,Oceanside,,http://www.shopransack.com/,,,https://www.shopransack.com/contact,,Contact,1,CA,92054,clothing_store
MadStrange,"1014 Mission Ave, Oceanside, CA 92054",Clothing store,Oceanside,,http://www.madstrange.com/,,,http://www.madstrange.com/pages/contact-1,,CONTACT,1,CA,92054,clothing_store
Stay Loaded Apparel,"4045 E Guasti Rd #208, Ontario, CA 91761",Clothing store,Ontario,,http://stay-loaded.com/,,,http://stay-loaded.com/pages/contact-us,,Contact Us,1,CA,91761,clothing_store
Wear The Secret,"364 S Tustin St, Orange, CA 92866",Clothing store,Orange,,http://www.motherssecrets.com/,,,http://www.motherssecrets.com/contact-us/2089940,,Contact Us,1,CA,92866,clothing_store
Papaya Outlet,"20 City Blvd W #315, Orange, CA 92868",Women's clothing store,Orange,,http://www.papayaclothing.com/,,,https://www.papayaclothing.com/c/contacts,,Contact Us,1,CA,92868,clothing_store
De La Calle Clothing,"154 E Channel Islands Blvd, Oxnard, CA 93033",Men's clothing store,Oxnard,,http://www.delacalleclothing.com/,,,http://www.delacalleclothing.com/contact,,Contact,1,CA,93033,clothing_store
BLUE ZONE,"2051 N Rose Ave, Oxnard, CA 93036",Clothing store,Oxnard,,http://www.bzclothing.com/,,,https://www.bzclothing.com/map,,Contact Us,1,CA,93036,clothing_store
Fashion Gal Co,"2051 N Rose Ave # 240, Oxnard, CA 93036",Women's clothing store,Oxnard,,https://fashiongalclothing.com/,,,https://fashiongalclothing.com/pages/contact-us,,Contact Us,1,CA,93036,clothing_store
Stephanie Hamilton Designs,"1987 Beach Blvd, Pacifica, CA 94044",Jewelry designer,Pacifica,,http://www.stephaniehdesigns.com/,,,http://www.stephaniehdesigns.com/find-us,,"
            Find Us
          ",1,CA,94044,clothing_store
Shirley's Boutique,"72171 CA-111 #200, Palm Desert, CA 92260",Women's clothing store,Palm Desert,,http://www.shirleysboutique.com/,,,http://www.shirleysboutique.com/Contact,,Contact,1,CA,92260,clothing_store
Elizabeth & Prince,"800 N Palm Canyon Dr a, Palm Springs, CA 92262",Women's clothing store,Palm Springs,,http://www.elizabethandprince.com/,,,http://www.elizabethandprince.com/pages/contact,,Stores,1,CA,92262,clothing_store
Revenge,"222 N Palm Canyon Dr, Palm Springs, CA 92262",Women's clothing store,Palm Springs,"Small independent boutique selling a range of women's clothing, shoes & accessories.",http://www.psrevenge.com/,,,http://www.psrevenge.com/contact_us,,Contact Us,1,CA,92262,clothing_store
Mitchells Palm Springs,"106 S Indian Canyon Dr, Palm Springs, CA 92262",Vintage clothing store,Palm Springs,,http://www.mitchellspalmsprings.com/,,,http://www.mitchellspalmsprings.com/contact/,,Contact,1,CA,92262,clothing_store
Candice Held Palm Springs,"800 N Palm Canyon Dr STE H, Palm Springs, CA 92262",Women's clothing store,Palm Springs,,http://candiceheld.com/,,,http://candiceheld.com/contact-1,,Contact,1,CA,92262,clothing_store
Gear Leather and Fetish,"650 E Sunny Dunes Rd #1, Palm Springs, CA 92264",Men's clothing store,Palm Springs,,http://www.gearleather.com/,,,https://www.gearleather.com/contact/,,Contact,1,CA,92264,clothing_store
Krave and Kulture,"190 S Indian Canyon Dr, Palm Springs, CA 92262",Clothing store,Palm Springs,,http://kraveandkulture.com/,,,http://kraveandkulture.com/contact,,CONTACT,1,CA,92262,clothing_store
Gallery24Jewelry,"457 N Palm Canyon Dr #9, Palm Springs, CA 92263",Vintage clothing store,Palm Springs,,https://www.1stdibs.com/,,,https://www.1stdibs.com/#0,,Contact Info,1,CA,92263,clothing_store
Johnny Was,"175 N Palm Canyon Dr # 115, Palm Springs, CA 92262",Women's clothing store,Palm Springs,,https://www.johnnywas.com/,,,https://www.johnnywas.com/contact,,Contact,1,CA,92262,clothing_store
Vintage PS Gal,"798 N Palm Canyon Dr, Palm Springs, CA 92262",Vintage clothing store,Palm Springs,,https://vintagepsgal.com/,,,https://vintagepsgal.com/#71069cb0-6669-4b08-a6fa-dfefc3eca0e1,,Contact Us,1,CA,92262,clothing_store
DayDreamer LA,"1345 N Palm Canyon Dr, Palm Springs, CA 92262",Clothing store,Palm Springs,,https://daydreamerla.com/,,,https://daydreamerla.com/pages/contact,,"

                          Contact

                        ",1,CA,92262,clothing_store
Platini Jeans Cougar,"7340 Alondra Blvd, Paramount, CA 90723",Clothing store,Paramount,,http://www.platinijeans.com/,,,https://www.platinijeans.com/contact,,Contact Us,1,CA,90723,clothing_store
Royal Avalon,"16300 Downey Ave, Paramount, CA 90723",Clothing store,Paramount,,http://www.royalavalon.net/,,,http://www.royalavalon.net/pages/royal-avalon-contact-us,,"
                          Contact Us
                        ",1,CA,90723,clothing_store
Danesi Jeans Montero Boots,"14498 Garfield Ave, Paramount, CA 90723",Clothing store,Paramount,,http://www.danesijeans.com/,,,https://www.danesijeans.com/contacto,,CONTACTO,1,CA,90723,clothing_store
Ariel's Fashion,"7900 All America City Way, Paramount, CA 90723",Women's clothing store,Paramount,,https://ariels-fashion.ueniweb.com/,,,https://ariels-fashion.ueniweb.com/#contact_us,,Contact Us,1,CA,90723,clothing_store
Kandi Kouture Boutique,"13947 Paramount Blvd, Paramount, CA 90723",Boutique,Paramount,,http://www.kandikouture.com/,,,http://www.kandikouture.com/pages/contact,,Contact,1,CA,90723,clothing_store
Perfumes por Mayoreo,"7263 Alondra Blvd, Paramount, CA 90723",Perfume store,Paramount,,https://www.soloespeciales.com/,,,https://www.soloespeciales.com/Contact_Us_a/83.htm,,Contact Us,1,CA,90723,clothing_store
Clothes Heaven,"111 Union St, Pasadena, CA 91103",Used clothing store,Pasadena,"Women's consignment store specializing in high-end designer clothing, shoes & accessories.",http://www.clothesheaven.com/,,,http://www.clothesheaven.com/contact,,Contact,1,CA,91103,clothing_store
Botas Guadalajara,"329 S D St, Perris, CA 92570",Western apparel store,Perris,,http://www.botasguadalajara.com/,,,http://www.botasguadalajara.com/pages/contact-us,,"
                Contact Us
            ",1,CA,92570,clothing_store
WILD WEST BOOTS,"393 Wilkerson Ave, Perris, CA 92570",Clothing store,Perris,,http://www.wildwestboots.net/,,,http://www.wildwestboots.net/pages/contact-us,,"
            CONTACT US
          ",1,CA,92570,clothing_store
Sacks Thrift Avenue,"2050 Trumble Rd, Perris, CA 92571",Thrift store,Perris,,http://www.weexceed.org/,,,http://www.weexceed.org/contact-us,,Contact Us,1,CA,92571,clothing_store
Ethical Clothing,"122 Kentucky St, Petaluma, CA 94952",Women's clothing store,Petaluma,,http://www.ethicalclothing-petaluma.com/,,,http://www.ethicalclothing-petaluma.com/contact,,contact us,1,CA,94952,clothing_store
Shunzi  Petaluma,"141 Kentucky St, Petaluma, CA 94952",Women's clothing store,Petaluma,,http://www.shunzi.net/,,,http://www.shunzi.net/#1473867998,,"  

Contact Us
",1,CA,94952,clothing_store
Louis Thomas Fine Mens Apparel and Formal Wear,"150 Kentucky St, Petaluma, CA 94952",Men's clothing store,Petaluma,,http://www.louisthomas.com/,,,http://www.louisthomas.com/contact,,Contact,1,CA,94952,clothing_store
INDIGENOUS organic  fair trade fashion,"110 Petaluma Blvd N, Petaluma, CA 94952",Clothing store,Petaluma,,http://indigenous.com/,,,http://indigenous.com/pages/contact-us,,Contact Us,1,CA,94952,clothing_store
Stagmi Pico Rivera,"8713 Washington Blvd, Pico Rivera, CA 90660",Women's clothing store,Pico Rivera,,http://www.stagmi.com/,,,http://www.stagmi.com/pages/contact-us,,Contact Us,1,CA,90660,clothing_store
Strategik Collective LLC,"3679 San Gabriel River Pkwy, Pico Rivera, CA 90660",Men's clothing store,Pico Rivera,,http://www.wearestrategik.com/,,,https://www.wearestrategik.com/contact/,,Contact,1,CA,90660,clothing_store
Code Green Apparel,"4739 S, Durfee Ave, Pico Rivera, CA 90660",Clothing store,Pico Rivera,,http://codegreenapparelcorp.com/,,,http://codegreenapparelcorp.com/contact.php,,CONTACT,1,CA,90660,clothing_store
Karla's Silhouette,"8536 Rosemead Blvd, Pico Rivera, CA 90660",Boutique,Pico Rivera,,http://www.karlassilhouette.com/,,,http://www.karlassilhouette.com/contact/,,Contact Us,1,CA,90660,clothing_store
West Coast We Active,"419 S 6th St, Montebello, CA 90640",Clothing store,Montebello,,http://www.westcoastweactive.com/,,,http://www.westcoastweactive.com/contact.html,,"
		    Contact
		  ",1,CA,90640,clothing_store
Martha's Boutique,"162 Atlantic Ave, Pittsburg, CA 94565",Boutique,Pittsburg,"All-ages formalwear store carrying gowns & formalwear for weddings, proms, christenings & more.",http://marthasbtq.com/,,,http://marthasbtq.com/pages/contact-us-today,,"
                      Contact Us
                  ",1,CA,94565,clothing_store
Big Chop Accessories Boutique Natural Hair Salon,"670 Railroad Ave, Pittsburg, CA 94565",Boutique,Pittsburg,,http://www.bigchopaccessories.com/,,,http://www.bigchopaccessories.com/pages/contact-us,,Contact us,1,CA,94565,clothing_store
St Vincent De Paul Society,"2210 Gladstone Dr, Pittsburg, CA 94565",Thrift store,Pittsburg,,http://www.svdp-cc.org/,,,https://3wnov13nm1632cdt0drej4rv-wpengine.netdna-ssl.com/wp-content/uploads/2020/04/SVDP-Conference-Services-Status-Update-04-07-20.pdf,,"contact your local SVdP branch, listing available here.",1,CA,94565,clothing_store
Savage Suiting,"1424 N Kraemer Blvd, Placentia, CA 92870",Clothing store,Placentia,,https://www.savagesuiting.com/,,,https://www.savagesuiting.com/contact,,Contact,1,CA,92870,clothing_store
Pebbles Bridal  Orange County,"320 Orangethorpe Ave STE C, Placentia, CA 92870",Bridal shop,Placentia,,http://www.pebblesbridal.com/,,,https://www.pebblesbridal.com/contact,,CONTACT,1,CA,92870,clothing_store
Wondrous Things,"2001 E Orangethorpe Ave Ste B, Placentia, CA 92870",Clothing store,Placentia,,https://www.shopwondrousthings.com/,,,https://www.shopwondrousthings.com/contact-us,," CONTACT US

",1,CA,92870,clothing_store
Make Me Chic,"1601 W Mission Blvd Bldg. 100, Pomona, CA 91766",Women's clothing store,Pomona,,http://www.makemechic.com/,,,http://www.makemechic.com/Contact-us-a-625.html,,Contact Us,1,CA,91766,clothing_store
Ms Smith's XcessoriesNThings Inc,"743 Indian Hill Blvd, Pomona, CA 91767",Women's clothing store,Pomona,,http://mssmiths.com/,,,https://www.mssmiths.com/index.php/contacts,,Help & Contact,1,CA,91767,clothing_store
TANAECHI,"836 N Garey Ave, Pomona, CA 91767",Bridal shop,Pomona,"Showroom specializing in customized wedding attire, formal dresses & costumes, plus tux rentals.",http://www.tanaechi.com/,,,http://www.tanaechi.com/contact-us-1,,CONTACT US,1,CA,91767,clothing_store
Maxxsel Apparel Inc,"1613 W 2nd St, Pomona, CA 91766",Clothing store,Pomona,,http://www.maxxsel.com/,,,https://www.maxxsel.com/3/contact/,,Help,1,CA,91766,clothing_store
Superior Scrubs And More,"1641 N Garey Ave, Pomona, CA 91767",Uniform store,Pomona,"No-frills outpost for colorful medical scrubs & clogs, lab coats & medical equipment.",http://www.superiorscrubsandmore.com/,,,https://www.superiorscrubsandmore.com/contact-us/,,Contact us,1,CA,91767,clothing_store
Mary's Alterations,"324 N Park Ave, Pomona, CA 91768",Clothing alteration service,Pomona,,http://alterationsm.webstarts.com/,,,http://alterationsm.webstarts.com/contact.html,,Contact,1,CA,91768,clothing_store
Shop At Kings,"4889 Holt Blvd, Montclair, CA 91763",Clothing store,Montclair,,http://shopatkings.com/,,,http://shopatkings.com/pages/contact,,CONTACT US,1,CA,91763,clothing_store
Frank's Hats Garcia Hats,"2001 S Garey Ave, Pomona, CA 91766",Hat shop,Pomona,,http://www.frankshatsgarciahats.com/,,,https://www.frankshatsgarciahats.com/contact-us,,CONTACT US,1,CA,91766,clothing_store
Vanity's Addiction Inc,"206 N Main St, Porterville, CA 93257",Women's clothing store,Porterville,,http://www.vanitysaddiction.com/,,,//vanitysaddiction.com/html/contact/index.html,,联系,1,CA,93257,clothing_store
Village Vogue Boutique,"187 W Olive Ave, Porterville, CA 93257",Clothing store,Porterville,,http://www.workforcepsw.com/,,,http://www.workforcepsw.com/home/Contact,,Contact,1,CA,93257,clothing_store
Red Rock Ranch Mercantile,"183 N Main St, Porterville, CA 93257",Western apparel store,Porterville,,http://portervilleboutiquestore.com/,,,http://portervilleboutiquestore.com/contact,,"

                                Contact Us
                            
",1,CA,93257,clothing_store
Porterville Mission Thrift,"88 E Mill Ave, Porterville, CA 93257",Thrift store,Porterville,,http://ccfamilycrisis.org/,,,http://ccfamilycrisis.org/contact-us/,,Contact Us,1,CA,93257,clothing_store
Eqlty Threads INC,"12798 Evanston Way, Rancho Cordova, CA 95742",Clothing store,Rancho Cordova,,https://eqlty-threads-inc.ueniweb.com/,,,https://eqlty-threads-inc.ueniweb.com/#contact_us,,Contact Us,1,CA,95742,clothing_store
Lilyful,"12534 S Mainstreet #1740, Rancho Cucamonga, CA 91739",Clothing store,Rancho Cucamonga,,http://lilyful.com/,,,http://lilyful.com/pages/contact-us,,Return Request,1,CA,91739,clothing_store
SAGA Made in Italy,"31242 Palos Verdes Dr W, Rancho Palos Verdes, CA 90275",Boutique,Rancho Palos Verdes,,http://sagaclothing.com/,,,http://sagaclothing.com/pages/contact-us,,Contact Info,1,CA,90275,clothing_store
Marea,"100 Terranea Way, Rancho Palos Verdes, CA 90275",Boutique,Rancho Palos Verdes,,http://www.terranea.com/,,,https://www.terranea.com/contact-us,,Contact Us,1,CA,90275,clothing_store
The 4th Basement,"28901 S Western Ave Suite 229, Rancho Palos Verdes, CA 90275",Shoe store,Rancho Palos Verdes,,http://www.gotyourshoes.com/,,,http://www.gotyourshoes.com/pages/contact,,Contact,1,CA,90275,clothing_store
Mint & Vault,"955 Deep Valley Dr #3433, Palos Verdes Peninsula, CA 90274",Clothing store,Palos Verdes Peninsula,,http://www.mintnvault.com/,,,http://www.mintnvault.com/pages/contact-us,,CONTACT US,1,CA,90274,clothing_store
Extreme Culinary Outfitters,"31441 Santa Margarita Pkwy #A353, Rancho Santa Margarita, CA 92688",Clothing store,Rancho Santa Margarita,,http://extremeculinaryoutfitters.com/,,,https://extremeculinaryoutfitters.com/contact/,,Contact,1,CA,92688,clothing_store
Honey LLC,"17 Via Amistosa #C, Rancho Santa Margarita, CA 92688",Clothing store,Rancho Santa Margarita,,https://honey-llc.ueniweb.com/,,,https://honey-llc.ueniweb.com/#contact_us,,Contact Us,1,CA,92688,clothing_store
Kristi's Unique Boutique,"37065 CA-299 E, Burney, CA 96013",Women's clothing store,Burney,,http://kristisuniqueboutique.com/,,,https://www.kristisuniqueboutique.com,,Contact,1,CA,96013,clothing_store
The Frugal Dame,"3300 Bechelli Ln, Redding, CA 96002",Formal wear store,Redding,,http://www.thefrugaldame.com/,,,http://www.thefrugaldame.com/contact,,Contact Me,1,CA,96002,clothing_store
Scarlet Threads Boutique,"839 Tri City Drive, Redlands, CA 92374",Clothing store,Redlands,,http://www.scarletthreadsboutique.com/,,,http://www.scarletthreadsboutique.com/mailto:info@scarletthreadsboutique.com,,Contact Us,1,CA,92374,clothing_store
Blues,"114 E State St, Redlands, CA 92373",Used clothing store,Redlands,,http://www.thebluesestatestore.com/,,,https://www.thebluesestatestore.com/contact-the-blues-estate-store,,CONTACT,1,CA,92373,clothing_store
The Urban Clothes Horse,"1901 S Catalina Ave, Redondo Beach, CA 90277",Clothing store,Redondo Beach,,https://urbanclotheshorse.com/,,,https://urbanclotheshorse.com/contact-us/,,Contact Us,1,CA,90277,clothing_store
Fernando's Redondo Beach,"1731 S Catalina Ave, Redondo Beach, CA 90277",Women's clothing store,Redondo Beach,,http://fernandosrb.com/,,,http://fernandosrb.com/./#contact,,Contact,1,CA,90277,clothing_store
Safari Hat and Clothing Company,"1714 1/2 South Catalina Avenue, Redondo Beach, CA 90277",Clothing store,Redondo Beach,,http://www.safarihatandclothing.com/,,,http://www.ipage.com/controlpanel/pastduesplash.bml,,contact iPage directly,1,CA,90277,clothing_store
Lollipop A Children's Boutique,"1813 S Catalina Ave, Redondo Beach, CA 90277",Children's clothing store,Redondo Beach,,http://www.lollipopredondobeach.com/,,,https://www.lollipopredondobeach.com/contact,,Contact,1,CA,90277,clothing_store
Kids Double Time,"715 Torrance Blvd, Redondo Beach, CA 90277",Used clothing store,Redondo Beach,"Laid-back shop for new & used kids' apparel, plus toys, books, baby gear & maternity clothing.",http://kidsdoubletime.weebly.com/,,,http://kidsdoubletime.weebly.com/contact.html,,"

			Contact
		
",1,CA,90277,clothing_store
GoodLove,"257 Avenida Del Norte, Redondo Beach, CA 90277",Women's clothing store,Redondo Beach,,http://www.goodlove.shop/,,,http://www.goodlove.shop/contact.html,,"
				Contact
			",1,CA,90277,clothing_store
Two Moons Boutique,"321 Pier Ave, Hermosa Beach, CA 90254",Clothing store,Hermosa Beach,,https://www.twomoonsboutique.com/,,,https://www.twomoonsboutique.com/pages/contact-us,,"
                          CONTACT US
                        ",1,CA,90254,clothing_store
eighten,"810 Hermosa Ave, Hermosa Beach, CA 90254",Clothing store,Hermosa Beach,,http://www.eight-ten.com/,,,http://www.eight-ten.com/contact.html,,Contact,1,CA,90254,clothing_store
Debonair Cleaners,"1115 Aviation Blvd, Hermosa Beach, CA 90254",Clothing store,Hermosa Beach,,https://debonaircleaners.com/,,,https://debonaircleaners.com/contact/,,Contact,1,CA,90254,clothing_store
Mattucci Tailors Tuxedos & Mens Store,"530 S Pacific Coast Hwy, Redondo Beach, CA 90277",Tailor,Redondo Beach,,https://www.mattuccitailors.com/,,,https://mattuccitailors.com/contact-us/,,Contact Us,1,CA,90277,clothing_store
Jala,"318 Ave I, Redondo Beach, CA 90277",Fashion designer,Redondo Beach,,http://www.jalaclothing.com/,,,http://www.jalaclothing.com/pages/contact-us,,Contact Us,1,CA,90277,clothing_store
Deep Pocket Jean Company,"200 Pier Ave #201, Hermosa Beach, CA 90254",Men's clothing store,Hermosa Beach,"Men's shop for rugged, classic clothing & denim, plus cigars, home goods & a 2-chair barber shop.",https://dpjc.us/,,,https://dpjc.us/contact/,,Contact Us,1,CA,90254,clothing_store
Elvias Boutique,"1748 El Camino Real, Redwood City, CA 94063",Women's clothing store,Redwood City,,http://www.elviasboutique.com/,,,http://www.elviasboutique.com/ebnewsletteres/form.html,,,1,CA,94063,clothing_store
Redwood Trading Post,"1455 Veterans Blvd, Redwood City, CA 94063",Clothing store,Redwood City,"Long-running retailer of camping gear, work apparel, hiking boots, outdoor accessories & more.",http://www.redwoodtradingpost.com/,,,https://www.redwoodtradingpost.com/contact,,CONTACT/DIRECTIONS,1,CA,94063,clothing_store
Sarrtori Fine Apparel,"740 Laurel St, San Carlos, CA 94070",Men's clothing store,San Carlos,,http://sarrtori.com/,,,http://sarrtori.com/Contact.htm,,,1,CA,94070,clothing_store
Bird in the Nest,"1568 Laurel St, San Carlos, CA 94070",Children's clothing store,San Carlos,"Resale boutique offering gifts & gently-used clothing for children & moms, plus a play area.",http://www.thebirdinthenest.com/,,,https://www.thebirdinthenest.com/contact,,Contact Page,1,CA,94070,clothing_store
Brick Monkey Squared,"816 Middlefield Rd, Redwood City, CA 94063",Boutique,Redwood City,,http://www.brickmonkeysquared.com/,,,http://brickmonkeysquared.com/contact-us/,,Contact Us,1,CA,94063,clothing_store
Celli's Closet,"3609 Florence St, Redwood City, CA 94063",Women's clothing store,Redwood City,,http://celliscloset.com/,,,http://celliscloset.com/pages/contact-us,,click here,1,CA,94063,clothing_store
LG BOUTIQUE,"2605 Middlefield Rd, Redwood City, CA 94063",Boutique,Redwood City,,http://www.lgboutique.net/,,,http://www.lgboutique.net/contact.php,,Contactenos,1,CA,94063,clothing_store
Credit Masters Corp,"643 Bair Island Rd #200, Redwood City, CA 94063",Costume store,Redwood City,,http://www.creditmasters123.com/,,,https://creditmasters123.com/contact/,,Contact,1,CA,94063,clothing_store
Broadway Gown Care Center,"1681 Main St, Redwood City, CA 94063",Dressmaker,Redwood City,"Established outpost providing wedding gown alterations, repairs, cleaning & preservation services.",http://broadwaygowncarecenter.com/,,,http://broadwaygowncarecenter.com/contact-us.html,,Location Map,1,CA,94063,clothing_store
Rin's Bridal,"3104, 616 El Camino Real, San Carlos, CA 94070",Bridal shop,San Carlos,"Basic wedding shop offering an array of bridal gowns, plus formalwear, prom dresses & accessories.",http://www.rinsbridal.com/,,,http://www.rinsbridal.com/contact-us,,"

          Contact
        


",1,CA,94070,clothing_store
Outback In the Temple of Venus,"139 W Richmond Ave. # A, Richmond, CA 94801",Clothing store,Richmond,Feminine & whimsical fashions are the hallmark of this designer-owned boutique with a New Age vibe.,http://outbackinthetempleofvenus.com/,,,http://outbackinthetempleofvenus.com/contact/,,Contact,1,CA,94801,clothing_store
Cucamonga Clothing Exchange,"5430 Crossings Dr #101, Rocklin, CA 95677",Clothing store,Rocklin,"Women's fashion store buying, selling & trading trendy, name-brand clothing & accessories.",http://cucamongaclothingexchange.com/,,,http://www.cucamongaclothingexchange.com/contact-us/,,Contact Us,1,CA,95677,clothing_store
Bow N Arrow Clothing,"8200 Old Redwood Hwy, Cotati, CA 94931",Women's clothing store,Cotati,,http://www.bownarrowclothing.com/,,,http://www.bownarrowclothing.com/pages/contact-us,,Contact Us,1,CA,94931,clothing_store
Wallao,"3592 Rosemead Blvd #169, Rosemead, CA 91770",Children's clothing store,Rosemead,,http://www.wallao.com/,,,https://www.wallao.com/contact-us/,,Contact Us,1,CA,91770,clothing_store
GROUTLET,"8614 Valley Blvd, Rosemead, CA 91770",Clothing store,Rosemead,,https://groutlet.com/,,,https://www.groutlet.com/contact,,CONTACT,1,CA,91770,clothing_store
InFightStyle,"9328 Telstar Ave, El Monte, CA 91731",Western apparel store,El Monte,,http://www.infightstyle.com/,,,http://www.infightstyle.com/pages/contact-us,,Contact Us,1,CA,91731,clothing_store
Sei Bella Boutique,"1950 Douglas Blvd B7, Roseville, CA 95661",Clothing store,Roseville,,http://www.seibellaboutique.com/,,,http://www.seibellaboutique.com/pages/contact-us,,"
                          Contact us
                        ",1,CA,95661,clothing_store
TRUE Totally Recycled Urban Exchange,"1900 K St, Sacramento, CA 95811",Used clothing store,Sacramento,Socially-conscious secondhand clothing boutique supporting domestic violence victims.,http://www.weaveinc.org/,,,http://www.weaveinc.org/contact-us,,Contact Us,1,CA,95811,clothing_store
Julius Clothing,"580 Pavilions Ln, Sacramento, CA 95825",Clothing store,Sacramento,,http://juliusclothing.net/,,,http://juliusclothing.net/#1148798038,,"  

Contact Us
",1,CA,95825,clothing_store
ShopCuffs,"2523 J St, Sacramento, CA 95816",Clothing store,Sacramento,"Small shop offering a trendy, curated selection of new & vintage clothes for men & women.",http://www.shopcuffs.com/,,,http://www.shopcuffs.com/pages/contact-us,,Contact Us,1,CA,95816,clothing_store
Steady Clothing Inc,"1711 Newport Cir, Santa Ana, CA 92705",Clothing wholesaler,Santa Ana,,http://steadyclothing.com/,,,https://visitor.r20.constantcontact.com/manage/optin?v=001M6t4uPDAuUrkkoPH5sh-jYWOGMYxFqWOb2jAESL-ailM5L-mYPDc6nea8DKjakf8i-z89lPe1yvptcIhKw4jrUUuodOpVW7siETw9tKO48lFmKq3kqMSgkgm6fBrA8YVT9jU2cZ4n-SfsgJ5qzpa3lEPIsdVBjgp2msXdU9RH4E%3D,,"










",1,CA,92705,clothing_store
DWNTWN Santa Ana,"2800 N Main St #610, Santa Ana, CA 92705",Clothing store,Santa Ana,,http://dwntwnonline.net/,,,http://dwntwnonline.net/pages/contact-us,,Contact Us,1,CA,92705,clothing_store
Gunthers Supply Co,"324 W 4th St, Santa Ana, CA 92701",Men's clothing store,Santa Ana,"Store selling men's T-shirts, fedoras, shoes, denim, boots, sweaters, flannel shirts & more.",http://gunthers.co/,,,http://gunthers.co/pages/contact,,Contact,1,CA,92701,clothing_store
Nothing Usual,"202 E 4th St, Santa Ana, CA 92701",Clothing store,Santa Ana,,http://www.nothingusual.com/,,,//www.hugedomains.com/contact.cfm,,Contact Us,1,CA,92701,clothing_store
Trendz,"2800 N Main St #605, Santa Ana, CA 92705",Men's clothing store,Santa Ana,,http://www.trendzmainplace.com/,,,http://www.trendzmainplace.com/contactmain,,"
              CONTACT
            ",1,CA,92705,clothing_store
kids atelier Valley Fair,"2855 Stevens Creek Blvd #1335, Santa Clara, CA 95050",Children's clothing store,Santa Clara,Cheerful upscale shop carrying a range of modern French apparel for kids & babies in a bright space.,http://www.kidsatelier.com/,,,http://www.kidsatelier.com/pages/contact-us,,Contact Us,1,CA,95050,clothing_store
Mme,"910 B Soquel Ave, Santa Cruz, CA 95060",Women's clothing store,Santa Cruz,,http://www.mme.ltd/,,,http://www.mme.ltd/pages/pop-up-events,,"Shop Hours, Address, Contact ",1,CA,95060,clothing_store
Eco Goods,"1130 Pacific Ave, Santa Cruz, CA 95060",Clothing store,Santa Cruz,"Chill shop for casual attire made from organic materials for adults & kids, plus accessories.",https://www.ecogoods.com/,,,https://www.ecogoods.com/contact,,DIRECTIONS/HOURS,1,CA,95060,clothing_store
Ben The Tux Guy,"235 Town Center E, Santa Maria, CA 93454",Tuxedo shop,Santa Maria,,http://www.benthetuxguy.com/,,,https://www.benthetuxguy.com/contact,,Contact,1,CA,93454,clothing_store
Punch Clothing,"711 4th St, Santa Rosa, CA 95404",Women's clothing store,Santa Rosa,"Cool women's boutique with well-known brands of casual, on-trend clothing, accessories & footwear.",http://www.shoppunchclothing.com/,,,http://www.shoppunchclothing.com/pages/contact-us,,Contact Us,1,CA,95404,clothing_store
Hot Couture,"101 3rd St, Santa Rosa, CA 95401",Vintage clothing store,Santa Rosa,,https://www.hotcouturevintage.com/,,,https://www.hotcouturevintage.com/contact-us/,,Contact Us,1,CA,95401,clothing_store
Sonoma Outfitters,"2412 Magowan Dr, Santa Rosa, CA 95405",Clothing store,Santa Rosa,"Store selling outdoor clothing & footwear, plus tents, travel accessories, backpacks & other gear.",http://www.sonomaoutfitters.com/,,,http://www.sonomaoutfitters.com/contact-us,,"
            Contact Us
          ",1,CA,95405,clothing_store
Liv Fashion Boutique,"622 4th St, Santa Rosa, CA 95404",Boutique,Santa Rosa,,http://www.livfashionboutique.com/,,,http://livfashionboutique.com/contact-us/,,Contact Us,1,CA,95404,clothing_store
SISTERS Consignment Couture,"2700 Yulupa Ave #6, Santa Rosa, CA 95405",Women's clothing store,Santa Rosa,"Cozy ladies' consignment shop offering brand-name apparel, bags & footwear in a strip-mall setting.",http://sonomaconsignment.com/,,,https://sonomaconsignment.com/contact-us/,,Contact Us,1,CA,95405,clothing_store
Once Upon A Tutu,"10906 Crystal Springs Rd, Santee, CA 92071",Children's clothing store,Santee,,http://www.onceuponatutu.com/,,,//www.hugedomains.com/contact.cfm,,Contact Us,1,CA,92071,clothing_store
Conceptions Children's Resale,"9470 Cuyamaca St #100, Santee, CA 92071",Baby store,Santee,"Warm shop buys & sells gently-used garments size 0-16, cribs, strollers, toys & more.",https://conceptionsresale.com/,,,https://conceptionsresale.com/contact-us/,,Contact Us,1,CA,92071,clothing_store
Integrity Bottles,"9225 Carlton Hills Blvd UNIT 2, Santee, CA 92071",Gift shop,Santee,,https://integritybottles.com/,,,https://integritybottles.com/pages/contact,,Contact Us,1,CA,92071,clothing_store
Human Decor,"688 W 4th St, San Bernardino, CA 92410",Clothing store,San Bernardino,,https://www.humandecor.co/,,,https://www.humandecor.co/contact-us/,,CONTACT US,1,CA,92410,clothing_store
Lovely Bump,"509 San Mateo Ave, San Bruno, CA 94066",Children's clothing store,San Bruno,"Cheerful consignment boutique providing secondhand maternity & kids’ clothing, toys, books & gear.",http://www.lovelybump.com/,,,https://www.lovelybump.com/contact-info,,CONTACT/INFO,1,CA,94066,clothing_store
De Lany Clothing,"170 Avenida Del Mar #4016, San Clemente, CA 92672",Clothing store,San Clemente,,http://delanyclothing.com/,,,http://delanyclothing.com/index.php/contact-us/,,Let’s Talk,1,CA,92672,clothing_store
Ritual,"210 N El Camino Real, San Clemente, CA 92672",Women's clothing store,San Clemente,,http://www.shopritualboutique.com/,,,https://www.shopritualboutique.com/contact,,Contact,1,CA,92672,clothing_store
The Fabulous Rag Boutique,"845 Garnet Ave, San Diego, CA 92109",Boutique,San Diego,"Women's clothing boutique for trend-conscious evening gowns, cocktail dresses & casual separates.",https://www.myfabrag.com/,,,https://www.myfabrag.com/pages/contact-us,,"
                          Contact Us
                        ",1,CA,92109,clothing_store
Tregene,"981 Corporate Center Dr, Pomona, CA 91768",Clothing store,Pomona,,http://tregene.com/,,,http://tregene.com/contact.aspx,,"
",1,CA,91768,clothing_store
Eddisten Co,"981 W Arrow Hwy, San Dimas, CA 91773",Baby store,San Dimas,,http://www.eddisten.com/,,,http://www.eddisten.com/contact_us,,Contact Us,1,CA,91773,clothing_store
Decades Of Fashion,"1653 Haight St, San Francisco, CA 94117",Vintage clothing store,San Francisco,"Emporium for vintage clothing, shoes, accessories & costumes, dating from the 1880s to the 1980s.",http://decadesoffashionsf.com/,,,https://www.decadesoffashionsf.com/contact-us,,Contact Us,1,CA,94117,clothing_store
Meetea,"140 W Valley Blvd UNIT 106, San Gabriel, CA 91776",Women's clothing store,San Gabriel,,http://meetea.us/,,,http://meetea.us/contact/,,Contact,1,CA,91776,clothing_store
VIVA USA,"430 Madera St, San Gabriel, CA 91776",Clothing store,San Gabriel,,http://www.dippindaisysswimwear.com/,,,http://www.dippindaisysswimwear.com/pages/contact-us,,"

  CONTACT US

",1,CA,91776,clothing_store
Su Life Inc,"1635 S San Gabriel Blvd, San Gabriel, CA 91776",Clothing store,San Gabriel,"Asian supermarket stocking a variety of imported groceries, plus some American & Hispanic options.",http://www.sfsupermarket.com/,,,http://shunfatsupermarket.com/contact/,,Mail,1,CA,91776,clothing_store
Eli Thomas Menswear,"350 S Winchester Blvd #200, San Jose, CA 95128",Men's clothing store,San Jose,"Stylish menswear boutique offering formal & casual attire, plus tuxedo & suit rental services.",http://www.elithomasformen.com/,,,http://www.elithomasformen.com/contacts/,,Contact Us,1,CA,95128,clothing_store
Wildfire Mercantile,"26850 Ortega Hwy unit k, San Juan Capistrano, CA 92675",Clothing store,San Juan Capistrano,,http://wildfiremercantile.net/,,,http://wildfiremercantile.net/pages/contact-us,,Contact,1,CA,92675,clothing_store
Laura's House,"31878 Del Obispo St #104, San Juan Capistrano, CA 92675",Used clothing store,San Juan Capistrano,,https://www.laurashouse.org/,,,https://www.laurashouse.org/contact,,Contact,1,CA,92675,clothing_store
Mayan Authentic Imports,"31761 Camino Capistrano, San Juan Capistrano, CA 92675",Clothing store,San Juan Capistrano,,http://mayanimports.weebly.com/,,,http://mayanimports.weebly.com/contact.html,,"
										Contact
									",1,CA,92675,clothing_store
DIY CUSTOM DESIGNS,"26431 Brookfield Rd, San Juan Capistrano, CA 92675",Baby clothing store,San Juan Capistrano,,http://diymoredesigns.com/,,,http://diymoredesigns.com/contact-us,,"
        Contact Us
    ",1,CA,92675,clothing_store
Bella Embroider & Print,"32118 Paseo Adelanto #3a, San Juan Capistrano, CA 92675",Clothing store,San Juan Capistrano,,http://bellaembroiderandprint.com/,,,http://bellaembroiderandprint.com/contact/,,Contact Us,1,CA,92675,clothing_store
Carino Bridal Boutique,"31952 Camino Capistrano #C25, San Juan Capistrano, CA 92675",Bridal shop,San Juan Capistrano,,https://www.carino-bridal.com/,,,https://www.carino-bridal.com/contact,,"
            Contact
          ",1,CA,92675,clothing_store
Uniforms 4U,"31451 Rancho Viejo Rd #102, San Juan Capistrano, CA 92675",Uniform store,San Juan Capistrano,,https://www.uniforms4class.net/,,,https://www.uniforms4class.net/pages/contact,,Contact,1,CA,92675,clothing_store
CrazyLids,"32941 Calle Perfecto, San Juan Capistrano, CA 92675",Swimwear store,San Juan Capistrano,,http://www.crazylids.com/,,,http://www.crazylids.com/CrazyLids/Stores/Contact,,Contact Us,1,CA,92675,clothing_store
OC Lactation Services,"30220 Rancho Viejo Rd, San Juan Capistrano, CA 92675",Baby store,San Juan Capistrano,,https://www.oclactationservices.com/,,,https://www.oclactationservices.com/contact,,"
        Contact
      ",1,CA,92675,clothing_store
Capistrano Skate,"32158 Camino Capistrano #103, San Juan Capistrano, CA 92675",Sporting goods store,San Juan Capistrano,,http://capistranoskate.com/,,,http://capistranoskate.com/contact.html,,Contact,1,CA,92675,clothing_store
Change Of A Dress,"785 Marsh St B, San Luis Obispo, CA 93401",Used clothing store,San Luis Obispo,,http://www.slochangeofadress.com/,,,http://www.slochangeofadress.com/contact.html,,"
				Contact
			",1,CA,93401,clothing_store
Ruby Rose,"1235 Monterey St, San Luis Obispo, CA 93401",Clothing store,San Luis Obispo,,http://www.rubyrose805.com/,,,http://www.rubyrose805.com/contact,,Contact,1,CA,93401,clothing_store
French Quarter,"969 Monterey St, San Luis Obispo, CA 93401",Women's clothing store,San Luis Obispo,"Relaxed shop featuring a selection of contemporary women's apparel, accessories & footwear.",http://www.shopfrenchquarter.com/,,,http://www.shopfrenchquarter.com/pages/contact,,"
Contact
",1,CA,93401,clothing_store
True Honor,"1780 La Costa Meadows Dr #100, San Marcos, CA 92078",Clothing store,San Marcos,,http://www.truehonor.com/,,,https://truehonor.com/contact/,,Contact,1,CA,92078,clothing_store
Bloom,"1691 Melrose Dr #140, San Marcos, CA 92078",Boutique,San Marcos,,http://www.bloomonmelrose.com/,,,http://www.bloomonmelrose.com/pages/contact-us,,Contact Us,1,CA,92078,clothing_store
Mama Birdies Aprons,"2415 San Pablo Dam Rd Suite 106-271, San Pablo, CA 94806",Clothing store,San Pablo,,http://www.mamabirdiesaprons.com/,,,https://policies.google.com/privacy,,Privacy Policy,1,CA,94806,clothing_store
Everything Foreign Appararel,"12860 a, San Pablo Ave, Richmond, CA 94805",Clothing store,Richmond,,https://www.bayarea-motors.com/,,,https://www.bayarea-motors.com/contact/,,Contact,1,CA,94805,clothing_store
US Marines Recruiting,"2129 Hilltop Mall Rd, Richmond, CA 94806",Clothing store,Richmond,,http://www.marines.mil/,,,http://www.marines.mil/Contact-Us,,Contact Us,1,CA,94806,clothing_store
Wild Thang Festive Apparel,"1406 2nd St, San Rafael, CA 94901",Clothing store,San Rafael,"Showroom features one-of-a-kind, handmade attire from robes to hats with animal-inspired designs.",http://www.wildthangfestiveapparel.com/,,,http://www.wildthangfestiveapparel.com/contact,,"
            Contact
          ",1,CA,94901,clothing_store
Tuxedo Wearhouse,"1600 Saratoga Ave #403, San Jose, CA 95129",Tuxedo shop,San Jose,Formalwear outpost featuring a large inventory of suits & tuxedos for men & boys for sale or rental.,https://www.tuxedowearhouse.com/,,,https://www.tuxedowearhouse.com/contact-us/,,Contact,1,CA,95129,clothing_store
BIG SMITH BRANDS INC,"20281 Blauer Dr, Saratoga, CA 95070",Sportswear store,Saratoga,,https://www.breaad.com/,,,https://www.breaad.com/contact_us.html?zenid=stsbrpvvtkhpql9pu2rtk1vr8r9nde76,,Contact Us,1,CA,95070,clothing_store
CaLogos,"1424 Fremont Blvd, Seaside, CA 93955",Clothing store,Seaside,,http://calogos.com/,,,http://calogos.com/contact.html,,"
		    Contact
		  ",1,CA,93955,clothing_store
Solid Nation Apparel,"Yosemite St, Seaside, CA 93955",Clothing store,Seaside,,https://solid-nation-apparel.ueniweb.com/,,,https://solid-nation-apparel.ueniweb.com/#contact_us,,Contact Us,1,CA,93955,clothing_store
Pebble Beach,"660 Cannery Row, Monterey, CA 93940",Clothing store,Monterey,,http://www.pebblebeach.com/,,,http://www.facebook.com/PebbleBeachResorts,,,1,CA,93940,clothing_store
The Boutique,"1550 Simi Town Center Way #590, Simi Valley, CA 93065",Clothing store,Simi Valley,,https://www.theboutique805.com/,,,https://www.theboutique805.com/#salescentre,,Contact Us,1,CA,93065,clothing_store
Got Towels & Uniforms,"4983 Firestone Blvd, South Gate, CA 90280",Uniform store,South Gate,,http://www.gottowinguniforms.com/,,,http://www.gottowinguniforms.com/contact.html,,"
				Contact
			",1,CA,90280,clothing_store
Medico Professional Linen Services,"2654 Sequoia Dr, South Gate, CA 90280",Linens store,South Gate,,http://www.medicolinen.com/,,,https://www.medicolinen.com/contact-us/,,Contact Us,1,CA,90280,clothing_store
Devise Rise Apparel,"3937 Tweedy Blvd, South Gate, CA 90280",Clothing store,South Gate,,https://www.deviseriseapparel.com/,,,https://www.deviseriseapparel.com/contact-us/,,Contact,1,CA,90280,clothing_store
Andrea Bravo Boutique,"3468 Tweedy Blvd, South Gate, CA 90280",Women's clothing store,South Gate,,http://andreabraboutique.com/,,,http://andreabraboutique.com/pages/contact-us,,Contact Us,1,CA,90280,clothing_store
Sand One Gallery,"3927 Tweedy Blvd, South Gate, CA 90280",Boutique,South Gate,,http://sandoner.com/,,,https://www.sandoner.com/contact,,Talk To Me,1,CA,90280,clothing_store
Nelly's Bridal Boutique,"439 Linden Ave, South San Francisco, CA 94080",Bridal shop,South San Francisco,Designer apparel store for brides' gowns & bridesmaids' dresses plus tuxedo rentals.,http://www.nellysbridal.com/,,,http://nellysbridal.com/contact-us/,,Contact Us,1,CA,94080,clothing_store
The Extreme Collection USA,"10330 Beach Blvd suite d, Stanton, CA 90680",Women's clothing store,Stanton,,http://www.theextremecollectionusa.com/,,,http://www.theextremecollectionusa.com/contact,,Franchises and distributors,1,CA,90680,clothing_store
Built Apparel,"7261 Garden Grove Blvd ste d, Garden Grove, CA 92841",Clothing store,Garden Grove,,http://www.builtapparel.net/,,,http://www.builtapparel.net/contact-us-1,,"
            Contact Us
          ",1,CA,92841,clothing_store
M J SHIRTS,"8381 Katella Ave, Stanton, CA 90680",Custom tailor,Stanton,,http://mjshirts.com/,,,http://www.MJShirts.com/?page_id=46,,Contact Us,1,CA,90680,clothing_store
Code 3 Wear,"304 Lincoln Center, Stockton, CA 95207",Clothing store,Stockton,,http://www.code3wear.com/,,,http://www.code3wear.com/contact,,"  

304 Lincoln Center Stockton, CA 95207
",1,CA,95207,clothing_store
BoLee Bridal Couture,"542 Lawrence Expy, Sunnyvale, CA 94085",Bridal shop,Sunnyvale,"Designer bridalwear showroom featuring ornate gowns, unique veils & headpieces amid airy surrounds.",http://www.boleebridal.com/,,,http://www.boleebridal.com/contact,,Contact,1,CA,94085,clothing_store
ViBha  Indian Designer Boutique in Bay Area Bridal Ethnic and Contemporary Fashion,"998 E El Camino Real #202, Sunnyvale, CA 94087",Boutique,Sunnyvale,,https://www.vibha.us/,,,https://www.vibha.us/pages/contact-us,,"
              Contact Us
            ",1,CA,94087,clothing_store
Senso Glove,"640 W California Ave, Sunnyvale, CA 94086",Clothing store,Sunnyvale,,https://senso.me/,,,https://senso.me/contact,,"
					Contact Us
				",1,CA,94086,clothing_store
Pace Memory,"598 Ironwood Terrace, Sunnyvale, CA 94086",Clothing store,Sunnyvale,,http://pacememory.com.mx/,,,http://pacememory.com.mx/contact.html,,          Contactos      ,1,CA,94086,clothing_store
Titulo del sitio,"598 Ironwood Terrace, Sunnyvale, CA 94086",Clothing store,Sunnyvale,,http://ches.com.mx/,,,http://ches.com.mx/contact.html,,          Contactos      ,1,CA,94086,clothing_store
Selena Huan Bridal Studio Inc,"1294 Kifer Rd STE 706, Sunnyvale, CA 94086",Bridal shop,Sunnyvale,,https://www.selenahuanbridal.com/,,,https://www.selenahuanbridal.com/pages/contact-us,,Contact us ,1,CA,94086,clothing_store
Appletree Uniforms,"1366 S Mary Ave, Sunnyvale, CA 94087",Uniform store,Sunnyvale,School uniform & accessories store also stocking Girl Scouts attire & medical scrubs.,http://shop.appletreeuniforms.com/,,,http://shop.appletreeuniforms.com/pages/contact-us,,Contact Us,1,CA,94087,clothing_store
Mary Avenue Scrubs,"1362 S Mary Ave, Sunnyvale, CA 94087",Uniform store,Sunnyvale,"Supply store for medical professionals, offering a wide range of scrubs & lab coats for men & women.",http://www.maryavenuescrubs.com/,,,http://www.maryavenuescrubs.com/community/contact,,Contact,1,CA,94087,clothing_store
Zingari Boutique,"29073 Overland Dr A, Temecula, CA 92591",Women's clothing store,Temecula,,https://zingariboutique.com/,,,https://zingariboutique.com/pages/contact,,Contact,1,CA,92591,clothing_store
The Katwalk,"28465 Old Town Front St, Temecula, CA 92590",Boutique,Temecula,,http://www.katwalkfashions.com/,,,http://www.katwalkfashions.com/contact-us-23,,Contact Us,1,CA,92590,clothing_store
Love Boat Bridal Boutique,"9544 E Las Tunas Dr, Temple City, CA 91780",Bridal shop,Temple City,"Independent, sophisticated salon featuring designer wedding gowns, bridesmaid dresses & formalwear.",http://www.ourloveboat.com/,,,http://www.ourloveboat.com/?page/490618/contact-us,,Contact Us,1,CA,91780,clothing_store
Zeeni Sports Uniform Company,"9536 Gidley St, Temple City, CA 91780",Sportswear store,Temple City,,http://www.zeeni.com/,,,http://www.zeeni.com/index.php/contact-us.html,,Contact Us,1,CA,91780,clothing_store
Raw Moda Apparel,"372 W Hillcrest Dr, Thousand Oaks, CA 91360",Women's clothing store,Thousand Oaks,,http://www.rawmoda.com/,,,http://www.rawmoda.com/pages/contact-us,,Contact Us,1,CA,91360,clothing_store
805 Work & Play Western,"1302 Thousand Oaks Blvd, Thousand Oaks, CA 91362",Clothing store,Thousand Oaks,,http://www.805workplay.com/,,,http://www.805workplay.com/contact-us/,,Contact Us,1,CA,91362,clothing_store
Rebel Violet,"2330 Thousand Oaks Blvd, Thousand Oaks, CA 91362",Clothing store,Thousand Oaks,,http://www.shoprebelviolet.com/,,,http://www.shoprebelviolet.com/pages/contact-us,,"
                        CONTACT US
                      ",1,CA,91362,clothing_store
Uptown Cheapskate,"20725 Hawthorne Blvd, Torrance, CA 90503",Used clothing store,Torrance,Retailer known for buying & selling secondhand designer apparel & accessories for young adults.,http://www.uptowncheapskate.com/,,,https://uptowncheapskate.com/contact-us/,,Contact Us,1,CA,90503,clothing_store
Jaunts,"1223 El Prado Ave, Torrance, CA 90501",Women's clothing store,Torrance,,https://jauntsboutique.com/,,,https://jauntsboutique.com/tel:3108062120,,310 806 2120,1,CA,90501,clothing_store
Above The Hype,"2189 N Tracy Blvd, Tracy, CA 95376",Clothing store,Tracy,,http://www.abovethehype.co/,,,http://www.abovethehype.co/contact,,Contact,1,CA,95376,clothing_store
Johnny Jeans,"401 El Camino Real, Tustin, CA 92780",Women's clothing store,Tustin,,https://www.clothingstoretustinca.com/,,,https://www.clothingstoretustinca.com/contactus/,,contact,1,CA,92780,clothing_store
Phyllisophical,"191 E Main St, Tustin, CA 92780",Boutique,Tustin,,https://shopphyllis.com/,,,https://shopphyllis.com/contact,,Contact,1,CA,92780,clothing_store
La Galleria,"17390 17th St, Tustin, CA 92780",Women's clothing store,Tustin,,http://www.lagalleriatustin.com/,,,https://www.lagalleriatustin.com/contact,,Contact,1,CA,92780,clothing_store
Frank's Menswear,"17350 17th St, Tustin, CA 92780",Men's clothing store,Tustin,,http://www.franksmenswear.com/,,,https://franksmenswear.com/contact-us/,,Contact Us,1,CA,92780,clothing_store
Maqbool Islamic Clothing,"3851 Smith St, Union City, CA 94587",Clothing store,Union City,"Compact store carrying traditional, modest clothing for women & men in a range of different styles.",http://www.maqboolclothing.com/,,,http://www.maqboolclothing.com/pages/contact-us,,Contact Us,1,CA,94587,clothing_store
St Vincent de Paul Thrift Store & Donation Center Fremont,"3777 Decoto Rd, Fremont, CA 94555",Thrift store,Fremont,,http://www.svdp-alameda.org/,,,http://www.svdp-alameda.org/contact.html,,"

			Contact
		
",1,CA,94555,clothing_store
Rup's Boutique LLC,"3761 Sun W Terrace, Fremont, CA 94555",Women's clothing store,Fremont,,http://rupsboutique.com/,,,http://rupsboutique.com/contact.html,,Reach Us,1,CA,94555,clothing_store
Afghan Bazaar,"4064 Bonde Way, Fremont, CA 94536",Clothing store,Fremont,,http://www.afgbazaar.com/,,,http://www.afgbazaar.com/#,,GO,1,CA,94536,clothing_store
Beehive Clothing Co,"1027 W Foothill Blvd, Upland, CA 91786",Clothing store,Upland,Compact strip-mall retailer supplying a variety of Mormon-related garments & accessories.,https://www.lds.org/,,,https://www.lds.org/mailto:newsandevents@churchofjesuschrist.org,,Contact Church News,1,CA,91786,clothing_store
Stardust Alley,"204 N 2nd Ave, Upland, CA 91786",Clothing store,Upland,,http://stardustalley.net/,,,https://policies.google.com/privacy,,Privacy Policy,1,CA,91786,clothing_store
Work World,"1641 E Monte Vista Ave, Vacaville, CA 95688",Clothing store,Vacaville,,http://workworld.com/,,,https://www.workworld.com/contact/,,Contact,1,CA,95688,clothing_store
ISM BRAND CLOTHING,"524 Tennessee St, Vallejo, CA 94590",Clothing store,Vallejo,,http://ismbrandclothing.com/,,,http://ismbrandclothing.com/contact-us,,Contact Us,1,CA,94590,clothing_store
Moments Shared Children's Consignment,"320 Georgia St, Vallejo, CA 94590",Children's clothing store,Vallejo,,http://www.ourmomentsshared.com/,,,http://www.ourmomentsshared.com/contact.html,,Contact Us,1,CA,94590,clothing_store
Class Act,"318 Georgia St, Vallejo, CA 94590",Women's clothing store,Vallejo,,http://www.classactwebsite.com/,,,http://www.classactwebsite.com/contact_us,,Contact Us,1,CA,94590,clothing_store
Avenle,"164 Robles Way #268, Vallejo, CA 94591",Women's clothing store,Vallejo,,http://www.avenle.com/,,,http://www.avenle.com/contact/,,Contact,1,CA,94591,clothing_store
Happy Tails Thrift Store,"1825 Springs Rd, Vallejo, CA 94591",Thrift store,Vallejo,,http://hsnb.org/,,,http://hsnb.org/contact-us/,,Contact,1,CA,94591,clothing_store
Art's Pro Sports Ap & Things,"445 Redwood St # 150, Vallejo, CA 94590",Sporting goods store,Vallejo,,http://www.artsprosports.com/,,,http://www.artsprosports.com/index.html#howto,,Contact Us,1,CA,94590,clothing_store
Every Day Is A Gift,"2515 Springs Rd, Vallejo, CA 94591",Gift shop,Vallejo,,http://www.christiangiftstorevallejo.com/,,,http://www.christiangiftstorevallejo.com/contact,,Contact Us,1,CA,94591,clothing_store
Solo Wear,"14400 Bear Valley Rd Ste 921, Victorville, CA 92392",Clothing store,Victorville,,http://www.themallofvictorvalley.com/,,,http://www.themallofvictorvalley.com/Contact,,CONTACT US,1,CA,92392,clothing_store
Rose Pink Boutique,"16137 Green Tree Blvd Unit 10, Victorville, CA 92395",Clothing store,Victorville,,http://www.rosepinkboutique.com/,,,https://rosepinkboutique.com/contact-us/,,Contact,1,CA,92395,clothing_store
Sweet Revenge,"7998 Svl Box, Victorville, CA 92395",Women's clothing store,Victorville,,https://sweet-revenge.ueniweb.com/,,,https://sweet-revenge.ueniweb.com/#contact_us,,Contact Us,1,CA,92395,clothing_store
Threads of Fancy Inc,"8641 Svl Box, Victorville, CA 92395",Boutique,Victorville,,http://www.threadsoffancy.com/,,,//www.hugedomains.com/contact.cfm,,Contact Us,1,CA,92395,clothing_store
Envie Online Shop,"125 N Encina St, Visalia, CA 93291",Clothing store,Visalia,,https://envieonline.com/,,,https://envieonline.com/pages/contact,,Contact,1,CA,93291,clothing_store
SoCal Clothing,"1330 Specialty Dr c, Vista, CA 92081",Men's clothing store,Vista,,http://www.socalind.com/,,,http://socalind.com/index.php/contacts/,,Contact Us,1,CA,92081,clothing_store
New U Pink Boutique,"1315 Hot Spring Way, Vista, CA 92081",Clothing store,Vista,,https://www.newu.pink/,,,https://www.newu.pink/mailto:CONTACT,,"
 
			       	mary@newu.pink			       
",1,CA,92081,clothing_store
Logo Inc,"1611 S Melrose Dr A, Vista, CA 92081",Clothing store,Vista,,http://logoinc.com/,,,http://logoinc.com/contact.htm,,Contact Us,1,CA,92081,clothing_store
Original Watermen,"1198 Joshua Way, Vista, CA 92081",Clothing store,Vista,,http://www.originalwatermen.com/,,,http://www.originalwatermen.com/contacts/,,Contact Us,1,CA,92081,clothing_store
Freedom Rave Wear,"1260 Liberty Way E, Vista, CA 92081",Fashion designer,Vista,,https://www.freedomravewear.com/,,,https://www.freedomravewear.com/pages/customer-support,,Contact Us,1,CA,92081,clothing_store
L' Ecurie Paris,"1065 La Mirada Ct, Vista, CA 92081",Clothing store,Vista,,http://lecurieparis.com/,,,http://lecurieparis.com/pages/contact,,Contact,1,CA,92081,clothing_store
Plangea Inc,"2444 Cades Way, Vista, CA 92081",Swimwear store,Vista,,https://www.tugasunwear.com/,,,https://www.tugasunwear.com/contacts/,,Contact Us,1,CA,92081,clothing_store
Uniform Specialist,"1275 S Santa Fe Ave, Vista, CA 92083",Uniform store,Vista,"Outfitter providing uniforms & gear for public safety, industrial, hospitality & medical pros.",http://www.aceuniforms.com/,,,http://www.aceuniforms.com/industrial,,Industrial,1,CA,92083,clothing_store
Babies in Bloom,"1948 Via Centre, Vista, CA 92081",Baby store,Vista,"Birth center with a cheery attached boutique offering baby gear, gifts & a variety of classes.",http://www.babies-in-bloom.com/,,,https://www.babies-in-bloom.com/about-us/contact/,,Contact,1,CA,92081,clothing_store
Soldiers 4 Christ Community Thrift Store,"1717 E Vista Way #111, Vista, CA 92084",Clothing store,Vista,,https://www.thriftstorevista.com/,,,https://www.thriftstorevista.com/contactus/,,contact,1,CA,92084,clothing_store
Dei Holdings Inc,"1 Viper Way, Vista, CA 92081",Clothing store,Vista,,http://www.deiholdings.com/,,,http://www.deiholdings.com/contact/,,Contact Us,1,CA,92081,clothing_store
Yogamasti US Yoga Shop,"2538 Catalina Ave, Vista, CA 92084",Sportswear store,Vista,,http://www.yogamasti.com/,,,https://yogamasti.co.uk/contact/,,Contact,1,CA,92084,clothing_store
SunBusters Kids,"2444 Cades Way, Vista, CA 92081",Swimwear store,Vista,,http://sunbusterskids.com/,,,https://www.sunbusterskids.com/contacts/,,Contact Us,1,CA,92081,clothing_store
Gigi Moda,"2215 Faraday Ave Suite E, Carlsbad, CA 92008",Women's clothing store,Carlsbad,,https://www.gigimoda.com/,,,https://www.gigimoda.com/index.php?route=information/contact,,Contact us,1,CA,92008,clothing_store
Bonita's Fashion,"425 Union St, Watsonville, CA 95076",Clothing store,Watsonville,,http://plazavigil.com/,,,http://plazavigil.com/?page_id=128,, Contact Us,1,CA,95076,clothing_store
Clothing For Body & Soul,"622 Martinelli St, Watsonville, CA 95076",Clothing store,Watsonville,,http://www.rdkc.com/,,,http://www.rdkc.com/contact-rachel/,,Contact Info,1,CA,95076,clothing_store
El Dorado Fashions,"500 Main St, Watsonville, CA 95076",Men's clothing store,Watsonville,,http://eldoradofashions.com/,,,http://eldoradofashions.com/contact.html,,Contact,1,CA,95076,clothing_store
Jim's Formal Wear,"30 Mariposa Ave, Watsonville, CA 95076",Formal wear store,Watsonville,,http://jimsformalwear.com/,,,http://jimsformalwear.com/support/contact,,Contact,1,CA,95076,clothing_store
Via Ripatti Designs,"41 Rialto Dr, Watsonville, CA 95076",Clothing store,Watsonville,,http://www.viaripatti.com/,,,http://www.viaripatti.com/OrdrInfo.html,,CONTACT US ,1,CA,95076,clothing_store
HIPOP Fashion,"3628 Nogales St, West Covina, CA 91792",Clothing store,West Covina,,http://www.hipopfashion.com/,,,http://www.hipopfashion.com/pages/contact-us-hi-pop-fashion,,Contact Us,1,CA,91792,clothing_store
Represent Clothing Temporary Store 2224th of July,"8743 Melrose Ave, West Hollywood, CA 90069",Clothing store,West Hollywood,,http://www.representclo.com/,,,http://www.representclo.com/pages/contact-us,,CONTACT,1,CA,90069,clothing_store
SAND,"8620 Sunset Blvd, West Hollywood, CA 90069",Clothing store,West Hollywood,,http://www.sandlosangeles.com/,,,http://www.sandlosangeles.com/contact,,CONTACT,1,CA,90069,clothing_store
Gold Hawk Clothing,"8649 Sunset Blvd, West Hollywood, CA 90069",Clothing store,West Hollywood,,http://www.goldhawkclothing.com/,,,http://www.goldhawkclothing.com/pages/contact-us,,Contact Us,1,CA,90069,clothing_store
Wildfox,"8710 Sunset Blvd, West Hollywood, CA 90069",Women's clothing store,West Hollywood,,https://www.wildfox.com/,,,https://www.wildfox.com/pages/contact-us,,Contact Us,1,CA,90069,clothing_store
Curve,"154 N Robertson Blvd, West Hollywood, CA 90048",Women's clothing store,West Hollywood,"High-end women’s boutique offers trendy designer fashions, shoes & accessories in a chic interior.",http://www.shopcurve.com/,,,http://www.shopcurve.com/pages/contact,,CONTACT US,1,CA,90048,clothing_store
RtA Melrose,"8609 Melrose Ave, West Hollywood, CA 90069",Clothing store,West Hollywood,,http://www.rtabrand.com/,,,http://www.rtabrand.com/pages/contact-us-1,,"
                        Contact Us
                      ",1,CA,90069,clothing_store
WHO WHAT WEAR,"750 N San Vicente Blvd, West Hollywood, CA 90069",Clothing store,West Hollywood,,http://www.whowhatwear.com/,,,http://www.whowhatwear.com/contact-us,,"
                    Contact
                ",1,CA,90069,clothing_store
HLorenzo Men,"8700 Sunset Blvd, West Hollywood, CA 90069",Men's clothing store,West Hollywood,High-end boutique showcasing innovative & fashion-forward men's apparel & accessories.,http://www.hlorenzo.com/,,,http://www.hlorenzo.com/pages/contact,,Contact Online,1,CA,90069,clothing_store
House of CB,"8448 Melrose Ave, West Hollywood, CA 90069",Clothing store,West Hollywood,,http://www.houseofcb.com/,,,http://www.houseofcb.com/contact-us-us-2.html,,CONTACT US,1,CA,90069,clothing_store
City Fitted,"3035 W Capitol Ave, West Sacramento, CA 95691",Clothing store,West Sacramento,,https://cityfitted1.com/,,,https://cityfitted1.com/contact-us,,Contact Us,1,CA,95691,clothing_store
Screen Printers Ink,"2510 Evergreen Ave, West Sacramento, CA 95691",Clothing store,West Sacramento,,http://www.screenprintersink.net/,,,http://www.screenprintersink.net/Contact-Us.html,,Contact Us,1,CA,95691,clothing_store
Old Sac Leather Works,"1014 2nd St, Sacramento, CA 95814",Clothing store,Sacramento,,http://oldsacramento.com/,,,http://oldsacramento.com/contact,,Getting here,1,CA,95814,clothing_store
I Wannabe Costumes,"700 4th St, West Sacramento, CA 95605",Costume store,West Sacramento,"Low-key, family-operated business renting costumes in a wide variety of themes & styles.",http://www.iwannabecostumes.com/,,,http://www.iwannabecostumes.com/contact_us,,Contact Us,1,CA,95605,clothing_store
Shop The Runway,"6704 Greenleaf Ave, Whittier, CA 90601",Clothing store,Whittier,Small women’s apparel boutique featuring discount versions of celebrity-inspired clothing & shoes.,http://www.shoptherunway.com/,,,http://www.shoptherunway.com/pages/contact-us,,Contact Us,1,CA,90601,clothing_store
Envy La Apparel,"6702 Greenleaf Ave, Whittier, CA 90601",Clothing store,Whittier,,http://envylaclothing.blogspot.com/,,,http://envylaclothing.blogspot.com/p/contact-us.html,,CONTACT US,1,CA,90601,clothing_store
Haute Mess Boutique,"6734 Greenleaf Ave, Whittier, CA 90601",Boutique,Whittier,,https://shophautemess.myshopify.com/,,,https://shophautemess.myshopify.com/pages/contact-us,,Contact Us,1,CA,90601,clothing_store
Red Devil Clothing,"9829 Carmenita Rd, Whittier, CA 90605",Clothing store,Whittier,,https://reddevilclothing.com/,,,https://reddevilclothing.com/pages/contact,,CONTACT,1,CA,90605,clothing_store
Pilot Pacific Inc PILOT USA,"C110 #234, 23811 Washington Ave, Murrieta, CA 92562",Sportswear store,Murrieta,,http://www.pilotmotosport.com/,,,http://www.pilotmotosport.com/tel:8002999651,,Contact: 800.299.9651,1,CA,92562,clothing_store
Haven a Boutique,"414 1st St, Woodland, CA 95695",Clothing store,Woodland,,http://havenaboutique.com/,,,http://havenaboutique.com/contact,,Contact,1,CA,95695,clothing_store
Tanya B Boutique,"18202 Imperial Hwy, Yorba Linda, CA 92886",Fashion accessories store,Yorba Linda,,http://www.shoptanyab.com/,,,https://shoptanyab.com/contact/,,Contact,1,CA,92886,clothing_store
Dennis Uniform,"22825 Savi Ranch Pkwy, Yorba Linda, CA 92887",Uniform store,Yorba Linda,,https://www.dennisuniform.com/,,,https://www.dennisuniform.com/header/get-help/ask-customer-service,,Contact National Customer Service!,1,CA,92887,clothing_store
Kelly's Boutique,"17091 Imperial Hwy, Yorba Linda, CA 92886",Boutique,Yorba Linda,,http://www.kellysboutique.com/,,,//www.hugedomains.com/contact.cfm,,Contact Us,1,CA,92886,clothing_store
Tungsten World Call Cntr,"22815 Savi Ranch Pkwy e, Yorba Linda, CA 92887",Jewelry store,Yorba Linda,,https://www.tungstenworld.com/,,,https://www.tungstenworld.com/contact-tungstenworld/,,View contact us page,1,CA,92887,clothing_store
Angel View Resale Boutique,"34544 Yucaipa Blvd, Yucaipa, CA 92399",Thrift store,Yucaipa,,http://angelview.org/,,,http://angelview.org/contact-us,,          Contact Us        ,1,CA,92399,clothing_store
Next Apparel,"233 E State St h, Redlands, CA 92373",Women's clothing store,Redlands,,http://www.nextapparelredlands.com/,,,https://nextapparelredlands.com/contact/,,Contact,1,CA,92373,clothing_store
West of Texas,"401 E Citrus Ave, Redlands, CA 92373",Western apparel store,Redlands,,http://westoftexas.net/,,,https://westoftexas.net/contact/,,Contact Us,1,CA,92373,clothing_store
Markos Wholesale Clothing,"30 E State St, Redlands, CA 92373",Clothing store,Redlands,,http://markoswholesaleclothing.com/,,,http://markoswholesaleclothing.com/contact.html,,Contact Us,1,CA,92373,clothing_store
Citiwear,"1396 Industrial Park Ave, Redlands, CA 92374",Clothing store,Redlands,,http://tricitycenter.com/,,,http://tricitycenter.com/contacts/,,How to Find Us,1,CA,92374,clothing_store
