name,address,type,place,description,website_url,menu_url,gift_card_website,contact_website,gift_card_txt,contact_txt,state,zipcode,store_type
Trabocco Kitchen and Cocktails,"2213 S Shore Center, Alameda, CA 94501",Italian,Alameda,"Stylish, lively restaurant serving locavore Californian & Italian fare & drinks in spacious digs.",http://www.trabocco.com/,http://places.singleplatform.com/trabocco-kitchen-and-cocktails/menu?ref=google,https://trabocco.com/gift-certificate/,https://trabocco.com/contact-us/,Gift Certificate,Contact Us,CA,94501,restaurant
La Penca Azul,"1440 Park St, Alameda, CA 94501",Mexican,Alameda,"Long-running, family-owned Mexican restaurant offering an extensive menu & a bustling tequila bar.",http://www.lapencaazul.com/,http://places.singleplatform.com/la-penca-azul/menu?ref=google,http://www.lapencaazul.com/menu/gift-cards,http://www.lapencaazul.com/contact, GIFT CARDS, Contact,CA,94501,restaurant
Yojimbo,"1221 Park St, Alameda, CA 94501",Ramen,Alameda,Miniature Japanese eatery serving udon & sushi amid pop culture artwork & anime on TV.,http://www.yojimboalameda.com/,https://www.yojimboalameda.com/,https://www.yojimboalameda.com/shop,https://www.yojimboalameda.com/contact-us,GIFT CERTIFICATE,CONTACT US,CA,94501,restaurant
The Star on Park,"1400 Park St, Alameda, CA 94501",Pizza,Alameda,"Subs, salads & Chicago-style pizza in airy digs with exposed-brick walls, chandeliers & a full bar.",http://www.thestaronpark.com/,http://www.thestaronpark.com/menu,http://www.thestaronpark.com/giftcard,http://www.thestaronpark.com/contact,"
            Gift Card
          ","
            Contact
          ",CA,94501,restaurant
Yang's Kitchen,"112 W Main St, Alhambra, CA 91801",Asian Fusion,Alhambra,"Hip Chinese-fusion noodle shop, with organic & vegetarian options, in a bright, airy space.",http://yangskitchenla.com/,https://www.yangskitchenla.com/mainmenu,https://www.toasttab.com/yangs-kitchen/giftcards,http://yangskitchenla.com/contact,"
        Gift Cards
      ","
            Contact
          ",CA,91801,restaurant
OPAH Seafood Grill,"26851 Aliso Creek Rd, Aliso Viejo, CA 92656",Seafood,Aliso Viejo,Seafood dishes star at this bustling American eatery & bar with a serene patio for quieter dining.,http://www.opahrestaurant.com/,http://www.opahrestaurant.com/kitchen.php,http://www.opahrestaurant.com/gift-cards.php,http://www.opahrestaurant.com/contact.php,GIFT CARD,CONTACT,CA,92656,restaurant
THE RANCH Restaurant,"1025 E Ball Rd #101A, Anaheim, CA 92805",American,Anaheim,"Sophisticated mainstay features farm-fresh, seasonal steak & seafood meals in an elegant interior.",https://www.theranch.com/,https://www.theranch.com/restaurant/menu.aspx?utm_source=MyBusiness&utm_medium=Panel&utm_campaign=RestaurantMenu,https://www.theranch.com/giftcards,https://www.theranch.com/company/contact.aspx,Gift Cards,Contact Us,CA,92805,restaurant
Reunion Kitchen  Drink,"5775 E Santa Ana Canyon Rd, Anaheim, CA 92807",American,Anaheim,"Upscale-casual restaurant & bar with elevated American classics, plus cocktails, wine & craft beer.",http://reunionkitchen.net/,http://reunionkitchen.net/anaheimhills/,https://reunionkitchen.cardfoundry.com/giftcards.php,http://reunionkitchen.net/#contacts,Gift Cards,CONTACT,CA,92807,restaurant
Smith's Landing Seafood Grill,"1 Marina Plaza, Antioch, CA 94509",Seafood,Antioch,,http://www.smithslandingantioch.com/,https://www.smithslandingantioch.com/menu/,https://www.smithslandingantioch.com/shop/,https://www.smithslandingantioch.com/contact/,Gift Cards,Contact,CA,94509,restaurant
Double Dragon,"2621 Somersville Rd, Antioch, CA 94509",Chinese,Antioch,"Mandarin & Sichuan dishes are made to eat in or take out at this relaxed, enduring Chinese mainstay.",http://double-dragon.cafes-city.com/,,http://topmountainvillage.com/en/?utm_source=usa_restaurants,,"


",,CA,94509,restaurant
Skipolini's Pizza,"901 Fitzuren Rd, Antioch, CA 94509",Pizza,Antioch,,http://www.skipolinispizza.com/,http://places.singleplatform.com/skipolinis-pizza-2/menu?ref=google,https://skipolinis.localgiftcards.com/,http://www.skipolinispizza.com/contact.php,Give a Gift!,Contact,CA,94509,restaurant
Bridgehead Cafe,"2415 E 18th St, Antioch, CA 94509",Restaurant,Antioch,,http://bridgehead-cafe.cafes-city.com/,,http://topmountainvillage.com/en/?utm_source=usa_restaurants,,"


",,CA,94509,restaurant
The Derby,"233 Huntington Dr, Arcadia, CA 91006",Steak,Arcadia,Sophisticated restaurant serving steak & seafood in rooms decorated with horse-racing memorabilia.,http://www.thederbyarcadia.com/,http://places.singleplatform.com/derby-the/menu?ref=google,http://www.thederbyarcadia.com/gift-cards/purchase-a-gift-card-from-the-derby-restaurant.html,http://www.thederbyarcadia.com/javascript:void(0);,Gift Cards,Contact,CA,91006,restaurant
Din Tai Fung,"1108 S Baldwin Ave, Arcadia, CA 91007",Taiwanese,Arcadia,,http://dintaifungusa.com/,,http://dintaifungusa.com/giftcards.html,http://dintaifungusa.com/contact-us.html,Gift Cards,Contact Us,CA,91007,restaurant
Better Bowls,"1818 G St, Bakersfield, CA 93301",Health Food,Bakersfield,,https://betterbowlsbako.squarespace.com/,http://places.singleplatform.com/better-bowls/menu?ref=google,https://www.instagram.com/p/B_DYJ4aAe9d/,https://betterbowlsbako.squarespace.com/contact-us,"

","
            Contact Us
          ",CA,93301,restaurant
Sonder,"9500 Brimhall Rd #100, Bakersfield, CA 93312",Restaurant,Bakersfield,"Warm, relaxed eatery serving up hearty American comfort grub plus cocktails, beer & wine.",http://www.sonderbakersfield.com/,,https://www.toasttab.com/sonder/giftcards,,Click here to buy!,,CA,93312,restaurant
Pita House Restaurant & Catering,"3825 Ming Ave, Bakersfield, CA 93309",Mediterranean,Bakersfield,"Small, down-to-earth option with a mural serving gyros, kebabs & other familiar Mediterranean fare.",http://pita-house-restaurant.local-cafes.com/,,http://topmountainvillage.com/en/?utm_source=usa_restaurants,,"


",,CA,93309,restaurant
Wing's Garden Cafe,"116 W Ramsey St, Banning, CA 92220",Chinese,Banning,,http://www.wingsgardencafe.com/,https://www.wingsgardencafe.com/menus/full-menu/,http://www.wingsgardencafe.com/information/faqs/gift-certificates/,http://www.wingsgardencafe.com/information/contact-us/,Gift Certificates,Contact Us,CA,92220,restaurant
Cornerstone BBQ,"271 E 6th St, Beaumont, CA 92223",Restaurant,Beaumont,,http://cornerstonebarbeque.com/,https://www.cornerstonebarbeque.com/menu,https://www.cornerstonebarbeque.com/gift-card,,Gift Card,,CA,92223,restaurant
Morongo Golf Club at Tukwet Canyon,"36211 Champions Dr, Beaumont, CA 92223",Restaurant,Beaumont,Mountain views & an on-site American eatery round out the features of this 36-hole golf course.,https://tukwetcanyon.com/,http://places.singleplatform.com/morongo-golf-club-at-tukwet-canyon/menu?ref=google,https://tukwetcanyon.com/product/gift-card,https://tukwetcanyon.com/content/contact-us,,CONTACT US,CA,92223,restaurant
Don Chente Tacos N Beer,"6377 Florence Ave, Bell Gardens, CA 90201",Mexican,Bell Gardens,"Homestyle Mexican food & drinks served in a casual, cheery eatery with counter service.",http://donchentetnb.com/,https://88c6c5f5-81ae-4a1e-82f1-89af2f6c3213.filesusr.com/ugd/cfc10e_0d28ac77028046208f0f061ad4769665.pdf,https://squareup.com/gift/H1K86X056MGJR/order,https://www.donchentetnb.com/contact,Gift Cards,Contact,CA,90201,restaurant
Gather,"2200 Oxford St, Berkeley, CA 94704",Californian,Berkeley,Locavores come for creative Californian fare made with seasonal ingredients & West Coast wines.,http://www.gatherrestaurant.com/,https://www.gatherrestaurant.com/kitchen,https://www.giftrocker.com/secure/order/?h=89e94a90,http://www.gatherrestaurant.com/contact,PURCHASE GIFT CARDS,"
CONTACT
",CA,94704,restaurant
La Note,"2377 Shattuck Ave, Berkeley, CA 94704",French,Berkeley,"Lively setting for French eats for breakfast, lunch or dinner, plus a garden open in good weather.",http://www.lanoterestaurant.com/,http://www.lanoterestaurant.com/images/menus/2017/la-note-menus-2017-dinner-entrees.pdf,http://www.lanoterestaurant.com/gift_cert.html,http://www.lanoterestaurant.com/contact.html,Gift Certificates,Contact,CA,94704,restaurant
The Cheeseboard Pizza,"1512 Shattuck Ave, Berkeley, CA 94709",Pizza,Berkeley,"A pizzeria, bakery & cheese shop, this spot serves 1 style of veggie pizza per day & limited seats.",http://cheeseboardcollective.coop/,http://places.singleplatform.com/the-cheeseboard-pizza-collective/menu?ref=google,https://cheeseboardcollective.coop/gift-cards/,https://cheeseboardcollective.coop/contact-us/,Gift Cards,Contact,CA,94709,restaurant
Corso,"1788 Shattuck Ave, Berkeley, CA 94709",Italian,Berkeley,"Handcrafted pasta dishes & Northern Italian specials presented in an airy, light-filled space.",https://www.corsoberkeley.com/,http://www.corsoberkeley.com/menus/,https://www.giftrocker.com/secure/Order/?hash=769a4f44,https://www.corsoberkeley.com/contact,Gift Cards,Contact,CA,94709,restaurant
Gregoire Restaurant,"2109 Cedar St, Berkeley, CA 94709",French,Berkeley,"Neat eatery dispenses signature potato puffs & other gourmet French fast food, mostly for takeout.",http://www.gregoirerestaurant.com/,http://places.singleplatform.com/gregoire-2/menu?ref=google,http://www.gregoirerestaurant.com/store/gift-cards/,http://www.gregoirerestaurant.com/contact/,Gift Cards,Contact,CA,94709,restaurant
Riva Cucina,"800 Heinz Ave, Berkeley, CA 94710",Italian,Berkeley,Hideaway destination serves up Northern Italian cuisine in a modern-rustic venue with patio seating.,http://www.rivacucina.com/,http://www.rivacucina.com/dinner/,http://www.rivacucina.com/gift-cards,http://www.rivacucina.com/contact,Gift Cards,Contact,CA,94710,restaurant
Open Sesame,"7458 Beverly Blvd, Los Angeles, CA 90036",Mediterranean,Los Angeles,"Kebabs, shawarma & other Lebanese specialties & wine served in a colorful, casual environment.",http://www.opensesamegrill.com/,https://www.opensesamegrill.com/los-angeles/,http://www.opensesamegrill.com/store/gift-cards/,http://www.opensesamegrill.com/contact-us/,Gift Cards,Contact Us,CA,90036,restaurant
Spago,"176 N Canon Dr, Beverly Hills, CA 90210",Californian,Beverly Hills,"Celeb chef Wolfgang Puck's buzzy, sleek bistro offers creative, locally sourced Californian cuisine.",https://wolfgangpuck.com/,https://wolfgangpuck.com/dining/spago/,https://wolfgangpuck.com/gift-card-terms-conditions/,https://wolfgangpuck.com/contact/,Gift Card Terms,Contact,CA,90210,restaurant
South Beverly Grill,"122 S Beverly Dr, Beverly Hills, CA 90212",American,Beverly Hills,Swanky yet welcoming wood-&-brick dining room offering American comfort fare & creative cocktails.,http://www.southbeverlygrill.com/,http://southbeverlygrill.com/menu/,http://www.southbeverlygrill.com/giftcards/,http://www.southbeverlygrill.com/contact/,gift cards,contact,CA,90212,restaurant
The Rooftop Grill,"225 N Canon Dr, Beverly Hills, CA 90210",Californian,Beverly Hills,"Laid-back poolside eatery offering city views & a menu of cocktails, brunch fare & sandwiches.",http://www.montagehotels.com/,,https://www.montageinternational.com/gift-cards/,https://www.montagehotels.com/beverlyhills/contact/,Gift Cards,Contact,CA,90210,restaurant
Green Tomato Grill,"796 N Brea Blvd, Brea, CA 92821",Restaurant,Brea,,http://www.greentomatogrill.com/,http://www.greentomatogrill.com/wp-content/uploads/2018/03/Menu.pdf,https://www.greentomatogrill.com/gift-cards,https://www.greentomatogrill.com/contact,GIFT CARDS,CONTACT,CA,92821,restaurant
Castaway Burbank,"1250 E Harvard Rd, Burbank, CA 91501",Restaurant,Burbank,"Hilltop restaurant with a fire pit offering cocktails & Californian cuisine, plus scenic views.",https://www.castawayburbank.com/,https://www.castawayburbank.com/to-go-menu/,https://srcloyalty.myguestaccount.com/guest/egift,https://www.castawayburbank.com/contact/,Buy Gift Card,Contact,CA,91501,restaurant
Wild Carvery,"150 E Olive Ave UNIT 115, Burbank, CA 91502",Organic,Burbank,"Relaxed, intimate locale offering organic sandwiches, burgers & salads, plus 2 patios.",https://www.wildcarvery.com/,https://www.wildcarvery.com/menu,https://www.wildcarvery.com/gift-cards,https://www.wildcarvery.com/contact,Gift Card,Contact,CA,91502,restaurant
Ristorante Rocca,"1205 Broadway, Burlingame, CA 94010",Italian,Burlingame,"Italian cuisine with Californian influences served in a high-ceilinged, mural-adorned dining room.",http://www.ristoranterocca.com/,http://www.ristoranterocca.com/menus.html,https://www.ristoranterocca.com/gift-certificates.html,,Gift Certificates,,CA,94010,restaurant
Limon Rotisserie Burlingame,"1101 Burlingame Ave, Burlingame, CA 94010",Peruvian,Burlingame,,http://limonrotisserie.com/,,https://www.toasttab.com/limon-van-ness/giftcards,https://www.limonrotisserie.com/contact,BUY AN E-CARD TODAY!,CONTACT,CA,94010,restaurant
Rasa Contemporary Indian,"209 Park Rd, Burlingame, CA 94010",Restaurant,Burlingame,Indian fare from sustainable ingredients served in a polished bi-level space with chandeliers.,https://rasaindian.com/,https://rasaindian.com/menu,https://www.toasttab.com/rasa-burlingame/giftcards,https://rasaindian.com/contact/,Gift Cards,Contact,CA,94010,restaurant
New England Lobster Market & Eatery,"824 Cowan Rd, Burlingame, CA 94010",Seafood,Burlingame,"Lobster specialist selling fresh & frozen shellfish by the pound or in rolls, tacos & sandwiches.",http://www.newenglandlobster.net/,http://www.newenglandlobster.net/eatery,https://www.toasttab.com/new-england-lobster-market-eatery/giftcards,http://www.newenglandlobster.net/contact/,Gift Cards,Contact,CA,94010,restaurant
Bandits' Grill and Bar,"1980 Ventura Blvd, Camarillo, CA 93010",Barbecue,Camarillo,"Barbecue joint serves up babyback ribs, burgers, salads, sides & more in a wood-paneled space.",http://www.banditsbbq.com/,http://www.banditsbbq.com/menu,http://www.banditsbbq.com/gift-cards,,Gift Cards,,CA,93010,restaurant
Hidden Cafe,"795 Camarillo Springs Rd, Camarillo, CA 93012",Traditional American,Camarillo,"Casual eatery offering breakfast & lunch dishes with a twist, plus outdoor seating & daily specials.",http://hiddencafe.biz/,,https://squareup.com/gift/AV0YDNTZQ48MF/order,,eGift Cards!,,CA,93012,restaurant
Yolanda's Mexican Cafe,"86 E Daily Dr, Camarillo, CA 93010",Mexican,Camarillo,"Casual place turning out traditional Mexican fare such as tamales, fajitas, burritos & margaritas.",http://www.yolandasmexicancafe.com/,,https://yolandasmexicancafe.cardfoundry.com/giftcards.php,http://www.yolandasmexicancafe.com/contact-us.html,Gift Cards,Contact,CA,93010,restaurant
A Bellagio Italian Restaurant,"33 S Central Ave, Campbell, CA 95008",Italian,Campbell,Traditional Italian restaurant with airy indoor and outdoor terrace seating.,http://www.abellagio.com/,http://www.abellagio.com/lunch-menu/,https://swipeit.com/product/1626/a-bellagio,http://www.abellagio.com/contact-us/,Gift Cards,Contact Us,CA,95008,restaurant
Willard Hicks Campbell,"280 E Campbell Ave, Campbell, CA 95008",New American,Campbell,"Steaks & other wood-fired entrees plus beer & cocktails served in a clubby, masculine space.",http://www.willardhicksgrill.com/,https://willardhicksgrill.com/menu.html,https://willardhicksgrill.cardfoundry.com,,purchasing a Gift Card,,CA,95008,restaurant
Campfire,"2725 State St, Carlsbad, CA 92008",New American,Carlsbad,Buzzy indoor/outdoor locale serving wood-fired American fare & cocktails amid camping decor.,http://thisiscampfire.com/,,http://thisiscampfire.com/#contact,http://thisiscampfire.com/#contact,Gift Cards,Gift Cards,CA,92008,restaurant
Paon Restaurant & Bar,"2975 Roosevelt St, Carlsbad, CA 92008",French,Carlsbad,Buzzy eatery serving high-end French-inspired California cuisine in an elegant dining room.,http://www.paoncarlsbad.com/,http://www.paoncarlsbad.com/lunch-menu/,https://paoncarlsbad.com/shop/,https://paoncarlsbad.com/contact/,Gift Cards,Contact,CA,92008,restaurant
Vigilucci's Seafood & Steakhouse,"3878 Carlsbad Blvd, Carlsbad, CA 92008",Steak,Carlsbad,Relaxed eatery serving Italian-inspired steak & seafood across from the Pacific Ocean.,http://www.vigiluccis.com/,https://vigiluccis.com/wp-content/uploads/2015/08/Vigiluccis-SH-Menu-DINNER.pdf,https://egift.mymobilerewards.net/vigiluccis/,https://vigiluccis.com/contact-us/,,CONTACT,CA,92008,restaurant
West Steak and Seafood,"4980 Avenida Encinas, Carlsbad, CA 92008",Steak,Carlsbad,"Surf 'n turf, locally farmed produce & festive happy hours in an upscale dining hall with a bar.",http://www.weststeakandseafood.com/,http://www.weststeakandseafood.com/menus/,http://www.weststeakandseafood.com/gift-cards/,http://www.weststeakandseafood.com/contact/,Gift Cards,Contact,CA,92008,restaurant
264 Fresco,"264 Carlsbad Village Dr, Carlsbad, CA 92008",Italian,Carlsbad,"Wood-fired Italian dishes prepared in a bright, elegant setup with stylish, homey accents & a patio.",https://www.264fresco.com/,https://www.264fresco.com/menus.php,https://www.264fresco.com/carlsbad-restaurant-gift-cards.php,https://www.264fresco.com/contact-carlsbad-italian-restaurant-bar.php,Gift Cards,Contact Us,CA,92008,restaurant
Chinollo,"18415 S Avalon Blvd, Carson, CA 90746",New American,Carson,,https://www.chinollo.com/,https://chinollo.com/,https://www.toasttab.com/chinollo/giftcards,https://www.chinollo.com/contact-us.html,Purchase,Contact Us,CA,90746,restaurant
Sunshine Cafe,"36815 Cathedral Canyon Dr, Cathedral City, CA 92234",Restaurant,Cathedral City,"Small, old-timey American diner with counter seating for breakfast, sandwiches & homestyle entrees.",http://www.sunshinecafe.com/,http://www.sunshinecafe.com/pdf/Sunshine-Cafe-Menu.pdf,http://www.sunshinecafe.com/gift-cards.php,,"

",,CA,92234,restaurant
Bob's Coffee Shop,"2908 E Whitmore Ave Suite B, Ceres, CA 95307",Restaurant,Ceres,,http://bobs-coffee-shop.local-cafes.com/,,http://topmountainvillage.com/en/?utm_source=usa_restaurants,,"


",,CA,95307,restaurant
STACKED,"18425 Gridley Rd, Cerritos, CA 90703",New American,Cerritos,Arty modern eatery where patrons customize their order of various American eats using an iPad.,https://www.stacked.com/,http://places.singleplatform.com/stacked-4/menu?ref=google,https://store.stacked.com/Default.asp,http://contact,GIFT CARDS,CONTACT,CA,90703,restaurant
5th Street Steakhouse,"345 W 5th St, Chico, CA 95928",Steak,Chico,White-tablecloth restaurant known for prime beef in cozy surroundings with a wine list & full bar.,http://www.5thstreetsteakhouse.com/,http://www.5thstreetsteakhouse.com/menu,http://www.5thstreetsteakhouse.com/#gift-cards,,Gift Cards,,CA,95928,restaurant
The Red Tavern,"1250 Esplanade, Chico, CA 95926",Restaurant,Chico,Wines & a seasonal American & Mediterranean menu in a garden bistro with a bocce court & live music.,http://redtavern.com/,http://redtavern.com/menus/,https://www.redtavern.com/gift-certificates/,https://www.redtavern.com/contact/,Gift Certificates,Contact,CA,95926,restaurant
Nash's Restaurant,"1717 Esplanade, Chico, CA 95926",American,Chico,"Unpretentious American restaurant with breakfast, lunch & dinner, weekend brunch, a bar & banquets.",http://www.nashsrestaurantchico.com/,http://places.singleplatform.com/nashs-restaurant-2/menu?ref=google,http://www.nashsrestaurantchico.com/gift-cards.html,http://www.nashsrestaurantchico.com/find-us.html,"
				Gift Cards
			","
				Find Us
			",CA,95926,restaurant
Smokin' Mo's BBQ,"131 Broadway St, Chico, CA 95928",Barbecue,Chico,,http://www.mosbbq.com/,http://t.ly/GM7Nb,https://mosbbq.com/product/gift-certificates-mo-bucks-10/,https://mosbbq.com/contact-us/,"
$10 Gift Certificate –  MO Bucks
$10

 

",Contact Us,CA,95928,restaurant
Tres Hombres Long Bar & Grill,"100 Broadway St, Chico, CA 95928",Mexican,Chico,"Modern Mexican eats, inventive margaritas & tequilas are offered at this lively restaurant.",http://treshombreschico.com/,http://treshombreschico.com/menus/,http://treshombreschico.com/index.php/gift-cards/,http://treshombreschico.com/index.php/contact-us/,Gift Cards,Contact us,CA,95928,restaurant
Aqui Es Texcoco,"5850 S Eastern Ave, Commerce, CA 90040",Mexican,Commerce,,http://aquiestexcoco.com/,http://places.singleplatform.com/aqui-es-texcoco-0/menu?ref=google,http://www.aquiestexcoco.com/contact/gift-card/,http://www.aquiestexcoco.com/contact/,Reward & Gift Card,Contact,CA,90040,restaurant
La Bella Pizza Garden,"373 3rd Ave, Chula Vista, CA 91910",Pizza,Chula Vista,Family-friendly spot for classic & specialty pizzas as well as pasta & fried appetizers since 1955.,http://labellas.com/,http://places.singleplatform.com/la-bella-pizza-garden/menu?ref=google,https://onelink.quickgifts.com/merchant/la-bella-pizza-garden-restaurant/,,Gift Cards,,CA,91910,restaurant
Mangia Italiano,"248 3rd Ave, Chula Vista, CA 91910",Italian,Chula Vista,Unpretentious family-friendly Italian restaurant with a buffet & a menu of classic dishes.,http://mangiaonthird.com/,http://mangiaonthird.com/menu/,http://mangiaonthird.com/chula-vista-third-avenue-mangia-italiano-gift-cards,https://www.twitter.com/Mangiaa,"
                              GIFT CARDS
                              
                          ",Twitter page,CA,91910,restaurant
Ciro's Pizza Cafe,"7521 Old Auburn Rd, Citrus Heights, CA 95610",Pizza,Citrus Heights,"Casual eatery offering build-your-own pizzas & a few unusual house combos, plus calzones & delivery.",http://www.cirospizza.com/,http://www.cirospizza.com/menu,https://squareup.com/gift/7M7EYNX3BZ5S2/order,http://www.cirospizza.com/contact,"
              E-Gift Cards
            ","
                Contact
              ",CA,95610,restaurant
Bardot,"206 W Bonita Ave, Claremont, CA 91711",Californian,Claremont,Modern bar/grill offering inventive California cuisine & cocktails in an elegant space with a patio.,https://bardotrestaurant.com/,https://bardotrestaurant.com/,https://www.instagram.com/p/B95HaunBAtt/,https://bardotrestaurant.com/mailto:contact@bardotrestaurant.com,"
Although this is not how we planned on spending ou

",Send us an email,CA,91711,restaurant
Viva Madrid,"225 Yale Ave, Claremont, CA 91711",Spanish,Claremont,Spanish small plates include bacon-wrapped dates at this buzzy spot with European flair & cocktails.,http://www.vivamadrid.com/,http://www.vivamadrid.com/foodmenu.html,https://www.toasttab.com/vivamadrid/giftcards,,"
				E-Gift Cards
			",,CA,91711,restaurant
Euro Cafe,"546 E Baseline Rd, Claremont, CA 91711",Italian,Claremont,"Casual counter-serve joint with coffee, sandwiches & a menu of Italian & Portuguese entrees.",http://www.eurocafeclaremont.com/,http://eurocafeclaremont.com/wp-content/uploads/2019/12/Euro-Take-out-menu-190724-1-1.pdf,https://www.toasttab.com/euro-cafe/giftcards,http://eurocafeclaremont.com/contact-us/,link,Contact Us,CA,91711,restaurant
Eddie's Italian Eatery,"1065 W Foothill Blvd, Claremont, CA 91711",Italian,Claremont,"Italian staples like pizza, pasta & veal in casual digs with checkered tablecloths & vintage photos.",https://www.eddieseatery.com/,https://www.eddieseatery.com/menu,https://www.eddieseatery.com/gift-cards,https://www.eddieseatery.com/contact-us,GIFT CARDS,1065 W. Foothill Blvd.,CA,91711,restaurant
The Mad Duck,"765 W Herndon Ave #200, Clovis, CA 93612",Restaurant,Clovis,Airy brick-walled tavern with outdoor seating offering a variety of pub grub & craft beers.,http://madduckcraft.com/,http://places.singleplatform.com/mad-duck-the/menu?ref=google,https://www.instagram.com/p/B97FbefgA6-/,,"

",,CA,93612,restaurant
Rosa Linda's Mexican Cuisine,"1420 Clovis Ave, Clovis, CA 93612",Mexican,Clovis,Restaurant doling out breakfast-to-dinner Mexican fare in an upbeat setting with patio seating.,https://www.rosalindascuisine.com/,https://www.rosalindascuisine.com/menus/,https://www.rosalindascuisine.com/store/gift-cards/,https://www.rosalindascuisine.com/contact/,Gift Cards,Contact,CA,93612,restaurant
More Than Pizza,"2195 Shaw Ave, Clovis, CA 93611",Italian,Clovis,"Relaxed eatery with sidewalk seating offering a menu of pizza, subs & signature cheese sticks.",https://m.facebook.com/,http://places.singleplatform.com/more-than-pizza-6/menu?ref=google,https://lm.facebook.com/l.php?u=https%3A%2F%2Fsquareup.com%2Fgift%2FDW09KNZQDHJZ4%2Forder&h=AT3f-tDzpnU4F85VpRM9BfyylDV1mS0vskahqRj-zhn4srRDvcDXb1lu8XppUKPl_TieXwxWMjmXlN7LdnRlI6mWZkwOvHSt42Smz342k19GxGcFBx_FHt66CzxNWlIHXLZlu1iIUK_E2JHcg_32C8I7doleekV60HkSe5DW_B0U6swu_mRz3ujyB8sEIFEy9sL8li05FDoLcdmb0ewmPVpcitxxYOOXqdVxBjpuf53peSaugM2JO0cOtYstcQZFbsAPFeFFubxEcyU7Fni-HYiR0cyduqsN06MZBZaebmD5eSWkeKZEMf8z-e7LDMWecHQwupawzHOp5SBJAr_qG4Hs1CFHHjln92weWDmjrP6B1Gaz1SBXVfUHt69Mw3reCTBZL1Q_X7eHli24-jFTOSW0MiHowArTVo-R1ChV1FAOTokJXqQ9vBBa7InPPNtFem0dStdq7URVm3em9q00PMy3OBbxEv5SQuWdUW05bYTENsEJ1GLlWKjEYtMpahDnlVa1eWsHxojxl92alqtq7aUlN4oU6vjim2vQyXTroemt-gtGTdiHXGoWV03Fxcbie0_qgTDz9L76vdVaUaAvA_ThBLyoCNtsVMvnGz8knWkrUjNl6mCtJ8twTwqAWzE7cFsnWBFEIxMZLrHjRJhvFkE9YmqfGqTT-cWdG_AreuylnbaJtBT-XzCbb2MR2PZnMKXtEL-8UnbAI51JqciGFPn9Of10D2sHHMcAflCOGuYK52Jod9X5W5lgGN8IKUIzCMTUAoCBQlfPebLZ3Gpmm76TeHpqGJPHO2eIFW60ZZMXCro6g-NbYpmoT1pbDPhn7jj5sWqXjaBLHVW8ld-L4RCKTcpqBRZJ_lOQFI9lo92e4rMT7czaRDh3_Sx6A9Ic5lCkU8udv3yY6PoOnuLhp61DT4GEGINNkgslK5EdDns4xLPMv-Xd7_ytBLialbpRuzjqGZlb0s7ixoSuIXEXtpNp64N_LwMAgIZ1amtCh68faFJUSVuxf6RZR0B0AXN4qiPkY22gduynHUZOs9N9woN3JgdJIFz_KHdHZmpXyQZJbP6HczZjtoATmIPFH_7pFxdg48eR96iCyf0b16zAkPXt-HfCxJZ4n07mnibzf-IgKvu7KHDYtOqB7xLRkp1l8IoCM6u1dA0PNKXmuMkD4w,,Order More Than PIZZA Clovis eGift Cardssquareup.com,,CA,93611,restaurant
Country Kitchen Restaurant,"1497 N Mt Vernon Ave, Colton, CA 92324",American,Colton,,https://countrykitchenrestaurants.com/,https://countrykitchenrestaurants.com/colton-ca/,https://countrykitchenrestaurants.com/locations/,https://countrykitchenrestaurants.com/contact/,,Contact,CA,92324,restaurant
The Toasted Barrel,"1300 El Sobrante Rd, Corona, CA 92879",Steak,Corona,"Stylish, upscale American steakhouse with craft cocktails & a big wine list, plus a lounge & patio.",https://ttoastedbarrel.com/,https://www.ttoastedbarrel.com/menu.html,https://ttoastedbarrel.com/gift-cards/,,Gift Cards,,CA,92879,restaurant
Taco Maria,"3313 Hyland Ave, Costa Mesa, CA 92626",Mexican,Costa Mesa,"Locally sourced Californian-Mexican fare in casual, open-kitchen quarters with a patio.",http://www.tacomaria.com/,http://places.singleplatform.com/taco-maria/menu?ref=google,http://www.tacomaria.com/gifts,http://www.tacomaria.com/contact,gift cards,contact,CA,92626,restaurant
Craft Hill,"128 N Grand Ave, West Covina, CA 91791",Restaurant,West Covina,Airy neighborhood fixture with an industrial-chic vibe serving comfort eats & specialty cocktails.,http://www.crafthill.com/,http://www.crafthill.com/menus,http://www.crafthill.com/gift-cards,,"
        
        GIFT CARDS
      ",,CA,91791,restaurant
The Wallace TEMPORARILY CLOSED,"3833 Main St, Culver City, CA 90232",Californian,Culver City,Locally sourced & sustainable Californian cuisine in an industrial setting with communal tables.,http://thewallacela.com/,,http://thewallacela.com/culver-city-the-wallace-gift-cards,https://www.facebook.com/217102721797098,"
                              GIFT CARDS
                              
                          ",Facebook page,CA,90232,restaurant
Akasha,"9543 Culver Blvd, Culver City, CA 90232",New American,Culver City,Bustling spot preparing New American farm-to-table cuisine in a rustic-chic setting.,https://www.akasharestaurant.com/,http://places.singleplatform.com/akasha/menu?ref=google,https://www.akasharestaurant.com/store/gift-cards/,,Gift Cards,,CA,90232,restaurant
Lukshon,"3239 Helms Ave, Culver City, CA 90232",South East Asian,Culver City,Destination for fine renderings of Southeast Asian eats in sleek environs of teak & stainless metal.,http://lukshon.com/,http://lukshon.com/menus/,https://www.itson.me/widget/74-1933-lukshon,http://lukshon.com/contact/,,contact,CA,90232,restaurant
Destroyer,"3578 Hayden Ave, Culver City, CA 90232",New American,Culver City,"Jordan Kahn's minimalist, daytime-only spot for inventive Scandinavian-style breakfast & lunch fare.",http://destroyer.la/,http://places.singleplatform.com/destroyer/menu?ref=google,https://squareup.com/gift/CRWQRJRV9J3P5/order,,GIFT CARD,,CA,90232,restaurant
Loqui,"8830 Washington Blvd #104, Culver City, CA 90232",Mexican,Culver City,"Casual & rustic spot for mesquite-grilled meats & vegetables, handmade tortillas & more.",http://www.eatloqui.com/,http://places.singleplatform.com/loqui-0/menu?ref=google,https://squareup.com/gift/657H6W6ZF2NSD/order,http://www.eatloqui.com/contact/,Gift Cards,Contact,CA,90232,restaurant
Margot,"8820 Washington Blvd General Chemistry Lab, Culver City, CA 90232",Mediterranean,Culver City,"Italian cuisine gets a modern California twist, with many plant-based dishes, pasta & proteins.",https://www.margot.la/,https://www.margot.la/menu-1/#menus,https://www.giftrocker.com/secure/Order/?h=28bf0532,https://www.margot.la/#location,"
        gift cards
      ","

contact
",CA,90232,restaurant
Arya Global Cuisine,"19930 Stevens Creek Blvd, Cupertino, CA 95014",Persian,Cupertino,Chic space for Mediterranean & Persian fare that's served up with occasional live entertainment.,http://www.aryarestaurant.com/,http://www.aryarestaurant.com/s/menu_dinner_redwoodcity.pdf,https://secure.treatful.com/buy/Arya-Global-Cuisine?ref=1,,buy a gift certificate,,CA,95014,restaurant
Original Joe's Westlake,"11 Glenwood Ave, Daly City, CA 94015",Italian,Daly City,"Neighborhood fixture serving traditional, old-school Italian entrees in spacious environs.",https://originaljoes.com/,https://originaljoes.com/westlake/menu/,https://originaljoes.com/westlake/gift-cards/,https://originaljoes.com/westlake/contact/,Gift Cards,Contact,CA,94015,restaurant
Boulevard Cafe,"2 Poncetta Dr, Daly City, CA 94015",Restaurant,Daly City,"Diner with a bar cooking up comfort-food favorites like cheddar grits, mac 'n' cheese & meatloaf.",https://theboulevardcafe.com/,,https://www.toasttab.com/boulevard-cafe/giftcards,https://theboulevardcafe.com/location/,Gift Card,Contact Us,CA,94015,restaurant
Harbor Grill Restaurant at Dana Point,"34499 Golden Lantern, Dana Point, CA 92629",Seafood,Dana Point,Harborside go-to for mesquite-grilled seafood featuring an enclosed patio & marina views.,http://www.harborgrill.com/,http://www.harborgrill.com/menus/,http://www.harborgrill.com/gift-cards/,https://harborgrill.com/contact,Gift Cards,Contact,CA,92629,restaurant
Luciana's Ristorante,"24312 Del Prado Ave, Dana Point, CA 92629",Italian,Dana Point,Go-to for housemade pastas & other Italian fare in a villa-style setting with a fireplace & patio.,https://www.lucianas.com/,https://lucianas.ecwid.com/,https://www.lucianas.com/gift-cards#!/Gift-Card-Click-to-pick-your-amount/p/160735225/category=42339044,https://www.lucianas.com/pages/contact-us,Gift Cards,Contact Us,CA,92629,restaurant
Salt Creek Grille,"32802 CA-1, Dana Point, CA 92629",Steak,Dana Point,Cozy spot for modern American fare with Craftsman-style architecture & outdoor patio with fire pit.,http://www.saltcreekgrille.com/,http://places.singleplatform.com/salt-creek-grille-5/menu?ref=google,http://saltcreek.securetree.com/Products/Gift-Cards/,,Gift Cards,,CA,92629,restaurant
Jimmy's Famous American Tavern,"25001 Dana Point Harbor Dr, Dana Point, CA 92629",New American,Dana Point,Casual counter-serve seafood restaurant on Dana wharf is known for fish & chips & paper plates.,https://www.j-fat.com/,https://j-fat.com/menus/,https://www.j-fat.com/gift-cards/,,Gift Cards,,CA,92629,restaurant
Danville Harvest,"500 Hartz Ave, Danville, CA 94526",Californian,Danville,"Chic farm-to-table bistro with New American offerings presented in stylish, contemporary quarters.",http://www.danvilleharvest.com/,https://www.danvilleharvest.com/,https://www.toasttab.com/danville-harvest/giftcards,https://www.danvilleharvest.com,Online Gift Card,About Us / Contact,CA,94526,restaurant
Esin Restaurant & Bar,"750 Camino Ramon, Danville, CA 94526",Mediterranean,Danville,"Market-driven New American-Mediterranean plates served in an upscale, airy bistro with a patio.",http://www.esinrestaurant.com/,,https://www.toasttab.com/esin-restaurant-bar/giftcards,http://www.esinrestaurant.com/contact.html," 
               
                     
                   
                   
                   
                     GIFT CARDS 
                      
               
             "," 
               
                     
                   
                   
                   
                     CONTACT 
                      
               
             ",CA,94526,restaurant
Revel Kitchen & Bar,"331 Hartz Ave, Danville, CA 94526",American,Danville,"New American bistro offering small plates, entrees & craft cocktails in a casual yet refined space.",http://www.revelkitchenandbar.com/,http://www.revelkitchenandbar.com/food-drink_1.html,https://www.toasttab.com/revel-kitchen-bar-jaiyb/giftcards,http://www.revelkitchenandbar.com/contact.html," 
               
                     
                   
                   
                   
                     GIFT CARD 
                      
               
             "," 
               
                     
                   
                   
                   
                     CONTACT 
                      
               
             ",CA,94526,restaurant
The Peasant & The Pear,"267 Hartz Ave, Danville, CA 94526",Californian,Danville,"Californian-Med comfort food served in a warm, intimate cafe with sunny yellow walls & a cozy patio.",http://rodneyworth.com/,http://rodneyworth.com/peasant-pear/,https://gifts.opentable.com/buy/The-Peasant-and-The-Pear?ref=1,http://rodneyworth.com/#hours,Gift Certificates,CONTACT,CA,94526,restaurant
Bridges,"44 Church St, Danville, CA 94526",Restaurant,Danville,Lively standby with a lounge & patio serving Asian-influenced Californian fare in contemporary digs.,http://www.bridgesdanville.com/,http://bridgesdanville.com/dinner.php,https://bridgesdanville.cardfoundry.com/giftcards.php,http://www.bridgesdanville.com/contact.php,Gift Certificates,CONTACT US,CA,94526,restaurant
Woodstock's Pizza Davis,"219 G St, Davis, CA 95616",Pizza,Davis,"Lively, student-oriented pizza joint offering inventive gourmet pies, salads & sandwiches.",https://woodstocksdavis.com/,https://woodstocks-pizza-davis.securebrygid.com/zgrid/proc/site/sitep.jsp,https://woodstocksdavis.com/gift-cards/,https://woodstocksdavis.com/contact/,"GIVE THEM
SOME DOUGH

WOODSTOCK'S
GIFTCARDS
GET THEM NOW
",Contact,CA,95616,restaurant
Seasons,"102 F St, Davis, CA 95616",American,Davis,"Relaxed, classy eatery offering a rotating menu of locally sourced American fare & craft cocktails.",https://www.seasonskitchenandbar.com/,,https://www.seasonskitchenandbar.com/gift-cards/,https://www.seasonskitchenandbar.com/about/,Gift Cards,About & Contact,CA,95616,restaurant
Osteria Fasulo,"2657 Portage Bay E #8, Davis, CA 95616",Italian,Davis,"Comfortable, family-owned Italian restaurant featuring a spacious patio strung with lights.",http://www.osteriafasulo.com/,http://www.osteriafasulo.com/menu-c13wx,https://www.osteriafasulo.com/about1,https://www.osteriafasulo.com/contact,Gift Certificates,CONTACT,CA,95616,restaurant
Tempo Cantina,"12056 Paramount Blvd, Downey, CA 90242",Mexican,Downey,,https://tempocantina.com/,http://places.singleplatform.com/tempo-cantina/menu?ref=google,https://www.toasttab.com/king-and-queen-cantina/giftcards,https://tempocantina.com/contact-us/,Gift Cards,Contact Us,CA,90242,restaurant
Lock & Key Social Drinkery  Kitchen,"11033 Downey Ave, Downey, CA 90241",American,Downey,"Burgers, steaks & other American eats are offered at this cool bar with a variety of craft brews.",http://www.lksddowney.com/,https://www.lksdkitchen.com/food,https://www.toasttab.com/lock-key-social-drinkery-and-kitchen/giftcards,http://www.lksddowney.com/contact-us,Gift Cards,"
        Contact Us
      ",CA,90241,restaurant
Pacific Catch,"5251 Martinelli Way, Dublin, CA 94568",Seafood,Dublin,"Seafood inspired by flavors from the Pacific Rim, served in a casual eatery & bar with sports TV.",http://pacificcatch.com/,https://pacificcatch.com/core-menu/,https://pacificcatch.securetree.com/,http://pacificcatch.com/contact-us/,Gift Cards,Contact Us,CA,94568,restaurant
URBN El Cajon,"110 N Magnolia Ave, El Cajon, CA 92020",Pizza,El Cajon,Casual gastropub serves beers brewed on-site plus pizza & bites from sister eateries.,http://www.urbnelcajon.com/,http://places.singleplatform.com/urbn-el-cajon/menu?ref=google,http://www.urbnelcajon.com/urbn-group,http://www.urbnelcajon.com/hours-contact#hours-of-operation,    Give a Gift Grab an URBN gift card at any of our locations.  ,  Hours ,CA,92020,restaurant
Italia Pizza,"401 Main St, Half Moon Bay, CA 94019",Italian,Half Moon Bay,"Inventive pizzas, a full bar & a Tuscan-style courtyard add to a vibrant scene at this Italian spot.",http://www.itsitaliarestaurant.com/,http://places.singleplatform.com/its-italia-pizzeria-trattoria-2/menu?ref=google,http://www.itsitaliarestaurant.com/giftCard.html,http://www.itsitaliarestaurant.com/contact.php,Buy a Gift Card,Contact Us,CA,94019,restaurant
Thomas Hill Organics Bistro & Wine Bar,"1313 Park St, Paso Robles, CA 93446",Bistro,Paso Robles,"Bistro with a changing menu featuring ingredients grown on a local farm, served with regional wines.",http://www.thomashillorganics.com/,http://places.singleplatform.com/thomas-hill-organics-0/menu?ref=google,https://onelink.quickgifts.com/merchant/thomas-hill-organics/,http://www.thomashillorganics.com/contact,"
        Buy Gift Card
      ","
            Contact
          ",CA,93446,restaurant
The Steakhouse at the Paso Robles Inn,"1103 Spring St, Paso Robles, CA 93446",Steak,Paso Robles,,https://www.pasoroblesinn.com/,https://www.pasoroblesinn.com/steakhouse#menus-section,http://www.martinresorts.com/giftcards,https://www.pasoroblesinn.com/steakhouse/contact,eGift card,Contact Us,CA,93446,restaurant
Fuji  Sushi Buffet,"8473 Elk Grove Blvd, Elk Grove, CA 95758",Sushi,Elk Grove,"Busy sushi joint featuring all-you-can-eat rolls & Chinese fare in a snug, casual interior.",http://fuji-sushi-buffet.local-cafes.com/,,http://topmountainvillage.com/en/?utm_source=usa_restaurants,,"


",,CA,95758,restaurant
Le Papagayo,"1002 N Coast Hwy 101, Encinitas, CA 92024",Restaurant,Encinitas,"Cozy, upscale restaurant serving Mediterranean & Latin fusion fare including paella & kalua pork.",http://lepapagayoleucadia.com/,http://lepapagayoleucadia.com/#breakfast,https://lepapagayoleucadia.cardfoundry.com,http://lepapagayoleucadia.com/#contactform,GIFT CARDS,CONTACT,CA,92024,restaurant
Trattoria I Trulli Restaurant,"830 S Coast Hwy 101 A, Encinitas, CA 92024",Italian,Encinitas,Bustling servers zip around a cozy dining room carrying Italian eats including homemade ravioli.,http://www.trattoriaitrullisd.com/,http://www.trattoriaitrullisd.com/dinner-menu/,https://www.toasttab.com/trattoria-i-trulli/giftcards,http://www.trattoriaitrullisd.com/contact,GIFT CARDS,Contact Us,CA,92024,restaurant
Lobster West,"765 S Coast Hwy 101, Encinitas, CA 92024",Restaurant,Encinitas,Seafood sandwich specialist serving casual fare plus beer & wine in easygoing surrounds.,http://lobsterwest.com/,http://places.singleplatform.com/lobster-west/menu?ref=google,https://squareup.com/gift/DHWBNRRCCNK3G/order,https://www.lobsterwest.com/contact/,Gift Cards,Contact,CA,92024,restaurant
Q'ero Restaurant,"564 S Coast Hwy 101, Encinitas, CA 92024",Peruvian,Encinitas,Cozy & intimate space serving traditional South-American & Peruvian delicacies such as papa rellena.,http://www.qerorestaurant.com/,https://www.qerorestaurant.com/,https://www.qerorestaurant.com/product-page/aji-panca,https://www.qerorestaurant.com/contact-us,Gift Cards & Shop,Reach Out to Us,CA,92024,restaurant
The 3rd Corner Wine Shop & Bistro,"897 S Coast Hwy 101 ste f-104, Encinitas, CA 92024",Restaurant,Encinitas,Chic bistro & wine shop offers Californian small plates in a variety of bustling seating areas.,http://www.the3rdcorner.com/,,https://www.the3rdcorner.com/gift-cards/,https://www.the3rdcorner.com/contact/,Gift Cards,Contact,CA,92024,restaurant
Burger Bench,"237 E Grand Ave, Escondido, CA 92025",Hamburger,Escondido,"Breakfast, gourmet burgers & other casual fare with a local focus in an industrial-chic setting.",http://www.burgerbench.com/,http://www.burgerbench.com/menu/,http://www.burgerbench.com/buy-gift-cards,http://www.burgerbench.com/contact,"
                Buy Gift Cards
              ","
                Contact Us
              ",CA,92025,restaurant
Sutter Street Steakhouse,"604 Sutter St, Folsom, CA 95630",Steak,Folsom,"Classy, unfussy American steakhouse preparing chops, seafood & cocktails, with patio seating.",http://www.sutterstreetsteakhouse.com/,http://www.sutterstreetsteakhouse.com/menu,http://www.sutterstreetsteakhouse.com/#gift-cards,http://www.sutterstreetsteakhouse.com/#contact,Gift Cards,Get in Touch,CA,95630,restaurant
Land Ocean LO Restaurant Folsom,"2720 E Bidwell St, Folsom, CA 95630",Steak,Folsom,"Modern, stylish eatery offering cocktails & upscale American fare, including steaks & seafood.",https://landoceanrestaurants.com/,https://landoceanrestaurants.com/curbside-takeout//?utm_source=gmb&utm_medium=organic&utm_campaign=GMB_menu_folsom,https://landocean.securetree.com/,https://landoceanrestaurants.com/contact/,Gift Cards,CONTACT,CA,95630,restaurant
Mystique Dining,"611 Sutter St, Folsom, CA 95630",Fine Dining,Folsom,"Plush, crimson-hued fine-dining eatery offering a multi-course dinner followed by a magic show.",http://mystiquedining.com/,,http://mystiquedining.com/Gift-Cards,,Gift Cards,,CA,95630,restaurant
Chicago Fire,"614 Sutter St, Folsom, CA 95630",Pizza,Folsom,"Casual pizzeria with a full bar specializing in Chicago-style pies, plus wings, pastas & more.",http://www.chicagofire.com/,https://chicagofire.com/menu/,http://chicagofire.securetree.com/Products/Gift-Cards/,http://www.chicagofire.com/en/contact-us,Gift Card,"

Contact Us
                ",CA,95630,restaurant
Fat's Asia Bistro Folsom,"2585 Iron Point Rd, Folsom, CA 95630",Asian Fusion,Folsom,,https://fatsasiabistro.com/,https://fatsasiabistro.com/menu/folsom-menu/,https://fatsasiabistro.com/gift-cards/,https://fatsasiabistro.com/contact-us/,Gift Cards,Contact Us,CA,95630,restaurant
Fg Restaurant Mexican American,"1770 Walnut Village Pkwy A, Fontana, CA 92336",Mexican,Fontana,"Vibrant diner with tables & booths, serving familiar Mexican & American grub, including breakfast.",http://fg-restaurant-mexican-american.cafes-nearby.com/,,http://topmountainvillage.com/en/?utm_source=usa_restaurants,,"


",,CA,92336,restaurant
Starbird Chicken,"1141 Triton Dr, Foster City, CA 94404",Chicken,Foster City,,http://www.starbirdchicken.com/,http://www.starbirdchicken.com/menu,http://www.starbirdchicken.com/giftcards,http://www.starbirdchicken.com/contact,Gift Cards,Contact,CA,94404,restaurant
Shabuya,"18279 Brookhurst St #8, Fountain Valley, CA 92708",Shabu Shabu,Fountain Valley,,https://www.shabuyarestaurant.com/,,https://www.instagram.com/p/B7wViXNl7KE/,,"

",,CA,92708,restaurant
Fortune Cookies Restaurant,"18774 Brookhurst St, Fountain Valley, CA 92708",Asian,Fountain Valley,"Chinese outpost offering basic eats with low-fat & gluten-free choices, plus sushi, in modern digs.",http://www.fortunecookiesrestaurant.com/,https://fortunecookiesrestaurant.com/allmenu/,http://fortunecookiesrestaurant.com/gift-cards/,http://fortunecookiesrestaurant.com/contact/,Gift Cards,Contact,CA,92708,restaurant
Massimo's,"5200 Mowry Ave Ste M, Fremont, CA 94538",Restaurant,Fremont,Italian fine-dining establishment serving in a white-tablecloth setting since 1976.,http://www.massimos.com/,http://places.singleplatform.com/massimos/menu?ref=google,https://massimos.cardfoundry.com/giftcards.php,http://www.massimos.com/contact/,Gift Cards,Contact,CA,94538,restaurant
Pismo's Coastal Grill,"7937 N Blackstone Ave, Fresno, CA 93711",Seafood,Fresno,American seafood menu is served in a lodgelike eatery with a bar & separate seafood deli counter.,http://www.pismos.com/,https://www.pismos.com/takeout-menus/?utm_source=google&utm_medium=local&utm_campaign=gmb_listing,https://www.pismos.com/gift-cards/,https://www.pismos.com/contact/,Gift Cards,Contact Us,CA,93711,restaurant
The Annex Kitchen,"2257 W Shaw Ave, Fresno, CA 93711",Italian,Fresno,"Rustic Italian dishes like wood-fired pizza in a contemporary, open-timbered space with a full bar.",http://www.annexkitchenfresno.com/,http://annexkitchenfresno.com/wp-content/uploads/annex-private-dining-menus-1.pdf,https://ecommerce.custcon.com/Selection.aspx?c=f44cb397-8753-4699-9d5d-5b63936f0265,http://www.annexkitchenfresno.com/#contact,Gift Cards,Contact,CA,93711,restaurant
Westwoods BBQ & Spice Co,"8042 N Blackstone Ave, Fresno, CA 93720",Barbecue,Fresno,Locally sourced BBQ fare plus draft microbrews & wine served in a casual reclaimed-wood setting.,http://westwoodsbbq.com/,http://westwoodsbbq.com/menu/lunch/starters/,http://westwoodsbbq.com/store/gift-cards/,http://westwoodsbbq.com/contact/,Gift Cards,Contact,CA,93720,restaurant
Elbow Room Bar & Grill,"731 W San Jose Ave, Fresno, CA 93704",Grill,Fresno,Restaurant serving casual American fare with a covered patio for outdoor dining & a full bar.,http://www.elbowroomfresno.com/,https://elbowroomfresno.com/menus/,https://elbowrooom.myguestaccount.com/guest/card-sales,https://elbowroomfresno.com/contact/,GIFT CARDS,CONTACT,CA,93704,restaurant
Hong Kong Express,"930 W Orangethorpe Ave, Fullerton, CA 92832",Ethnic restaurant,Fullerton,,http://hong-kong-express.cafes-usa.com/,,http://topmountainvillage.com/en/?utm_source=usa_restaurants,,"


",,CA,92832,restaurant
Veronese Gallery & Cafe,"419 W Commonwealth Ave, Fullerton, CA 92832",Eclectic,Fullerton,"Serving Italian fare, ramen, crêpes & crafty drinks in a funky cafe space with art gallery & garden.",http://veronese-gallery-cafe.local-cafes.com/,http://places.singleplatform.com/veronese-gallery-cafe/menu?ref=google,http://topmountainvillage.com/en/?utm_source=usa_restaurants,,"


",,CA,92832,restaurant
Basil's Restaurant & Bar,"12015 Harbor Blvd, Garden Grove, CA 92840",American,Garden Grove,"A causal eatery in the Marriott Hotel with breakfast buffet, American lunch & dinner, & a full bar.",http://www.anaheimcamarriottsuites.com/,,https://gifts.marriott.com,http://www.anaheimcamarriottsuites.com/tel:+1 714-750-1000, Gift Cards ,  +1 714-750-1000  ,CA,92840,restaurant
Kyotori Japanese Restaurant,"9787 Chapman Ave, Garden Grove, CA 92841",Japanese,Garden Grove,"Petite, casual eatery offering sushi & Japanese kitchen entrees such as teriyaki chicken.",http://kyotori.cafes-nearby.com/,http://places.singleplatform.com/kyotori/menu?ref=google,http://topmountainvillage.com/en/?utm_source=usa_restaurants,,"


",,CA,92841,restaurant
Henry's Bar and Grill,"10549 Stanford Ave, Garden Grove, CA 92840",Grill,Garden Grove,"Enduring hideaway with classic bar decor, simple American pub grub, sports on TV & a pool table.",https://henrysgardengrove.com/,http://places.singleplatform.com/henrys-89/menu?ref=google,https://www.toasttab.com/henrys-garden-grove/giftcards,https://henrysgardengrove.com/contact-us/,Buy Gift Cards,Contact Us,CA,92840,restaurant
Sushi Omakase,"6905 Camino Arroyo #50, Gilroy, CA 95020",Japanese,Gilroy,Basic setting for Japanese cuisine including innovative specialty rolls & sushi boats for groups.,http://www.sushiomakase.com/,https://app.upserve.com/s/sushi-omakase-gilroy,http://onelink.quickgifts.com/merchant/sushi-omakase/,http://www.sushiomakase.com/contact-us,"
                  Gilroy Gift Cards
                ","
                  Contact Us
                ",CA,95020,restaurant
Bourbon Steak,"237 S Brand Blvd, Glendale, CA 91210",Steak,Glendale,Stylish steakhouse pairing organic meats with an extensive wine list & cocktails in a modern space.,http://www.michaelmina.net/,https://www.michaelmina.net/restaurants/southern-california/bourbon-steak-los-angeles/#menus,https://www.michaelmina.net/gift-cards/,,Gift Cards,,CA,91210,restaurant
Carousel Restaurant Glendale,"304 N Brand Blvd, Glendale, CA 91203",Middle Eastern,Glendale,Middle Eastern fare is served at this no-frills spot that has dancing & live music on weekends.,http://www.carouselrestaurant.com/,https://www.carouselrestaurant.com/view-menu/glendale,https://www.toasttab.com/carousel-restaurant-glendale/giftcards,http://www.carouselrestaurant.com/contact.php,GIFT CARD,CONTACT,CA,91203,restaurant
Dumpling Monster,"7318 Santa Monica Blvd Suite 60, West Hollywood, CA 90046",Restaurant,West Hollywood,,https://www.eatdumplingmonster.com/,https://ordering.chownow.com/order/16313/locations/23186,https://squareup.com/gift/8XSYA03GZJCFJ/order,,"
BUY GIFT CARDS
",,CA,90046,restaurant
Cajun Kitchen,"6831 Hollister Ave A, Goleta, CA 93117",Cajun,Goleta,"Quick-serve spot featuring traditional Cajun-Creole fare in a bustling, no-frills setting.",http://www.cajunkitchencafe.com/,http://places.singleplatform.com/cajun-kitchen-6/menu?ref=google,http://www.cajunkitchencafe.com/gift-cards,,"
                Gift Cards
              ",,CA,93117,restaurant
Beachside BarCafe,"5905 Sandspit Rd, Goleta, CA 93117",Seafood,Goleta,Ocean views & a relaxed setting set the stage for fresh seafood & a lively happy hour.,http://www.beachside-barcafe.com/,https://www.beachside-barcafe.com/,https://loyalty.focuspos.com/base/?C=1036,,Gift Card Balance,,CA,93117,restaurant
Kyle's Kitchen,"5723 Calle Real, Goleta, CA 93117",American,Goleta,"Relaxed eatery serving burgers, fries & craft beer while supporting special-needs organizations.",http://www.kyleskitchen.com/,http://www.kyleskitchen.com/locations.html,https://www.toasttab.com/kyleskitchen-chapala/giftcards,https://www.kyleskitchen.com/contact-us,Buy Gift Card,CONNECT,CA,93117,restaurant
Los Agaves,"7024 Market Pl Dr, Goleta, CA 93117",Mexican,Goleta,,http://www.los-agaves.com/,http://www.los-agaves.com/menu,https://los-agaves.com/store/gift-cards,,"
        Gift Cards
      ",,CA,93117,restaurant
Backyard Bowls,"Shopping Center, 5668 Calle Real, Goleta, CA 93117",Organic,Goleta,"Eco-friendly eatery offering acai bowls, smoothies & more using all-natural & organic ingredients.",http://backyardbowls.com/,http://places.singleplatform.com/backyard-bowls-7/menu?ref=google,https://squareup.com/gift/DEV1ADZQSZGHY/order,,Gift Cards,,CA,93117,restaurant
Los Arroyos Goleta Mexican Restaurant & Take Out,"5764 Calle Real, Goleta, CA 93117",Mexican,Goleta,,http://losarroyos.net/,http://losarroyos.net/,http://losarroyos.net/gift-card,http://losarroyos.net/contact,Gift Card,Contact Us ,CA,93117,restaurant
Hummus House,"12211 Hawthorne Blvd, Hawthorne, CA 90250",Mediterranean,Hawthorne,"Halal eatery offering Mediterranean fare such as falafel, kebabs & an array of hummuses.",http://www.hummus-house.com/,,https://www.toasttab.com/hummus-house/giftcards,,https://www.toasttab.com/hummus-house/giftcard,,CA,90250,restaurant
Pollo Inka Express,"14146 Hawthorne Blvd, Hawthorne, CA 90250",Fast Food,Hawthorne,"Fast Peruvian food, including chicken, lomo saltado, fries & plantains, with drive-thru service.",http://polloinkaexpress.com/,,http://polloinkaexpress.com/gift-cards/,http://polloinkaexpress.com/locations/,GIFT CARDS,Contact Us,CA,90250,restaurant
Bossa Nova Brazilian Cuisine Restaurant & Gourmet Market,"4460 W, Rosecrans Ave, Hawthorne, CA 90250",Brazilian,Hawthorne,,http://www.bossanovafood.com/,http://www.bossanovafood.com/view-menu.html,http://www.bossanovafood.com/gift-cards.html,http://www.bossanovafood.com/Contact.html,GIFT CARDS,LOCATIONS,CA,90250,restaurant
Wakamatsu,"22724 Foothill Blvd, Hayward, CA 94541",Japanese,Hayward,Snug space with a cozy sushi bar serving maki & Japanese entrees such as tempura & teriyaki.,http://wakamatsu.cafes-world.com/,,http://topmountainvillage.com/en/?utm_source=usa_restaurants,,"


",,CA,94541,restaurant
The Mexican Restaurant & Bar,"19950 Hesperian Blvd, Hayward, CA 94541",Mexican,Hayward,Family-style Mexican eatery & tequila bar serving classic & creative dishes with a seasonal focus.,http://www.themexicanhayward.com/,http://www.themexicanhayward.com/menu/appetizers,http://www.themexicanhayward.com/gift-cards,http://www.themexicanhayward.com/contact,Gift Cards,Contact,CA,94541,restaurant
Rigatoni's Fresh Italian Grill Hayward,"20501 Hesperian Blvd, Hayward, CA 94541",Italian,Hayward,"Relaxed Italian restaurant with familiar pastas, soups & salads, plus a bread bar.",http://www.rigatonis.com/,http://rigatonis.com/menus/menu-hayward.html,http://www.rigatonis.com/../giftcards.html,http://www.rigatonis.com/contact.html,Gift Cards,Contact Us,CA,94541,restaurant
Sizzler  Delivery or Takeout Available,"16988 Main St, Hesperia, CA 92345",Restaurant,Hesperia,,http://www.sizzler.com/,http://www.sizzler.com/menu,https://sizzler.egifter.com,https://www.sizzler.com/contact-us,Gift Cards,Contact Us,CA,92345,restaurant
Bluegold,"21016 CA-1 d200, Huntington Beach, CA 92648",New American,Huntington Beach,"Roomy, contemporary, oceanfront restaurant presenting refined, globally-inspired seafood plates.",http://dinebluegold.com/,http://dinebluegold.com/,https://swipeit.com/product/1609/bluegold,,"
            GIFT CARDS
          ",,CA,92648,restaurant
The Hangout Restaurant & Beach Bar,"16490 Bolsa Chica St, Huntington Beach, CA 92649",American,Huntington Beach,Neighborhood restaurant & bar serving New American dishes in a casual setting with patio seating.,https://www.thehangoutrestaurant.com/,http://www.thehangoutrestaurant.com/huntington-beach-menu/,https://www.thehangoutrestaurant.com/gift-cards,https://www.thehangoutrestaurant.com/contact-the-hangout,"
            Gift Cards
          ","
            Contact Us
          ",CA,92649,restaurant
Basilico's Pasta e Vino,"21501 Brookhurst St, Huntington Beach, CA 92646",Italian,Huntington Beach,Lively establishment features Italian cooking including chicken parmesan with specialty pink sauce.,https://www.basilicospastavino.com/,https://www.basilicospastavino.com/pdfs/Basilicosprintdigital-compressed.pdf,https://www.basilicospastavino.com/all-day-menu,http://maps.google.com/maps?f=q&source=s_q&hl=en&geocode=&q=Basilico%27s+Pasta+e+Vino%2c+21501+Brookhurst+Street%2c+Huntington+Beach%2c+CA+92646&z=17,"    Our Menu / Gift Certificates Available Basilico's serves freshly made comfort food only an Italian grandmother would serve her family, friends and guests. Pasta, Seafood, Salads, Poultry and Meat dishes are available. Enjoy a nice glass of Vino too with our very generous food portions.  More  ","  Huntington Beach,  CA ",CA,92646,restaurant
Mama's on 39,"21022 Beach Blvd, Huntington Beach, CA 92648",American,Huntington Beach,Diner features a full bar & diverse menu of modern-day twists on homestyle staples.,http://www.mamason39.com/,http://www.mamason39.com/,https://mamason39.cardfoundry.com/giftcards.php,https://www.mamason39.com/contact/,Gift Cards,Contact Us,CA,92648,restaurant
Jackalope Ranch,"80400 CA-111, Indio, CA 92201",Barbecue,Indio,Sprawling stone lodge offering Californian fare & BBQ meats as well as an outdoor bar & happy hour.,http://www.thejackaloperanch.com/,http://places.singleplatform.com/jackalope-ranch/menu?ref=google,https://www.restaurantsofpalmsprings.com/online-store,https://www.thejackaloperanch.com,Gift Cards,Find Us,CA,92201,restaurant
Cucina Enoteca Irvine,"532 Spectrum Center Dr, Irvine, CA 92618",Italian,Irvine,Casual yet elegant Italian restaurant offers traditional plates & sells wine from around the world.,http://www.urbankitchengroup.com/,https://www.urbankitchengroup.com/cucina-enoteca-irvine/menu/,https://www.toasttab.com/cucina-enoteca-irvine/giftcards,https://www.urbankitchengroup.com/cucina-enoteca-irvine/contact/,Gift Cards,Contact,CA,92618,restaurant
Andrei's Conscious Cuisine & Cocktails,"2607 Main St, Irvine, CA 92614",American,Irvine,"Carefully sourced American fare comes in a chic, modern space with loungelike seating & a hip vibe.",http://andreisrestaurant.com/,http://places.singleplatform.com/andreis-conscious-cuisine--cocktails-0/menu?ref=google,https://app.yiftee.com/gifts/egift_and_gift_cards/andreis-restaurant-irvine,,Gift Cards,,CA,92614,restaurant
The Lone Ranger Cafe,"9085 Mission Boulevard F, Riverside, CA 92509",Restaurant,Riverside,,http://the-lone-ranger-cafe.local-cafes.com/,,http://topmountainvillage.com/en/?utm_source=usa_restaurants,,"


",,CA,92509,restaurant
Lascari's Italian Restaurant,"16255 Whittier Blvd, Whittier, CA 90603",Italian,Whittier,"Red-sauce Italian spot offers classic fare, a pasta bar, jumbo deli sandwiches & more.",http://www.lascarisdeli.com/,http://places.singleplatform.com/lascaris-italian-deli/menu?ref=google,https://lascarisdeli.com/gift-cards/,https://lascarisdeli.com/contact/,Gift Cards,Contact,CA,90603,restaurant
Lunch Box Cafe & Deli,"8751 La Mesa Blvd, La Mesa, CA 91942",Cafe,La Mesa,"Bustling, down-to-earth daytime eatery making classic American breakfast fare, sandwiches & salads.",http://www.thelunchboxcafe.com/,http://www.thelunchboxcafe.com/,http://www.thelunchboxcafe.com/gift-certificates,http://www.thelunchboxcafe.com/tel:6194634013,Gift Certificates,(619) 463-4013,CA,91942,restaurant
Little Roma Restaurant,"5575 Baltimore Dr, La Mesa, CA 91942",Italian,La Mesa,,https://littleromarestaurant.com/,http://www.littleromapizzamenu.com/restaurants/ca/la-mesa/91942/little-roma-pizza/menu,https://littleromarestaurant.com/Gift,https://littleromarestaurant.com/Contact,Gift Certificate ,Contact Us ,CA,91942,restaurant
Terra American Bistro,"7091 El Cajon Blvd, San Diego, CA 92115",American,San Diego,"American eatery features farm-to-table fare & a large wine list in a homey, brick & wood room.",http://www.terrasd.com/,http://places.singleplatform.com/terra-restaurant/menu?ref=google,http://egift.technology/Main.aspx?key=terra,https://terrasd.com/contact-us/,Gift Cards,Contact Us,CA,92115,restaurant
Honeybee Foods Corporation,"16125 Valley Blvd, La Puente, CA 91744",Restaurant,La Puente,,http://jollibeeusa.com/,,https://www.posnet.us/site/jollibeecorp/giftcard,https://jollibeeusa.com/contact-us/,Gift Card Balance,Contact Us,CA,91744,restaurant
Lavender Bistro,"78073 Cll Barcelona, La Quinta, CA 92253",New American,La Quinta,"Modern Californian dishes featuring pasta, meat & fish served indoors or on an elegant garden patio.",http://www.lavenderbistro.com/,http://www.lavenderbistro.com/dinner.html,http://www.lavenderbistro.com/gift-cards.html,http://visitor.r20.constantcontact.com/d.jsp?llr=clo55jiab&p=oi&m=1108436007266&sit=se9oysngb&f=19d4aeec-4eab-4e92-b0a1-a52eda9dfe85,"
				Gift Cards
			","
Receive Our Latest News Here
",CA,92253,restaurant
Stuft Pizza Bar & Grill,"78015 Main St #100, La Quinta, CA 92253",Pizza,La Quinta,"Laid-back spot wins fans with its menu of American & Italian eats, multiple TVs, happy hour & patio.",http://stuftpizzabarandgrill.com/,http://www.stuftpizzabarandgrill.com/menus/pizza/,https://www.stuftpizzabarandgrill.com/gift-cards/,https://www.stuftpizzabarandgrill.com/contact-us/,GIFT CARDS,CONTACT US,CA,92253,restaurant
TWENTY6,"49499 Eisenhower Dr, La Quinta, CA 92253",American,La Quinta,Easygoing restaurant & bar at La Quinta Resort serving American fare & cocktails.,http://www.laquintaresort.com/,https://www.laquintaresort.com/dining/twenty6/,https://www.laquintaresort.com/gift-cards/,http://www.laquintaresort.com/map-and-contact/#resort-map,Gift Cards,Map,CA,92253,restaurant
La Brasserie Bistro & Bar,"78477 CA-111, La Quinta, CA 92253",French,La Quinta,"Sizable, sophisticated French bistro with a patio serving traditional fare, unique cocktails & wine.",http://www.labrasserielaquinta.com/,http://places.singleplatform.com/la-brasserie-bistro--bar/menu?ref=google,https://labrasserielaquinta.com/gift-certificates-french-restaurant/,https://labrasserielaquinta.com/contact-la-quinta/,Gift Certificates ,Contact ,CA,92253,restaurant
Enzo's Bistro and Bar,"78121 Avenida La Fonda, La Quinta, CA 92253",Italian,La Quinta,"Housemade pastas offered in cozy, traditional surrounds with a heated patio & a grass bocce court.",https://www.enzosbistroandbar.com/,,https://www.enzosbistroandbar.com/pages/gift-cards,https://www.enzosbistroandbar.com/#section-1149,Gift Cards,Contact Us,CA,92253,restaurant
LG's Prime Steakhouse,"78525 CA-111 #100, La Quinta, CA 92253",Steak,La Quinta,"Steaks, seafood & all the standard accompaniments in an old-school, white-cloth setting.",http://www.lgsprimesteakhouse.com/,http://places.singleplatform.com/lgs-prime-steakhouse-2/menu?ref=google,https://www.lgsprimesteakhouse.com/gift-cards/,http://www.lgsprimesteakhouse.com/#,Gift Cards,"
 
      	Contact Us
     	",CA,92253,restaurant
Caffe Allegro,"2124 3rd St, La Verne, CA 91750",Italian,La Verne,"Pizza, pasta & other classic Italian meals are the draw at this charming establishment with a patio.",https://www.allegrorestaurants.com/,https://www.allegrorestaurants.com/menu/,https://www.instagram.com/p/B9zwwsYBM8o/,https://www.allegrorestaurants.com/mailto:contact@allegrorestaurants.com,"
To all of our loyal patrons, our La Verne location

",contact@allegrorestaurants.com,CA,91750,restaurant
Ironwood,"25250 La Paz Rd Suite 100, Laguna Hills, CA 92653",American,Laguna Hills,"Contemporary eatery featuring creative American cuisine made with garden produce, plus wines.",https://www.ironwoodlagunahills.com/,https://www.ironwoodlagunahills.com/menu#menu=seasonal-menu,https://rjbrestaurantgroup.cardfoundry.com/giftcards.php,https://www.ironwoodlagunahills.com/contact-us,Gift Cards,Contact,CA,92653,restaurant
Fratellos Italian Restaurant  Laguna Niguel,"31371 Niguel Rd, Laguna Niguel, CA 92677",Italian,Laguna Niguel,"Hearty Italian fare & cocktails in a relaxed venue with park views, outdoor seating & live music.",http://fratellosonline.com/,http://places.singleplatform.com/fratellos-italian-family-restaurant-0/menu?ref=google,https://giftup.app/place-order/ff05156a-0791-4a63-827b-ead8d513c3e7?platform=Squarespace,http://fratellosonline.com/contact,"
              Gift Cards
            ","
                Contact
              ",CA,92677,restaurant
Chelas Mexican Grill,"29975 Alicia Pkwy, Laguna Niguel, CA 92677",Mexican,Laguna Niguel,,http://www.chelasmexicangrill.com/,https://chelasmexicangrill.com/menu/,https://chelasmexicangrill.com/shop/,https://chelasmexicangrill.com/contact/,GIFT CARDS,CONTACT,CA,92677,restaurant
The Original Patsy's Irish Pub Laguna Niguel,"28971 Golden Lantern St #108, Laguna Niguel, CA 92677",Irish pub,Laguna Niguel,"Casual Irish watering hole offers traditional Irish dishes, TVs, pool table & relaxed vibe.",http://www.patsysirishpub.net/,http://places.singleplatform.com/patsys-irish-pub-2/menu?ref=google,https://www.patsysirishpub.net/gift-cards,https://www.patsysirishpub.net/contact-us,Gift Cards,Testimonials,CA,92677,restaurant
Hunnys Cafe,"31253 Riverside Dr, Lake Elsinore, CA 92530",American,Lake Elsinore,,http://hunnys-cafe.cafes-usa.com/,http://places.singleplatform.com/hunnys-restaurant-5/menu?ref=google,http://topmountainvillage.com/en/?utm_source=usa_restaurants,,"


",,CA,92530,restaurant
Urban Grill and Wine Bar,"27412 Portola Pkwy #2829, Lake Forest, CA 92610",Grill,Lake Forest,Globally inspired dishes are served with wine & cocktails at this upscale contemporary bistro.,http://www.urbangrillandwinebar.com/,,http://www.urbangrillandwinebar.com/pages/gift-cards,http://www.urbangrillandwinebar.com/pages/contact,Gift Cards,Contact,CA,92610,restaurant
Brizio's Pizza,"21771 Lake Forest Dr, Lake Forest, CA 92630",Pizza,Lake Forest,Italian menu & Chicago-style pizza in a casual spot with checkered tablecloths & East Coast decor.,http://www.briziopizza.com/,https://briziopizza.com/our-menu/,https://onelink.quickgifts.com/merchant/brizio-pizza/,https://briziopizza.com/contact/,Gift Card,Contact,CA,92630,restaurant
The Lemon Leaf Cafe,"653 W Lancaster Blvd, Lancaster, CA 93534",Restaurant,Lancaster,"Californian bistro menu of pizza, pasta & wraps in a mural-clad space with a banquette party room.",http://www.lemonleaf.com/,http://places.singleplatform.com/lemon-leaf/menu?ref=google,https://lemonleaf.com/gift-cards/,https://lemonleaf.com/contact/,Gift Cards,Contact,CA,93534,restaurant
Jackies Cafe,"830 W Ave L #101, Lancaster, CA 93534",Restaurant,Lancaster,,http://jackies-cafe.cafes-usa.com/,,http://topmountainvillage.com/en/?utm_source=usa_restaurants,,"


",,CA,93534,restaurant
KatzN Jammers,"44801 Beech Ave, Lancaster, CA 93534",Diner,Lancaster,,http://katz-n-jammers.cafes-usa.com/,,http://topmountainvillage.com/en/?utm_source=usa_restaurants,,"


",,CA,93534,restaurant
A M Cafe,"44205 10th St W, Lancaster, CA 93534",Restaurant,Lancaster,,http://a-m-cafe.cafes-usa.com/,,http://topmountainvillage.com/en/?utm_source=usa_restaurants,,"


",,CA,93534,restaurant
El Toreo Far West,"4061 W Ave L, Lancaster, CA 93536",Mexican,Lancaster,,http://el-toreo-far-west.cafes-usa.com/,,http://topmountainvillage.com/en/?utm_source=usa_restaurants,,"


",,CA,93536,restaurant
Blue Salt Fish Grill,"2515 Artesia Blvd, Redondo Beach, CA 90278",Seafood,Redondo Beach,"Cozy & casual eatery serving up a variety of grilled seafood choices, as well as tacos & salads.",http://www.bluesaltfishgrill.com/,http://bluesaltfishgrill.com/food-menu/,http://bluesaltfishgrill.com/gift-card-pick-up/,http://bluesaltfishgrill.com/contact-us/,Catering,Contact Us,CA,90278,restaurant
Fourk Kitchen,"825 Twelve Bridges Dr #65, Lincoln, CA 95648",Restaurant,Lincoln,,http://www.fourkkitchen.com/,http://fourkkitchen.com/menu/,https://www.toasttab.com/fourkkitchen/giftcards,https://fourkkitchen.com/contact-us/,Gift Cards,Contact,CA,95648,restaurant
Zephyr Grill & Bar,"1736 First St, Livermore, CA 94550",Grill,Livermore,"Warm bistro with an elegant vibe & American fare plus a lounge, wine bar & Sunday brunch.",https://zephyrgrilllivermore.com/,,https://zephyrgrilllivermore.com/shop/,https://zephyrgrilllivermore.com/contact/,Gift Cards,Contact,CA,94550,restaurant
Simply Fondue,"2300 First St #110, Livermore, CA 94550",Fondue,Livermore,"Contemporary venue featuring traditional fondue meals with vegetarian options, cocktails & wine.",http://www.simplyfonduelivermore.com/,http://www.simplyfonduelivermore.com/Menus/Dinner/,http://simplyfonduestore.securetree.com/Products/Gift-Cards/,http://www.simplyfonduelivermore.com/Contact/,Gift Cards,Contact,CA,94550,restaurant
Pietro's Trattoria,"317 E Kettleman Ln, Lodi, CA 95240",Italian,Lodi,Enduring farm-to-fork eatery with old-world flair preparing a family-style menu of Italian classics.,http://www.pietroslodi.com/,https://www.pietroslodi.com/menu,https://www.pietroslodi.com/gift-cards,https://www.pietroslodi.com,Gift Cards,Contact,CA,95240,restaurant
Tin Roof BBQ & Catering,"171 S Guild Ave, Lodi, CA 95240",Barbecue,Lodi,"Homey BBQ joint serving up a variety of smoked meats & sandwiches, plus salads in a casual ambiance.",http://www.lodibbq.com/,http://places.singleplatform.com/tin-roof-bbq-and-catering/menu?ref=google,https://www.toasttab.com/tin-roof-bbq-catering/findcard,http://www.lodibbq.com/contact.html,GIFT CARD,,CA,95240,restaurant
Parkers' Lighthouse,"435 Shoreline Village Drive, Long Beach, CA 90802",Seafood,Long Beach,"Mesquite-grilled seafood, sushi, steaks & a robust wine list, plus harbor views & live music.",http://www.parkerslighthouse.com/,http://parkerslighthouse.com/menu/,https://selectrestaurants.cardfoundry.com/giftcards.php,http://parkerslighthouse.com/contact/,,Contact,CA,90802,restaurant
555 East American Steakhouse,"555 E Ocean Blvd, Long Beach, CA 90802",Steak,Long Beach,"Destination steak specialist with traditional wood-&-leather decor, plus an extensive wine list.",http://www.555east.com/,http://555east.com/#MENU,http://kingsseafood.securetree.com/Landing-Page/,http://www.555east.com/#CONTACT,GIFT CARDS,CONTACT,CA,90802,restaurant
Boathouse on the Bay,"190 N Marina Dr, Long Beach, CA 90803",Seafood,Long Beach,Upscale bar/eatery with water views preparing premium steak & seafood classics in open-view kitchen.,http://www.boathouseonthebay.com/,https://www.boathouseonthebay.com/lunch-menu/,https://boathouseonthebay.securetree.com/,https://www.boathouseonthebay.com/contact/,Gift CardsSurprise Your Friends and FamilyBuy Securely Online!,Contact,CA,90803,restaurant
Rustic House Oyster Bar & Grill  Los Altos,"295 Main St, Los Altos, CA 94022",Seafood,Los Altos,"Classic, convivial spot with a modern-rustic bar & patio for raw oysters & casual seafood dishes.",http://rustichouselosaltos.com/,http://offers.rustichouselosaltos.com/,http://rustichouselosaltos.com/gift-cards,http://maps.google.com/maps?f=q&source=s_q&hl=en&geocode=&q=Rustic+House+Oyster+Bar+%26+Grill%2c+295+Main+Street+%2c+Los+Altos%2c+CA+94022&z=17,Gift Cards ,"  Los Altos,  CA ",CA,94022,restaurant
Bumble,"145 1st St, Los Altos, CA 94022",American,Los Altos,"Set in a sunny cottage, this American eatery offers farm-to-table fare plus a playroom for the kids.",http://www.bumblelosaltos.com/,,http://www.bumblelosaltos.com/gift-cards,,Gift Cards,,CA,94022,restaurant
State of Mind Public House and Pizzeria,"101 Plaza N, Los Altos, CA 94022",Pizza,Los Altos,Easygoing pizzeria offering a range of pies & slices with creative toppings plus local brews.,http://www.stateofmindpublichouse.com/,https://www.stateofmindpublichouse.com/food/,https://www.toasttab.com/state-of-mind-public-house-and-pizzeria/giftcards,http://www.stateofmindpublichouse.com/new-page,https://www.toasttab.com/state-of-mind-public-house-and-pizzeria/giftcards,"
                Contact
              ",CA,94022,restaurant
Opa Los Altos,"325 Main St, Los Altos, CA 94022",Greek,Los Altos,"Lively eatery dishing up Greek classics such as souvlaki, pitas & moussaka also features a full bar.",http://www.opaauthenticgreek.com/,http://www.opaauthenticgreek.com/menu.html,https://opaauthenticgreek.cardfoundry.com,http://www.opaauthenticgreek.com/contact.html,Gift cards,CONTACT,CA,94022,restaurant
Dinah's Poolside Restaurant,"4261 El Camino Real, Palo Alto, CA 94306",Traditional American,Palo Alto,Charming hotel eatery whipping up an all-day menu of farm-to-table American eats by the pool.,http://dinahshotel.com/,http://places.singleplatform.com/dinahs-poolside-restaurant/menu?ref=google,http://dinahshotel.com/gift-cards,http://dinahshotel.com/contact-location,"
Gift Cards
","
Contact & Location
",CA,94306,restaurant
Republique,"624 South La Brea Ave, Los Angeles, CA 90036",French,Los Angeles,"Modern French plates served in a striking space with communal tables, plus a bakery & cocktail bar.",http://www.republiquela.com/,http://republiquela.com/menus/,https://republiquela.com/giftcards/,https://republiquela.com/contact/,Gift Cards,Contact,CA,90036,restaurant
Bestia,"2121 E 7th Pl, Los Angeles, CA 90021",Italian,Los Angeles,Trendy Italian restaurant from an acclaimed husband-&-wife team highlights creative seasonal fare.,http://www.bestiala.com/,http://places.singleplatform.com/bestia/menu?ref=google,https://bestiala.com/gift-cards/,https://bestiala.com/contact/,Gift Cards,Contact,CA,90021,restaurant
Providence,"5955 Melrose Ave, Los Angeles, CA 90038",Seafood,Los Angeles,Chef Michael Cimarusti's fine-dining destination delivers innovative seafood in a tranquil setting.,https://providencela.com/,https://providencela.com/menus/dinner/,https://providencela.com/gift-certificates/,,Gift Certificates,,CA,90038,restaurant
Angelini Osteria,"7313 Beverly Blvd, Los Angeles, CA 90036",Italian,Los Angeles,"Bustling trattoria presenting upmarket Italian cuisine in compact, urbane environs.",http://www.angelinirestaurantgroup.com/,,https://www.itson.me/gifts/los-angeles-area/los-angeles-gifts/merchants/2051-angelini-osteria#/,http://www.angelinirestaurantgroup.com/angelini-contact,GIFT CARDS,"
Contact
",CA,90036,restaurant
Otium,"222 S Hope St, Los Angeles, CA 90012",New American,Los Angeles,"New American cuisine, cocktails & high design are offered in an airy space next to The Broad museum.",http://otiumla.com/,http://otiumla.com/menus/,https://otiumla.instagift.com/,https://otiumla.com/contact/,Gift cards,Contact,CA,90012,restaurant
Espana's Southwest Bar & Grill,"1460 E Pacheco Blvd, Los Banos, CA 93635",Mexican,Los Banos,"Vibrant cantina on historic grounds serving steaks, tacos & margaritas, with an organic salad bar.",http://espanas.com/,https://www.espanas.com/menu,https://www.espanas.com/gift-cards/,https://www.espanas.com/contact/,Gift Cards,Contact,CA,93635,restaurant
Wine Cellar Restaurant,"50 University Ave, Los Gatos, CA 95030",Restaurant,Los Gatos,Classic dining room with old-world charm offers carefully sourced American cuisine & a wine list.,http://www.winecellarlosgatos.com/,http://www.winecellarlosgatos.com/menu.html,https://www.giftrocker.com/secure/order/?h=c0d53291,http://www.winecellarlosgatos.com/contact/,Gift Cards,Contact,CA,95030,restaurant
Super Duper Burgers,"15991 Los Gatos Blvd Building 3, Los Gatos, CA 95032",Hamburger,Los Gatos,,http://superduperburgers.com/,http://superduperburgers.com/menu/,https://superduperburgers.cardfoundry.com/,http://superduperburgers.com/contact/,Gift Cards,Contact,CA,95032,restaurant
Real De Oaxaca,"11215 Long Beach Blvd #1010, Lynwood, CA 90262",Restaurant,Lynwood,Vibrant Mexican restaurant offering Oaxacan-style dishes & live music in a traditional setting.,http://www.realdeoaxaca.com/,https://order.realdeoaxaca.com/,http://www.realdeoaxaca.com/pages/gift-cards,http://www.realdeoaxaca.com/pages/contact-us,Gift cards,Contact Us,CA,90262,restaurant
Manhattan Beach Post,"1142 Manhattan Ave, Manhattan Beach, CA 90266",American,Manhattan Beach,Creative farm-to-table American chow served in an urbane space featuring lots of reclaimed wood.,http://eatmbpost.com/,http://places.singleplatform.com/mb-post/menu?ref=google,http://www.simmsrestaurants.com/manhattan-beach-post,,Gift Cards,,CA,90266,restaurant
Rock'N Fish Restaurant,"120 Manhattan Beach Blvd, Manhattan Beach, CA 90266",Seafood,Manhattan Beach,"Regional American interpretations of seafood & steak, plus signature cocktails, in a bustling space.",http://www.rocknfishmb.com/,http://places.singleplatform.com/rockn-fish/menu?ref=google,http://www.rocknfishmb.com/#giftcardsAnchor,http://www.rocknfishmb.com/#contactAnchor,Gift Cards,Contact,CA,90266,restaurant
The Strand House,"117 Manhattan Beach Blvd, Manhattan Beach, CA 90266",New American,Manhattan Beach,Happening destination for farm-fresh fine dining in a sleek setting with sweeping ocean views.,http://www.thestrandhousemb.com/,http://www.thestrandhousemb.com/menus/The%20Strand%20House%20Dinner%20Menu.pdf,http://www.thestrandhousemb.com/giftcards/,http://www.thestrandhousemb.com/contact/,Gift Cards,Contact,CA,90266,restaurant
Fishing With Dynamite,"1148 Manhattan Ave, Manhattan Beach, CA 90266",Oyster Bar,Manhattan Beach,Oyster-focused seafood cafe with classic & creative eats served amid wainscoting & lobster buoys.,http://eatfwd.com/,,http://eatfwd.com/#giftcards,,Gift Cards,,CA,90266,restaurant
Fire Wings Manteca,"1446 Hulsey Way, Manteca, CA 95336",Chicken Wings,Manteca,,https://www.firewings.com/,https://www.firewings.com/chicken-wings-menu,https://www.firewings.com/gift-cards,https://www.firewings.com/contact," GIFT CARDS

","  

CONTACT US
",CA,95336,restaurant
Slow Hand BBQ  Martinez,"601 Main St, Martinez, CA 94553",Barbecue,Martinez,,http://slowhandbbq.com/,,http://slowhandbbq.com/store/gift-cards/,http://slowhandbbq.com/contact/,Gift Cards,Contact,CA,94553,restaurant
The Refuge,"1143 Crane St, Menlo Park, CA 94025",Gastropub,Menlo Park,Cheery gastropub is favored for pastrami sandwiches & other meaty eats chased with Belgian brews.,http://www.refugesc.com/,http://places.singleplatform.com/refuge-11/menu?ref=google,https://app.yiftee.com/gifts/egift_and_gift_cards/refuge-san-carlos,http://www.refugesc.com/contact,"
                  Gift Cards
                ","
                Contact
              ",CA,94025,restaurant
Menlo Tavern,"100 El Camino Real, Menlo Park, CA 94025",Restaurant,Menlo Park,,https://www.menlotavern.com/,,https://www.menlotavern.com/gift-card,,"
LEARN MORE
",,CA,94025,restaurant
Jeffrey's Hamburgers,"888 El Camino Real, Menlo Park, CA 94025",Hamburger,Menlo Park,Retro-themed fast-food joint serves up burgers & other casual grub in an open light-filled interior.,http://jeffreyshamburgers.com/,http://jeffreyshamburgers.com/,https://app.yiftee.com/gifts/egift_and_gift_cards/jeffrey-s-hamburgers-menlo-park,http://jeffreyshamburgers.com/contact,"


          Gift Cards
        
","
        Contact Us
      ",CA,94025,restaurant
J&R Tacos,"437 W Main St, Merced, CA 95340",Mexican,Merced,Mexican cantina serving 12 kinds of burritos on a sunny outdoor patio amid festive live music.,http://jandrtacos.com/,http://jandrtacos.com/,http://jandrtacos.com/?page_id=277,,Gift Cards,,CA,95340,restaurant
Crawdaddy,"1228 S Abel St, Milpitas, CA 95035",Cajun,Milpitas,,http://www.crawdaddy.co/,,http://www.crawdaddy.co/Gift-Cards,http://www.crawdaddy.co/Contact,Gift Cards,Contact,CA,95035,restaurant
High Park Tap House,"23641 Via Linda, Mission Viejo, CA 92691",American,Mission Viejo,Chill hangout featuring a range of craft brews along with American food & dozens of TVs for sports.,https://www.highparktaphouse.com/,,https://www.highparktaphouse.com/gift-cards,https://www.highparktaphouse.com/contact,Gift Cards,Contact ,CA,92691,restaurant
Camp 4 Wine Cafe,"1508 10th St, Modesto, CA 95354",Restaurant,Modesto,"Wine bar serving panini, charcuterie, cheese & beer in a spare-looking space with outdoor seating.",https://www.camp4wine.com/,,https://www.camp4wine.com/store/gift-cards/,https://www.camp4wine.com/contact/,gift cards.,contact.,CA,95354,restaurant
Basin 141 Social Bar & Kitchen,"402 S Myrtle Ave, Monrovia, CA 91016",Gastropub,Monrovia,,https://www.basin141.com/,,https://www.basin141.com/store/gift-cards/,https://www.basin141.com/contact/,Get your Basin Bonus Bucks today!,Contact,CA,91016,restaurant
Salvatore Italian Restaurant,"125 N 6th St, Montebello, CA 90640",Italian,Montebello,Family-owned eatery serving Italian favorites amid a casual ambiance & banquet-style booths.,http://www.salvatorerestaurant.com/,http://www.salvatorerestaurant.com/,https://www.salvatorerestaurant.com/gift-cards,https://www.salvatorerestaurant.com/contact-us,Gift Cards,Contact,CA,90640,restaurant
Ordonez Mexican Restaurant & Cantina,"872 N Garfield Ave, Montebello, CA 90640",Mexican,Montebello,"Comfy, around-the-clock staple offering soups, burritos & other Mexican classics, plus a full bar.",http://www.ordonezmexicanrestaurant.com/,http://places.singleplatform.com/ordonez-mexican-food-no-3/menu?ref=google,http://www.ordonezmexicanrestaurant.com/services#gift-cards,http://www.ordonezmexicanrestaurant.com/contact,Gift Cards,Contact,CA,90640,restaurant
Luminarias,"3500 W Ramona Blvd, Monterey Park, CA 91754",Restaurant,Monterey Park,"Hilltop spot offers a view to go with upscale Latin & Mexican fare, plus champagne brunch & a patio.",https://www.luminariasrestaurant.com/,https://www.luminariasrestaurant.com/to-go-curb,https://www.specialtyrestaurants.com/gift-cards,http://www.luminariasrestaurant.com/contact-us,Gift Cards,Contact Us,CA,91754,restaurant
Lemmo's Grill,"4227-A, Tierra Rejada Rd, Moorpark, CA 93021",Restaurant,Moorpark,,http://lemmosgrill.restaurant/,http://www.lemmosgrill.restaurant/,https://www.instagram.com/p/B90XSRsAu-k/,,"

",,CA,93021,restaurant
Don Cuco,"254 Los Angeles Ave, Moorpark, CA 93021",Mexican,Moorpark,,http://www.doncucorestaurants.com/,http://places.singleplatform.com/don-cuco-mexican-restaurant-3/menu?ref=google,http://doncucorestaurants.com/#giftcards,,Gift Cards,,CA,93021,restaurant
Louisiana Seafood,"Suite I-10, 12625 Frederick Street #10, Moreno Valley, CA 92553",Seafood,Moreno Valley,"Family-owned spot serves Southern-style seafood such as catfish & gumbo, plus sides, in simple digs.",http://louisiana-seafood.cafes-nearby.com/,,http://topmountainvillage.com/en/?utm_source=usa_restaurants,,"


",,CA,92553,restaurant
Maurizio's,"25 E 1st St, Morgan Hill, CA 95037",Italian,Morgan Hill,"Traditional Italian eats plus a wine list in a relaxed, family-friendly venue with patio dining.",http://www.mauriziosrestaurant.com/,http://places.singleplatform.com/maurizios-2/menu?ref=google,http://www.mauriziosrestaurant.com/giftcertificate.html,http://www.mauriziosrestaurant.com/contact.html,Gift Certificates,Contact Us ,CA,95037,restaurant
Odeum,"17500 Depot St #180, Morgan Hill, CA 95037",Mediterranean,Morgan Hill,"Plates of sophisticated Mediterranean fare are presented in a light, airy space with brick walls.",http://www.odeumrestaurant.com/,http://odeumrestaurant.com/menu-2/,http://onelink.quickgifts.com/merchant/odeum-restaurant,http://odeumrestaurant.com/contact-2/,Gift Cards,Contact,CA,95037,restaurant
Prova California Table,"17340 Monterey Rd #3642, Morgan Hill, CA 95037",Tapas,Morgan Hill,"Warm, easygoing eatery for locally sourced, Cali-style tapas & Italian fare, plus wine & cocktails.",http://provamorganhill.com/,http://provamorganhill.com/menu/,https://onelink.quickgifts.com/merchant/prova-california-table/,http://provamorganhill.com/contact/,Gift Cards,Contact,CA,95037,restaurant
Willard Hicks Morgan Hill,"17270 Monterey Rd, Morgan Hill, CA 95037",Restaurant,Morgan Hill,,http://willardhicksgrill.com/,https://willardhicksgrill.com/menu.html,https://willardhicksgrill.cardfoundry.com,,purchasing a Gift Card,,CA,95037,restaurant
Chez TJ,"938 Villa St, Mountain View, CA 94041",French,Mountain View,"Inspired by French cooking, the set meals here take place in a Victorian house & often last hours.",https://www.cheztj.com/,https://www.cheztj.com/dining-experience/,https://www.cheztj.com/store/gift-cards/,,Gift Cards,,CA,94041,restaurant
Olympus Caffe & Bakery,"135 Castro St, Mountain View, CA 94041",Turkish,Mountain View,"Cafe offering classic American & Greek eats for breakfast through dinner, plus baked goods & cakes.",http://www.cafeolympus.com/,http://www.cafeolympus.com/menu.php,http://www.cafeolympus.com/gift_card.php,http://www.cafeolympus.com/contact.php,Gift Cards Available,Contact,CA,94041,restaurant
QBB  Quality Bourbons & Barbecue,"216 Castro St, Mountain View, CA 94041",Barbecue,Mountain View,"Popular outpost featuring classic BBQ meals, cocktails & brews on tap & a wide selection of bourbon.",http://eatqbb.com/,https://www.eatqbb.com/menu/,http://eatqbb.com/gift-cards,http://eatqbb.com/contact,Gift Cards,Contact,CA,94041,restaurant
RJ's Sizzlin Steer,"41401 Kalmia St, Murrieta, CA 92562",Steak,Murrieta,Hearty cuts of steak served on sizzling platters are the hallmarks of this Western-themed eatery.,http://www.rjssizzlinsteer.com/,http://places.singleplatform.com/rjs-sizzlin-steer/menu?ref=google,https://onelink.quickgifts.com/merchant/rjs-sizzlin-steer-murrieta/,http://www.rjssizzlinsteer.com/contact-us,Gift Cards,Contact,CA,92562,restaurant
Anthony's Lounge & Ristorante,"24630 Washington Ave STE 100, Murrieta, CA 92562",Italian,Murrieta,Live piano playing sets the stage for traditional Italian fare at this sophisticated trattoria.,http://www.anthonyslounge.com/,https://www.anthonyslounge.com/menu/,http://www.anthonyslounge.com/store/gift-cards/,http://www.anthonyslounge.com/contact/,Gift Cards,Contact,CA,92562,restaurant
Rolling Moon Restaurant,"40575 California Oaks Rd, Murrieta, CA 92562",Japanese,Murrieta,"Creative sushi paired with udon, ramen & pitchers of beer in this quaint Japanese cafe with a patio.",http://rolling-moon-sushi-rolls.cafes-city.com/,,http://topmountainvillage.com/en/?utm_source=usa_restaurants,,"


",,CA,92562,restaurant
Tarla Mediterranean Bar  Grill  Napa Valley Restaurant,"1480 1st St, Napa, CA 94559",Mediterranean,Napa,,https://www.tarlagrill.com/,,https://www.tarlagrill.com/gift-cards,https://www.tarlagrill.com/#contact-section,"
                Gift Cards
              ","
                        Contact
                      ",CA,94559,restaurant
Celadon,"500 Main St G, Napa, CA 94559",Eclectic,Napa,Upscale Eclectic comfort food is served in cozy digs with weathered brick walls & rustic courtyard.,https://www.celadonnapa.com/,https://www.celadonnapa.com/menu/,https://www.celadonnapa.com/gift-cards/,https://www.celadonnapa.com/contact/,GIFT CARDS,CONTACT,CA,94559,restaurant
Torc,"1140 Main St, Napa, CA 94559",American,Napa,Global farm-to-table dishes & wines delivered in an airy room with stone walls & an open kitchen.,http://www.torcnapa.com/,,http://www.torcnapa.com/gift-cards,http://www.torcnapa.com/locations,"
                Gift Cards
              ","
                Contact
              ",CA,94559,restaurant
Napa Valley Bistro,"975 Clinton St, Napa, CA 94559",American,Napa,"Laid-back American eatery & bar offering innovative cuisine with a local focus, plus Sunday brunch.",http://www.napavalleybistro.com/,http://places.singleplatform.com/napa-valley-bistro/menu?ref=google,https://napavalleybistro.cardfoundry.com/,https://www.napavalleybistro.com/contact-us/,Gift Card,Contact US,CA,94559,restaurant
Angele Restaurant & Bar,"540 Main St, Napa, CA 94559",French,Napa,Riverfront bistro with a patio serving rustic French fare & creative cocktails in an old boathouse.,http://www.angelerestaurant.com/,http://places.singleplatform.com/angle-7/menu?ref=google,https://angelerestaurant.cardfoundry.com/giftcards.php,http://www.angelerestaurant.com/contact,Purchase Gift Card,"
            Contact
          ",CA,94559,restaurant
Allegria,"1026 1st St, Napa, CA 94559",Italian,Napa,"Former bank turned popular, upscale Italian restaurant with some seating inside the old vault.",https://www.ristoranteallegria.com/,https://www.ristoranteallegria.com/dinnermenu.htm,https://www.ristoranteallegria.com/gift-certificates.html,https://www.facebook.com/pages/Ristorante-Allegria/109860382381211?ref=ts,Gift Certificates,,CA,94559,restaurant
Yugo Ramen,"2014 Newpark Mall Rd, Newark, CA 94560",Ramen,Newark,,http://yugoramen.com/,http://yugoramen.com/menu,https://yugoramen.com/gift-card/,https://yugoramen.com/contact-us/,Gift Card,Contact Us,CA,94560,restaurant
The Bistro - Eat Drink Connect(r),"600 U.S Hwy 1 & 9 S, Newark, NJ 07114",American,Newark,"This relaxed, modern choice at the Courtyard Marriott offers all-day American fare, plus cocktails.",http://www.marriott.com/,,https://gifts.marriott.com,http://www.marriott.com/tel:+1 973-643-8500, Gift Cards ,  +1 973-643-8500  ,NJ,07114,restaurant
Gulfstream,"850 Avocado Ave, Newport Beach, CA 92660",Seafood,Newport Beach,"American eatery & bar for daily seafood specials & cocktails in a modern, marine-themed space.",http://gulfstreamrestaurant.com/,http://gulfstreamrestaurant.com/menu/,http://gulfstreamrestaurant.com/giftcards/,http://gulfstreamrestaurant.com/contact/,gift cards,contact,CA,92660,restaurant
Beachcomber Cafe,"15 Crystal Cove, Newport Coast, CA 92657",Restaurant,Newport Coast,A converted cottage houses this beachside eatery serving California favorites & a popular breakfast.,https://thebeachcombercafe.com/,https://thebeachcombercafe.com/crystalcove/menus/,https://thebeachcombercafe.com/crystalcove/gift-cards/,https://thebeachcombercafe.com/crystalcove/contact/,Gift Cards,Contact,CA,92657,restaurant
RED O Taste of Mexico,"143 Newport Center Dr, Newport Beach, CA 92660",Mexican,Newport Beach,High-end Mexican-Californian fare by Rick Bayless in refined environs with a tequila lounge & patio.,http://www.redorestaurant.com/,http://www.redorestaurant.com/locations/newport-beach/menu/,https://wwws-usa2.givex.com/cws4.0/redorestaurant/,,GIFT CARDS,,CA,92660,restaurant
Marche Moderne,"7862 Pacific Coast Hwy, Newport Beach, CA 92657",French,Newport Beach,Chic French establishment is a popular spot for classic entrees along with inventive small plates.,http://www.marchemoderne.net/,,http://marche-moderne7.mybigcommerce.com/,http://www.marchemoderne.net/contact.html,Gift Cards,Contact Us,CA,92657,restaurant
Boca Tavern,"340 Ignacio Blvd, Novato, CA 94949",Steak,Novato,"Wooden architecture & wholesome American fare, including burgers from the wood-fire grill & oysters.",http://www.bocatavern.com/,http://www.bocatavern.com/food/index.html,https://www.yelp.com/checkout/gc/ZMQHyyE9h5luM2TfNHcWeQ?biz_id=tycrcipxZLCIBCgjlPrMTg,http://www.bocatavern.com/contact/index.html,GIFT CARDS,CONTACT,CA,94949,restaurant
Shakewell,"3407 Lakeshore Ave, Oakland, CA 94610",Mediterranean,Oakland,"Modern bistro serving traditional Spanish tapas alongside beer, wine & cocktails in a buzzy space.",http://shakewelloakland.com/,,https://shakewelloakland.cardfoundry.com/giftcards.php,,"
              Gift Cards
            ",,CA,94610,restaurant
Bellanico Restaurant and Wine Bar,"4238 Park Blvd, Oakland, CA 94602",Italian,Oakland,"Housemade pasta, tasting menus & wine flights are offered at this smart Italian trattoria.",http://www.bellanico.net/,http://bellanico.net/menus.html,http://www.bellanico.net/giftcard.php,http://www.bellanico.net/mailto:elizabeth@bellanico.net,GIFT CERTIFICATES,Contact Us,CA,94602,restaurant
Commis,"3859 Piedmont Ave, Oakland, CA 94611",American,Oakland,Open-kitchen experiments with unique ingredients to craft inspired New American fixed-price dinners.,https://commisrestaurant.com/,,https://ecommerce.custcon.com//Purchase/Select?c=7eb72427-8378-4c2e-a4f7-84662223e081,,Giftcard,,CA,94611,restaurant
Nyum Bai,"3340 E 12th St #11, Oakland, CA 94601",Cambodian,Oakland,Nite Yun's spirited Cambodian brick-and-mortar offers Phnom Penh street food & local brews.,http://www.nyumbai.com/,https://bit.ly/2J4kKUf,https://www.toasttab.com/nyum-bai-oakland/giftcards,http://www.nyumbai.com/contact-us,"
        GIFT CARDS
      ","
              Contact Us
            ",CA,94601,restaurant
Homeroom,"400 40th St, Oakland, CA 94609",New American,Oakland,Schoolroom look-alike offers fancy mac 'n' cheese for kids of all ages plus adults-only beer floats.,http://homeroom510.com/,https://homeroom510.com/restaurant-menu,https://squareup.com/gift/7647ZTZDXYAVQ/order,http://homeroom510.com/contact,"
        GIFT CARDS
      ",Contact,CA,94609,restaurant
Mockingbird,"416 13th St, Oakland, CA 94612",American,Oakland,"Country-hip choice offering locavore Californian & New American fare in a romantic, candlelit space.",http://www.mockingbirdoakland.com/,http://places.singleplatform.com/mockingbird-restaurant/menu?ref=google,http://www.mockingbirdoakland.com/reservations--gift-cards.html,,"
				Reservations & Gift Cards
			",,CA,94612,restaurant
Fratelli's Italian Kitchen,"3915 Mission Ave #12, Oceanside, CA 92058",Italian,Oceanside,Family-friendly venue with hearty portions of traditional Italian dishes in a rustic dining room.,http://fratellisitaliankitchen.com/,http://places.singleplatform.com/fratellis-italian-kitchen--0/menu?ref=google,http://fratellisitaliankitchen.com/gift-cards,http://fratellisitaliankitchen.com/contact#hours-of-operation,Gift Cards,  Hours ,CA,92058,restaurant
Panca Peruvian Cuisine & Rotisserie,"1902 S Coast Hwy, Oceanside, CA 92054",Peruvian,Oceanside,Snug strip-mall eatery serving plates of rotisserie chicken & other Peruvian fare in a modern space.,http://www.pancaperuviancuisine.com/,http://places.singleplatform.com/panca-peruvian-rotisserie/menu?ref=google,http://www.pancaperuviancuisine.com/gift-card,https://images.squarespace-cdn.com/content/v1/5a6f9e546957daa2a9f40edf/1586718924552-Q7S8EBGEJWMVKUW5KEH2/ke17ZwdGBToddI8pDm48kICZhzhlpkTfZgBvAXFSxyhZw-zPPgdn4jUwVcJE1ZvWQUxwkmyExglNqGp0IvTJZUJFbgE-7XRK3dMEBRBhUpw5opcnmBGTrSvl2qRMpP26yA6cXWreZBPZk6SUOsPorfERqjnAqscnEdqlY2BJvs0/image-asset.jpeg,"
            e-gift card
          ","

",CA,92054,restaurant
Bagby Beer Co,"601 S Coast Hwy, Oceanside, CA 92054",Brewpub,Oceanside,Casual setting with ocean views offers a host of brews & cocktails plus elevated pub bites.,http://www.bagbybeer.com/,http://www.bagbybeer.com/food,https://www.bagbybeer.com/shop/gift-card,,Snag a Bagby Gift Card,,CA,92054,restaurant
Don's Country Kitchen,"1938 S Coast Hwy, Oceanside, CA 92054",Breakfast,Oceanside,"Homey neighborhood stop offering country-style breakfast & sandwiches, plus Bloody Mary's & mimosas.",http://www.donscountrykitchen.com/,https://www.orderdonscountrykitchen.com/#menu,https://donscountrykitchen.cardfoundry.com/giftcards.php,https://www.donscountrykitchen.com/hours-location,Purchase Gift Cards,FIND US,CA,92054,restaurant
Mangia e Bevi,"3613 Ocean Ranch Blvd #100, Oceanside, CA 92056",Restaurant,Oceanside,,http://mangiaoceanside.com/,https://mangiaoceanside.com/menu/,https://app.yiftee.com/gifts/egift_and_gift_cards/mangia-e-bevi-oceanside,https://www.spothopperapp.com/spots/56304,"
                                    GIFT CARDS                                ",SpotHopper page,CA,92056,restaurant
Orange Hill Restaurant,"6410 E Chapman Ave, Orange, CA 92869",Restaurant,Orange,"Upscale hilltop venue dotted with koi ponds & waterfalls, with a New American menu & long wine list.",https://www.theorangehillrestaurant.com/,https://www.theorangehillrestaurant.com/our-menus,https://www.specialtyrestaurants.com/gift-cards,http://www.theorangehillrestaurant.com/contact-us,View Details,Contact Us,CA,92869,restaurant
The Hobbit,"2932 E Chapman Ave, Orange, CA 92869",Fine Dining,Orange,"Multicourse French-inspired meals begin in a wine cellar then move up into a refined, homey space.",http://www.hobbitrestaurant.com/,http://www.hobbitrestaurant.com/Upcoming-Entrees/Sample-Menus,http://www.hobbitrestaurant.com/Gift-Certificate,http://www.hobbitrestaurant.com/Contact,VIEW MORE ,Contact,CA,92869,restaurant
Orange County Mining Co,"10000 S Crawford Canyon Rd, Santa Ana, CA 92705",Steak,Santa Ana,Traditional steakhouse & Sunday brunch spot with rustic decor & panoramic views of Orange County.,http://www.orangecountyminingco.com/,http://www.orangecountyminingco.com/#/dinner-menu/,http://www.orangecountyminingco.com/gift-cards-online/,http://www.orangecountyminingco.com/contact/,Gift Cards,Contact Us,CA,92705,restaurant
Waterside Restaurant,"3500 Harbor Blvd, Oxnard, CA 93035",American,Oxnard,"Classy spot offering local New American fare & cocktails, plus live music & a patio on the harbor.",http://watersidechannelislands.com/,https://watersidechannelislands.com/menu,http://watersidechannelislands.com/gift-cards,http://watersidechannelislands.com/kontakto,"
Gift Cards
","
Contact Us
",CA,93035,restaurant
Devil's Slide Taproom,"5560 Pacific Coast Hwy, Pacifica, CA 94044",Restaurant,Pacifica,"Big, modern taproom with a focus on regional craft beers, served with burgers & elevated pub grub.",http://www.devilsslidetaproom.com/,http://www.devilsslidetaproom.com/annoucements-and-news/,http://www.devilsslidetaproom.com/merch-gift-certificates,,Merch & Gift Certificates,,CA,94044,restaurant
Lovey's Tea Shoppe,"4430 Pacific Coast Hwy, Pacifica, CA 94044",Restaurant,Pacifica,"Quirky, old-fashioned eatery serving finger sandwiches & British dishes for tea service & parties.",http://www.loveysteashoppe.com/,,https://www.loveysteashoppe.com/shop,,GIFT CERTIFICATES,,CA,94044,restaurant
The Green Enchilada,"444 Manor Plaza, Pacifica, CA 94044",Latin American,Pacifica,"Bare-bones outlet doles out a variety of organic Mexican dishes in a compact, no-frills interior.",http://www.thegreenenchilada.com/,,https://www.toasttab.com/green-enchilada/giftcards,http://www.thegreenenchilada.com/tel:16505570841,BUY NOW,1 (650) 557-0841,CA,94044,restaurant
La Costanera,"8150 Cabrillo Hwy, Montara, CA 94037",Peruvian,Montara,"Oceanfront site for Peruvian dishes in upscale, glass-walled environs overlooking the water.",http://www.lacostanerarestaurant.com/,http://places.singleplatform.com/la-costanera/menu?ref=google,https://gifts.opentable.com/La-Costanera?ref=1,http://www.lacostanerarestaurant.com/hours-and-contact,,"



",CA,94037,restaurant
Cork Tree,"74950 Country Club Dr, Palm Desert, CA 92260",Californian,Palm Desert,"Shopping plaza eatery offers elevated Californian fare in a cozy, romantic room with a bar & patio.",http://www.thecorktree.com/,http://www.thecorktree.com/menu.html,https://thetfordwd.com/thecorktree/gift.html,http://www.thecorktree.com/contact.html,Gift Cards,Contact Us,CA,92260,restaurant
Jillian's,"74155 El Paseo, Palm Desert, CA 92260",Fine Dining,Palm Desert,"Romantic eatery serving refined, wine-paired European cuisine in a posh hacienda with a courtyard.",http://jilliansfinedining.com/,http://jilliansfinedining.com/menu/?page_id=4,http://jilliansfinedining.com/gift-certificates/,http://jilliansfinedining.com/#contact,Gift Certificates,Contact Us,CA,92260,restaurant
AC3 Restaurant  Bar,"45350 Larkspur Ln, Palm Desert, CA 92260",American,Palm Desert,"Bright, light-filled option for American eats & global dishes, plus cocktails & local craft beers.",http://www.ac3palmdesert.com/,http://www.ac3palmdesert.com/ac3-menus,http://www.ac3palmdesert.com/gift-cards,http://www.ac3palmdesert.com/contact,"
        Gift Card
      ","
        Contact
      ",CA,92260,restaurant
Eight4Nine Restaurant & Lounge,"849 N Palm Canyon Dr, Palm Springs, CA 92262",New American,Palm Springs,Contemporary eatery offering refined New American cuisine in a sleek setting with pops of color.,http://eight4nine.com/,http://eight4nine.com/#menu,http://eight4nine.com/#gift-card,http://eight4nine.com/#contact,Gift Card,Contact,CA,92262,restaurant
Copley's on Palm Canyon,"621 N Palm Canyon Dr, Palm Springs, CA 92262",American,Palm Springs,"Part of the former Cary Grant estate, this romantic restaurant offers elevated American dishes.",http://www.copleyspalmsprings.com/,,http://www.copleyspalmsprings.com/s/GIFT-CERTIFICATE-2019-fslm.pdf,http://www.copleyspalmsprings.com/contact,"
        Gift Certificates
      ","
        Contact
      ",CA,92262,restaurant
Purple Palm Restaurant,"572 N Indian Canyon Dr, Palm Springs, CA 92262",New American,Palm Springs,"Colony Palms Hotel eatery with a classic feel serving an eclectic, seasonally focused menu.",http://www.purplepalmrestaurant.com/,http://www.purplepalmrestaurant.com/menu/,https://www.purplepalmrestaurant.com/gift-cards/,https://www.purplepalmrestaurant.com/contact/,Gift Cards,Contact,CA,92262,restaurant
Palm Greens Cafe,"611 S Palm Canyon Dr # 6, Palm Springs, CA 92264",Organic,Palm Springs,"Breezy cafe serving a carefully sourced menu of health-conscious, global dishes & breakfast.",http://www.palmgreenscafe.com/,http://places.singleplatform.com/palm-greens-cafe/menu_785958,http://www.palmgreenscafe.com/m/PalmGreensCafe/?appcode=PalmGreensCafe&controller=WebViewController&tab_id=8862141&back_url=Lw==,http://www.palmgreenscafe.com/m/PalmGreensCafe/?appcode=PalmGreensCafe&controller=LocationViewController&id=861746&tab_id=8862140&back_url=Lw==,"
BUY GIFT CARD 
","
GPS  (FIND US)
",CA,92264,restaurant
The Purple Room Supper Club,"1900 E Palm Canyon Dr, Palm Springs, CA 92264",Restaurant,Palm Springs,,http://purpleroompalmsprings.com/,https://www.purpleroompalmsprings.com/dining,https://www.purpleroompalmsprings.com/gift-cards,https://www.purpleroompalmsprings.com/contact,GIFT CARDS,CONTACT,CA,92264,restaurant
Lulu California Bistro,"200 S Palm Canyon Dr, Palm Springs, CA 92262",Bistro,Palm Springs,"A vast, eclectic menu of American eats plus an all-day happy hour are presented in a modern setting.",http://lulupalmsprings.com/,http://www.lulupalmsprings.com/bar--wine-menus.html,http://lulupalmsprings.com/gift-cards.html,,"
				Gift Cards
			",,CA,92262,restaurant
Chelly's Cafe,"40008 10th St W, Palmdale, CA 93551",Restaurant,Palmdale,,http://chellys-cafe.cafes-usa.com/,,http://topmountainvillage.com/en/?utm_source=usa_restaurants,,"


",,CA,93551,restaurant
Nopgow Thai Restaurant,"39522 10th St W F, Palmdale, CA 93551",Thai,Palmdale,An extensive menu featuring classic Thai dishes in a casual setting with eclectic interior details.,http://nopgow.cafes-usa.com/,,http://topmountainvillage.com/en/?utm_source=usa_restaurants,,"


",,CA,93551,restaurant
El Toreo West,"38801 10th St W, Palmdale, CA 93551",Mexican,Palmdale,Comfortable cantina offering typical Mexican dishes & classic margaritas in a laid-back setting.,http://el-toreo-west.cafes-usa.com/,,http://topmountainvillage.com/en/?utm_source=usa_restaurants,,"


",,CA,93551,restaurant
Alice's Burgers,"801 W Palmdale Blvd, Palmdale, CA 93551",Hamburger,Palmdale,,http://alices-burgers.cafes-usa.com/,,http://topmountainvillage.com/en/?utm_source=usa_restaurants,,"


",,CA,93551,restaurant
Don Chato Mexican Restaurant,"38350 30th St E #4935, Palmdale, CA 93550",Mexican,Palmdale,,http://don-juan.cafes-usa.com/,http://places.singleplatform.com/don-juan-mexican-restaurant-7/menu?ref=google,http://topmountainvillage.com/en/?utm_source=usa_restaurants,,"


",,CA,93550,restaurant
Nola,"535 Ramona St, Palo Alto, CA 94301",Cajun,Palo Alto,New Orleans-themed spot offering Creole fare in a 3-floor space reminiscent of the French Quarter.,http://www.nolas.com/,https://www.nolas.com/menus/,https://avenir.securetree.com/,http://www.nolas.com/contact-us/,Gift Cards,Contact Us,CA,94301,restaurant
Rangoon Ruby Burmese Cuisine,"445 Emerson St, Palo Alto, CA 94301",Burmese,Palo Alto,"Relaxed Burmese restaurant with contemporary decor, a trendy bar & exotic tiki cocktails.",https://rangoonruby.com/,https://static1.squarespace.com/static/57185ee9859fd0a511ed7b8e/t/5d891f9ab2c0af5ac4de24f7/1569267628656/RR+Dinner+Menu.pdf,https://rangoonruby.cardfoundry.com/giftcards.php,https://rangoonruby.com/mailto:contact@rangoonruby.com,"
              Gift Certificates
            ","






",CA,94301,restaurant
Burma Ruby Burmese Cuisine,"326 University Ave, Palo Alto, CA 94301",Burmese,Palo Alto,"A back-lit bar, splashy art & white tablecloths up the class at this Burmese eatery.",http://www.burmaruby.com/,https://static1.squarespace.com/static/573dfd2222482e41d4bbf9b7/t/5d8968fb88af8a5b46ed40c4/1569286399795/BR+Dinner+Menu.pdf,https://rangoonruby.cardfoundry.com,http://www.burmaruby.com/contact-2,"
        Gift Certificates 
      ","
            Contact
          ",CA,94301,restaurant
Mayfield Bakery & Cafe,"855 El Camino Real, Palo Alto, CA 94301",Cafe,Palo Alto,Rustic eatery offers a locally sourced Californian menu & fresh bread from the bakery next door.,http://www.mayfieldbakery.com/,,https://www.toasttab.com/mayfield-bakery-cafe/giftcards,http://www.mayfieldbakery.com/contact,Gift Certificates,Contact,CA,94301,restaurant
La Grande Orange Cafe,"260 S Raymond Ave, Pasadena, CA 91105",New American,Pasadena,Kid-friendly spot serving generous portions of seasonal American chow in a restored train station.,https://lgostationcafe.com/,https://www.lgostationcafe.com/#menus,http://shop.lgohospitality.com/product_p/uni-gft-100.htm,https://lgostationcafe.com/contact/,Gift Cards,Contact,CA,91105,restaurant
Parkway Grill,"510 S Arroyo Pkwy, Pasadena, CA 91105",Fine Dining,Pasadena,"Upscale spot serving Californian cuisine in an art-filled, elegant setting since 1984.",http://www.theparkwaygrill.com/,http://places.singleplatform.com/parkway-grill/menu?ref=google,http://www.theparkwaygrill.com/store,http://www.theparkwaygrill.com/contact,Gift Cards,Contact,CA,91105,restaurant
The Luggage Room Pizzeria,"260 S Raymond Ave, Pasadena, CA 91105",Pizza,Pasadena,"Colorful parlor in a former train-station luggage room, known for unique wood-fired pizzas & gelato.",https://theluggageroom.com/,https://theluggageroom.com/#menus,http://shop.lgohospitality.com/product_p/uni-gft-100.htm,https://theluggageroom.com/contact/,GIFT CARDS,CONTACT,CA,91105,restaurant
Alexander's Steakhouse,"111 N Los Robles Ave, Pasadena, CA 91101",Steak,Pasadena,"Posh spot fusing steakhouse classics with Japanese cuisine, with a signature cotton candy dessert.",http://www.alexanderssteakhouse.com/,http://alexanderssteakhouse.com/,https://alexanderspatisserie.securetree.com/Gift-Cards/,,Alexander’s Patisserie,,CA,91101,restaurant
Central Market,"42 Petaluma Blvd N, Petaluma, CA 94952",Restaurant,Petaluma,"Farm-to-fork Californian-Mediterranean fare & wine pairings offered in a casual, loftlike bistro.",http://www.centralmarketpetaluma.com/,http://www.centralmarketpetaluma.com/menus/dinner.pdf,https://www.giftrocker.com/secure/order/?h=eafc6b58,http://www.centralmarketpetaluma.com/contact.php,Gift Cards,Contact/Map,CA,94952,restaurant
Risibisi,"154 Petaluma Blvd N, Petaluma, CA 94952",Italian,Petaluma,"Romantic Italian outpost offers upscale local, seasonal fare & fine wines in a cozy, low-lit venue.",http://www.risibisirestaurant.com/,https://risibisirestaurant.com/menu-dinner-italian-petaluma/,https://www.yelp.com/checkout/gc/WGHrUflteb3orsIWTn-w5g?biz_id=GobSJD7dTF3-zNw4RY-gfA,http://www.risibisirestaurant.com/contact,Gift Card,"
        
        Contact
      ",CA,94952,restaurant
Sugo Trattoria,"5 Petaluma Blvd S B, Petaluma, CA 94952",Italian,Petaluma,"Relaxed, contemporary eatery offering a menu of panini, pasta & locally sourced Italian favorites.",http://www.sugotrattoria.com/,http://places.singleplatform.com/sugo-trattoria/menu?ref=google,http://www.sugotrattoria.com/shop,http://www.sugotrattoria.com/contact,GIFT CARDS,Contact,CA,94952,restaurant
Wild Goat Bistro,"6 Petaluma Blvd N, Petaluma, CA 94952",Bistro,Petaluma,"Fixture for seasonal, globally inspired fare, gluten-free dishes & local wines in rustic-chic digs.",http://www.wildgoatbistro.com/,http://www.urbanspoon.com/cities/6-sf-bay-area/restaurants/1559313-wild-goat-bistro/menu?utm_source=Google&utm_medium=Local&utm_campaign=GoogleMenus,http://store.wildgoatbistro.com/#CategoryName=Gift Cards&CategoryID=10,,,,CA,94952,restaurant
McNear's Saloon & Dining House,"23 Petaluma Blvd N, Petaluma, CA 94952",Restaurant,Petaluma,A broad menu of international eats is served in this old-timey pub attached to a live music venue.,https://www.mcnears.com/,,https://squareup.com/gift/7D960WTHA2CH8/order,https://www.mcnears.com/contact-us/,,Contact,CA,94952,restaurant
Tolay  Sheraton Petaluma,"745 Baywood Dr, Petaluma, CA 94954",American,Petaluma,"Regional American fare with seasonal ingredients, plus notable wine, served in a contemporary space.",http://www.sheratonsonoma.com/,http://www.tolayrestaurant.com/menu.html,https://gifts.marriott.com,http://www.sheratonsonoma.com/tel:+1 707-283-2888, Gift Cards ,  +1 707-283-2888  ,CA,94954,restaurant
Clearman's Steak 'N Stein,"9545 E, Whittier Blvd, Pico Rivera, CA 90660",Steak,Pico Rivera,"Steakhouse with an old-world European vibe has white-linen dining, a bar, circular fireplace & more.",http://clearmansrestaurants.com/,http://places.singleplatform.com/clearmans-steak-n-stein/menu?ref=google,https://clearmansrestaurants.com/gift-cards/,https://clearmansrestaurants.com/contact/,Gift Cards,Contact,CA,90660,restaurant
Craftsman Wood Fired Pizza,"148 Yorba Linda Blvd, Placentia, CA 92870",Pizza,Placentia,Relaxed eatery pairing specialty pizzas & sandwiches with California wines & craft beers.,http://craftsmanpizza.com/,http://craftsmanpizza.com/menu/CraftsmanToGo.pdf,https://craftsmanpizza.cardfoundry.com/giftcards.php,https://craftsmanpizza.com/contact-us/,Purchase Gift Card,Contact Us,CA,92870,restaurant
El Cantarito,"120 W Santa Fe Ave, Placentia, CA 92870",Mexican,Placentia,A casual Mexican joint dishing up all the classics with weekly specials on tacos & drinks.,http://el-cantarito.cafes-usa.com/,http://places.singleplatform.com/el-cantarito-restaurant/menu?ref=google,http://topmountainvillage.com/en/?utm_source=usa_restaurants,,"


",,CA,92870,restaurant
Meat Up BBQ,"1450 N Kraemer Blvd, Placentia, CA 92870",Barbecue,Placentia,"Counter-serve, West Coast-style BBQ joint with local craft beers on tap, plus TVs & outdoor seating.",http://meatupbbq.com/,http://www.meatupbbq.com/menu.html,https://squareup.com/gift/2G5BKJZNZN4PE/order,http://meatupbbq.com/contact/,Gift Cards,Contact,CA,92870,restaurant
The Whole Enchilada,"106 Yorba Linda Blvd, Placentia, CA 92870",Mexican,Placentia,"Roomy, kid-friendly eatery offering Mexican fare such as burritos, tacos, combo plates & margaritas.",http://www.wholeenchilada.com/,,https://www.wholeenchilada.com/gift-cards/,https://www.wholeenchilada.com/contact-us/,Gift Cards,Contact Us,CA,92870,restaurant
El Pueblito,"1221 E Imperial Hwy, Placentia, CA 92870",Mexican,Placentia,,http://el-pueblito.cafes-usa.com/,,http://topmountainvillage.com/en/?utm_source=usa_restaurants,,"


",,CA,92870,restaurant
Sabio on Main,"501 Main St, Pleasanton, CA 94566",Californian,Pleasanton,Upscale bistro serving modern Spanish-Californian cuisine & drinks in a sleek space with 2 patios.,http://sabiopleasanton.com/,https://www.musthavemenus.com/places/sabio-on-main-pleasanton-ca-94566-1000090550/sabio-on-main-dinner-menu-id_da3fd6b6-6704-4c0e-a1c4-61f3c8cb6f95_n,http://sabiopleasanton.com/gift-cards/,http://sabiopleasanton.com/contact/,Learn More >,Contact,CA,94566,restaurant
Barone's Restaurant,"475 St John St, Pleasanton, CA 94566",Fine Dining,Pleasanton,White-tablecloth spot with a continental menu and weekly live music on the patio during the summer.,http://www.baronespleasanton.com/,,http://www.baronespleasanton.com/giftcards,http://www.baronespleasanton.com/contact-us,Gift Cards,Contact Us ,CA,94566,restaurant
Salt Craft,"377 St Mary St, Pleasanton, CA 94566",Restaurant,Pleasanton,"Relaxed, all-day American kitchen with beer & wine, served outdoors only (some seating is covered).",http://saltcraftpleasanton.com/,https://www.saltcraftpleasanton.com/,https://swipeit.com/product/1685/salt-craft,https://www.saltcraftpleasanton.com,GIFT CARD,CONTACT,CA,94566,restaurant
SideTrack Bar  Grill,"30 W Angela St, Pleasanton, CA 94566",Grill,Pleasanton,Burgers & cocktails served in a relaxed setting with sports on big-screen TVs & 2 roomy patios.,http://www.sidetrackeats.com/,http://www.sidetrackeats.com/menu/,https://www.toasttab.com/sidetrack/giftcards,,GIFT CARDS,,CA,94566,restaurant
Tacos Jalisco,"595 W Mission Blvd, Pomona, CA 91766",Mexican,Pomona,Mexican staples doled out in a laid-back setting with counter service & ample seating.,http://tacosjaliscoypanaderia.com/,,http://tacosjaliscoypanaderia.com/gift-card.html,http://tacosjaliscoypanaderia.com/contacts.html,get a giftcard,Contact us,CA,91766,restaurant
Juicy Burger,"1 Buffalo St, Hamburg, NY 14075",Restaurant,Hamburg,"Comfy joint serving hefty hamburgers with grass-fed beef & unique add-ons, plus cocktails & beer.",http://www.juicyburgerbar.com/,http://www.juicyburgerbar.com/drink-menu/,http://www.juicyburgerbar.com/gift-card,http://www.juicyburgerbar.com/location,Gift Cards,Location/Contact,NY,14075,restaurant
Villa Capri Trattoria & Wine Bar,"14771 Pomerado Rd, Poway, CA 92064",Italian,Poway,"Traditional Italian cooking, including pizza & pasta, paired with wine in warm, casual surroundings.",http://villacapripoway.com/,http://villacapripoway.com/menus/catering/,https://egift.technology/Main.aspx?key=villacapripoway,http://villacapripoway.com/contact/,Gift Cards,Contact,CA,92064,restaurant
Tikka Lounge,"13513 Poway Rd, Poway, CA 92064",Indian,Poway,Counter-serve eatery featuring a short menu of health-minded Indian dishes & naan.,http://www.tikkalounge.com/,https://www.tikkalounge.com/assets/files/Menu-TikkaLounge-compressed.pdf,https://squareup.com/gift/8CS8C6ABK6TC5/order,,Gift cards,,CA,92064,restaurant
Kaminski's BBQ & Sports Lounge,"12735 Poway Rd, Poway, CA 92064",Restaurant,Poway,"Sports bar & American eatery for hickory-smoked BBQ, famed wings, sports TV, live music & karaoke.",http://www.kaminskisbbq.com/,http://www.kaminskisbbq.com/bbq/media/Kaminskis_cateringmenu.pdf,http://www.kaminskisbbq.com/store/gift-cards/,http://www.kaminskisbbq.com/contact/,Gift Cards,Contact,CA,92064,restaurant
Brookfields Restaurant,"11135 Folsom Blvd, Rancho Cordova, CA 95670",Familyfriendly,Rancho Cordova,"Casual, family-run spot supplying breakfast-to-dinner American food, baked goods & take-home meals.",http://brookrest.com/,https://brookrest.com/menu/,https://brookrest.com/product/brookfields-gift-cards/,,Gift Cards,,CA,95670,restaurant
The Sycamore Inn,"8318 Foothill Blvd, Rancho Cucamonga, CA 91730",Steak,Rancho Cucamonga,"Crab cakes, filet mignon, lamb & wines offered in an old-timey, lodge-like setting since 1848.",http://www.thesycamoreinn.com/,http://www.thesycamoreinn.com/menus/SycamoreBarMenu4.16.pdf,http://www.thesycamoreinn.com/cardorder.html,http://www.thesycamoreinn.com/contactus.php#contact,Purchase Gift Cards,Restaurant Hours,CA,91730,restaurant
Avenue Italy,"31243 Palos Verdes Dr W, Rancho Palos Verdes, CA 90275",Italian,Rancho Palos Verdes,"Italian pasta, meat & seafood dishes pair with old-country wines in white-tablecloth surrounds.",https://www.avenueitaly.com/,https://www.avenueitaly.com/our-menus,https://www.toasttab.com/avenue-italy/giftcards,https://www.avenueitaly.com/contact,Gift Card Purchase ,Contact,CA,90275,restaurant
Yellow Vase,"31248 Palos Verdes Dr W, Rancho Palos Verdes, CA 90275",Restaurant,Rancho Palos Verdes,Comfortable spot with patio seating offering French & American eats plus baked goods & flowers.,http://www.yellowvase.com/,http://places.singleplatform.com/yellow-vase-3/menu?ref=google,https://squareup.com/gift/1Y1SQPBY7ESVH/order,http://www.yellowvase.com/contact,Buy-E-Gift Card ,Contact ,CA,90275,restaurant
Good Stuff,"550 Deep Valley Dr #151, Rolling Hills Estates, CA 90274",American,Rolling Hills Estates,"American standards served all day long, plus Mexican dishes & healthy fare in an eclectic setting.",http://www.eatgoodstuff.com/,https://eatgoodstuff.com/menu/,https://www.toasttab.com/good-stuff-palos-verdes/giftcards,https://eatgoodstuff.com/contact,"
 "," Contact
",CA,90274,restaurant
The Original Red Onion,"736 Silver Spur Rd, Rolling Hills Estates, CA 90274",Mexican,Rolling Hills Estates,"Since-1967 Mexican eatery dealing in tacos, enchiladas & drinks plus breakfast in rustic-house digs.",http://originalredonion.com/,http://places.singleplatform.com/red-onion-restaurant/menu?ref=google,http://originalredonion.com/store/gift-cards/,http://originalredonion.com/contact/,Gift Cards,Contact,CA,90274,restaurant
The Cove Cafe,"36 Malaga Cove Plaza, Palos Verdes Estates, CA 90274",Coffee shop,Palos Verdes Estates,,http://www.thecovecafepv.com/,,https://squareup.com/gift/2B9NFXKPFGTDJ/order,,"GIFT CARDS




",,CA,90274,restaurant
Carmelita's Kitchen,"31441 Santa Margarita Pkwy, Rancho Santa Margarita, CA 92688",Mexican,Rancho Santa Margarita,"Shopping center Mexican hub has tacos, Macho Burritos, margaritas, Sunday brunch & hacienda decor.",https://www.carmelitaskitchen.com/,,https://www.carmelitaskitchen.com/pages/gift-cards,https://www.carmelitaskitchen.com/#contact,Gift Cards,Contact Us,CA,92688,restaurant
Hanna's,"22195 El Paseo #110, Rancho Santa Margarita, CA 92688",Steak,Rancho Santa Margarita,"Sophisticated spot offering classic steakhouse fare, extensive wine list & private room for events.",http://www.hannasprimesteak.com/,https://www.hannasprimesteak.com/menu/#dinner,https://hannasprimesteak.cardfoundry.com,https://hannasprimesteak.com/contact/,Gift Cards,Contact,CA,92688,restaurant
SAJJ Mediterranean Rancho Santa Margarita,"22245 El Paseo Suite A, Rancho Santa Margarita, CA 92688",Mediterranean,Rancho Santa Margarita,,http://www.sajjstreeteats.com/,http://www.sajjstreeteats.com/menu/,http://www.sajjstreeteats.com/store/gift-cards/,http://www.sajjstreeteats.com/contact/,Gift Cards,Contact,CA,92688,restaurant
Nello's Place,"3055 Bechelli Ln, Redding, CA 96002",Italian,Redding,Celebrated family-owned institution featuring traditional Italian cuisine in a romantic atmosphere.,http://www.nellosrestaurant.net/,https://nellosrestaurant.net/menu/,https://nellosrestaurant.net/gift-certificate/,,Gift Certificate,,CA,96002,restaurant
Burrito Bandito,"8938 Airport Rd, Redding, CA 96002",Mexican,Redding,,https://www.juanmeanburrito.com/,http://places.singleplatform.com/burrito-bandito-west/menu?ref=google,https://www.juanmeanburrito.com/store/,,Gift Cards,,CA,96002,restaurant
Greensleeves Steakhouse,"220 Orange St, Redlands, CA 92374",Steak,Redlands,Warm & inviting ambiance for an eclectic menu of dishes including a wild boar burger.,http://greensleevessteakhouse.com/,http://greensleevessteakhouse.com/wp-content/uploads/2017/03/gs-menu-2.pdf,https://swipeit.com/product/1266/greensleaves-steakhouse,https://www.greensleevessteakhouse.com,Purchase Gift Card,CONTACT US,CA,92374,restaurant
Bettolino Kitchen,"211 Palos Verdes Blvd, Redondo Beach, CA 90277",Italian,Redondo Beach,"Handmade pasta dominates the menu of this family-run spot with a spare, casual ambiance.",http://www.bettolinokitchen.com/,https://www.bettolinokitchen.com/menu/,https://onelink.quickgifts.com/merchant/bettolino-kitchen/,,Gift Cards,,CA,90277,restaurant
The Standing Room Restaurant,"144 N Catalina Ave, Redondo Beach, CA 90277",American,Redondo Beach,Easygoing burger joint serving up hand-packed patties in no-frills digs with outdoor patio seating.,http://www.thestandingroomrestaurant.com/,https://www.thestandingroomrestaurant.com/wp-content/uploads/2015/05/Menu-Redondo-Beach.pdf,https://www.toasttab.com/the-standing-room-hermosa-beach/giftcards,http://www.thestandingroomrestaurant.com/contact/,Gift Cards,Contact,CA,90277,restaurant
Old Tony's,"210 Fishermans Wharf, Redondo Beach, CA 90277",Seafood,Redondo Beach,Seafood & cocktails served in a longtime casual dining room offering panoramic views of the Pacific.,http://oldtonys.com/,https://www.oldtonys.com/menu,http://oldtonys.com/gift-card,http://oldtonys.com/contact,Gift Cards/ Merchandise,Contact,CA,90277,restaurant
Samba Brazilian Steakhouse,"207 N Harbor Dr, Redondo Beach, CA 90277",Brazilian,Redondo Beach,"Brazilian churrascaria by the water, with a clubby vibe & live samba dance performances.",https://sambabraziliansteakhouse.com/,https://sambabraziliansteakhouse.com/samba-brazilian-steakhouse-menu/,https://onelink.quickgifts.com/merchant/samba-brazilian-steakhouse/,https://sambabraziliansteakhouse.com/contact,Gift Cards ,Contact,CA,90277,restaurant
Donato Enoteca,"1041 Middlefield Rd, Redwood City, CA 94063",Italian,Redwood City,Contemporary Italian plates & wood-fired pizzas in a multiroom space with an open kitchen & a patio.,http://www.donatoenoteca.com/,http://www.donatoenoteca.com/menu/,http://www.donatoenoteca.com/gift-cards,,Gift Cards,,CA,94063,restaurant
Redwood Grill,"356 Woodside Rd, Redwood City, CA 94061",Grill,Redwood City,"Airy, rustic-industrial stop serving comfort-food staples such as burgers, plus craft beer & wine.",https://www.rwgrill.com/,http://www.rwgrill.com/menu/,https://www.toasttab.com/redwood-grill/giftcards,https://www.rwgrill.com/contact/,Buy One,Contact,CA,94061,restaurant
Milagros Latin Kitchen,"1099 Middlefield Rd, Redwood City, CA 94063",Mexican,Redwood City,Jalisco-region Mexican fare & blue agave tequila served in a vibrant space with a heated patio.,http://www.milagrosrc.com/,,https://avenir.securetree.com/,http://www.milagrosrc.com/contact,"
              Gift Cards
            ","
                Contact
              ",CA,94063,restaurant
Crouching Tiger Restaurant,"2644 Broadway, Redwood City, CA 94063",Chinese,Redwood City,Spicy Sichuan & Hunan specialties served in a Chinese-inspired dining room with dark-wood accents.,http://crouchingtigerrestaurant.com/,,https://crouchingtigerrestaurant.instagift.com,,,,CA,94063,restaurant
Vesta,"2022 Broadway, Redwood City, CA 94063",Pizza,Redwood City,"Buzzy indoor-outdoor venue draws crowds with creative, wood-fired pizza, small plates, wine & beer.",http://www.vestarwc.com/,,https://squareup.com/gift/5R3DQADM0J0X8/order,https://www.vestarwc.com,  PURCHASE GIFT CARD  ,Contact Us,CA,94063,restaurant
El Ojo De Agua Taqueria,"830 Foothill Blvd, Rialto, CA 92376",Mexican,Rialto,,http://el-ojo-de-agua-taqueria.cafes-city.com/,,http://topmountainvillage.com/en/?utm_source=usa_restaurants,,"


",,CA,92376,restaurant
Tortas Ahogadas Chapala,"402 Foothill Blvd, Rialto, CA 92376",Mexican,Rialto,,http://tortas-ahogadas-chapala.cafes-city.com/,,http://topmountainvillage.com/en/?utm_source=usa_restaurants,,"


",,CA,92376,restaurant
Portumex,"721 23rd St, Richmond, CA 94801",Mexican,Richmond,"Quaint, family-owned eatery featuring burritos, enchiladas & ceviche in a pared-down bungalow.",http://portumex.cafes-city.com/,http://places.singleplatform.com/portumex-restaurant-inc/menu?ref=google,http://topmountainvillage.com/en/?utm_source=usa_restaurants,,"


",,CA,94801,restaurant
Rivoli,"1539 Solano Ave, Berkeley, CA 94707",New American,Berkeley,Californian-Mediterranean spot is known for simple cuisine in a romantic space overlooking a garden.,https://www.rivolirestaurant.com/,,https://giftrocker.com/Rivoli,https://www.rivolirestaurant.com/#contact-section,"
              Gift Cards
            ","
                        Reservations & Menus
                      ",CA,94707,restaurant
Angel's,"12469 San Pablo Ave, Richmond, CA 94805",Breakfast,Richmond,,http://angels-restaurant.cafes-city.com/,,http://topmountainvillage.com/en/?utm_source=usa_restaurants,,"


",,CA,94805,restaurant
Ooka,"3525 Riverside Plaza Dr #200, Riverside, CA 92506",Japanese,Riverside,"Teppanyaki prepared with flair, sushi & sake are served in a sleek, wood-floored space.",http://www.ookasushi.com/,,http://www.ookasushi.com/riverside-gift-card.html,http://www.ookasushi.com/riverside-contact-us.html,Gift Card,Contact Us,CA,92506,restaurant
The Chef's Table,"6843 Lonetree Blvd Ste 103, Rocklin, CA 95765",Traditional American,Rocklin,Unpretentious eatery & bar preparing innovative takes on burgers & other classic American bites.,https://thechefstablerocklin.com/,,https://squareup.com/gift/EJV4ZK9CS5RCW/order,https://thechefstablerocklin.com/contact-us/,Gift Card,Contact,CA,95765,restaurant
Zest Kitchen,"2620 Sunset Blvd #1, Rocklin, CA 95677",Vegan,Rocklin,Earth tones & windows dominate this relaxed hangout specializing in vegan fare & hand-blended teas.,http://www.zestvegankitchen.com/,http://places.singleplatform.com/zest-kitchen/menu?ref=google,http://www.zestvegankitchen.com/gift-cards,http://maps.google.com/maps?f=q&source=s_q&hl=en&geocode=&q=Zest+Kitchen%2c+2620+Sunset+Blvd%2c+Suite+%231%2c+Rocklin%2c+CA+95677&z=17,  Gift Cards ,  Find Us ,CA,95677,restaurant
Primo Pizza,"2600 Sunset Blvd UNIT 103, Rocklin, CA 95677",Pizza,Rocklin,"Brick-oven pies, burgers & other casual eats in a warm setup with a bar, patio & delivery service.",http://www.primopizzarocklin.com/,http://www.primopizzarocklin.com/wp-content/uploads/2016/05/PrimoMenu.pdf,http://www.primopizzarocklin.com/wp-content/uploads/2012/04/giftcards.pdf,,Gift Cards,,CA,95677,restaurant
Thai Chili,"2164 Sunset Blvd #200, Rocklin, CA 95765",Thai,Rocklin,"Relaxed, contemporary, family-owned nook preparing locally sourced Thai fare to eat in or take out.",http://www.thaichilirocklin.com/,,http://www.thaichilirocklin.com/gift-cards/thairestaruant,http://www.thaichilirocklin.com/contact/thairfoodrestaurant," Gift Cards

"," Contact

",CA,95765,restaurant
Bear Republic Brewing Co,"5000 Roberts Lake Rd, Rohnert Park, CA 94928",Brewpub,Rohnert Park,,http://www.bearrepublic.com/,https://bearrepublic.com/rohnert-park-brewpub-menu/,http://www.bearrepublic.com/gear/product-category/gift-cards/,https://bearrepublic.com/contact/,Gift Cards,Contact Us,CA,94928,restaurant
La Provence Restaurant,"110 Diamond Creek Pl, Roseville, CA 95747",French,Roseville,"Romantic, upscale option offering seasonal, area-sourced Southern French fare & cocktails.",http://www.laprovenceroseville.com/,http://laprovenceroseville.com/menus/,https://laprovenceroseville.com/gift-cards/,https://laprovenceroseville.com/contact-options/,Gift Cards,Contact Us,CA,95747,restaurant
Sienna Restaurant Roseville,"1480 Eureka Rd, Roseville, CA 95661",American,Roseville,,https://www.siennarestaurants.com/,https://www.siennarestaurants.com/curbside-takeout-menu/?utm_source=gmb&utm_medium=organic&utm_campaign=GMB_menu_roseville,https://sienna.securetree.com/,https://www.siennarestaurants.com/contact/,Gift Cards,CONTACT,CA,95661,restaurant
La Huaca Peruvian Cuisine,"9213 Sierra College Blvd #140, Roseville, CA 95661",Restaurant,Roseville,"Peruvian eatery offering classic entrees with wine pairing options in a warm, contemporary setting.",http://www.lahuacarestaurant.com/,http://places.singleplatform.com/la-huaca/menu?ref=google,https://lahuacarestaurant.com/dish/gift-card/,,"

Click here

",,CA,95661,restaurant
Flame & Fire Brazilian Steakhouse,"963 Pleasant Grove Blvd #100, Roseville, CA 95678",Brazilian,Roseville,Gaucho chefs serve endless Brazilian barbecued meats in a rustic-modern space with a salad bar.,http://flameandfire.com/,http://places.singleplatform.com/flame--fire/menu?ref=google,https://flameandfire.com/gift-card/,https://flameandfire.com/contact/,Gift Card,Contact,CA,95678,restaurant
Firehouse,"1112 2nd St, Sacramento, CA 95814",Fine Dining,Sacramento,"Elevated, seasonal American fare served in a sophisticated, longtime locale with outdoor seating.",http://www.firehouseoldsac.com/,https://www.firehouseoldsac.com/the-firehouse-menus,https://www.firehouseoldsac.com/gift-card-redirect,,GIFT CARDS,,CA,95814,restaurant
The Waterboy,"2000 Capitol Ave, Sacramento, CA 95811",New American,Sacramento,"Breezy locale for Italian, French & Californian fare with a focus on seasonal, local ingredients.",http://www.waterboyrestaurant.com/,http://places.singleplatform.com/waterboy/menu?ref=google,https://www.waterboyrestaurant.com/retail/,http://www.waterboyrestaurant.com/mailto:contact@waterboyrestaurant.com,GIFT CARDS + RETAIL,contact@waterboyrestaurant.com,CA,95811,restaurant
South,"2005 11th St, Sacramento, CA 95818",Southern,Sacramento,Counter-serve nook preparing fried chicken & other Southern staples with a twist & seasonal veggies.,http://www.weheartfriedchicken.com/,,http://www.weheartfriedchicken.com/gift/south-gift-card-1,http://www.weheartfriedchicken.com/contact-us,Gift Cards,Contact Us,CA,95818,restaurant
The Kitchen Restaurant,"2225 Hurley Way, Sacramento, CA 95825",American,Sacramento,High-end eatery offering fixed-price New American dinners in a convivial open-kitchen setting.,http://thekitchenrestaurant.com/,http://thekitchenrestaurant.com/menu,https://sellandfamilyrestaurants.myguestaccount.com/guest/egift,https://thekitchenrestaurant.com/location/,Send an eGift Card,Location & Contact,CA,95825,restaurant
Kru Contemporary Japanese Cuisine,"3135 Folsom Blvd, Sacramento, CA 95816",Japanese,Sacramento,Enduring Japanese eatery & sushi bar infusing classic dishes with international flavors.,http://www.krurestaurant.com/,https://www.krurestaurant.com/menu/bar/,http://www.krurestaurant.com/gift-cards/,http://www.krurestaurant.com/contact/,BUY A GIFTCARD,CONTACT US,CA,95816,restaurant
Tower Cafe,"1518 Broadway, Sacramento, CA 95818",Eclectic,Sacramento,"Quirky cafe serving an eclectic array of grub, from classic breakfasts to Asian & Spanish mains.",http://www.towercafe.com/,,http://towercafe.securetree.com/products/gift-cards/,http://towercafe.com/contact/,Gift Card,Contact,CA,95818,restaurant
201 Main,"201 S Main St, Salinas, CA 93901",Brunch,Salinas,Upscale menu of Italian favorites served in a splashy setting with a fire-lit outdoor plaza.,http://www.201complex.com/,http://www.201complex.com/brunch,https://201complex.cardfoundry.com/,,,,CA,93901,restaurant
Kokoro Sushi,"36 W Gabilan St, Salinas, CA 93901",Sushi,Salinas,"Humble locale offering teriyaki & other Japanese hot plates, plus creative & classic sushi rolls.",http://kokoro-sushi.cafes-usa.com/,http://places.singleplatform.com/kokoro-19/menu?ref=google,http://topmountainvillage.com/en/?utm_source=usa_restaurants,,"


",,CA,93901,restaurant
Los Altos Restaurant,"107 Kern St, Salinas, CA 93905",Mexican,Salinas,,http://los-altos.cafes-usa.com/,,http://topmountainvillage.com/en/?utm_source=usa_restaurants,,"


",,CA,93905,restaurant
Fish & Chips,"2010 N Main St, Salinas, CA 93906",Seafood,Salinas,,http://fish-chips.cafes-usa.com/,http://places.singleplatform.com/fish-and-chips-7/menu?ref=google,http://topmountainvillage.com/en/?utm_source=usa_restaurants,,"


",,CA,93906,restaurant
Paradise Pantry,"222 E Main St, Ventura, CA 93001",Takeout Restaurant,Ventura,"Gourmet small plates, sandwiches & wines in a rustic-chic setting with a small upscale market.",http://www.paradisepantry.com/,https://www.paradisepantry.com/take-out-menu,http://www.paradisepantry.com/gift-card-form,http://www.paradisepantry.com/contact,ORDER HERE,contact us,CA,93001,restaurant
Barrelhouse 101,"545 E Thompson Blvd, Ventura, CA 93001",Restaurant,Ventura,"Relaxed alehouse & grill with more than 100 beers on tap, upmarket pub grub & sports on TV.",https://www.barrelhouse101.com/,https://www.barrelhouse101.com/menu,https://www.toasttab.com/barrelhouse-101/giftcards,https://www.barrelhouse101.com/contact,Buy Gift Cards,Contact Us ,CA,93001,restaurant
Andria's Seafood,"1449 Spinnaker Dr A, Ventura, CA 93001",Seafood,Ventura,"Simple eatery & fishmonger known for unfussy, locally sourced seafood, served fried or broiled.",https://www.andriasseafood.com/,https://www.andriasseafood.com/menu/,https://www.andriasseafood.com/gift-certificates,https://www.andriasseafood.com/contact,"
              Gift Certificates
            ","
              contact
            ",CA,93001,restaurant
Alexander's Restaurant & Lounge,"1050 Schooner Dr, Ventura, CA 93001",Restaurant,Ventura,,http://www.fourpointsventuraharborresort.com/,http://places.singleplatform.com/alexanders-restaurant-13/menu?ref=google,https://gifts.marriott.com,http://www.fourpointsventuraharborresort.com/tel:+1 805-658-1212, Gift Cards ,  +1 805-658-1212  ,CA,93001,restaurant
La Siesta Mexican Restaurant,"920 N El Camino Real, San Clemente, CA 92672",Mexican,San Clemente,"Traditional Mexican eatery known for carnitas has festive mural-clad space, margaritas & happy hour.",http://www.lasiestasanclemente.com/,http://www.lasiestasanclemente.com/menu,http://www.lasiestasanclemente.com/gift-certificate,http://www.lasiestasanclemente.com/tel:(949)498-3094,Gift Certificate,(949) 498-3094,CA,92672,restaurant
The Cellar,"156 Avenida Del Mar, San Clemente, CA 92672",Restaurant,San Clemente,"New American eatery & wine bar with microbrews on tap, outdoor dining & onsite cheese shop.",http://www.thecellarsite.com/,,https://thecellarsite.com/giftcards/,https://thecellarsite.com/sanclemente/#scinformation ,Gift Cards,Contact,CA,92672,restaurant
Vine Restaurant & Bar,"211 N El Camino Real, San Clemente, CA 92672",American,San Clemente,Rustic wine bar pairing Californian-Mediterranean bites with a carefully curated wine list.,https://www.vinesanclemente.com/,https://www.vinesanclemente.com/menu,https://rjbrestaurantgroup.cardfoundry.com/giftcards.php,https://www.vinesanclemente.com/get-in-touch,Gift Cards,Contact,CA,92672,restaurant
CUCINA urbana,"505 Laurel St, San Diego, CA 92101",Italian,San Diego,"Reclaimed wood lines this stylish, contemporary Italian restaurant & wine shop with craft cocktails.",http://www.cucinaurbana.com/,https://www.urbankitchengroup.com/cucina-urbana-bankers-hill/menu/,https://www.toasttab.com/cucina-urbana/giftcards,https://www.urbankitchengroup.com/cucina-urbana-bankers-hill/contact/,gift cards,Contact,CA,92101,restaurant
Top of the Market  San Diego,"750 N Harbor Dr, San Diego, CA 92101",Fine Dining,San Diego,High-end seafood & bay views presented in a white-tablecloth setting upstairs from the Fish Market.,http://www.sdtopofthemarket.com/,http://places.singleplatform.com/top-of-the-market---san-diego/menu?ref=google,https://www.thefishmarket.com/onlinestore.aspx,https://www.sdtopofthemarket.com/contact/,Gift Cards,Contact Us,CA,92101,restaurant
Juniper & Ivy,"2228 Kettner Blvd, San Diego, CA 92101",Restaurant,San Diego,"Spacious, modern restaurant serving imaginative New American fare & drinks in woody, arty surrounds.",http://juniperandivy.com/,https://www.juniperandivy.com/menu/,https://juniperandivy.cardfoundry.com/giftcards.php,https://www.juniperandivy.com/contact/,Gift Cards,Contact,CA,92101,restaurant
Richard Walker's Pancake House,"520 Front St, San Diego, CA 92101",Restaurant,San Diego,Diners line up for baked apple pancakes & hearty breakfast staples at this casual daytime eatery.,https://www.richardwalkers.com/,https://www.richardwalkers.com/#menu,https://www.richardwalkers.com/gift-cards,,Gift Cards,,CA,92101,restaurant
Ambrogio15,"926 Turquoise St h, San Diego, CA 92109",Pizza,San Diego,,http://www.ambrogio15.com/,https://www.ambrogio15.com/menu/,https://shop.ambrogio15.com,,GIFT CARDS,,CA,92109,restaurant
Californios,"3115 22nd St, San Francisco, CA 94110",Mexican,San Francisco,"Mexican restaurant for inventive tasting menus & small-batch wines served in a cozy, luxe interior.",http://www.californiossf.com/,http://places.singleplatform.com/californios/menu?ref=google,https://californiossf.square.site,,"
",,CA,94110,restaurant
Kokkari Estiatorio,"200 Jackson St, San Francisco, CA 94111",Greek,San Francisco,"Taverna-inspired cuisine served in a candlelit, wood-beamed dining room that lures a chic crowd.",https://kokkari.com/,https://kokkari.com/wp-content/uploads/kokkari-wine-list.pdf,https://kokkari.com/cookbook,https://kokkari.com/about-kokkari/#contact,GIFT CERTIFICATES,CONTACT,CA,94111,restaurant
Seven Hills,"1896 Hyde St, San Francisco, CA 94109",Italian,San Francisco,Lively Italian eatery serving farm-to-table Roman fare with an inventive twist in a candlelit space.,http://sevenhillssf.com/,http://places.singleplatform.com/seven-hills/menu?ref=google,http://sevenhillssf.com/#new-page-99-section,http://sevenhillssf.com/mailto:7hillssf@gmail.com,"
                        Gift Card
                      ",Contact Us!,CA,94109,restaurant
Acquerello,"1722 Sacramento Street NEAR VAN NESS &, Polk St, San Francisco, CA 94109",Northern Italian,San Francisco,"High-end Italian cuisine & wines served in a converted chapel with vaulted, wood-beam ceilings.",http://www.acquerellosf.com/,,http://www.acquerellosf.com/gift-certificate-cc,,"
            Gift Certificate
          ",,CA,94109,restaurant
L'Ardoise,"151 Noe St, San Francisco, CA 94114",Bistro,San Francisco,"Neighborhood bistro serving elegant dishes of traditional French cuisine in a warm, intimate space.",http://www.ardoisesf.com/,http://ardoisesf.com/food-and-restaurant-menu,http://www.ardoisesf.com/food-and-restaurant-gift-certificate,http://www.ardoisesf.com/food-and-restaurant-contact,Gift Certificate,Contact,CA,94114,restaurant
Bopomofo Cafe,"841 W Las Tunas Dr, San Gabriel, CA 91776",Bubble Tea,San Gabriel,Tapioca tea & Chinese-American mashups star at this modern boba shop & counter-serve.,https://www.bopomofocafe.com/,,https://squareup.com/gift/0H7TPECGACF7P/order,https://www.bopomofocafe.com/contact-1,"
              Gift Cards
            ","
contact
",CA,91776,restaurant
LUNA Mexican Kitchen  The Alameda,"1495 The Alameda, San Jose, CA 95126",Mexican,San Jose,"Busy Mexican eatery/bar featuring creative, farm-fresh Mexican fare in a cozy ambiance with a patio.",https://lunamexicankitchen.com/,,https://www.toasttab.com/luna-mexican-kitchen/giftcards  ,https://lunamexicankitchen.com/contact/,Gift Cards,Contact,CA,95126,restaurant
The Table,"1110 Willow St, San Jose, CA 95125",American,San Jose,"New American eatery showcasing a local, seasonal menu in rustic-chic digs with an open kitchen.",http://thetablesj.com/,http://thetablesj.com/the-menu/,http://thetable.securetree.com/Products/Gift-Cards/The-Table-Gift-Card/,,Gift Certificates,,CA,95125,restaurant
Taurinus Brazilian Steakhouse,"167 W San Fernando St, San Jose, CA 95113",Steak,San Jose,Cosmopolitan eatery & wine bar serving all-you-can-eat Brazilian-style BBQ in a festive atmosphere.,http://www.taurinussteakhouse.com/,,https://www.giftrocker.com/secure/Order/?h=111c4064,https://www.taurinussteakhouse.com/contact/,Gift Cards,Contact Us,CA,95113,restaurant
Nemea Greek Taverna,"96 S 1st St, San Jose, CA 95113",Greek,San Jose,Light-filled taverna with an open kitchen furnishing a mix of classic & modern Greek dishes.,http://nemeagreektaverna.com/,https://nemeagreektaverna.com/dinner/,https://nemeagreektaverna.com/gift-cards/,https://nemeagreektaverna.com/contact-us-3/,Gift Certificate,Contact Us,CA,95113,restaurant
Siena Bistro,"1359 Lincoln Ave, San Jose, CA 95125",Restaurant,San Jose,Cozy restaurant serves a selection of Italian favorites in a cafelike space with a patio.,http://www.sienabistro.com/,https://sienabistro.com/menu-best-restaurant-san-jose.html,http://www.sienabistro.com/giftcertificates-best-restaurant-san-jose.html,http://www.sienabistro.com/contactus-best-restaurant-san-jose.html,Gift Certificate,Contact Us,CA,95125,restaurant
Five Vines Wine Bar,"31761 Camino Capistrano #11, San Juan Capistrano, CA 92675",Wine bar,San Juan Capistrano,"Intimate wine bar with options from boutique wineries, plus craft beer, food pairings & live music.",http://www.fivevineswinebar.com/,,http://www.fivevineswinebar.com/gift-cards,https://images.squarespace-cdn.com/content/v1/5cacd1f37980b35c77569bcc/1586406728134-FC2YZZ4D55IAARTAG8RB/ke17ZwdGBToddI8pDm48kEpVg-ILAPna1wRh-xAJ9fRZw-zPPgdn4jUwVcJE1ZvWQUxwkmyExglNqGp0IvTJZUJFbgE-7XRK3dMEBRBhUpwEv36x-EUL2-BSQ5feDhwGCbXuJBFqZ-erYzVouT8yOb9TwqchglLQOCYTRn7ZGxI/image-asset.jpeg,"
            Gift Cards
          ","

",CA,92675,restaurant
Selma's Chicago Pizzeria & Tap Room San Juan,"31781 Camino Capistrano #201, San Juan Capistrano, CA 92675",Pizza,San Juan Capistrano,,http://www.selmaspizza.com/,,http://www.selmaschicagopizzeria.com/email-club-and-selmas-gift-cards/,http://www.selmaspizza.com/#,,Contact Us,CA,92675,restaurant
Rick ' s Cafe,"26762 Verdugo St, San Juan Capistrano, CA 92675",Restaurant,San Juan Capistrano,,https://regencymovies.com/,,https://regencymovies.com/giftCards.php,http://spotlightcinemanetworks.com/contact-us/,Buy Gift Cards,Lido Theatre - Newport Beach,CA,92675,restaurant
Horatio's,"60 Monarch Bay Dr, San Leandro, CA 94577",American,San Leandro,An American-seafood menu served in a nautical setting with handcrafted wooden beams & bay views.,https://horatios.com/,http://www.horatios.com/menu.php?id=Brunch%20Menu&v=1,https://horatios.com/giftcards.php,https://www.landrysinc.com/feedback/FeedbackForm_ms.asp?ConceptID=75,gift cards,contact us,CA,94577,restaurant
Top Hatters Kitchen and Bar,"855 MacArthur Blvd, San Leandro, CA 94577",Restaurant,San Leandro,"A light-filled neighborhood venue for seasonal, family-style dishes with an international flair.",http://www.tophatterskitchen.com/,https://tophatterskitchen.com/,http://www.tophatterskitchen.com/gif-certificates,http://www.tophatterskitchen.com/contact,"
            Gift Certificates
          ","
            Contact
          ",CA,94577,restaurant
Mama Lupe's Cocina,"15033 Farnsworth St, San Leandro, CA 94579",Restaurant,San Leandro,,http://www.mamalupescocina.com/,,http://www.mamalupescocina.com/gift-cards/,http://www.mamalupescocina.com/contact/,Gift Cards,Contact,CA,94579,restaurant
Novo Restaurant & Lounge,"726 Higuera St, San Luis Obispo, CA 93401",Restaurant,San Luis Obispo,"Global fare offered in a multispace eatery with intimate cellar, upstairs lounge & creekside patio.",http://novorestaurant.com/,https://www.novorestaurant.com/,http://novorestaurant.com/gift-certificate,http://novorestaurant.com/contact,"
            BOGO GIFT CARDS
          ","
            CONTACT US
          ",CA,93401,restaurant
Big Sky Cafe,"1121 Broad St, San Luis Obispo, CA 93401",Health Food,San Luis Obispo,"Eatery with blue, star-studded ceiling showcasing healthful, modern fare, wine & local art.",http://www.bigskycafe.com/,http://bigskycafe.com/menus/,https://onelink.quickgifts.com/merchant/big-sky-cafe/,,Purchase Gift Cards,,CA,93401,restaurant
Cafe Roma,"1020 Railroad Ave, San Luis Obispo, CA 93401",Italian,San Luis Obispo,"Longtime, white-tablecloth Italian joint with a casual, old-world feel & an extensive wine list.",http://www.caferomaslo.com/,http://www.caferomaslo.com/menu/,http://onelink.quickgifts.com/merchant/cafe-roma-/,https://caferomaslo.com/contact/,Gift Cards,Contact,CA,93401,restaurant
Woodstock's Pizza SLO,"1000 Higuera St, San Luis Obispo, CA 93401",Pizza,San Luis Obispo,"Lively, longstanding pizza place offering classic combos & white, wheat & gluten-free crust.",https://woodstocksslo.com/,https://woodstocks-pizza-san-luis-obispo.securebrygid.com/zgrid/proc/site/sitep.jsp,https://woodstocksslo.com/gift-cards/,https://woodstocksslo.com/contact/,"GIVE THEM
SOME DOUGH

WOODSTOCK'S
GIFTCARDS
GET THEM NOW
",Contact,CA,93401,restaurant
Ciopinot Seafood Grille,"1051 Nipomo St, San Luis Obispo, CA 93401",Seafood,San Luis Obispo,"Elegant establishment specializing in the eponymous stew, plus small plates, oysters & fish entrees.",http://www.ciopinotrestaurant.com/,,http://www.ciopinotrestaurant.com/gift-cards/,http://www.ciopinotrestaurant.com/contact-us/,Gift Cards,Contact Us,CA,93401,restaurant
Mama Kat's Restaurant,"950 W San Marcos Blvd, San Marcos, CA 92078",Traditional American,San Marcos,Down-home American favorites like biscuits & gravy & cinnamon rolls served alongside fresh pies.,http://www.mamakats.com/,http://www.instakats.com/,https://squareup.com/gift/NKFGJRV4FY6E8/order,,"
                Online Gift Cards
              ",,CA,92078,restaurant
Fish House Vera Cruz,"360 Via Vera Cruz, San Marcos, CA 92078",Seafood,San Marcos,Locally-sourced seafood eatery offers outdoor patio seating & on-site gift shop.,http://www.fishhouseveracruz.com/,http://places.singleplatform.com/fish-house-vera-cruz/menu?ref=google,https://www.instagram.com/p/-j7Ri5IUT-/,http://www.fishhouseveracruz.com/#contact-section,"

","
                        Contact
                      ",CA,92078,restaurant
Porterhouse,"60 E 3rd Ave, San Mateo, CA 94401",Steak,San Mateo,Contemporary steakhouse that dry ages its porterhouse on the premises & makes its own sauces.,http://www.porterhousesanmateo.com/,http://porterhousesanmateo.com/pdf/992porterhouserestaurantdinnermenu.pdf,https://swipeit.com/product/1727/porterhouse-restaurant/in/virtual-gift-cards,http://www.porterhousesanmateo.com/contact,Gift Cards,Contact us,CA,94401,restaurant
All Spice,"1602 S El Camino Real, San Mateo, CA 94402",Fine Dining,San Mateo,Inventive Indian fusion cuisine served in a charming converted house with vivid teal walls.,http://www.allspicerestaurant.com/,https://allspicerestaurant.com/menu/,https://www.giftrocker.com/AllSpice,,Buy a Gift Certificate,,CA,94402,restaurant
Pausa Bar & Cookery,"223 E 4th Ave, San Mateo, CA 94401",Italian,San Mateo,"Stylish trattoria for wood-fired pizzas, Italian mains & cocktails, with a chef’s table option.",http://www.pausasanmateo.com/,http://www.pausasanmateo.com/,https://pausasanmateo.cardfoundry.com/giftcards.php,,Gift Cards,,CA,94401,restaurant
Vault 164 Restaurant and Bar,"164 S B St, San Mateo, CA 94401",American,San Mateo,Eclectic American cuisine served in a converted bank with soaring ceilings & original fixtures.,http://www.vault164.com/,http://www.vault164.com/popular-dishes/,https://app.yiftee.com/gifts/egift_and_gift_cards/vault-164-san-mateo-2,http://www.vault164.com/contact-us,Gift Cards,Contact Us,CA,94401,restaurant
31st Union,"5 S Ellsworth Ave, San Mateo, CA 94401",New American,San Mateo,"Rustic-chic gastropub specializing in local & organic grown, cooked & poured menu items.",http://www.31stunion.com/,https://www.31stunion.com/menu/,https://31stunion.instagift.com/,http://www.31stunion.com/contact,"
              Gift Cards
            ","
            Visit Us
          ",CA,94401,restaurant
Ristorante La Toscana,"3751 Redwood Hwy, San Rafael, CA 94903",Italian,San Rafael,Well-established eatery providing classic Italian cooking near the Marin Civic Center.,http://www.ristorantelatoscana.com/,http://www.ristorantelatoscana.com/dinner/,http://www.ristorantelatoscana.com/gift-cards-1,http://www.ristorantelatoscana.com/contact-location,"
                Gift Cards
              ","
                Contact
              ",CA,94903,restaurant
Vin Antico,"881 4th St, San Rafael, CA 94901",Californian,San Rafael,Brick & wood accent the elegant ambiance in this bistro serving creative seasonal pastas & meats.,http://vinantico.com/,,https://www.vinantico.com/shop/,https://www.vinantico.com/contact/,GIFT CARDS,CONTACT,CA,94901,restaurant
Le Chalet Basque Restaurant,"405 N San Pedro Rd, San Rafael, CA 94903",Basque,San Rafael,"Warm, rustic spot highlighting Basque cuisine from France & Spain plus outdoor patio seating.",http://www.chaletbasque.com/,http://chaletbasque.org/,http://www.chaletbasque.com/gift-certificates-1,,"
                Gift Certificates
              ",,CA,94903,restaurant
Eduardo's Restaurant,"4200 Redwood Hwy, San Rafael, CA 94903",American,San Rafael,Classic American meals with extra touches such as homemade herb bread served at an informal diner.,https://www.eduardosofmarin.com/,https://www.eduardosofmarin.com/lunch-menu,https://squareup.com/gift/CKR945BXY3NVY/order,https://www.eduardosofmarin.com/contact-us,Gift cards available here,"
          Contact Us

",CA,94903,restaurant
Gaspare's Pizzeria Ristorante,"200 Merrydale Rd, San Rafael, CA 94903",Pizza,San Rafael,"Cozy, family-run Italian joint serving specialty pies, pastas & panini, plus homemade cheesecake.",http://www.gasparespizzeria.com/,http://www.gasparespizzeria.com/,https://www.gasparespizzeria.com/online-store,https://www.gasparespizzeria.com/blank,Gift Cards,Contact & Info,CA,94903,restaurant
Firehouse No 37,"250 Market Pl, San Ramon, CA 94583",Grill,San Ramon,"Firehouse-themed bar & grill offering a broad American menu,  trivia nights & a kids' play area.",http://www.firehouse37.com/,https://www.firehouse37.com/menus,https://www.firehouse37.com/giftcards,https://www.firehouse37.com/contact,GIFT CARDS,CONTACT US,CA,94583,restaurant
THE LOT City Center,"6000 Bollinger Canyon Rd Suite 2300, San Ramon, CA 94583",Restaurant,San Ramon,,http://thelotent.com/,http://places.singleplatform.com/the-lot-city-center/menu?ref=google,https://thelotent.com/giftcard,https://www.facebook.com/thelotent/,,"

",CA,94583,restaurant
Plucked Chicken & Beer,"3191D Crow Canyon Pl, San Ramon, CA 94583",Chicken,San Ramon,,http://www.pluckedchickenandbeer.com/,https://www.pluckedchickenandbeer.com/menus/,http://www.pluckedchickenandbeer.com/gift-cards/,,Gift Cards,,CA,94583,restaurant
Fresh Millions Restaurant San Ramon,"2550 San Ramon Valley Boulevard, Suite #B2, San Ramon, CA 94583",New American,San Ramon,"Made-to-order rice bowls, salads & sandwiches are featured at this bright, counter-serve eatery.",http://www.freshmillions.com/,http://bit.ly/FMSanRamonOrderFood,https://squareup.com/gift/2KG2P71AR6S7C/order,http://www.freshmillions.com/contact/,Gift Cards,Contact,CA,94583,restaurant
Dos Coyotes Border Cafe,"3191 Crow Canyon Pl suite l, San Ramon, CA 94583",Mexican,San Ramon,"New American shared plates, local wines & happy hour specials star at this rustic-cool destination.",http://www.doscoyotes.com/,,http://doscoyotes.com/gift-cards/,http://doscoyotes.com/contact-us/,Gift Cards | Balance,Contact Us,CA,94583,restaurant
Chapter One the modern local,"227 N Broadway, Santa Ana, CA 92701",New American,Santa Ana,"Housed in an ex-book store, this modern tavern serves cocktails, beer & pub grub to a hip crowd.",http://chapteronetml.com/,http://places.singleplatform.com/chapter-one-the-modern-local/menu?ref=google,https://chapteronetml.com/shop,https://chapteronetml.com/contact.php,gift cards& merchandise,location& contact,CA,92701,restaurant
Little Onion Mexican Restaurant,"110 W MacArthur Blvd, Santa Ana, CA 92707",Mexican,Santa Ana,Laid-back lunch & dinner spot with a large list of Mexican staples plus a Sunday breakfast menu.,http://littleonion.com/,http://littleonion.com/menu,https://www.littleonion.com/online-store,https://www.littleonion.com/contact-reservations,Gift Cards,Contact,CA,92707,restaurant
Tangata Restaurant,"Bowers Museum, 2002 N Main St, Santa Ana, CA 92706",Pacific Rim restaurant,Santa Ana,"Bowers Museum eatery offers Pacific Rim–inspired fare in a bright, modern space with a courtyard.",https://www.patinagroup.com/,https://www.patinagroup.com/tangata-restaurant/menu,https://www.patinagroup.com/gift-cards ,,Buy Now,,CA,92706,restaurant
Sankai Japanese Restaurant,"3940 S Bristol St, Santa Ana, CA 92704",Japanese,Santa Ana,Light-filled contemporary eatery serving up a selection of sushi & other Japanese standards.,http://www.sankaisushi.com/,,https://www.toasttab.com/san-kai/giftcards,,"
        GIFTS
      ",,CA,92704,restaurant
bouchon Santa Barbara,"9 W Victoria St, Santa Barbara, CA 93101",Californian,Santa Barbara,Californian French cuisine made with organic farm-fresh ingredients & paired with local wines.,http://www.bouchonsantabarbara.com/,http://www.bouchonsantabarbara.com/menus/,https://www.bouchonsantabarbara.com/gift-certificate/,https://www.bouchonsantabarbara.com/#contact-section,Gift Certificates,Contact,CA,93101,restaurant
Toma Restaurant & Bar,"324 W Cabrillo Blvd, Santa Barbara, CA 93101",Italian,Santa Barbara,Sunny eatery featuring Italian cuisine & a sizable wine list in a compact space with harbor vistas.,http://tomarestaurant.com/,https://www.tomarestaurant.com/menu/,http://tomarestaurant.com/gift-cards,http://tomarestaurant.com/contact,Gift Cards,Contact,CA,93101,restaurant
Loquita Santa Barbara,"202 State St, Santa Barbara, CA 93101",Spanish,Santa Barbara,Farm–fresh Spanish tapas & craft cocktails are served at this busy haunt with a cozy vibe & a patio.,http://loquitasb.com/,http://loquitasb.com/menu/,https://loquitasb.cardfoundry.com/giftcards.php?action=store,http://www.loquitasb.com/social/,Shop,Contact,CA,93101,restaurant
Opal,"1325 State St, Santa Barbara, CA 93101",American,Santa Barbara,Go-to for globally influenced Californian fare & specialty drinks with bustling street views.,http://opalrestaurantandbar.com/,http://opalrestaurantandbar.com/menus,https://opalrestaurantandbar.com/opal-gift-certificates/,https://opalrestaurantandbar.com/contact/,Gift,Contact,CA,93101,restaurant
Finch & Fork,"31 W Carrillo St, Santa Barbara, CA 93101",New American,Santa Barbara,"Stylish, casual spot, open all day, offering New American dishes made with local ingredients.",https://www.finchandforkrestaurant.com/,https://finchandforkrestaurant.com/menu?utm_source=googlemybusiness&utm_medium=organic&utm_campaign=gbreferral,https://www.ihg.com/kimptonhotels/content/us/en/gift-cards,https://finchandforkrestaurant.com/contact-us,Gift Cards,Contact & Hours,CA,93101,restaurant
Black Sheep Restaurant,"26 E Ortega St, Santa Barbara, CA 93101",Fusion restaurant,Santa Barbara,"Stylish, cozy venue offering inventive, Asian-inflected American plates, craft brews & wine.",https://www.blacksheepsb.com/,https://www.blacksheepsb.com/menu,https://www.blacksheepsb.com/gift-certificates-1,,"
            Gift Certificates
          ",,CA,93101,restaurant
Birk's,"3955 Freedom Cir, Santa Clara, CA 95054",Steak,Santa Clara,"Tucked away in an office park, this restaurant serves steaks & seafood in a classic bistro setting.",http://www.birksrestaurant.com/,http://www.birksrestaurant.com/menu/dinner/,https://birksrestaurant.cardfoundry.com/giftcards.php,https://www.birksrestaurant.com/contact/,Gift Cards,Contact,CA,95054,restaurant
Athena Grill & Catering,"1505 Space Park Dr, Santa Clara, CA 95054",Greek,Santa Clara,"Festive eatery, decked out in blue & white, draws crowds with hearty Greek eats, including souvlaki.",http://www.athenagrill.com/,https://www.toasttab.com/athenagrill/v2/online-order#!/,https://www.toasttab.com/athenagrill/giftcards,http://www.athenagrill.com/mailto:contact@athenagrill.com,"
        Gift Card
      ",contact@athenagrill.com,CA,95054,restaurant
Piccola Trattoria,"18302 Sierra Hwy, Santa Clarita, CA 91351",Italian,Santa Clarita,"Refined riffs on traditional Italian cooking, served in a warm dining room or on the outdoor patio.",https://www.piccolatrattoria.com/,,https://www.piccolatrattoria.com/gift-card,https://www.piccolatrattoria.com/contact-hours,"
            Gift Card
          ","
              Contact and Hours
            ",CA,91351,restaurant
Rattler's Bar B Que,"26495 Golden Valley Rd, Santa Clarita, CA 91351",Barbecue,Santa Clarita,"Casual spot for BBQ babyback ribs, tri-tip & a salad bar, plus available to-go parking.",http://www.rattlersbbq.com/,http://places.singleplatform.com/rattlers-bar-b-que/menu?ref=google,http://www.rattlersbbq.com/gift-cards/,http://www.rattlersbbq.com/contact/,Gift Cards,Contact,CA,91351,restaurant
Woodstock's Pizza Santa Cruz,"710 Front St, Santa Cruz, CA 95060",Pizza,Santa Cruz,Laid-back pizzeria serves made-to-order pies plus sandwiches & other casual fare in a chill setting.,https://woodstockscruz.com/,https://woodstocks-pizza-santa-cruz.securebrygid.com/zgrid/proc/site/sitep.jsp,https://woodstockscruz.com/gift-cards/,https://woodstockscruz.com/contact/,"GIVE THEM
SOME DOUGH

WOODSTOCK'S
GIFTCARDS
GET THEM NOW
",Contact,CA,95060,restaurant
Saturn Cafe,"145 Laurel St, Santa Cruz, CA 95060",Vegetarian,Santa Cruz,Outer-space-themed eatery serves health-inspired takes on comfort-food mainstays with vegan options.,http://santacruz.saturncafe.com/,http://places.singleplatform.com/saturn-cafe-inc/menu?ref=google,https://santacruz.saturncafe.com/gift-cards/,https://santacruz.saturncafe.com/contact/,Gift Cards,Contact,CA,95060,restaurant
The Moxie Cafe,"1317 W McCoy Ln, Santa Maria, CA 93455",Health Food,Santa Maria,"Counter-order eatery with thoughtfully sourced cafe fare, plus coffee, gelato & frequent live music.",http://moxiecafe.com/,http://moxiecafe.com/moxie-cafe-menu/,http://moxiecafe.com/cards/,http://moxiecafe.com/contact-us/,Gift Cards,Contact,CA,93455,restaurant
The Pantry,"726 S Broadway, Santa Maria, CA 93454",American,Santa Maria,"Warm, laid-back outpost serving classic American comfort grub & all-day breakfast & coffee drinks.",http://the-pantry-on-park.cafes-city.com/,,http://topmountainvillage.com/en/?utm_source=usa_restaurants,,"


",,CA,93454,restaurant
La Picosita Restaurant,"923 N Broadway, Santa Maria, CA 93454",Mexican,Santa Maria,"Basic, narrow counter serve serving familiar Mexican eats, such as burritos, huaraches & tacos.",http://la-picosita.cafes-city.com/,,http://topmountainvillage.com/en/?utm_source=usa_restaurants,,"


",,CA,93454,restaurant
The Misfit Restaurant  Bar,"225 Santa Monica Blvd, Santa Monica, CA 90401",American,Santa Monica,"Creative comfort food, health-conscious fare & handcrafted cocktails star at this hip gastropub.",https://themisfitbar.com/,https://themisfitbar.com/#menus,https://shop.lgohospitality.com/product_p/uni-gft-100.htm,https://themisfitbar.com/contact/,GIFT CARDS,CONTACT,CA,90401,restaurant
The Upper West,"3321 W Pico Blvd, Santa Monica, CA 90405",New American,Santa Monica,"Loftlike hot spot with a patio & happy hours, serving New American grub & market-driven cocktails.",https://www.theupperwest.com/,http://www.theupperwest.com/menus/,https://swipeit.com/product/1552/the-upper-west,https://theupperwest.com/contact-us/,Gift Cards,Contact Us,CA,90405,restaurant
THE Curious PALATE,"395 Santa Monica Pl, Santa Monica, CA 90401",New American,Santa Monica,"Locally sourced American meals offered in cool digs with craft beer & kombucha on tap, plus a patio.",https://www.thecuriouspalate.com/,http://places.singleplatform.com/the-curious-palate-0/menu?ref=google,https://www.toasttab.com/the-curious-palate/giftcards,,Gift CardsEat well + get Curious,,CA,90401,restaurant
Dialogue,"1315 3rd Street Promenade suite k, Santa Monica, CA 90401",Californian,Santa Monica,Award-winning chef Dave Beran creates artful food via tasting menus inspired by the seasons.,http://www.dialoguerestaurant.com/,,https://www.toasttab.com/dialogue-restaurant/giftcards,http://www.dialoguerestaurant.com/contact,"
        Gift Cards
      ","
            Contact
          ",CA,90401,restaurant
Gravenstein Grill,"8050 Bodega Ave, Sebastopol, CA 95472",Californian,Sebastopol,"Californian cooking inspired by local & seasonal bounty, plus dog-friendly patio seating & wine.",http://www.gravensteingrill.com/,http://www.gravensteingrill.com/#menu-section,http://www.gravensteingrill.com/gift-card,http://www.gravensteingrill.com/mailto:contact@gravensteingrill.com,"
                Purchase Gift Card
              ",contact@gravensteingrill.com,CA,95472,restaurant
The Spinster Sisters,"401 S A St, Santa Rosa, CA 95401",New American,Santa Rosa,"Restaurant offering modern American meals, happy hours & weekend brunch.",http://www.thespinstersisters.com/,,https://thespinstersisters.com/gift-cards/,,Gift Cards,,CA,95401,restaurant
Stark's Steak & Seafood,"521 Adams St, Santa Rosa, CA 95401",Steak,Santa Rosa,"Classic steakhouse offering dry-aged cuts, seafood & whiskeys galore amid dark woods & brick walls.",http://www.starkrestaurants.com/,,https://starkrestaurants.cardfoundry.com/giftcards.php,https://starkrestaurants.com/contact/,Gift Cards,Contact,CA,95401,restaurant
Bird & The Bottle,"1055 4th St, Santa Rosa, CA 95404",New American,Santa Rosa,Upscale Southern & Asian flavors served in stylish quarters with vintage accents & outdoor patio.,http://www.birdandthebottle.com/,http://places.singleplatform.com/bird--the-bottle/menu?ref=google,https://starkrestaurants.cardfoundry.com/giftcards.php,https://starkrestaurants.com/contact/,Gift Cards,Contact,CA,95404,restaurant
Sazon Authentic Peruvian Cuisine,"1129 Sebastopol Rd, Santa Rosa, CA 95407",Peruvian,Santa Rosa,"Bustling, family-run eatery preparing ceviche & traditional Peruvian dishes in a simple, cozy space.",https://sazonsr.com/,https://sazonsr.com/menu-2,https://www.thegiftcardcafe.com/cart/index.php?storeID=8958,https://sazonsr.com/contact,"
              Gift Certificates
            ","
                Contact
              ",CA,95407,restaurant
Walter Hansel Wine & Bistro,"3535 Guerneville Rd, Santa Rosa, CA 95401",French,Santa Rosa,"California fare with a French accent gets paired with local wines at this homey, rustic outpost.",http://walterhanselbistro.com/,http://walterhanselbistro.com/menu/,https://walterhanselbistro.com/gift-cards/,https://walterhanselbistro.com/contact-us/,Gift Certificates,Find Us / Directions,CA,95401,restaurant
Ferny's Mexican Grill,"10320 Mission Gorge Rd, Santee, CA 92071",Mexican,Santee,"Enchiladas, tacos & other Mexican staples are sold at this counter-serve restaurant with breakfast.",http://www.fernysmex.com/,http://places.singleplatform.com/fernys-mexican-grill/menu?ref=google,http://www.fernysmex.com/gift-cards/,http://www.fernysmex.com/contact/,"
Gift Cards
","
Contact
",CA,92071,restaurant
Gusto Handcrafted Pasta & Pizza,"1901 Fremont Blvd, Seaside, CA 93955",Italian,Seaside,"Italian bistro for pizzas, pastas & other classic fare, some served family-style in a warm setting.",http://www.gustopizzeriapasta.com/,,https://gustopizzeriapasta.cardfoundry.com/giftcards.php,http://www.gustopizzeriapasta.com/#contact-us,Gift Cards,Contact,CA,93955,restaurant
Monterey's Fish House,"2114 Del Monte Ave, Monterey, CA 93940",Seafood,Monterey,Rustic corner establishment features home-style seafood entrees & desserts in a warm dining room.,http://montereyfishhouse.com/,http://montereyfishhouse.com/dinner/,http://montereyfishhouse.com/shop,,Buy a gift certificate,,CA,93940,restaurant
The Oven Pizzeria,"720 Broadway Ave, Seaside, CA 93955",Pizza,Seaside,"New York-style pizza plus calzones & other Italian fare in a casual, family-style setting.",http://www.theovenonbroadway.com/,https://2peasdmd.wixsite.com/theoven/menu,https://2peasdmd.wixsite.com/theoven/egift-cards,,eGIFT CARDS,,CA,93955,restaurant
Sutter's Mill Restaurant,"3885 Cochran St A, Simi Valley, CA 93063",Steak,Simi Valley,Traditional carvery with dark wood interior featuring prime rib & seafood as well as Sunday Brunch.,http://www.sutters4dining.com/,http://www.sutters4dining.com/menus.htm,http://sutters4dining.com/giftcards.htm,,Gift Cards,,CA,93063,restaurant
Barton's Steak & Seafood,"1627 E Los Angeles Ave, Simi Valley, CA 93065",Steak,Simi Valley,Classic cuts of steak as well as seafood & desserts amidst twinkling lights & gold-colored walls.,http://www.bartonssteakandseafood.com/,http://places.singleplatform.com/bartons-steak-and-seafood/menu?ref=google,http://bartonssteakandseafood.com/gift-certificates.html,http://bartonssteakandseafood.com/373429.html,Gift Certificates,Contact Us,CA,93065,restaurant
ChiChi's Pizza,"5145 E Los Angeles Ave, Simi Valley, CA 93063",Pizza,Simi Valley,"Many varieties of pizzas & fresh pastas served in a comfortable, family-friendly setting.",http://chichispizza.com/,http://chichispizza.com/menus,https://www.chichispizza.com/online-store/Gift-Card-p126582375,https://www.chichispizza.com/contact-us,GIFT CARDS,CONTACT US,CA,93063,restaurant
Park Ave,"11200 Beach Blvd, Stanton, CA 90680",Steak,Stanton,American comfort food & cocktails crafted from specialty ingredients in an elegant dining room.,http://www.parkavedining.com/,,https://www.toasttab.com/park-ave/giftcards,http://www.parkavedining.com/contact,"
        Gift Cards
      ","
            Contact
          ",CA,90680,restaurant
Terry's Cafe,"11440 Western Ave, Stanton, CA 90680",American,Stanton,,http://terrys-cafe.local-cafes.com/,,http://topmountainvillage.com/en/?utm_source=usa_restaurants,,"


",,CA,90680,restaurant
Midgley's Public House,"296 Lincoln Center, Stockton, CA 95207",Steak,Stockton,"Intimate, upscale restaurant & bar serving surf 'n' turf, American fare & house cocktails.",http://www.midgleyspublichouse.com/,,https://midgleyspublichouse.cardfoundry.com/giftcards.php,https://www.midgleyspublichouse.com/contact/,GIFT CARDS,Contact,CA,95207,restaurant
Mi Ranchito Cafe,"425 S Center St, Stockton, CA 95203",Mexican,Stockton,,http://mi-ranchito-cafe.local-cafes.com/,,http://topmountainvillage.com/en/?utm_source=usa_restaurants,,"


",,CA,95203,restaurant
Rok Bistro,"124 S Murphy Ave, Sunnyvale, CA 94086",American,Sunnyvale,Wild game & other meats are cooked on a hot rock at the table at this eatery also serving fondue.,http://www.rokbistro.com/,http://places.singleplatform.com/rok-bistro-1/menu?ref=google,http://www.rokbistro.com#rokgiftcard,https://www.rokbistro.com/contact-us/,Gift Cards,Contact Us,CA,94086,restaurant
Meyhouse,"133 S Murphy Ave, Sunnyvale, CA 94086",Mediterranean,Sunnyvale,,https://www.meyhousefood.com/,,https://www.meyhousefood.com/gift-card,https://www.meyhousefood.com/contact,Gift Card,Contact,CA,94086,restaurant
Siam Taste,"172 S Murphy Ave, Sunnyvale, CA 94086",Thai,Sunnyvale,Thai restaurant with outdoor seating spices dishes to preference & provides options for vegetarians.,http://www.siamtastethai.com/,https://www.siamtastethai.com/menus,https://www.siamtastethai.com/gift-card,https://www.siamtastethai.com/contact,GIFT CERTIFICATE,CONTACT,CA,94086,restaurant
EAT Marketplace,"28410 Old Town Front St, Temecula, CA 92590",Organic,Temecula,"Spacious strip-mall cafe with locally sourced, health-conscious eats, a coffee bar & prepared meals.",http://eatmarketplace.com/,http://places.singleplatform.com/eat-marketplace/menu?ref=google,https://www.toasttab.com/eatmarketplace/giftcards,,"

ORDER GIFT CARD

",,CA,92590,restaurant
Meritage At Callaway,"32720 Rancho California Rd, Temecula, CA 92591",Fine Dining,Temecula,Contemporary Mediterranean-style cuisine paired with Callaway's wines & panoramic vineyard views.,http://www.callawaywinery.com/,http://www.callawaywinery.com/page-332732/Menu.html,http://www.callawaywinery.com/dept-357300/Gift-Certificates.html,http://www.callawaywinery.com/contact,Gift Certificates,Contact,CA,92591,restaurant
Texas Lil's Mesquite Grill,"28495 Old Town Front St, Temecula, CA 92590",Restaurant,Temecula,"Tex-Mex joint with country-western decor, offering steak, ribs, fish, burgers & sports on TV.",https://texaslilsmesquitegrill.com/,https://texaslilsmesquitegrill.com/index.php/menu-to-go,https://texaslilsmesquitegrill.com/index.php/gifts-certs,,Gift Cards,,CA,92590,restaurant
ESPADIN,"28544 Old Town Front St, Temecula, CA 92590",Mexican,Temecula,"Warm, casual pick offering Mexican standards from tacos to burritos plus tequila cocktails & beers.",http://espadintemecula.com/,http://places.singleplatform.com/espadn-mezcal--cocina/menu?ref=google,https://app.yiftee.com/gifts/egift_and_gift_cards/old-town-restaurant-group,http://espadintemecula.com/contact,Gift Cards,Contact,CA,92590,restaurant
Mouthful Eatery,"2626 Thousand Oaks Blvd, Thousand Oaks, CA 91362",Peruvian,Thousand Oaks,Peruvian-inspired sandwiches & creative salads served in a funky bistro with sidewalk seating.,http://www.mouthfuleatery.com/,,https://www.toasttab.com/mouthful-eatery/giftcards,https://mouthfuleatery.com/contact/,Click Here to Buy Gift Cards Online,CONTACT,CA,91362,restaurant
The San Franciscan,"2520 Sepulveda Blvd, Torrance, CA 90505",Traditional American,Torrance,"Old-timey classic American dining spot starring prime rib with cocktails, live music & karaoke.",http://www.the-sanfranciscan.com/,http://www.the-sanfranciscan.com/menu/dinner/,http://www.the-sanfranciscan.com/gift-cards/,http://www.the-sanfranciscan.com/contact-us/,Gift Cards,Contact Us,CA,90505,restaurant
La Piazza  Ristorante Italiano,"1600 E Tulare Ave, Tulare, CA 93274",Italian,Tulare,Spacious eatery with traditional fare such as steak & seafood plus wine from Italy & California.,http://www.lapiazzarest.com/,http://www.lapiazzarest.com/menu/,http://www.lapiazzarest.com/gift-cards,,Gift Cards,,CA,93274,restaurant
Monte Vista Small Animal Hospital,"901 E Monte Vista Ave, Turlock, CA 95382",Animal hospital,Turlock,,http://www.montevistavet.com/,,http://www.montevistavet.com/about/gift-cards,http://www.montevistavet.com/about/contact,Gift Cards,Contact,CA,95382,restaurant
Okashi Fusion,"1679 E Monte Vista Ave #103, Vacaville, CA 95688",Asian Fusion,Vacaville,"Contemporary counter serve for made-to-order Hawaiian poke bowls, milk teas & flavored shaved snow.",https://okashifusion.com/,http://places.singleplatform.com/okashi-fusion-0/menu?ref=google,https://www.instagram.com/p/BrRAOq1FSD8/,https://okashifusion.com/#contact-us-section,"

","
                        Contact Us
                      ",CA,95688,restaurant
Quesadilla Gorilla,"302 W Main St, Visalia, CA 93291",Restaurant,Visalia,"Cozy counter serve offering unique & build-your-own quesadillas, with a choice of housemade salsas.",http://www.quesadillagorilla.com/,http://www.quesadillagorilla.com/menu,https://www.toasttab.com/qgvisalia/findcard,https://www.instagram.com/p/B_BcR9BlK26/,"
Check gift card balance 
","

",CA,93291,restaurant
Ciao Ristorante Italiano,"2015 E Vista Way, Vista, CA 92084",Italian,Vista,"Pasta, risotto, pizza & other Italian fare served in a family-run trattoria with classy decor.",https://www.ciao2.com/,https://www.ciao2.com/restaurant-menu,https://www.ciao2.com/store/#!/~/product/id=88243988,https://www.ciao2.com/contact,"  

Buy Ciao Gift Cards
"," Contact

",CA,92084,restaurant
Shaks Mediterranean Bistro,"406 Main St, Vista, CA 92084",Mediterranean,Vista,,http://www.shaksbistro.com/,http://www.shaksbistro.com/,https://squareup.com/gift/59M1X7WX79M8M/order,https://www.shaksbistro.com/contact,We now sell E-Gift Cards!,C O N T A C T,CA,92084,restaurant
MIKKO SUSHI,"330 Main St, Vista, CA 92084",Sushi,Vista,"Casual, wood-clad eatery featuring Japanese staples such as sushi, sashimi, teriyaki & tempura.",http://www.mikkosushi.com/,http://www.mikkosushi.com/menu,https://www.instagram.com/p/B-yQDYuJ298/,,"

",,CA,92084,restaurant
Va de Vi,"1511 Mt Diablo Blvd, Walnut Creek, CA 94596",Small Plates,Walnut Creek,Eclectic eatery offers small plates & wines from around the world in a picturesque setting.,https://vadevi.com/,https://vadevi.com/small-plates/,https://vadevi.com/gift-cards,,Gift Cards,,CA,94596,restaurant
Montecatini Ristorante,"1528 Civic Dr, Walnut Creek, CA 94596",Italian,Walnut Creek,This circa-1989 Italian eatery offers classic Tuscan cooking plus a full bar & is closed on Mondays.,http://montecatinirestaurant.com/,http://montecatinirestaurant.com/menu/our-dinner-menu/,http://montecatinirestaurant.com/gift/,http://montecatinirestaurant.com/contact/,Gift Certificates,Reservations,CA,94596,restaurant
Teleferic Barcelona,"1500 Mt Diablo Blvd, Walnut Creek, CA 94596",Tapas,Walnut Creek,"Buzzy destination for Spanish pintxos, paella, sangria & drinks served in spacious, modern environs.",http://www.telefericbarcelona.com/,,http://www.telefericbarcelona.com/giftcards,http://www.telefericbarcelona.com/contact,Restaurant Gift Cards,Contact,CA,94596,restaurant
Prima Restaurant,"1522 N Main St, Walnut Creek, CA 94596",Fine Dining,Walnut Creek,The Northern Italian fare is paired with an extensive wine list at this eatery & bottle shop.,http://www.primawine.com/,http://www.primawine.com/menus/,https://www.giftrocker.com/secure/Order/?h=171d0c2f,http://www.primawine.com/home/contact/,Gift Certificates,Contact Us,CA,94596,restaurant
Sasa,"1432 N Main St, Walnut Creek, CA 94596",Japanese,Walnut Creek,"This lively eatery sets the mood with a menu of Japanese small plates, inventive sushi & cocktails.",http://sasawc.com/,http://places.singleplatform.com/sasa/menu?ref=google,https://bluedeltarestaurantgroup.cardfoundry.com/giftcards.php,http://sasawc.com/#ContactUs,Gift Card,Contact Us,CA,94596,restaurant
Connie and Ted's,"8171 Santa Monica Blvd, West Hollywood, CA 90046",Seafood,West Hollywood,New England seafood classics & raw-bar options in sleek wood-accented quarters with an open kitchen.,http://www.connieandteds.com/,http://www.connieandteds.com/menu/,https://www.connieandteds.com/gift-cards/,http://www.connieandteds.com/cdn-cgi/l/email-protection#630a0d050c23000c0d0d0a06020d07170607104d000c0e,Gift Cards,Contact,CA,90046,restaurant
Tesse,"8500 Sunset Blvd Suite B, West Hollywood, CA 90069",Modern French,West Hollywood,"Warm, minimalist spot for French & Californian plates plus house-made charcuterie, cocktails & wine.",http://www.tesserestaurant.com/,http://places.singleplatform.com/tesse/menu?ref=google,http://www.tesserestaurant.com/gift-cards-1,http://www.tesserestaurant.com/contact,"
gift cards
","
contact
",CA,90069,restaurant
Rosaline,"8479 Melrose Ave, West Hollywood, CA 90069",Peruvian,West Hollywood,"Modern Peruvian bistro by famed chef Ricardo Zarate, known for its ceviches, seafood & meat dishes.",http://www.rosalinela.com/,http://rosalinela.com/menu/,http://www.rosalinela.com/gift-cards,,Gift Cards,,CA,90069,restaurant
Katana LA,"8439 Sunset Blvd, West Hollywood, CA 90069",Japanese,West Hollywood,Hip destination for Japanese grilled meats & sushi in a contemporary setting with patio seats.,https://www.katanarobata.com/,https://www.katanarobata.com/menus/west-hollywood,https://www.katanarobata.com/gift-cards,https://www.katanarobata.com/contact,Gift Cards,Contact,CA,90069,restaurant
The Butcher The Baker The Cappuccino Maker,"8653 Sunset Blvd, West Hollywood, CA 90069",Californian,West Hollywood,"Fashionable cafe & patio for seasonal dishes, house-butchered meats, baked goods, espresso & wine.",http://bbcmcafe.com/,https://www.bbcmcafe.com/menu,http://bbcmcafe.com/cards.html,http://bbcmcafe.com/contact.html,GIFT CARDS,CONTACT,CA,90069,restaurant
New Canton Restaurant,"13015 Philadelphia St, Whittier, CA 90601",Bistro,Whittier,,http://newcantonbistro.com/,http://www.newcantonbistro.com/beverages/,http://www.newcantonbistro.com/gift-certificate/,http://www.newcantonbistro.com/contact/,Gift Certificate,Contact Us,CA,90601,restaurant
Morgan's On Main,"614 Main St, Woodland, CA 95695",New American,Woodland,"Warm, brick-lined venue offering New American cuisine plus beer & wine in casual environs.",http://morgans-on-main.com/,http://www.morgans-on-main.com/morgans-on-main-menu.php,http://morgans-on-main.com/gift-cards.php,http://morgans-on-main.com/contact-morgans.php,Gift Cards,contact us,CA,95695,restaurant
Savory Cafe,"722 A Main St, Woodland, CA 95695",American,Woodland,"Modest American cafe serving breakfast, lunch & dinner with an emphasis on local, organic fare.",http://savorycafeonmain.com/,http://www.savorycafeonmain.com/breakfast-menu,http://savorycafeonmain.com/#GiftCards,http://savorycafeonmain.com/contact," GIFT CARDS

"," CONTACT

",CA,95695,restaurant
Taqueria Guadalajara,"6 W Court St, Woodland, CA 95695",Mexican,Woodland,"Burritos join tacos, nachos & other casual Mexican bites in an easygoing space with a patio.",http://www.tgwoodland.com/,http://www.tgwoodland.com/menu,http://www.tgwoodland.com/#TGGiftCard,http://www.tgwoodland.com/contact," TG Gift Card

"," CONTACT

",CA,95695,restaurant
Maria's Cantina,"306 6th St, Woodland, CA 95695",Mexican,Woodland,"Sizable & rustic Mexican restaurant with a menu of upscale standards & specialties, plus margaritas.",http://marias-cantina.com/,http://marias-cantina.com/menu-tabs.php?menu=2,http://marias-cantina.com/marias-cantina-giftcards.php,http://marias-cantina.com/contact-marias-cantina.php,Gift Cards,contact us,CA,95695,restaurant
Oceans & Earth Restaurant,"20305 Yorba Linda Blvd #3062, Yorba Linda, CA 92886",Gluten Free,Yorba Linda,"Locally sourced American cuisine, including seafood & steak, in a contemporary setting with a bar.",http://www.oanderestaurant.com/,http://www.oanderestaurant.com/menu,http://www.oanderestaurant.com/giftcards,http://www.oanderestaurant.com/contact,"
                Gift Cards
              ","
                Contact
              ",CA,92886,restaurant
Hickory Ranch Steakhouse & Bar,"32971 Yucaipa Blvd, Yucaipa, CA 92399",Steak,Yucaipa,Family-owned bar/eatery since 1998 with a Western motif & TVs offering casual steak & seafood meals.,https://www.hickoryranch.com/,https://www.hickoryranch.com/menus,https://www.toasttab.com/hickory-ranch-steakhouse/giftcards,https://www.hickoryranch.com/contact-us,Gift Cards,Contact Us,CA,92399,restaurant
