name,address,type,place,description,website_url,menu_url,gift_card_website,contact_website,gift_card_txt,contact_txt,searched,state,zipcode,store_type
Tot Tank,"1413 Park St, Alameda, CA 94501",Baby store,Alameda,"Family-owned retailer carrying high-end childrenswear, traveling gear, toys & nursing supplies.",http://www.tottank.com/,,http://www.tottank.com/store/cat/G+CARD/GIFT+CARD,,GIFT CARD,,1,CA,94501,clothing_store
The Disney Dress Shop,"1540 Disneyland Dr #103, Anaheim, CA 92802",Clothing store,Anaheim,"Boutique stocking whimsical, vintage-inspired apparel & accessories for adults & children.",https://www.shopdisney.com/,,https://www.shopdisney.com/gift-cards.html,https://help.shopdisney.com/hc/en-us/articles/115015912428-Contact-Us,"

                    
                    
                        Gift Cards
                    
                
",Contact Us,1,CA,92802,clothing_store
Indulgence Boutique,"18343 Outer Hwy 18 S # 2, Apple Valley, CA 92307",Women's clothing store,Apple Valley,,https://indulgencebtq.com/,,https://indulgencebtq.com/products/gift-card,https://indulgencebtq.com/pages/contact-us,Gift Cards,Contact Us,1,CA,92307,clothing_store
BeyondMasqueradecom,"1170 N Azusa Ave, Covina, CA 91722",Costume store,Covina,,http://www.beyondmasquerade.com/,,http://www.beyondmasquerade.com/giftcertificates.php,https://beyondmasquerade.com/contact/,,Contact,1,CA,91722,clothing_store
Sugardaddy's Women's Boutique,"5512 Stockdale Hwy, Bakersfield, CA 93309",Women's clothing store,Bakersfield,,http://sugardaddysboutique.com/,,http://sugardaddysboutique.com/collections/our-favorites/products/gift-cards,http://sugardaddysboutique.com/pages/contact-us,"












Gift Cards !!


Regular price
$3500
$35.00


","
            Contact Us
        ",1,CA,93309,clothing_store
InNOut Company Store,"13800 Francisquito Ave, Baldwin Park, CA 91706",Clothing store,Baldwin Park,,https://shop.in-n-out.com/,,https://shop.in-n-out.com/gift-cards.html,https://shop.in-n-out.com/contact,Gift Cards,Contact Us,1,CA,91706,clothing_store
Volcom Outlet,"48400 Seminole Drive #, 510 # 510, Cabazon, CA 92230",Clothing store,Cabazon,,http://www.volcom.com/,,http://www.volcom.com/blogs/announcement-bar/volcom-gift-cards,http://www.volcom.com/mailto:customerservice@volcom.com?subject=Contact Form,"GIFT 'EM THE STONE! SHOP GIFT CARDS
      
        Shop Now
        
      
",Contact Us,1,CA,92230,clothing_store
Haute Couture,"4433 Slauson Ave, Maywood, CA 90270",Women's clothing store,Maywood,,http://www.shophcouture.com/,,http://www.shophcouture.com/products/gift-card,http://www.shophcouture.com/community/contact,Gift Cards,Contact Us,1,CA,90270,clothing_store
Stella Carakasi Flagship Store,"1901 Fourth St #105, Berkeley, CA 94710",Women's clothing store,Berkeley,,https://www.stellacarakasi.com/,,https://www.stellacarakasi.com/products/gift-card,https://www.stellacarakasi.com/pages/customer-service-contact-us,Gift Cards,Contact Us,1,CA,94710,clothing_store
Bird & Bean,"3212 College Ave, Berkeley, CA 94705",Children's clothing store,Berkeley,,http://www.birdandbeanshop.com/,,https://birdandbeanshop.com/giftcertificates.php,https://birdandbeanshop.com/contact/,"
Gift Certificate","
Contact",1,CA,94705,clothing_store
Shop College Wear,"2175 Shattuck Ave, Berkeley, CA 94704",Clothing store,Berkeley,Clothing & gift shop specializing in items with UC Berkeley & California Golden Bears logos.,http://www.shopcollegewear.com/,,http://www.shopcollegewear.com/products/gift-card,http://www.shopcollegewear.com/pages/contact-us,Gift Cards,Contact,1,CA,94704,clothing_store
Kamal Beverly Hills,"407 N Bedford Dr, Beverly Hills, CA 90210",Women's clothing store,Beverly Hills,"High-end women's shop carrying fashionable couture by Eastern designers, including bridal ensembles.",http://www.kamalbeverlyhills.com/,,http://www.kamalbeverlyhills.com/products/gift-card,http://www.kamalbeverlyhills.com/pages/contact-us,Gift Cards,Contact Us,1,CA,90210,clothing_store
alice  olivia,"410 N Beverly Dr, Beverly Hills, CA 90210",Women's clothing store,Beverly Hills,,http://www.aliceandolivia.com/,,http://www.aliceandolivia.com/e-gift-cards/,http://www.aliceandolivia.com/contact-us/,E-Gift Cards,Contact Us,1,CA,90210,clothing_store
SUO Boutique,"110 W Birch St, Brea, CA 92821",Women's clothing store,Brea,,http://www.suoboutique.com/,,https://www.suoboutique.com/giftcard,https://www.suoboutique.com/customer-care,GIFT CARD,Contact Us >,1,CA,92821,clothing_store
Plush Boutique,"2545 Sand Creek Rd Suite 146, Brentwood, CA 94513",Clothing store,Brentwood,,http://www.plushboutiquebrentwood.com/,,http://www.plushboutiquebrentwood.com/products/gift-card,http://www.plushboutiquebrentwood.com/pages/contact,Gift Card ,Contact,1,CA,94513,clothing_store
Fashion Nova,"201 E Magnolia Blvd, Burbank, CA 91502",Clothing store,Burbank,"Local women's apparel store offering contemporary, casual separates & nightclub fashions.",http://www.fashionnova.com/,,https://www.fashionnova.com/products/gift-cards,https://support.fashionnova.com/hc/en-us/requests/new?ticket_form_id=360000489212,FOR YOUR VALENTINE. SHOP GIFT CARDS.,Contact Us!,1,CA,91502,clothing_store
Slone Vintage,"3208 W Magnolia Blvd, Burbank, CA 91505",Vintage clothing store,Burbank,,https://shopthrilling.com/,,https://shopthrilling.com/products/gift-card,https://shopthrilling.com/pages/contact,"
            Gift Card
          ",Contact Us,1,CA,91505,clothing_store
Alas Boutique,"2290 Ventura Blvd, Camarillo, CA 93010",Clothing store,Camarillo,,http://alasboutique.com/,,https://www.alasboutique.com/product/gift-card/,,Gift Card,,1,CA,93010,clothing_store
Project X,"1875 S Bascom Ave #150, Campbell, CA 95008",Clothing store,Campbell,,http://www.iamprojectx.com/,,http://www.iamprojectx.com/collections/gifts-cards,http://www.iamprojectx.com/pages/contact-us,Giftcards,Contact Us,1,CA,95008,clothing_store
Malcolm Mousekowitz MALCOLM FOR TOTS,"Internet Sales Only, 48 Coble Dr, Cathedral City, CA 92234",Baby clothing store,Cathedral City,,http://www.malcolmfortots.etsy.com/,,https://www.etsy.com/giftcards?ref=ftr,https://www.etsy.com/messages/new?with_id=10771506&referring_id=5986852&referring_type=shop&recipient_id=10771506,"
Gift cards
","
 Contact
    
    
",1,CA,92234,clothing_store
KnottingHill Bowties,"7641 Calle Mazamitla, Palm Springs, CA 92262",Men's clothing store,Palm Springs,,http://www.knottinghillbowties.com/,,https://www.knottinghillbowties.com/knottinghill-gift-cards,https://www.knottinghillbowties.com/contact-us,KnottingHill Gift Cards,CONTACT US,1,CA,92262,clothing_store
Ragamuffin,"1700 McHenry Ave #24, Modesto, CA 95350",Children's clothing store,Modesto,,http://ragamuffinmodesto.com/,,http://ragamuffinmodesto.com/products/gift-card,http://ragamuffinmodesto.com/pages/contact,Gift Card,Contact,1,CA,95350,clothing_store
AndyLiz Boutique,"238 Los Cerritos Center, Cerritos, CA 90703",Clothing store,Cerritos,,https://www.andyliz.com/,,https://www.andyliz.com/giftcertificates.php,https://www.andyliz.com/contact-us/,Gift Certificates,Contact Us,1,CA,90703,clothing_store
Cottonparty,"337 Broadway St, Chico, CA 95928",Women's clothing store,Chico,,http://cottonpartychico.com/,,http://cottonpartychico.com/collections/gift-certificates,,"
            Gift Certificates
          ",,1,CA,95928,clothing_store
PB&J Boutique,"250 Vallombrosa Ave #100, Chico, CA 95926",Women's clothing store,Chico,,https://www.pbjshop.com/,,https://www.pbjshop.com/gift-certificates-c-129.html,https://www.pbjshop.com/contact_us.php,Gift Certificates,CONTACT,1,CA,95926,clothing_store
JHilburn Stylist Studio,"415 W Foothill Blvd #201, Claremont, CA 91711",Men's clothing store,Claremont,,http://www.jhista.com/,,http://www.jhista.com/cardbuilder,http://www.jhista.com/contactus,Gift Cards,Contact,1,CA,91711,clothing_store
Revival 23,"416 Pollasky Ave, Clovis, CA 93612",Clothing store,Clovis,,http://www.revival23.com/,,https://www.revival23.com/egiftcard,https://www.revival23.com/contact,E Gift Card,Contact,1,CA,93612,clothing_store
The Foundry Collective,"601 Pollasky Ave, Clovis, CA 93612",Boutique,Clovis,,http://thefoundrycollective.com/,,http://thefoundrycollective.com/collections/gift-card,,"
                    Gift Card
                ",,1,CA,93612,clothing_store
Moa Moa Inc,"1215 W Walnut St, Compton, CA 90220",Clothing store,Compton,,https://www.dillards.com/,,https://www.dillards.com/c/giftcard,https://www.dillards.com/contactus, Gift Cards,Contact Us Via Email,1,CA,90220,clothing_store
Reservoir,"8820 Washington Blvd #102, Culver City, CA 90232",Clothing store,Culver City,"Modern boutique with upscale, fashion-forward apparel, accessories, home goods & gifts.",https://reservoir-la.com/,,https://reservoir-la.com/products/gift-card,https://reservoir-la.com/pages/contact-us,Gift Cards,Contact us,1,CA,90232,clothing_store
Trunk Club  Los Angeles,"8833 National Blvd, Culver City, CA 90232",Clothing store,Culver City,Personal stylists assist customers in choosing designer casualwear at this upscale outfitter.,https://www.trunkclub.com/,,https://www.trunkclub.com/gift-cards,https://www.trunkclub.com/contact,"
                  Gift Cards
                ","

Contact

",1,CA,90232,clothing_store
Haus of Grey,"10930 Portal Dr, Los Alamitos, CA 90720",Clothing store,Los Alamitos,,http://hausofgrey.com/,,http://hausofgrey.com/collections/gift-cards,http://hausofgrey.com/pages/contact-us,Gift Cards,Contact,1,CA,90720,clothing_store
Caltees,"10928 Portal Dr, Los Alamitos, CA 90720",Clothing store,Los Alamitos,,https://www.guyharveyshirts.com/,,https://www.guyharveyshirts.com/gift-certificate-info/,https://www.guyharveyshirts.com/contact/,Gift Certificate Info ,Contact,1,CA,90720,clothing_store
Revital Imports,"24981 Dana Point Harbor Dr UNIT 110, Dana Point, CA 92629",Clothing store,Dana Point,,http://www.revitalimports.com/,,http://www.revitalimports.com/products/supporting-small-businesses,,"






",,1,CA,92629,clothing_store
Blue Eyed Girl,"32341 Golden Lantern, Laguna Niguel, CA 92677",Boutique,Laguna Niguel,,http://www.shopblueeyedgirl.com/,,http://www.shopblueeyedgirl.com/collections/accessories-home-gifts-gift-cards,https://visitor.r20.constantcontact.com/manage/optin?v=001SSk1v2eVbRL5Kuyd5wkEDlKKM2yykToT41xP7dC_uNzjzDZj_Y0F-BfLgJkE2qSxk24NAezcWRGU-R09sEsubGORylGGY6ZkfRo2849t7sg%3D,"








","
FREE GROUND SHIPPING ON ALL U.S.ORDERS  +  FREE U.S. RETURNS
",1,CA,92677,clothing_store
McCaulou's Outlet,"600 Sycamore Valley Rd W, Danville, CA 94526",Clothing store,Danville,,https://mccaulous.com/,,https://mccaulous.com/index.php?crn=204,https://mccaulous.com/index.php?sc_page=41,Gift Certificates,TO CONTACT USCLICK HERE,1,CA,94526,clothing_store
Christina's Fine Clothing,"145 E Prospect Ave #103, Danville, CA 94526",Clothing store,Danville,,http://www.christinasboutiques.com/,,http://www.christinasboutiques.com/giftcertificates.php,,Gift Certificates,,1,CA,94526,clothing_store
Bliss Danville,"408 Hartz Ave, Danville, CA 94526",Clothing store,Danville,"Boutique offering trendy clothing for women, plus footwear, jewelry & accessories.",https://www.blissdanville.com/,,https://www.blissdanville.com/products/gift-card,,"
    		            Buy Gift Card Now
    		          ",,1,CA,94526,clothing_store
Wardrobe,"117 D St, Davis, CA 95616",Clothing store,Davis,This boutique features a curated collection of women's clothes & accessories made in North America.,http://www.thewardrobe.com/,,https://www.thewardrobe.com/gift-cards,https://www.thewardrobe.com/contact,Gift Cards,Contact,1,CA,95616,clothing_store
Vault Board Shop,"227 G St, Davis, CA 95616",Clothing store,Davis,,https://vaultboardshop.com/,,https://vaultboardshop.com/products/gift-card,https://vaultboardshop.com/pages/contact,Gift Card,Contact,1,CA,95616,clothing_store
Shu Shu's LLC,"227 E St #3, Davis, CA 95616",Women's clothing store,Davis,,http://davisdowntown.com/,,https://davisdowntown.com/davis-downtown-gift-cards/,https://davisdowntown.com/contact/,Davis Downtown Gift Cards,Contact,1,CA,95616,clothing_store
Bubble Belly  Moms  Babies  Kids,"340 G St STE C, Davis, CA 95616",Boutique,Davis,"Small, colorful boutique carrying casual, stylish apparel & accessories for moms, babies & kids.",https://www.shopbubblebelly.com/,,https://www.shopbubblebelly.com/products/gift-card,https://www.shopbubblebelly.com/pages/contact-us,Gift Cards,WHOLESALE HAIR ACCESSORIES,1,CA,95616,clothing_store
ny2 Sportswear,"19953 Harrison Ave, Walnut, CA 91789",Sportswear store,Walnut,,http://ny2sportswear.com/,,http://www.ny2sportswear.com/giftcertificates.php,http://www.ny2sportswear.com/pages/Contact-Us.html,Gift Certificates,Contact Us,1,CA,91789,clothing_store
Debutante Clothing,"351 S Thomas St a2, Pomona, CA 91766",Vintage clothing store,Pomona,,http://debutanteclothing.com/,,http://debutanteclothing.com/products/gift-card-1,http://www.debutanteclothing.com/contact/,"



  

  #ProductImage-14603805392978 {
    max-width: 335px;
    max-height: 258.8636363636364px;
  }
  #ProductImageWrapper-14603805392978 {
    max-width: 335px;
  }











Gift Card

        
        
        
          From $ 10.00
        
      
",Contact,1,CA,91766,clothing_store
Vintage Renewals,"565 W 2nd St, Pomona, CA 91766",Clothing store,Pomona,,https://www.yeakinc.com/,,https://www.yeakinc.com/shop?category=Gift+Card,https://www.yeakinc.com/contact,"
			        							Gift Card
			        						",Contact,1,CA,91766,clothing_store
Gypsy Queen Boutique,"11405 Paramount Blvd, Downey, CA 90241",Clothing store,Downey,,http://www.shopgypsyqueen.com/,,http://www.shopgypsyqueen.com/collections/gift-card,http://www.shopgypsyqueen.com/pages/contact-us,GIFT CARDS,Contact Us,1,CA,90241,clothing_store
California Clothing,"2504 Jamacha Road A&B, El Cajon, CA 92019",Clothing store,El Cajon,,http://www.dickies.com/,,https://www.dickies.com/giftcertpurchase,https://www.dickies.com/contactus,e-Gift Cards,"



Help
",1,CA,92019,clothing_store
VAQUERO BOOTS,"1509 Peck Rd, South El Monte, CA 91733",Western apparel store,South El Monte,"Showroom for classic, country-style boots, plus name-brand clothing, hats & accessories.",http://www.vaqueroboots.com/,,http://www.vaqueroboots.com/collections/gift-card,,GIFT CARDS ,,1,CA,91733,clothing_store
VIVIANCHAN,"3710 Rockwell Ave suite A, El Monte, CA 91731",Clothing store,El Monte,,http://vivianchan.com/,,http://vivianchan.com/products/vivianchan-gift-cards,http://vivianchan.com/pages/contact-us,GIFT CARDS,Contact,1,CA,91731,clothing_store
Ambiance Clothing & Lifestyle Boutique,"1301 Park St, Paso Robles, CA 93446",Women's clothing store,Paso Robles,,http://shopambiance.com/,,http://shopambiance.com/collections/ambiance-gift-cards,http://shopambiance.com/pages/contact-us,Gift Cards,Contact,1,CA,93446,clothing_store
Magical Child,"937 S Coast Hwy 101, Encinitas, CA 92024",Children's clothing store,Encinitas,,http://www.magicalchild.com/,,http://www.magicalchild.com/collections/gift-card,,"
Gift Card 
",,1,CA,92024,clothing_store
Swirl Boutique,"119 N El Camino Real # D, Encinitas, CA 92024",Women's clothing store,Encinitas,,http://swirlboutique.com/,,http://swirlboutique.com/collections/gift-cards,,GIFT CARDS,,1,CA,92024,clothing_store
Lone Flag,"1057A S Coast Hwy 101, Encinitas, CA 92024",Men's clothing store,Encinitas,"Hip men's clothing shop stocking denim, casualwear, gifts & accessories in a contemporary interior.",http://loneflag.co/,,http://loneflag.co/collections/giftcards,http://loneflag.co/pages/contact,Gift Cards,Contact,1,CA,92024,clothing_store
TRE Boutique,"1006 N El Camino Real, Encinitas, CA 92024",Women's clothing store,Encinitas,,http://treboutique.com/,,http://treboutique.com/collections/tre-gift-cards,http://treboutique.com/pages/contact,Gift Cards,Locations,1,CA,92024,clothing_store
Sarang,"705 E Bidwell St #8, Folsom, CA 95630",Women's clothing store,Folsom,,http://www.sarangcollection.com/,,http://www.sarangcollection.com/products/gift-card,http://www.sarangcollection.com/pages/contact-us,Gift Card,Store Locator,1,CA,95630,clothing_store
Sam's Tailoring,"18120 Brookhurst St #21, Fountain Valley, CA 92708",Men's clothing store,Fountain Valley,,http://www.samstailoring.com/,,http://www.samstailoring.com/c-58-gift-certificates.aspx,http://www.samstailoring.com/t-contact.aspx,Gift Certificates,"Contact
Us",1,CA,92708,clothing_store
FleshGear,"10870 Talbert Ave, Fountain Valley, CA 92708",Clothing store,Fountain Valley,,http://www.fleshgear.com/,,http://www.fleshgear.com/giftcertificates.php,http://www.fleshgear.com/contact-us/,Gift Certificates,Contact Us,1,CA,92708,clothing_store
Promotion and Beyond,"18445 Amistad St, Fountain Valley, CA 92708",Uniform store,Fountain Valley,,http://www.promotionandbeyond.com/,,http://www.promotionandbeyond.com/giftcertificates.php,http://www.promotionandbeyond.com/contact-us/,Gift Certificates,Contact Us,1,CA,92708,clothing_store
Ipso Facto,"517 N Harbor Blvd, Fullerton, CA 92832",Clothing store,Fullerton,"Compact boutique specializing in goth & punk apparel, like band T-shirts, creepers & more.",http://www.ipso-facto.com/,,http://www.ipso-facto.com/giftcertificate.htm,http://www.ipso-facto.com/Contact.htm,Gift Certificate,About Us,1,CA,92832,clothing_store
Spun Bamboo,"1846 W 169th St, Gardena, CA 90247",Clothing store,Gardena,,https://www.bambooclothes.com/,,https://www.bambooclothes.com/products/gift-card,https://www.bambooclothes.com/pages/contact,"
Gift Card
","
                          Contact Us
                        ",1,CA,90247,clothing_store
Nygrd Outlet Store,"14421 San Pedro St, Gardena, CA 90248",Women's clothing store,Gardena,,http://www.nygard.com/,,http://www.nygard.com/en-ca/products/giftcard,,Gift cards,,1,CA,90248,clothing_store
Fashion Inn,"1130 E Colorado St unit c, Glendale, CA 91205",Boutique,Glendale,,https://fashioninnboutique.com/,,https://fashioninnboutique.com/giftcertificates.php,,Gift Certificates,,1,CA,91205,clothing_store
XCVI Shop,"110 S Hope Ave ste h 124, Santa Barbara, CA 93105",Women's clothing store,Santa Barbara,,http://www.xcvi.com/,,http://www.xcvi.com/products/gift-card,http://www.xcvi.com/pages/contact-us,XCVI Gift Card,Contact Us,1,CA,93105,clothing_store
Miss Behavin',"322 Paseo Nuevo, Santa Barbara, CA 93101",Women's clothing store,Santa Barbara,,http://www.shopmissbehavin.com/,,http://www.shopmissbehavin.com/products/gift-card,http://www.shopmissbehavin.com/pages/contact-us,"
Gift Cards
","
Contact Us
",1,CA,93101,clothing_store
Divinity Boutique,"115 W 7th St, Hanford, CA 93230",Women's clothing store,Hanford,,http://www.divinityboutique201.com/,,http://www.divinityboutique201.com/collections/gift-cards,,"

",,1,CA,93230,clothing_store
Ranchers Feed of Hollister Inc,"354 1st St, Hollister, CA 95023",Western apparel store,Hollister,,http://www.ranchersfeed.com/,,http://www.ranchersfeed.com/giftcards.shtml,http://www.ranchersfeed.com/contact.shtml,Gift Cards,Contact Us,1,CA,95023,clothing_store
Hollister Comfort Shoes,"191 San Felipe Rd space c-1, Hollister, CA 95023",Shoe store,Hollister,,http://www.hollistercomfortshoes.com/,,http://www.hollistercomfortshoes.com/collections/gift-card-1,,"
                Gift Card
            ",,1,CA,95023,clothing_store
West of Camden,"21028 Pacific Coast Highway California 1, #E120, Huntington Beach, CA 92648",Clothing store,Huntington Beach,,http://www.westofcamden.com/,,http://www.westofcamden.com/products/gift-card,,Gift Cards,,1,CA,92648,clothing_store
Citizen's of Humanity,"5715 Bickett St, Huntington Park, CA 90255",Clothing store,Huntington Park,,https://www.citizensofhumanity.com/,,https://www.citizensofhumanity.com/products/gift-cards,https://www.citizensofhumanity.com/pages/contact-us,Gift Cards,Contact Us,1,CA,90255,clothing_store
Georg Roth Los Angeles,"1031 W Manchester Blvd UNIT 3, Inglewood, CA 90301",Clothing store,Inglewood,,http://www.georgrothlosangeles.com/,,http://www.georgrothlosangeles.com/giftcertificates.php,https://www.olark.com/site/7256-998-10-4170/contact,Gift Certificates,Questions? Feedback?,1,CA,90301,clothing_store
Chic And Curvy,"206 S Market St #2306, Inglewood, CA 90301",Plus size clothing store,Inglewood,"Retailer specializing in on-trend women's apparel, including dresses & jumpsuits, for sizes 10-20.",http://chicandcurvy.com/,,http://chicandcurvy.com/collections/gift-card,http://chicandcurvy.com/pages/contact-us,Gift Card,Contact Us,1,CA,90301,clothing_store
Jeannie n Mini,"885 Spectrum Center Dr, Irvine, CA 92618",Baby store,Irvine,"Cheery baby boutique featuring high-quality goods such as colorful clothing, toys & travel gear.",http://www.jeannienmini.com/,,https://jeannienmini.com/pages/rewards,,"
JOIN REWARDS PROGRAM
Receive 5% back in store credit Gift Card
",,1,CA,92618,clothing_store
Crossroads Trading,"3877 Alton Pkwy, Irvine, CA 92606",Clothing store,Irvine,,https://crossroadstrading.com/,,https://crossroadstrading.com/gift-card,http://visitor.r20.constantcontact.com/d.jsp?llr=7ghs7nbab&p=oi&m=1101051534556&sit=ad9jnowab&f=1f80dbe7-b9d1-4b95-af71-d7a154890c2b,Order A Gift Card,Join Our Newsletter,1,CA,92606,clothing_store
The Shop laguna beach,"1020 S Coast Hwy, Laguna Beach, CA 92651",Women's clothing store,Laguna Beach,"Stylish boutique featuring trendy swimwear for women, plus cover-ups, shoes, rompers & accessories.",http://www.theshoplaguna.com/,,http://www.theshoplaguna.com/products/gift-card,http://www.theshoplaguna.com/pages/contact,"
                            *ONLINE GIFT CARD*
                          ",CONTACT US,1,CA,92651,clothing_store
Arrak USA,"24551 Raymond Way Suite 155, Lake Forest, CA 92630",Clothing store,Lake Forest,,http://arrakusa.com/,,http://arrakusa.com/products/gift-card,http://arrakusa.com/pages/contact-us,"
          Gift Cards

          
        ","
          Contact

          
            





Down Arrow Icon


",1,CA,92630,clothing_store
The Next Native,"7171 Alvarado Rd #205, La Mesa, CA 91942",Women's clothing store,La Mesa,,https://www.thenextnative.com/,,https://www.thenextnative.com/products/gift-card,https://www.thenextnative.com/pages/contact-us,Gift Card,Contact Us,1,CA,91942,clothing_store
Men's Argyle Socks and more  Spotlight Hosiery Warehouse Only No Shop,"14145 Proctor Ave #29, La Puente, CA 91746",Men's clothing store,La Puente,,http://argylesock.us/,,https://argylesock.us/shop/index.php?main_page=gv_faq&zenid=2316a421e8112ad51b263b2dc4a101e1,https://argylesock.us/shop/index.php?main_page=contact_us&zenid=2316a421e8112ad51b263b2dc4a101e1,Gift Certificate FAQ,Contact Us,1,CA,91746,clothing_store
Jadabug's Kids Boutique,"78377 CA-111, La Quinta, CA 92253",Baby store,La Quinta,"Vibrant shop offering baby & children's fashions & gear, including onesies, books & diaper bags.",http://www.jadabugs.com/,,http://www.jadabugs.com/products/electronic-gift-card,http://www.jadabugs.com/pages/jadabugs-kids-boutique-coachella-valley-locations,Gift Cards,Contact,1,CA,92253,clothing_store
Heart of Haute,"1925 McKinley Ave suite h, La Verne, CA 91750",Clothing store,La Verne,,http://www.heartofhaute.com/,,http://www.heartofhaute.com/products/gift-card,http://www.heartofhaute.com/pages/contact-us,"




Gift Cards

","
              CONTACT
              
            ",1,CA,91750,clothing_store
Carmen Rose Designs,"222 Whitney Ave, Pomona, CA 91767",Vintage clothing store,Pomona,,http://www.carmenrosedesign.etsy.com/,,https://www.etsy.com/giftcards?ref=ftr,https://www.etsy.com/messages/new?with_id=8298460&referring_id=5685685&referring_type=shop&recipient_id=8298460,"
Gift cards
","
 Contact
    
    
",1,CA,91767,clothing_store
Bayabelle Boutique,"100 Gateway Dr #110, Lincoln, CA 95648",Boutique,Lincoln,"Modern boutique featuring trendy women's clothing, accessories & home goods in a bright, chic space.",https://bayabelle.com/,,https://bayabelle.com/products/gift-card,http://bayabelle-boutique.myshopify.com/community/contact,bayabelle e-gift cards: NEW!,contact us,1,CA,95648,clothing_store
La Piccolina Baby Boutique,"615 5th St, Lincoln, CA 95648",Baby clothing store,Lincoln,,http://www.la-piccolina.com/,,https://squareup.com/gift/YTDG30TNGFYWZ/order,http://www.la-piccolina.com/contact.html,"
				Gift Cards
			","
				Contact
			",1,CA,95648,clothing_store
Baughman's Western Outfitters,"2029 First St, Livermore, CA 94550",Western apparel store,Livermore,"Enduring store for cowboy-themed apparel for all ages, including boots, hats & equestrian supplies.",https://baughmans.com/,,https://baughmans.com/products/gift-card,,"
Gift Cards
",,1,CA,94550,clothing_store
Stella Mitchell,"116 N School St, Lodi, CA 95240",Clothing store,Lodi,,http://www.stellamitchelllodi.com/,,http://www.stellamitchelllodi.com/collections/gift-cards,http://www.stellamitchelllodi.com/pages/contact-us-1,"
GIFT CARDS
","
CONTACT US
",1,CA,95240,clothing_store
Relalos San Valentin,"2855 Stevens Creek Blvd, Santa Clara, CA 95050",Clothing store,Santa Clara,,http://www.westfield.com/,,http://www.westfield.com/valleyfair/stores/Gift%20Cards,,Gift Cards,,1,CA,95050,clothing_store
Deasees Boutique,"115 W Ocean Ave, Lompoc, CA 93438",Women's clothing store,Lompoc,,http://deaseesboutique.com/,,http://deaseesboutique.com/products/gift-certificate,,"
            Gift Certificate 
          ",,1,CA,93438,clothing_store
Surf Connection,"1307 N H St, Lompoc, CA 93436",Shoe store,Lompoc,,http://www.surfconnection.net/,,https://www.instagram.com/p/B6TaPUZA2ln/,http://www.surfconnection.net/contact,"

",Contact,1,CA,93436,clothing_store
Long Beach Clothing Co,"4218 Atlantic Ave, Long Beach, CA 90807",Clothing store,Long Beach,,http://www.longbeachclothing.com/,,http://www.longbeachclothing.com/collections/gift-cards,http://www.longbeachclothing.com/pages/contact,Gift Cards,Contact,1,CA,90807,clothing_store
Long Beach Certified,"3314 E Anaheim St, Long Beach, CA 90804",Clothing store,Long Beach,"Retailer stocking store-branded sporty apparel, including T-shirts, sweatshirts, hats & fleeces.",http://www.longbeachcertified.com/,,http://www.longbeachcertified.com/giftcertificates.php,http://www.longbeachcertified.com/contact/,Gift Certificates,Contact,1,CA,90804,clothing_store
1897LB,"438 E 1st St, Long Beach, CA 90802",Clothing store,Long Beach,,http://www.lbhomegrown.com/,,http://www.lbhomegrown.com/giftcertificates.php,https://www.lbhomegrown.com/contact-us/,Gift Certificates,Contact Us,1,CA,90802,clothing_store
Twig & Willow,"3740 E 4th St, Long Beach, CA 90814",Clothing store,Long Beach,"Eclectic selection including chic clothing, jewelry & chocolates offered in a rustic boutique.",http://www.twigandwillow.com/,,http://www.twigandwillow.com/collections/gift-cards,http://www.twigandwillow.com/pages/contact,"
                    Gift Cards
                    
                  ",Contact Us,1,CA,90814,clothing_store
B K Collections,"342 State St, Los Altos, CA 94022",Gift shop,Los Altos,,http://www.bkcollectionslosaltos.com/,,http://www.bkcollectionslosaltos.com/gift-cards,http://www.bkcollectionslosaltos.com/contact,Gift Card,Contact,1,CA,94022,clothing_store
Mohawk General Store,"4011 Sunset Blvd, Los Angeles, CA 90029",Clothing store,Los Angeles,"Modern shop for trendy, designer apparel, shoes, swimwear & lifestyle accessories for men & women.",http://mohawkgeneralstore.com/,,https://www.mohawkgeneralstore.com/products/gift-card,https://www.mohawkgeneralstore.com/pages/contact-us,Gift Cards,Contact Us,1,CA,90029,clothing_store
Glam Envy Boutique,"910 S Los Angeles St Suite 501, Los Angeles, CA 90015",Women's clothing store,Los Angeles,,http://www.glamenvy.com/,,http://www.glamenvy.com/collections/gift-cards,http://www.glamenvy.com/pages/contact-us,GIFT CARDS,CONTACT US,1,CA,90015,clothing_store
Chikas,"923 Santee St #5, Los Angeles, CA 90015",Women's clothing store,Los Angeles,,https://www.shoptiques.com/,,https://www.shoptiques.com/gift-cards,https://www.shoptiques.com/contact,Gift Cards,Contact Us,1,CA,90015,clothing_store
Trendy Too Bridesmaid & Prom Dresses,"948 Santee St, Los Angeles, CA 90015",Women's clothing store,Los Angeles,"This store carries a variety of classic & trendy dresses for weddings, proms & formal parties.",http://www.trendycollection.com/,,http://www.trendycollection.com/giftcertificates.php,,Gift Certificates,,1,CA,90015,clothing_store
The Way We Wore,"334 South La Brea Ave, Los Angeles, CA 90036",Vintage clothing store,Los Angeles,"Used designer clothes, shoes & accessories from every era, plus a library of vintage swatches.",http://thewaywewore.com/,,http://thewaywewore.com/pages/gift-certificate,,GIFT CERTIFICATE,,1,CA,90036,clothing_store
WITTMORE,"8236 W 3rd St, Los Angeles, CA 90048",Men's clothing store,Los Angeles,,http://shopwittmore.com/,,http://shopwittmore.com/products/gift-card-digital,http://shopwittmore.com/pages/contact-us,Gift Cards,Contact Us,1,CA,90048,clothing_store
Bettina's of Los Gatos,"320 N Santa Cruz Ave, Los Gatos, CA 95030",Clothing store,Los Gatos,,http://bettinaslosgatos.com/,,https://www.bettinaslosgatos.com/gift-certificate-100.html,https://www.bettinaslosgatos.com/contact-us/,30% OFF SITE WIDE  - use code ALIVE  at checkout   :   Gift Certificates available in SALES,Contact Us,1,CA,95030,clothing_store
Time Out Clothing,"108 N Santa Cruz Ave, Los Gatos, CA 95030",Clothing store,Los Gatos,,http://timeoutclothing.com/,,https://www.timeoutclothing.com/gifts/gift-cards/,,Gift cards,,1,CA,95030,clothing_store
Eye Candy Fashion Boutique,"1506 Howard Rd, Madera, CA 93637",Women's clothing store,Madera,,http://eyecandyfashionboutique.com/,,http://eyecandyfashionboutique.com/giftcertificates.php,,Gift Certificates,,1,CA,93637,clothing_store
Manhattan Denim,"920 Manhattan Ave, Manhattan Beach, CA 90266",Clothing store,Manhattan Beach,,http://www.manhattandenim.com/,,https://squareup.com/gift/F8ZGF1NNH4ST8/order,http://www.manhattandenim.com/contact-us,GIFT CARDS,Contact Us,1,CA,90266,clothing_store
BLVD,"320 Manhattan Beach Blvd, Manhattan Beach, CA 90266",Women's clothing store,Manhattan Beach,"Contemporary shop offering beach clothing, swimwear & accessories for men & women.",https://www.blvdmb.com/,,https://www.blvdmb.com/products/gift-card-1,https://www.blvdmb.com/pages/contact-us,"


Gift CardLet them get cozy",Contact Us,1,CA,90266,clothing_store
Cami,"316 Manhattan Beach Blvd, Manhattan Beach, CA 90266",Women's clothing store,Manhattan Beach,Women's shop carrying a mix of classic & cutting-edge fashions from well-known & emerging designers.,http://cami.us/,,http://cami.us/products/gift-card,,"
Gift Cards
",,1,CA,90266,clothing_store
Bella Beach Kids,"225 Manhattan Beach Blvd, Manhattan Beach, CA 90266",Children's clothing store,Manhattan Beach,"Family-owned boutique offering fashionable apparel for infants & children, plus unique toys & gifts.",http://www.bellabeachkids.com/,,https://www.bellabeachkids.com/brands/bella-beach-kids-gift-card/,," 
",,1,CA,90266,clothing_store
Gem Catcher Boutique,"28379 Overland Ct, Menifee, CA 92584",Women's clothing store,Menifee,,http://www.gemcatcherboutique.com/,,http://www.gemcatcherboutique.com/products/gift-card,,"
            Gift Cards
        ",,1,CA,92584,clothing_store
Christina's Boutiques,"2852 G St, Merced, CA 95340",Boutique,Merced,,http://www.christinasfineclothing.com/,,http://www.christinasboutiques.com/giftcertificates.php,,Gift Certificates,,1,CA,95340,clothing_store
CAllie Girl Boutique,"25350 Marguerite Pkwy, Mission Viejo, CA 92692",Women's clothing store,Mission Viejo,,http://calliegirloc.com/,,http://calliegirloc.com/products/gift-card,http://calliegirloc.com/pages/contact-us,GIFT CARD,Contact Us,1,CA,92692,clothing_store
Target,"1050 E Huntington Dr, Duarte, CA 91010",Clothing store,Duarte,,http://www.target.com/,,http://www.target.com/c/gift-cards/-/N-5xsxu,,Gift Cards,,1,CA,91010,clothing_store
Creative Woman Wizard of Bras,"1530 S Myrtle Ave, Monrovia, CA 91016",Lingerie store,Monrovia,Boutique specializing in well-fitting bras in all sizes plus swimwear & custom fitting services.,http://wizardofbras.com/,,http://wizardofbras.com/gift-certificates.aspx,http://wizardofbras.com/gethelp.aspx,Gift Certificates,Fill Out a Contact Form,1,CA,91016,clothing_store
Retro Stage,"1101 E Garvey Ave #105, Monterey Park, CA 91755",Clothing store,Monterey Park,,https://retro-stage.com/,,https://retro-stage.com/pages/gift-card-survey,https://www.instagram.com/retrostage_official/,"
Gift Card Survey
","
Find us on Instagram
",1,CA,91755,clothing_store
Yingfa USA,"1940 College View Dr, Monterey Park, CA 91754",Swimwear store,Monterey Park,,http://www.yingfa.us/,,http://www.yingfa.us/giftcertificates.php,http://www.yingfa.us/pages/Contact-Us.html,Gift Certificates,Contact Us,1,CA,91754,clothing_store
Dressage Extensions,"11943 Discovery Ct, Moorpark, CA 93021",Clothing store,Moorpark,,http://www.dressageextensions.com/,,https://www.dressageextensions.com/gift-cards/c/9100/,,Gift Cards,,1,CA,93021,clothing_store
2Day's Moda  Designer Dresses and Fashion Accessories  Prom Dresses & Dress shops  Alterations,"10 Spring Ave, Morgan Hill, CA 95037",Dress store,Morgan Hill,,http://2daysmoda.com/,,https://www.2daysmoda.com/giftcertificates.php,https://www.2daysmoda.com/contact-us/,Gift Certificates,Contact Us,1,CA,95037,clothing_store
Maison A,"17511 Monterey Rd, Morgan Hill, CA 95037",Boutique,Morgan Hill,,http://maison-a.shoptiques.com/,,http://maison-a.shoptiques.com/gift-cards,https://www.shoptiques.com/contact,Gift Cards,Contact Us,1,CA,95037,clothing_store
Ahadi Mens Suit Co,"26760 Jefferson Ave #104, Murrieta, CA 92562",Men's clothing store,Murrieta,,http://ahadimenssuitco.com/,,http://ahadimenssuitco.com/coupons-gift-cards/,http://ahadimenssuitco.com/contact/,Offers,Contact,1,CA,92562,clothing_store
Miyamo,"1128 1st St, Napa, CA 94559",Women's clothing store,Napa,,http://www.miyamoboutique.com/,,http://www.miyamoboutique.com/collections/purchase-gift-card,,"
            Purchase Gift Card
        ",,1,CA,94559,clothing_store
Shoppe Twelve,"730 Main St, Napa, CA 94559",Women's clothing store,Napa,,https://shoppetwelve.com/,,https://shoppetwelve.com/giftcertificates.php,https://shoppetwelve.com/contact-us/,Gift Certificates,Contact Us,1,CA,94559,clothing_store
Eastessencecom,"39899 Balentine Dr, Newark, CA 94560",Women's clothing store,Newark,,http://www.eastessence.com/,,http://www.eastessence.com/products/eid-gift-card?variant=31479372546096,http://www.eastessence.com/pages/contact-us,"

Gift Card

",Live Chat,1,CA,94560,clothing_store
Crush Clothing,"317 Marine Ave, Newport Beach, CA 92662",Clothing store,Newport Beach,,http://crushbalboa.com/,,http://crushbalboa.com/collections/gift-cards,http://crushbalboa.com/pages/about-us,"
            Gift Certificates
          ","
                  Contact Us
                ",1,CA,92662,clothing_store
GARYS,"923 Newport Center Dr, Newport Beach, CA 92660",Men's clothing store,Newport Beach,"Fine men's clothing store offering a collection of casual & dress garments, footwear & accessories.",http://www.garysonline.com/,,http://www.garysonline.com/products/gift-card,http://www.garysonline.com/pages/contact-us-1,"
                    Gift Cards
                    
                  ",Contact Us,1,CA,92660,clothing_store
Ww II Impressions,"12025 E Florence Ave #402, Santa Fe Springs, CA 90670",Vintage clothing store,Santa Fe Springs,,http://www.wwiiimpressions.com/,,http://www.wwiiimpressions.com/products/gift-card,http://www.wwiiimpressions.com/pages/contact-us,"



Gift Card

from $ 10
            
          
        


",Contact us,1,CA,90670,clothing_store
Accents,"815 Grant Ave, Novato, CA 94945",Clothing store,Novato,,http://www.accentsnovato.com/,,http://www.accentsnovato.com/collections/gift-cards,,"
Gift Cards
",,1,CA,94945,clothing_store
Dandelion Post,"421 40th St, Oakland, CA 94609",Clothing store,Oakland,,http://dandelionpost.com/,,http://dandelionpost.com/products/gift-card,,Gift Certificate,,1,CA,94609,clothing_store
Field Day,"329 19th St, Oakland, CA 94612",Women's clothing store,Oakland,"Hip shop highlighting US-made & handcrafted clothing, crafts, body products & accessories.",http://www.fielddayapparel.com/,,http://www.fielddayapparel.com/products/gift-card,http://www.fielddayapparel.com/pages/contact-us,Gift Card,Contact,1,CA,94612,clothing_store
Ali Golden,"482 49th St, Oakland, CA 94609",Women's clothing store,Oakland,"Hideaway designer boutique featuring handmade, trendy urban womenswear in a bright, modern interior.",http://www.aligolden.com/,,http://www.aligolden.com/products/gift-card,http://www.aligolden.com/pages/contact,GIFT CARDS,CONTACT,1,CA,94609,clothing_store
Standard & Strange,"5010 Telegraph Ave, Oakland, CA 94609",Men's clothing store,Oakland,"Store for high-end men's fashions including jeans, leather boots, outerwear & accessories.",http://standardandstrange.com/,,http://standardandstrange.com/products/gift-card,http://standardandstrange.com/pages/contact-us,Gift Cards,Contact Us,1,CA,94609,clothing_store
Nectar Clothing Orange,"115 N Glassell St, Orange, CA 92866",Clothing store,Orange,,http://nectarclothing.com/,,http://nectarclothing.com/products/gift-card,http://nectarclothing.com/pages/contact-us,"
              Gift Card
              
            ","




Find A Store Nearest You

",1,CA,92866,clothing_store
Laurenly,"142 N Glassell St, Orange, CA 92866",Women's clothing store,Orange,,http://www.laurenly.com/,,http://www.laurenly.com/collections/gift-cards,http://www.laurenly.com/pages/contact,GIFT CARDS,Contact,1,CA,92866,clothing_store
CocoRose Boutique,"1407, 160 N Glassell St, Orange, CA 92866",Boutique,Orange,"Contemporary shop displaying on-trend women’s apparel, gifts, accessories & shoes.",http://www.cocoroseboutique.com/,,http://www.cocoroseboutique.com/collections/gift-cards,http://www.cocoroseboutique.com/pages/contact-us,"
            Gift Cards
          ",Contact Us,1,CA,92866,clothing_store
Blonde clothing boutique,"73-200 El Paseo, Palm Desert, CA 92260",Women's clothing store,Palm Desert,,http://blondeclothingboutique.com/,,http://blondeclothingboutique.com/giftcertificates.php,https://blondeclothingboutique.com/contact-us/,Gift Certificates,Contact Us,1,CA,92260,clothing_store
Seaplane Shirts,"1009 N Palm Canyon Dr, Palm Springs, CA 92262",Clothing store,Palm Springs,,http://seaplaneshirts.com/,,http://seaplaneshirts.com/products/gift-card,http://seaplaneshirts.com/pages/contact,"
                            gift cards
                        ","
                            contact us
                        ",1,CA,92262,clothing_store
Patrick James,"855 El Camino Real, Palo Alto, CA 94301",Men's clothing store,Palo Alto,"Upscale retailer featuring sophisticated menswear, accessories & footwear in a refined atmosphere.",http://www.patrickjames.com/,,http://www.patrickjames.com/SKU/GIFTCERT/Patrick-James-Gift-Certificate.aspx,https://home-c9.incontact.com/inContact/ChatClient/ChatClientPatron.aspx?poc=96e7a027-2ec0-4151-9b69-e128032f49d1&bu=4593858,Gift Certificates,  LIVE CHAT,1,CA,94301,clothing_store
Margaret O'Leary,"855 El Camino Real #43, Palo Alto, CA 94301",Women's clothing store,Palo Alto,,http://www.margaretoleary.com/,,http://www.margaretoleary.com/products/gift-certificate,http://www.margaretoleary.com/pages/wholesale-contact,Gift Certificate,Wholesale Inquiries,1,CA,94301,clothing_store
Elisa B,"16 E Holly St, Pasadena, CA 91103",Women's clothing store,Pasadena,"Celebrated, locally owned boutique selling women’s apparel, undergarments, jewelry & shoes.",http://elisab.com/,,http://elisab.com/blogs/news/buy-elisa-b-gift-cards-at-up-to-50-off-face-value,http://elisab.com/pages/contact,"







",CONTACT US,1,CA,91103,clothing_store
Patagonia,"47 N Fair Oaks Ave, Pasadena, CA 91103",Clothing store,Pasadena,,https://www.patagonia.com/,,https://www.patagonia.com/giftcards/,,Gift Cards,,1,CA,91103,clothing_store
Ooh La Luxe,"109 Petaluma Blvd N, Petaluma, CA 94952",Clothing store,Petaluma,"Cozy boutique offering a wide range of stylish women's casualwear, dresses, shoes & accessories.",https://oohlaluxe.com/,,https://oohlaluxe.com/products/gift-card,https://oohlaluxe.com/pages/contact-us,Gift Card,Contact,1,CA,94952,clothing_store
Robindira Unsworth,"115 Petaluma Blvd N, Petaluma, CA 94952",Women's clothing store,Petaluma,,http://www.robindira.com/,,http://www.robindira.com/products/gift-card,http://www.robindira.com/pages/contact-us,Gift Card,Contact Us,1,CA,94952,clothing_store
Prim Boutique,"520 Main St, Pleasanton, CA 94566",Women's clothing store,Pleasanton,Cozy women's boutique with a bohemian vibe for stylish clothing & accessories.,https://iloveprim.com/,,https://iloveprim.com/products/gift-card,https://iloveprim.com/pages/contact-us,Gift Card,Contact Us ,1,CA,94566,clothing_store
Straight 8 Vintage,"00 Garey Ave, Pomona, CA 91769",Vintage clothing store,Pomona,,https://etsy.me/,,https://www.etsy.com/giftcards?ref=ftr,https://www.etsy.com/messages/new?with_id=17492278&referring_id=6600001&referring_type=shop&recipient_id=17492278,"
Gift cards
","
 Contact
    
    
",1,CA,91769,clothing_store
Wink Boutique,"940 W Henderson Ave, Porterville, CA 93257",Boutique,Porterville,,http://wink-boutique-porterville.myshopify.com/,,http://wink-boutique-porterville.myshopify.com/collections/gift-card,http://wink-boutique-porterville.myshopify.com/pages/contact-us,"
            Gift Cards
          ",Contact Us,1,CA,93257,clothing_store
jinx world domination fortress,"13465 Gregg St, Poway, CA 92064",Clothing store,Poway,,http://www.jinx.com/,,http://www.jinx.com/products/gift-card,http://www.jinx.com/pages/customer-service,Gift Cards,Contact Us,1,CA,92064,clothing_store
Care Wear Uniforms Inc,"3600 Sunrise Blvd STE 1, Rancho Cordova, CA 95742",Uniform store,Rancho Cordova,,http://www.carewearscrubs.com/,,http://www.carewearscrubs.com/giftcertificates.php,,Gift Certificates,,1,CA,95742,clothing_store
Sunshine Girls Boutique,"31441 Santa Margarita Pkwy, Rancho Santa Margarita, CA 92688",Clothing store,Rancho Santa Margarita,,https://sunshinegirlsboutique.com/,,https://sunshinegirlsboutique.com/collections/gift-certificates,https://sunshinegirlsboutique.com/pages/contact-us,Gift Certificates,contact us here,1,CA,92688,clothing_store
Point Conception,"23121 Arroyo Vista #2609, Rancho Santa Margarita, CA 92688",Swimwear store,Rancho Santa Margarita,,http://www.pointconception.com/,,http://www.pointconception.com/giftcertificates.php,http://pointconception.com/contact-us/,Gift Certificates,Contact Us,1,CA,92688,clothing_store
Epaulet,"2220 Pullman Ln, Redondo Beach, CA 90278",Clothing store,Redondo Beach,,http://epauletbrand.com/,,http://epauletbrand.com/products/gift-card,,Gift Cards,,1,CA,90278,clothing_store
Triathlon Lab,"1512 Aviation Blvd, Redondo Beach, CA 90278",Sporting goods store,Redondo Beach,"Large athletic store specializing in apparel, gear & accessories for bicycling, swimming & running.",http://triathlonlab.com/,,http://triathlonlab.com/products/triathlon-lab-gift-card,,"
Gift Certificates
",,1,CA,90278,clothing_store
Poppy,"1213 San Carlos Ave, San Carlos, CA 94070",Women's clothing store,San Carlos,,http://www.poppysancarlos.com/,,http://www.poppysancarlos.com/collections/gift-cards,,Gift Cards,,1,CA,94070,clothing_store
JoeyRae,"677A Laurel St, San Carlos, CA 94070",Women's clothing store,San Carlos,,http://www.joeyrae.com/,,http://www.joeyrae.com/products/gift-card,http://www.joeyrae.com/pages/contact-us,Gift Cards,Contact Us,1,CA,94070,clothing_store
Urbanization,"1179 San Carlos Ave, San Carlos, CA 94070",Clothing store,San Carlos,,http://www.urbanizationonline.com/,,http://www.urbanizationonline.com/products/gift-card,http://www.urbanizationonline.com/pages/contact-us,Gift Card,Contact Us,1,CA,94070,clothing_store
Title Nine Distribution Center,"1414 Harbour Way S #1300, Richmond, CA 94804",Women's clothing store,Richmond,"Retailer selling sportswear & active apparel for women, plus swimsuits, shoes & athletic gear.",http://www.titlenine.com/,,http://www.titlenine.com/category/new-arrivals/title-nine-gift-cards.do,http://www.titlenine.com/category/customer-support/contact-us.do,Gift Cards,,1,CA,94804,clothing_store
Carhartt,"4850 Nevin Ave, Richmond, CA 94805",Clothing store,Richmond,"Venerable retailer of rugged, workwear-inspired apparel, shoes & accessories for men & women.",https://www.carhartt.com/,,https://www.carhartt.com/content/carhartt-gift-cards?icid=home-hero-content-giftguide-20200504-allvisitors-12694,https://www.carhartt.com/servlet/ContactUsDisplayView?storeId=10201&catalogId=10551&langId=-1,Shop Gift Cards >,"
											Contact Us
										",1,CA,94805,clothing_store
Hooderfans,"2222 Kansas Ave ste l, Riverside, CA 92507",Clothing store,Riverside,,http://www.hooderfans.com/,,http://www.hooderfans.com/InkSoft/GiftCert,http://www.hooderfans.com/InkSoft/Account/FindUser,Gift Certificates,Forgot Password,1,CA,92507,clothing_store
Til You Collapse,"4231 Pacific St #10, Rocklin, CA 95677",Clothing store,Rocklin,,https://tilyoucollapse.com/,,https://tilyoucollapse.com/products/gift-card,https://tilyoucollapse.com/pages/contact-us,Gift Card,Contact Us ,1,CA,95677,clothing_store
Nikki Marie,"5608 Kelsey Pl, Rohnert Park, CA 94928",Clothing alteration service,Rohnert Park,,https://nikkimarieapparel.com/,,https://nikkimarieapparel.com/collections/gift-cards,https://nikkimarieapparel.com/pages/contact-us,"
Gift Cards
","
                          Contact Us
                        ",1,CA,94928,clothing_store
Street Dreams,"2116 Montebello Town Center, Montebello, CA 90640",Clothing store,Montebello,,https://www.streetdreamsco.com/,,https://www.streetdreamsco.com/products/gift-card,https://www.streetdreamsco.com/pages/contact,Gift Cards,CONTACT US,1,CA,90640,clothing_store
Salt Tree Clothing,"426 N Main St, Salinas, CA 93906",Women's clothing store,Salinas,,http://www.salttree.com/,,http://www.salttree.com/products/gift-card,http://www.salttree.com/pages/find-us-in-these-fine-stores,"
          Gift Card",Local Store Hours,1,CA,93906,clothing_store
DIANI Boutique,"1324 State St suite b, Santa Barbara, CA 93101",Women's clothing store,Santa Barbara,,http://www.dianiboutique.com/,,http://www.dianiboutique.com/products/diani-gift-card,http://www.dianiboutique.com/pages/contact-us,Gift Card,Contact Us,1,CA,93101,clothing_store
Wendy Foster State Street,"1220 State St, Santa Barbara, CA 93101",Women's clothing store,Santa Barbara,,http://www.wendyfoster.com/,,https://www.wendyfoster.com/shop,,WENDY FOSTER GIFT CARDS,,1,CA,93101,clothing_store
Whiskey & Leather,"1101 Coast Village Rd A, Santa Barbara, CA 93108",Clothing store,Santa Barbara,,http://www.whiskeyleather.com/,,http://www.whiskeyleather.com/collections/gift-card,,Gift Card,,1,CA,93108,clothing_store
Volcom _ Santa Barbara,"625 State St, Santa Barbara, CA 93101",Clothing store,Santa Barbara,"Retailer of surf-, skate- & snowboard-inspired apparel, accessories & footwear.",https://www.volcom.com/,,https://www.volcom.com/blogs/announcement-bar/volcom-gift-cards,https://www.volcom.com/mailto:customerservice@volcom.com?subject=Contact Form,"GIFT 'EM THE STONE! SHOP GIFT CARDS
      
        Shop Now
        
      
",Contact Us,1,CA,93101,clothing_store
Hayaa Clothing,"3083 El Camino Real, Santa Clara, CA 95051",Women's clothing store,Santa Clara,"Retail store carrying modest Islamic clothes, from hijabs to swimwear, for women & children.",http://www.hayaaclothing.com/,,http://www.hayaaclothing.com/giftcertificates.php,https://www.hayaaclothing.com/contact-us/,"
              Gift Certificates
            ",Contact Us,1,CA,95051,clothing_store
Club Monaco,"2855 Stevens Creek Blvd Unit 8-439, Santa Clara, CA 95050",Clothing store,Santa Clara,"Source for a mix of modern & vintage-style fashions for men & women, plus accessories & handbags.",https://www.clubmonaco.com/,,https://www.clubmonaco.com/en/giftcertpurchase?virtualgc=true&webcat=footer,https://www.clubmonaco.com/en/contactus,Gift Card,Email Us,1,CA,95050,clothing_store
Dolled Up Fashion Boutique,"25379 Wayne Mills Pl, Santa Clarita, CA 91355",Women's clothing store,Santa Clarita,,http://www.dolledupfashions.com/,,http://www.dolledupfashions.com/products/gift-card,,Gift Cards,,1,CA,91355,clothing_store
Stripe Design Group LLC,"107 Walnut Ave, Santa Cruz, CA 95060",Boutique,Santa Cruz,"Airy boutique carrying apparel, gifts & furniture, with a local focus, plus vintage items.",http://www.stripedesigngroup.com/,,http://www.stripedesigngroup.com/products/gift-card-1,,,,1,CA,95060,clothing_store
Tomboy,"1207 Soquel Ave, Santa Cruz, CA 95062",Vintage clothing store,Santa Cruz,,http://www.tomboysc.com/,,https://squareup.com/gift/W7CGN89R8GBHG/order,http://www.tomboysc.com/find-us.html,"
							GIFT CARDS
						","
							FIND US
						",1,CA,95062,clothing_store
Berdels,"1233 Pacific Ave, Santa Cruz, CA 95060",Clothing store,Santa Cruz,,http://www.berdels.com/,,http://www.berdels.com/collections/gift-cards,http://www.berdels.com/pages/contact,GIFT CARDS,Contact,1,CA,95060,clothing_store
Synergy Organic Clothing,"2151 Delaware Ave, Santa Cruz, CA 95060",Women's clothing store,Santa Cruz,,http://synergyclothing.com/,,http://synergyclothing.com/products/gift-card,http://synergyclothing.com/pages/contact-us,Gift Cards,Contact us,1,CA,95060,clothing_store
Brooke Rodd,"1716 Ocean Park Blvd, Santa Monica, CA 90405",Clothing store,Santa Monica,,http://www.brookerodd.com/,,https://brookerodd.com/gift-cards/,,Gift Cards,,1,CA,90405,clothing_store
Dreamgirls,"5054 Newport Ave, San Diego, CA 92107",Women's clothing store,San Diego,"Women's apparel store offering relaxed, trendy pieces & accessories in cozy surrounds.",http://www.shopdreamgirls.com/,,http://www.shopdreamgirls.com/products/gift-card,http://www.shopdreamgirls.com/pages/contact-us,Gift Cards,Contact Us,1,CA,92107,clothing_store
mimi & red boutique,"3041 University Ave, San Diego, CA 92104",Women's clothing store,San Diego,"Trendy boutique with a hippie-chic vibe offering women's clothing, jewelry, accessories & gifts.",https://www.mimiandred.com/,,https://www.mimiandred.com/shop/gift-card/,,gift card,,1,CA,92104,clothing_store
San Diego Surf Co,"839 W Harbor Dr ste b, San Diego, CA 92101",Clothing store,San Diego,"A beach vibe fills this shop supplying big brands of men's & ladies' surf wear, accessories & shoes.",http://sandiegosurfco.com/,,http://sandiegosurfco.com/products/gift-card?variant=31832048861246,http://sandiegosurfco.com/pages/contact-us,"
            Full details →
          ",Contact Us,1,CA,92101,clothing_store
Wild Dove Boutique,"740 Market St, San Diego, CA 92101",Boutique,San Diego,,https://www.shopwilddove.com/,,https://www.shopwilddove.com/products/gift-card,https://www.shopwilddove.com/pages/wild-dove-boutique-san-diego-contact-us,Gift Cards,Contact Us,1,CA,92101,clothing_store
HIMALAYAN COLLECTION,"133 E Bonita Ave, San Dimas, CA 91773",Clothing store,San Dimas,,http://kpcnepal.com/,,http://kpcnepal.com/giftcertificates.php,http://kpcnepal.com/contact-us/,Gift Certificates,Contact Us,1,CA,91773,clothing_store
Cary Lane,"1615 Haight St, San Francisco, CA 94117",Clothing store,San Francisco,Discounted designer clothing & accessories draw locals to this stylish boutique for men & women.,http://www.carylanesf.com/,,http://www.carylanesf.com/gift-certificates,http://www.carylanesf.com/contact,Gift Certificates,Contact,1,CA,94117,clothing_store
Upper Playground,"220 Fillmore St, San Francisco, CA 94117",Clothing store,San Francisco,Stylish hipster streetwear with local flair & cool house goods are the draw at this modern boutique.,http://www.upperplayground.com/,,http://www.upperplayground.com/products/gift-card-old,,Gift Card,,1,CA,94117,clothing_store
Marble FHB,"120 N San Gabriel Blvd ste g, San Gabriel, CA 91775",Women's clothing store,San Gabriel,,https://www.marblefhb.com/,,https://www.marblefhb.com/index.php?route=account/voucher,http://www.marblefhb.com/index.php?route=information/contact,Gift Certificates,Contact Us,1,CA,91775,clothing_store
Le Petit Kids,"2459 Huntington Dr, San Marino, CA 91108",Children's clothing store,San Marino,,http://www.lepetitkids.com/,,http://www.lepetitkids.com/giftcertificates.php,https://lepetitkids.com/contact-us/,Gift Certificates,Contact Us,1,CA,91108,clothing_store
Icing by Claire's,"2200 W Florida Ave # 325, Hemet, CA 92545",Fashion accessories store,Hemet,,https://www.claires.com/,,https://www.claires.com/us/gift-cards.html?utm_source=MobileLeftNav&utm_medium=GiftCards,https://www.claires.com/us/customer-service-contact/?utm_source=MobileLeftNav&utm_medium=ContactUs,  Gift Cards,  Contact Us,1,CA,92545,clothing_store
Cukui,"229 Jackson St, San Jose, CA 95112",Clothing store,San Jose,"Hip boutique offering men's & women's streetwear, as well as hosting an art gallery & events.",http://cukui.com/,,http://cukui.com/collections/frontpage/products/gift-card,http://cukui.com/pages/contact,"

",Contact,1,CA,95112,clothing_store
Blackwater,"705 Higuera St suite e, San Luis Obispo, CA 93401",Women's clothing store,San Luis Obispo,"Modern venue for unique, bohemian women's dresses, kimonos & shoes as well as jewelry & accessories.",http://www.shopblackwater.com/,,http://www.shopblackwater.com/collections/gift-card,https://instagram.com/shopblackwater,"
          GIFT CARDS
","
  
Find us on Instagram
",1,CA,93401,clothing_store
Ambiance Clothing Boutique,"737 Higuera St, San Luis Obispo, CA 93401",Boutique,San Luis Obispo,"Long-running shop carrying casual, funky styles for women, plus home decor, gifts & accessories.",http://www.shopambiance.com/,,http://www.shopambiance.com/collections/ambiance-gift-cards,http://www.shopambiance.com/pages/contact-us,Gift Cards,Contact,1,CA,93401,clothing_store
EcoBambino,"863 Monterey St, San Luis Obispo, CA 93401",Children's clothing store,San Luis Obispo,,https://www.shopecobambino.com/,,https://www.shopecobambino.com/gift/gift-card/,,Gift Card,,1,CA,93401,clothing_store
Liv3 Clothing,"193 S Las Posas Rd, San Marcos, CA 92078",Women's clothing store,San Marcos,"Family-owned boutique offering relaxed, trendy women's clothing, accessories & gifts.",http://shopliv3.com/,,http://shopliv3.com/collections/gift-card,http://shopliv3.com/pages/contact,"
Liv3 Gift Card
",contact us,1,CA,92078,clothing_store
Woods' Western,"802 N Twin Oaks Valley Rd #111, San Marcos, CA 92069",Western apparel store,San Marcos,,http://woodswestern.com/,,https://woodswestern.com/gift-cards.html,https://woodswestern.com/contacts,Gift Certificate,CONTACT US,1,CA,92069,clothing_store
Viva Diva,"1327 4th St, San Rafael, CA 94901",Women's clothing store,San Rafael,Contemporary women's clothing boutique carrying bohemian & edgy fashions amid a warm vibe.,https://www.vivadivaboutique.com/,,https://www.vivadivaboutique.com/collections/viva-diva-gift-cards,https://www.vivadivaboutique.com/pages/contact,Viva Diva Gift Cards,Contact Us,1,CA,94901,clothing_store
World Of Monokrome,"6000 Bollinger Canyon Rd, San Ramon, CA 94583",Clothing store,San Ramon,,http://www.worldofmonokrome.com/,,http://www.worldofmonokrome.com/products/gift-card,http://www.worldofmonokrome.com/pages/we-want-to-hear-from-you,GIFT CARD,CONTACT US,1,CA,94583,clothing_store
Mint Fashion Exchange,"757 California Ave, Simi Valley, CA 93065",Clothing store,Simi Valley,,http://www.themintfashionexchange.com/,,http://www.themintfashionexchange.com/products/the-mint-fashion-exchange-gift-card,,"
Gift Card
",,1,CA,93065,clothing_store
Lana Ricca Cashmere Coats,"333 Gellert Blvd Suit #139, Daly City, CA 94015",Western apparel store,Daly City,,https://www.lanairicca.com/,,https://www.lanairicca.com/giftcertificates.php,https://www.lanairicca.com/contact-us/,Gift Certificates,Contact Us,1,CA,94015,clothing_store
The Plus Size Clothing Store,"510 Fall river Terrace Suite 25, Sunnyvale, CA 94087",Plus size clothing store,Sunnyvale,,https://plus-size-clothing.com/,,https://plus-size-clothing.com/products/gift-card,,"
                    Gift Card
                  ",,1,CA,94087,clothing_store
Fun House CostumesFlag House online,"130 E Fremont Ave, Sunnyvale, CA 94087",Costume store,Sunnyvale,,http://www.flaghouseonline.com/,,https://www.flaghouseonline.com/giftcertificates.php,,Gift Certificates,,1,CA,94087,clothing_store
Ally Fashion,"400 S Baldwin Ave #126, Arcadia, CA 91007",Women's clothing store,Arcadia,,http://www.allyfashion.com/,,https://allyfashion.com/gifts/egift-cards/,,eGift Cards,,1,CA,91007,clothing_store
Glitz Fine Clothing,"306 E Main St, Turlock, CA 95380",Women's clothing store,Turlock,,http://www.glitzclothing.shop/,,http://www.glitzclothing.shop/products/gift-card,http://www.glitzclothing.shop/pages/contact-us,Gift Cards,Contact Us,1,CA,95380,clothing_store
Gary's Rack,"148 W Main St, Tustin, CA 92780",Men's clothing store,Tustin,,https://garysonline.com/,,https://garysonline.com/products/gift-card,https://garysonline.com/pages/contact-us-1,"
                    Gift Cards
                    
                  ",Contact Us,1,CA,92780,clothing_store
Blondies Style,"155 El Camino Real, Tustin, CA 92780",Women's clothing store,Tustin,,http://www.blondiesstyle.com/,,https://www.instagram.com/p/B_z5UySgT0E/,,"
❤️ Blondies Style will re-open on Thursday May

",,1,CA,92780,clothing_store
ScrubFit,"32635 Alvarado Blvd, Union City, CA 94587",Uniform store,Union City,"Store selling a selection of scrubs, lab coats, shoes & medical devices, plus school uniforms.",http://www.scrubfit.com/,,http://www.scrubfit.com/shop/gift_certificate.php,http://www.scrubfit.com/content/contactus.php,"

",Contact Us,1,CA,94587,clothing_store
Honey Whiskey Boutique,"623 Marin St, Vallejo, CA 94590",Women's clothing store,Vallejo,,http://www.honeywhiskeyca.com/,,http://www.honeywhiskeyca.com/collections/gift-card/Gift+Gift-Card,http://www.honeywhiskeyca.com/pages/contact-us,Gift Card,Contact Us,1,CA,94590,clothing_store
Paris Boutique And Sweet Aroma,"2031 S Mooney Blvd, Visalia, CA 93277",Women's clothing store,Visalia,,https://www.visaliamall.com/,,https://www.visaliamall.com/en/visit/gift-cards.html,https://www.visaliamall.com/en/contact-us.html,Gift Cards,"
                    Contact Us
                ",1,CA,93277,clothing_store
Pick Pocket Manufacturing,"637 S Santa Fe Ave suite a, Vista, CA 92083",Clothing store,Vista,,http://www.pickpocketmfg.com/,,http://www.pickpocketmfg.com/products/gift-card,https://pickpocketmfg.com/pages/contact-us,Don't waste time and money trying to figure out what to get that special person.  Get them the gift of choosing for themself!,Contact Us,1,CA,92083,clothing_store
Wild at Heart Boutique,"3133 Tiger Run Ct #108, Carlsbad, CA 92010",Women's clothing store,Carlsbad,,http://www.shopwah.com/,,http://www.shopwah.com/collections/gift-certificate,http://www.shopwah.com/pages/contact-us,Gift Card ,Contact Us,1,CA,92010,clothing_store
VICI,"1683 N California Blvd, Walnut Creek, CA 94596",Women's clothing store,Walnut Creek,"This fashion-forward clothing store sells stylish women's outfits, handbags & jewelry.",http://www.vicicollection.com/,,https://www.vicicollection.com/products/gift-card,http://www.vicicollection.com/pages/contact-us,Gift Cards,Contact Us,1,CA,94596,clothing_store
Queens Shoes,"734 E Lake Ave STE 10, Watsonville, CA 95076",Women's clothing store,Watsonville,,http://www.queensshoes.net/,,https://queensshoes.net/Gift-card-p189252044,http://www.queensshoes.net/javascript:void();,"








Gift card



$50.00




Buy Now












",Contact us,1,CA,95076,clothing_store
The Hat Hangar,"125 Aviation Way suite c, Watsonville, CA 95076",Hat shop,Watsonville,"Boutique offering handmade headwear with vintage flair, including top, steampunk & fedora designs.",http://www.headnhome.com/,,http://www.headnhome.com/collections/gift-card,http://www.headnhome.com/pages/contact-us,"
Gift Cards
","
Contact Us
",1,CA,95076,clothing_store
Euphoria Rio Mix,"114 Stockton Ave, Capitola, CA 95010",Women's clothing store,Capitola,,http://euphoria-rio-mix.shoptiques.com/,,http://euphoria-rio-mix.shoptiques.com/gift-cards,https://www.shoptiques.com/contact,Gift Cards,Contact Us,1,CA,95010,clothing_store
Brick & Mortar,"8713 Santa Monica Blvd, West Hollywood, CA 90069",Men's clothing store,West Hollywood,"Hip shop featuring T-shirts & other on-trend men's clothing, plus accessories & homeware.",http://www.shopatbrick.com/,,https://shopatbrick.com/products/gift-card,http://www.shopatbrick.com/pages/about-us,"
                            Gift Cards
                          ",Contact Us,1,CA,90069,clothing_store
CHURCH Boutique,"8462 Melrose Ave, West Hollywood, CA 90069",Clothing store,West Hollywood,"Clothing boutique offering avant-garde pieces for men & women, plus art & home decor.",http://www.churchboutique.com/,,http://www.churchboutique.com/collections/gift-card,http://www.churchboutique.com/pages/gugugu,"







        
          Gift Card
        
      

","
Contact us
",1,CA,90069,clothing_store
Filth Mart,"1038 N Fairfax Ave, West Hollywood, CA 90046",Vintage clothing store,West Hollywood,"Vintage clothing store focusing on music offers T-shirts, denim & leather goods plus custom artwork.",https://filthmart.net/,,https://filthmartla.com/products/gift-card?_pos=1&_sid=17ecb32b8&_ss=r,https://filthmart.net/pages/contact,Gift Card,Contact,1,CA,90046,clothing_store
Jenni Kayne Apparel  Home,"614 N Almont Dr, West Hollywood, CA 90069",Clothing store,West Hollywood,,http://www.jennikayne.com/,,http://www.jennikayne.com/rewards,,"









    Become a member to receive exclusive benefits like birthday offers, gift cards, and early access to new launches. 
  
JOIN NOW
",,1,CA,90069,clothing_store
On Deck Shop,"400 Ballpark Dr, West Sacramento, CA 95691",Clothing store,West Sacramento,,http://rivercats.com/,,https://www.ondeckshoponline.com/products/gift-card-sacramento-river-cats?_pos=1&_sid=ff3507a7f&_ss=r,,"
                                            Sutter Health Park Gift Cards
                                        ",,1,CA,95691,clothing_store
Jami Ray Boutique,"517 Main St, Woodland, CA 95695",Women's clothing store,Woodland,,http://shopjamiray.com/,,http://shopjamiray.com/products/gift-card,,"

  

  @media screen and (min-width: 591px) { 
    .ProductImage-14652039528551 {
      max-width: 188.42686292548296px;
      max-height: 190px;
    }
    #ProductImageWrapper-14652039528551 {
      max-width: 188.42686292548296px;
    }
   } 

  
    
    @media screen and (max-width: 590px) {
      .ProductImage-14652039528551 {
        max-width: 292.557497700092px;
      }
      #ProductImageWrapper-14652039528551 {
        max-width: 292.557497700092px;
      }
    }
  









",,1,CA,95695,clothing_store
Belle Vie Boutique,"5624 E La Palma Ave suite b, Anaheim, CA 92807",Women's clothing store,Anaheim,,http://www.shopbellevie.com/,,http://www.shopbellevie.com/collections/gift-cards,,"
Gift Cards
",,1,CA,92807,clothing_store
