name,address,type,place,description,website_url,menu_url,gift_card_website,contact_website,gift_card_txt,contact_txt,searched,state,zipcode,store_type
Hair and Nail Republic Beauty SalonEducational Center,"17003 Bear Valley Rd, Hesperia, CA 92345",Beauty salon,Hesperia,,http://www.hairandnailrepublic.com/,,https://squareup.com/gift/K7K7HPQ3ZAMB5/order,http://www.hairandnailrepublic.com/contact,Buy Now,Contact,1,CA,92345,beauty_salon
Nailbar,"1229 Park St, Alameda, CA 94501",Nail salon,Alameda,,http://alamedanailbar.com/,,https://www.alamedanailbar.com/gift-card,https://www.alamedanailbar.com,GIFT CARD,CONTACT,1,CA,94501,beauty_salon
Simply Green Day Spa,"630 Grand Ave, Oakland, CA 94610",Day spa,Oakland,,http://simplygreendayspa.com/,,http://simplygreendayspa.com/gift-certificates/,,Gift Certificates,,1,CA,94610,beauty_salon
Tricia's Hair Studio,"25761 Obrero Dr #B, Mission Viejo, CA 92691",Beauty salon,Mission Viejo,,https://www.google.com/,,https://www.google.com/url?q=https://www.giftly.com/hair-salon-gift-cards/lake-forest-ca&sa=U&ved=2ahUKEwi_0bK75J3pAhVME6YKHY7rC1oQFjASegQIBRAB&usg=AOvVaw0aQ0fOqroTA85INMf5jpC0,,Lake Forest Hair Salon Gift Cards - California | Giftlyhttps://www.giftly.com › ... › Spa & Beauty › Hair Salons,,1,CA,92691,beauty_salon
CW Skin Beauty,"28570 Marguerite Pkwy #213, Mission Viejo, CA 92692",Skin care clinic,Mission Viejo,,http://www.cwskinbeauty.com/,,http://www.cwskinbeauty.com/specials,http://www.cwskinbeauty.com/contact,Specials and Gift Certificates,Contact,1,CA,92692,beauty_salon
OC Waxing,"27001 La Paz Rd #124, Mission Viejo, CA 92691",Waxing hair removal service,Mission Viejo,,http://ocwax.com/,,http://ocwax.com/gift-cards.html,,"
				GIFT CARDS
			",,1,CA,92691,beauty_salon
La Bella Laser & Slimming,"1004 N Santa Anita Ave, Arcadia, CA 91006",Medical spa,Arcadia,,https://www.labellals.com/,,https://www.labellals.com/product/la-bella-gift-card/,https://www.labellals.com/about/contact-us/,BUY GIFT CARDS,Contact Us,1,CA,91006,beauty_salon
Wax n' Peels,"530 W Huntington Dr Studio #21, Monrovia, CA 91016",Hair removal service,Monrovia,,http://www.waxnpeels.com/,,https://squareup.com/gift/AR1DW74E69C78/order,http://waxnpeels.com/contact/,Gift Certificate,Contact,1,CA,91016,beauty_salon
CEO Salon,"1110 Calloway Dr STE 100, Bakersfield, CA 93312",Beauty salon,Bakersfield,,http://www.theceosalon.com/,,http://www.theceosalon.com/giftcards.html,http://www.theceosalon.com/contact.html,Gift Cards,Contact,1,CA,93312,beauty_salon
Pizazz Salon & Spa,"5301 Office Park Dr, Bakersfield, CA 93309",Hair removal service,Bakersfield,,http://pizazzspa.com/,,https://pizazzspa.com/gift-cards/,https://pizazzspa.com/contact/,Gift Cards,Contact,1,CA,93309,beauty_salon
Pure Essentials Day Spa,"2026 E St, Bakersfield, CA 93301",Beauty salon,Bakersfield,,http://www.puressentialsdayspa.com/,,http://www.puressentialsdayspa.com/gift-certificate.html,,"
				Gift Certificate
			",,1,CA,93301,beauty_salon
Luminous Nail Bar,"11243 183rd St, Cerritos, CA 90703",Nail salon,Cerritos,,https://luminousnailbar.com/,,https://luminousnailbar.com/product-category/gift-cards/,https://luminousnailbar.com/contact-us/,"



Gift Card Deals

",Contact Us,1,CA,90703,beauty_salon
Marlowe,"1901 Fourth St #107, Berkeley, CA 94710",Nail salon,Berkeley,,http://www.hellomarlowe.com/,,https://go.booker.com/location/Marlowe/buy/gift-certificate,http://www.hellomarlowe.com/pages/contact,"
GIFT CARDS (salon)
","
CONTACT
",1,CA,94710,beauty_salon
Anton Salon,"2887 College Ave, Berkeley, CA 94705",Hair salon,Berkeley,,http://antonsalon.com/,,https://gift-cards.phorest.com/salons/antonsalon,http://www.antonsalon.com/contact-us/,BOOKING LINK ,Contact.,1,CA,94705,beauty_salon
The Fix Berkeley,"3362 Adeline St, Berkeley, CA 94703",Day spa,Berkeley,,http://www.thefixberkeley.com/,,https://clients.mindbodyonline.com/classic/ws?studioid=219247&stype=42,,Gift Certificates,,1,CA,94703,beauty_salon
Arellano Salon,"5475 College Ave, Oakland, CA 94618",Beauty salon,Oakland,,http://arellanosalon.com/,,http://stylenet.com/ArellanoSalon/gift-certificates/,http://stylenet.com/ArellanoSalon/contact-us/,Gift Certificates,Contact Us,1,CA,94618,beauty_salon
Sole Salon and Spa Aveda,"5689 Bay St, Emeryville, CA 94608",Beauty salon,Emeryville,,http://www.solesalon.com/,,http://www.solesalon.com/collections/gift-cards,,"
              
                Gift Cards
              
            ",,1,CA,94608,beauty_salon
Pony Studios,"6012 College Ave, Berkeley, CA 94705",Hair salon,Berkeley,,http://www.pony.salon/,,https://squareup.com/gift/WY0JH1C1JCJJJ/order,http://www.pony.salon/contact-1,BUY A GIFT CARD,Contact,1,CA,94705,beauty_salon
The Fairmont Spa at the Claremont,"41 Tunnel Rd, Berkeley, CA 94705",Spa,Berkeley,,http://www.fairmont.com/,,https://www.buyatab.com/custom/fairmont/us/,https://secure.accor.com/help/index.en.shtml,Purchase a gift card,Contact Us,1,CA,94705,beauty_salon
Grove Salon,"1483 Solano Ave, Albany, CA 94706",Hair salon,Albany,,http://grovesalon.com/,,https://squareup.com/gift/T5CXC44C0THDG,http://grovesalon.com/contact,"



","
              Contact
            ",1,CA,94706,beauty_salon
Darling Electric Salon,"2522 San Pablo Ave, Berkeley, CA 94702",Hair salon,Berkeley,,http://darlingelectricsalon.com/,,https://www.vagaro.com/darlingelectricsalon/gift-certificates,http://darlingelectricsalon.com/contact,"
        Gift Certificates
      ","
            Contact
          ",1,CA,94702,beauty_salon
Sweet Cheeks Skincare,"4153 Piedmont Ave #3, Oakland, CA 94611",Beauty salon,Oakland,,http://aloeswoodbeauty.com/,,http://aloeswoodbeauty.com/gift-certificates,http://aloeswoodbeauty.com/contact,"
                Gift Certificates
              ","
                Contact
              ",1,CA,94611,beauty_salon
nelson j salon,"9675 Wilshire Blvd, Beverly Hills, CA 90212",Hair salon,Beverly Hills,,http://www.nelsonjbeverlyhills.com/,,http://www.nelsonjbeverlyhills.com/products/gift-card,http://www.nelsonjbeverlyhills.com/pages/contact-us,Gift Cards,Contact Us,1,CA,90212,beauty_salon
Voila Nail Salon,"369 N Camden Dr, Beverly Hills, CA 90210",Nail salon,Beverly Hills,,https://www.voila-salon-spa.com/,,https://voila-salon-spa.com/giftcards.php,https://www.voila-salon-spa.com/contact.php,Gift Cards,Contact Us,1,CA,90210,beauty_salon
The M Day Spa,"8326 Wilshire Blvd, Beverly Hills, CA 90211",Beauty salon,Beverly Hills,,http://www.themdayspa.com/,,http://themdayspa.com/book-online/,http://www.themdayspa.com/mailto:contact@themdayspa.com,Book Online/Gift Certificates,contact@themdayspa.com,1,CA,90211,beauty_salon
Bellacures,"239 N Robertson Blvd, Beverly Hills, CA 90211",Nail salon,Beverly Hills,,http://www.bellacures.com/,,https://clients.mindbodyonline.com/ASP/main_shop.asp?studioid=-41376&tg=&vt=&lvl=&stype=42&view=&trn=0&page=&catid=&prodid=&date=12%2f4%2f2018&classid=0&prodGroupId=&sSU=&optForwardingLink=&qParam=&justloggedin=&nLgIn=&pMode=2&loc=1,https://bellacures.com/contact/,Gift Cards,Contact,1,CA,90211,beauty_salon
Verabella Skin Therapy Spa,"301 N Canon Dr, Beverly Hills, CA 90210",Beauty salon,Beverly Hills,,http://verabella.com/,,http://verabella.com/shop/gift-card,,Gift Cards,,1,CA,90210,beauty_salon
Spa Montage Beverly Hills featuring LRAPHAEL,"225 N Canon Dr, Beverly Hills, CA 90210",Beauty salon,Beverly Hills,,https://www.montagehotels.com/,,https://www.montageinternational.com/gift-cards/,https://www.montagehotels.com/beverlyhills/contact/,Gift Cards,Contact,1,CA,90210,beauty_salon
Joyce Marie of Beverly Hills,"414 N Camden Dr #175, Beverly Hills, CA 90210",Facial spa,Beverly Hills,,http://joycemarieofbeverlyhills.com/,,http://www.spaweek.com/spa/22987/joyce-marie-of-beverly-hills,https://joycemarieofbeverlyhills.com/contact-facials-skin-care/,,Contact,1,CA,90210,beauty_salon
The Spa at the Glen,"1001 Brea Mall, Brea, CA 92821",Day spa,Brea,,https://www.thespaattheglen.com/,,https://thespaattheglen.boomtime.com/lgift,,Gift Cards,,1,CA,92821,beauty_salon
Skin Utopia by Alicia,"4109 Piccadilly Ln, San Mateo, CA 94403",Facial spa,San Mateo,,http://skinutopia.com/,,https://skinutopia.com/gifts-certificates/,https://skinutopia.com/contact/,Gift Certificates,Contact,1,CA,94403,beauty_salon
Bare Bronze Beauty,"1242 Sheldon Dr, Brentwood, CA 94513",Tanning salon,Brentwood,,https://barebronzebeauty.com/,,https://barebronzebeauty.com/,https://barebronzebeauty.com/tel:9258722511,Mother’s Day May Special - Purchase a $100 e-gift card & get $50 off any Hydrafacial,(925) 872-2511,1,CA,94513,beauty_salon
True Beauty Brows & Skin Care,"3850 Balfour Rd #214, Brentwood, CA 94513",Skin care clinic,Brentwood,,http://www.truebeautyskincare.net/,,http://www.truebeautyskincare.net/gift-certificates,http://www.truebeautyskincare.net/contact-us,Gift Certificates,Contact Us,1,CA,94513,beauty_salon
SKINERGIZE,"1155 Mulberry Pl, Brentwood, CA 94513",Skin care clinic,Brentwood,,http://www.skinergize.com/,,https://skinergize.boomtime.com/lgift,https://www.skinergize.com/contact/,Gift Certificates,Contact,1,CA,94513,beauty_salon
Chris Taylor Nails,"818 1st St, Brentwood, CA 94513",Nail salon,Brentwood,,http://www.christinataylornail.wix.com/,,https://www.thegiftcardcafe.com/pcart/index.php?storeID=14519,https://christinataylornail.wixsite.com/christinataylornails/contact,Gift Card,Contact,1,CA,94513,beauty_salon
Yegi Beauty,"130 E Magnolia Blvd, Burbank, CA 91502",Beauty salon,Burbank,,http://www.yegibeauty.com/,,https://yegibeauty.com/products/gift-card,https://yegibeauty.com/pages/yegi-beauty-location,"
                      GIFT CARDS
                  ",Contact Us,1,CA,91502,beauty_salon
Shapes Brow Bar,"201 E Magnolia Blvd, Burbank, CA 91502",Beauty salon,Burbank,,http://www.shapesbrowbar.com/,,https://www.shapesbrowbar.com/online-store-e-giftcards,https://www.shapesbrowbar.com/contact-us,GIFT CARD,CONTACT US  ,1,CA,91502,beauty_salon
SpaLashes,"1713 W Verdugo Ave, Burbank, CA 91506",Beauty salon,Burbank,,http://spalashes.com/,,https://www.vagaro.com/spalashes/gift-certificates,https://www.spalashes.com/contact-us/,"

Gift Cards
Available
",Contact Us,1,CA,91506,beauty_salon
Relax Spa & Beauty,"122 E Olive Ave, Burbank, CA 91502",Day spa,Burbank,,http://www.relaxspaandbeauty.com/,,https://relaxspaandbeauty.com/gift-cards/,https://relaxspaandbeauty.com/contact-us/,,Contact Us,1,CA,91502,beauty_salon
Media City Sun,"249 E Palm Ave, Burbank, CA 91502",Beauty salon,Burbank,,http://www.mediacitysun.com/,,http://www.mediacitysun.com/gift.asp,http://www.mediacitysun.com/contact.asp,Gift Certificates,Contact,1,CA,91502,beauty_salon
Selfie by SK,"1312 W Burbank Blvd, Burbank, CA 91506",Beauty salon,Burbank,,http://www.selfiebysk.com/,,https://squareup.com/gift/BCA6AZJ09JDGB/order,http://www.selfiebysk.com/location,"
                          Gift Cards
                        ",Contact,1,CA,91506,beauty_salon
Vanity Private Studio,"3607 W Magnolia Blvd g, Burbank, CA 91505",Skin care clinic,Burbank,,http://www.vanityprivatestudio.com/,,https://www.thegiftcardcafe.com/cart/index.php?storeID=18225,http://www.vanityprivatestudio.com/#contact,"
                          Gift Certificates
                          
",Contact,1,CA,91505,beauty_salon
Effleurage Studio,"453 S Glenoaks Blvd, Burbank, CA 91502",Beauty salon,Burbank,,http://effleuragestudio.com/,,http://effleuragestudio.com/gift-cards/,http://effleuragestudio.com/contact/,GIFT CARDS,Booking & Contact,1,CA,91502,beauty_salon
The Skin Agency,"10220 Riverside Dr Suite A, Toluca Lake, CA 91602",Laser hair removal service,Toluca Lake,,http://www.theskinagency.com/,,https://www.instagram.com/p/B_k7H4Jn-ji/,http://www.theskinagency.com/contact,"

",Contact,1,CA,91602,beauty_salon
Didi Salon,"1221 Donnelly Ave, Burlingame, CA 94010",Hair salon,Burlingame,,http://www.didisalon.com/,,https://www.instagram.com/p/B-fggWlj-VH/,https://www.instagram.com/p/B-SlI2MjelO/,"

","

",1,CA,94010,beauty_salon
Lush n Lash,"1249 Broadway, Burlingame, CA 94010",Beauty salon,Burlingame,,http://www.lushnlash.com/,,https://www.lushnlash.com/gift-certificates/,https://www.lushnlash.com/contact-us/,Gift Certificates,Location and Contact,1,CA,94010,beauty_salon
Aerial Spa Lounge,"401 Primrose Rd # H, Burlingame, CA 94010",Spa,Burlingame,,http://aerialspalounge.com/,,http://aerialspalounge.com/gift-certificates,,Gift Certificates,,1,CA,94010,beauty_salon
Avalon Skin Care and Electrolysis,"430 Peninsula Ave #8, San Mateo, CA 94401",Electrolysis hair removal service,San Mateo,,http://avalonskincare.com/,,http://avalonskincare.com/gifts_and_products.html,http://avalonskincare.com/contactformaboutus.html, GIFT CERTIFICATES,ABOUT US,1,CA,94401,beauty_salon
L Salon & Color Group,"223 S San Mateo Dr, San Mateo, CA 94401",Beauty salon,San Mateo,,https://www.lsalon.com/,,https://clients.mindbodyonline.com/classic/ws?studioid=949489&stype=42,https://lsalon.com/contact/,Buy Gift Cards,Contact,1,CA,94401,beauty_salon
Angel Skin Care and Salon,"1662 Palm Ave, San Mateo, CA 94402",Beauty salon,San Mateo,,http://angelskincareandsalon.com/,,https://angelskincareandsalon.com/services/gift-certificates/,https://angelskincareandsalon.com/contact-us/,GIFT CERTIFICATES,CONTACT US,1,CA,94402,beauty_salon
Ritual Day Spa  Massage Facials Waxing Microdermabrasion,"18 N Central Ave, Campbell, CA 95008",Massage therapist,Campbell,,http://ritual-spa.com/,,https://squareup.com/gift/83Z95YVEJSHSH/order,http://ritual-spa.com/contact,BUY AN E-GIFT CARD,CONTACT,1,CA,95008,beauty_salon
Alova Salon,"1730 S Bascom Ave #31, Campbell, CA 95008",Hair salon,Campbell,,http://www.alovasalon.com/,,https://www.alovasalon.com/gift-certificates,https://www.alovasalon.com/copy-of-contact-me,Shop,Contact Us,1,CA,95008,beauty_salon
Body Therapy Services,"653 E Campbell Ave, Campbell, CA 95008",Massage therapist,Campbell,,http://www.bodytherapyservices.com/,,http://www.bodytherapyservices.com/giftcertificate/index.asp,http://www.bodytherapyservices.com/BTS_Contact.asp,BUY GIFT CERTIFICATES,,1,CA,95008,beauty_salon
Beaute Organic Spa,"1153 S De Anza Blvd, San Jose, CA 95129",Facial spa,San Jose,,http://www.beautespallc.com/,,http://www.beautespallc.com/reservationsgift_certificates,http://www.beautespallc.com/contact_us,Reservations/Gift Certificates,Contact Us,1,CA,95129,beauty_salon
East of Bali Salon & Spa,"1905 Calle Barcelona #210, Carlsbad, CA 92009",Nail salon,Carlsbad,,http://eastofbali.com/,,http://eastofbali.com/Gift_Cards.html,,Gift Cards,,1,CA,92009,beauty_salon
Val's Beauty in Balance,"2347 Pio Pico Dr, Carlsbad, CA 92008",Beauty salon,Carlsbad,,http://valsbeautyinbalance.com/,,http://valsbeautyinbalance.com/gift-certificates,http://valsbeautyinbalance.com/contact-schedule,Gift Certificates,Contact / Schedule,1,CA,92008,beauty_salon
Nails 2000 Plus,"7668 El Camino Real #103, Carlsbad, CA 92009",Nail salon,Carlsbad,,http://nails2000pluscarlsbad.com/,,http://nails2000plus.fastboywebhosts.com/giftcards,,E-Gift Cards,,1,CA,92009,beauty_salon
Ocean Day Spa Carlsbad California,"5814 Van Allen Way Suite #165, Carlsbad, CA 92008",Day spa,Carlsbad,,http://www.oceandayspa.com/,,https://clients.mindbodyonline.com/classic/ws?studioid=349585&stype=42,http://www.oceandayspa.com/spa-etiquette.html,"
										GIFT CERTIFICATES
									",Contact,1,CA,92008,beauty_salon
Zen Skin Carlsbad,"6120 Paseo Del Norte, Carlsbad, CA 92011",Facial spa,Carlsbad,"Day spa offering facials, microdermabrasion, chemical peels & other treatments, plus face waxing.",http://www.zenskincarlsbad.com/,,https://zenskin.boomtime.com/lgift,https://www.zenskincarlsbad.com/contact,Gift Certificates,Contact,1,CA,92011,beauty_salon
Ocean Crest Spa,"1 Ponto Rd, Carlsbad, CA 92011",Beauty salon,Carlsbad,,http://www.caperey.com/,,https://cape-rey-carlsbad.egiftify.com/landingpage,,Gift Cards,,1,CA,92011,beauty_salon
Clubhouse for Men,"2910 Jefferson St #204, Carlsbad, CA 92008",Waxing hair removal service,Carlsbad,,https://www.clubhouseformencarlsbad.com/,,https://clubhouseformen.fullslate.com/,https://www.clubhouseformencarlsbad.com/contactus/,Gift Certificates,contact,1,CA,92008,beauty_salon
Karma Spa Massage in Carlsbad Day Spa Carlsbad,"2614 El Camino Real, Carlsbad, CA 92008",Day spa,Carlsbad,,http://www.karmamassagespa.com/,,http://www.secure-booker.com/karmaspa/ShopOnline/GiftCertificate.aspx,https://www.karmamassagespa.com/locations/,San Diego,Contact Us,1,CA,92008,beauty_salon
Era Skin Lounge and Med Spa,"2810 Pio Pico Dr, Carlsbad, CA 92008",Day spa,Carlsbad,,http://www.eraskinlounge.com/,,https://www.thegiftcardcafe.com/cart/index.php?storeID=6749,,,,1,CA,92008,beauty_salon
The Collective a Hair Salon,"6874 Embarcadero Ln, Carlsbad, CA 92011",Hair salon,Carlsbad,,http://www.thecollectivehair.com/,,https://squareup.com/gift/ERCKNS8BGXKEB/order,http://www.thecollectivehair.com/#team,buy Gift Cards,Find Us,1,CA,92011,beauty_salon
Doug Gordon,"1905 Calle Barcelona, Carlsbad, CA 92009",Hair salon,Carlsbad,,http://www.douggordonsite.com/,,http://www.douggordonsite.com/images/2020/gift-card-2Q20-download%20copy.pdf,,,,1,CA,92009,beauty_salon
Sweet Cheeks Beauty Bar,"540 Grand Ave, Carlsbad, CA 92008",Spa,Carlsbad,,http://www.sweetcheeksbeautybar.com/,,http://www.secure-booker.com/sweetcheeksbb/ShopOnline/GiftCertificate.aspx,https://sweetcheeksbeautybar.com/directions/,GIFT CERTICATE,CONTACT,1,CA,92008,beauty_salon
Ocean Pearl Spa,"5480 Grand Pacific Dr, Carlsbad, CA 92008",Spa,Carlsbad,,http://www.oceanpearlspa.com/,,https://scrs2008.na.book4time.com//spagift/,https://oceanpearlspa.com/location-contact/,Gift Cards,Location & Contact,1,CA,92008,beauty_salon
Tan By The Sea,"2744 Carlsbad Blvd, Carlsbad, CA 92008",Tanning salon,Carlsbad,,http://www.tanbythesea.com/,,http://tanbythesea.com/specials/gift-cards/,http://tanbythesea.com/contact/,Gift Cards,Contact,1,CA,92008,beauty_salon
Wakeup Beauty Full Service Salon,"4126 Sepulveda Blvd, Torrance, CA 90505",Beauty salon,Torrance,"Unfussy beauty studio providing haircuts & coloring, plus hair removal, waxing & henna tattoos.",http://www.wakeupbeautysalon.com/,,http://www.wakeupbeautysalon.com/gift-certificate.html,http://www.wakeupbeautysalon.com/contact-us.html,"
","
Contact Us		",1,CA,90505,beauty_salon
Salon Castillo,"41750 Rancho Las Palmas Dr Building I, Rancho Mirage, CA 92270",Beauty salon,Rancho Mirage,,http://www.argeliavargas.com/,,http://stylenet.com/ArgeliaVargas/gift-certificates,https://www.argeliavargas.com/contact/,Gift Certificates,Contact,1,CA,92270,beauty_salon
Studio M Salon and Spa,"2465 E Palm Canyon Dr #1025, Palm Springs, CA 92264",Beauty salon,Palm Springs,,http://www.studiomsalonandspa.com/,,https://na1.meevo.com/EgiftApp/home?tenantId=200266,http://www.studiomsalonandspa.com/#,Gift Certificates,Contact,1,CA,92264,beauty_salon
Sherry Mesa THE Salon,"73880 El Paseo, Palm Desert, CA 92260",Beauty salon,Palm Desert,,http://www.sherrymesathesalon.com/,,http://stylenet.com/SherryMesaTheSalon/gift-certificates,https://visitor.r20.constantcontact.com/manage/optin?v=0017d_NIn09WGT35ayfmPQJ7WqmEkc1COcyMg2ZkAq69PR2206aIl0LOhuD58ZeuXyy2ZiWq06oGq9WblFMVUOx1uUHNWw2JUzTu3EuWLysLlc%3D,Gift Them,Stay In Touch,1,CA,92260,beauty_salon
Sweetwater Day Spa,"40 Declaration Dr, Chico, CA 95973",Day spa,Chico,,http://www.sweetwaterchico.com/,,https://www.sweetwaterchico.com/online-booking-gift-cards,,Gift Certificates,,1,CA,95973,beauty_salon
Urban Medspa Inc,"3221 Cohasset Rd, Chico, CA 95973",Medical spa,Chico,,http://www.urbanmedspa.com/,,//instagram.com/p/B_tIAERA5WD/,https://urbanmedspa.com/contact/,,Contact,1,CA,95973,beauty_salon
Synergee Skin Spa & Acne Center,"45 Jan Ct #175, Chico, CA 95928",Skin care clinic,Chico,,http://www.synergeeskinspa.com/,,http://www.synergeeskinspa.com/gift-certificates,http://www.synergeeskinspa.com/#923d769e-c491-4cd1-aa5e-0e509483456b,Gift Certificates,Contact Us,1,CA,95928,beauty_salon
Renew Float Spa,"1030 Village Ln, Chico, CA 95926",Massage therapist,Chico,,http://www.renewfloatspa.com/,,http://www.renewfloatspa.com/copy-of-online-booking-gift-cards,http://www.renewfloatspa.com/contact-us,Gift Certificates,More Information,1,CA,95926,beauty_salon
Rejuvahh skin therapy salon,"568 Manzanita Ave #5, Chico, CA 95926",Facial spa,Chico,,http://www.rejuvahh.skincaretherapy.net/,,http://www.rejuvahh.skincaretherapy.net/gift-certificates,http://www.rejuvahh.skincaretherapy.net/contact-information,Gift Certificates,Contact Information,1,CA,95926,beauty_salon
Spa Pierman,"2059 Forest Ave, Chico, CA 95928",Day spa,Chico,,http://spapierman.com/,,http://spapierman.com/gift.htm,"http://spapierman.com/
 
https://visitor.r20.constantcontact.com/d.jsp?llr=s6lgnheab&p=oi&m=1104055316402",gift card,,1,CA,95928,beauty_salon
Into the Glam by Tina at The Grand Salon,"13920 City Center Dr #4060, Chino Hills, CA 91709",Beauty salon,Chino Hills,,http://www.intotheglam.com/,,https://intotheglam.boomtime.com/lgift,,Gift Certificates,,1,CA,91709,beauty_salon
GLOW ME & NAILS,"14507 Ramona Ave, Chino, CA 91710",Nail salon,Chino,,http://glowmenails.com/,,https://www.glowmenails.com/gift-card,https://www.glowmenails.com,Gift Card,,1,CA,91710,beauty_salon
Mia Belleza Salon,"175 E 2nd St, Pomona, CA 91766",Beauty salon,Pomona,,http://www.miabellezasalonandspa.com/,,http://www.miabellezasalonandspa.com/contact_us/gift_cards,http://www.miabellezasalonandspa.com/contact_us,Gift Cards,Contact Us,1,CA,91766,beauty_salon
Gila Rut Aveda Salon,"2015 Birch Rd #1604, Chula Vista, CA 91915",Hair salon,Chula Vista,,http://www.gilarut.com/,,http://www.gilarut.com/gift-cards,http://www.gilarut.com/contact-us,Gift Cards,Hours & Directions,1,CA,91915,beauty_salon
Glam Powder Room,"247 3rd Ave E, Chula Vista, CA 91910",Beauty salon,Chula Vista,,http://www.glampowderroom.com/,,https://squareup.com/gift/EWDF2XTF1A5YV/order,https://www.glampowderroom.com/contact,Buy an eGift Card,Contact,1,CA,91910,beauty_salon
Balensi Spa,"280 Landis Ave, Chula Vista, CA 91910",Spa,Chula Vista,,http://www.balensispa.com/,,https://www.balensispa.com/giftcards,https://www.balensispa.com/contact.php,Gift Cards,Contact,1,CA,91910,beauty_salon
Lash Crush,"9290 Sierra College Blvd #200, Roseville, CA 95661",Beauty salon,Roseville,,https://www.lashcrush.com/,,https://www.vagaro.com/lashcrush/gift-certificates,https://www.lashcrush.com/#contact,Gift Cards,Contact Us,1,CA,95661,beauty_salon
Estancia Day Spa & Salon,"2950 E Nees Ave, Fresno, CA 93720",Beauty salon,Fresno,,https://www.estanciadayspa.com/,,https://www.estanciadayspa.com/day-spa-gift-cards,https://www.estanciadayspa.com/contact-estancia-day-spa,GIFT CARDS,CONTACT,1,CA,93720,beauty_salon
Head Over Heels Salon,"8837 N Cedar Ave, Fresno, CA 93720",Beauty salon,Fresno,,http://headoverheelssalonfresno.com/,,http://headoverheelssalonfresno.com/gifts/,,Gift Certificates,,1,CA,93720,beauty_salon
Simply Soothing Therapy,"375 Bullard Ave STE 1, Clovis, CA 93612",Massage therapist,Clovis,,https://simplysoothingtherapy.com/,,https://www.massagebook.com/Clovis~Massage~SimplySoothingTherapy?src=external#gift-certificates,https://simplysoothingtherapy.com/tel:5597654038,Buy now,559-765-4038,1,CA,93612,beauty_salon
Spa at Omni Rancho Las Palmas,"41000 Bob Hope Dr, Rancho Mirage, CA 92270",Spa,Rancho Mirage,,https://www.omnihotels.com/,,https://www.omnihotels.com/shop/gift-cards,https://www.omnihotels.com/#,Gift Cards,Contact Us,1,CA,92270,beauty_salon
The Spa at Desert Springs,"74-855 Country Club Dr, Palm Desert, CA 92260",Beauty salon,Palm Desert,,http://www.spa.desertspringsresort.com/,,https://gifts.marriott.com,http://www.spa.desertspringsresort.com/tel:+1 760-341-2211, Gift Cards ,  +1 760-341-2211  ,1,CA,92260,beauty_salon
Bliss Chakra Spa,"73896 El Paseo R-12, Palm Desert, CA 92260",Massage spa,Palm Desert,,http://www.blisschakraspa.com/,,http://www.blisschakraspa.com/collections/bliss-chakra-spa-gift-certificates,http://www.blisschakraspa.com/pages/contact-us,BUY GIFT CERTIFICATE,CONTACT US,1,CA,92260,beauty_salon
Desert Lily Esthetics,"73730 Highway 111 N Suite #2, Palm Desert, CA 92260",Facial spa,Palm Desert,,http://www.desertlilyesthetics.com/,,https://squareup.com/gift/D65QD0JMZND0N/order,http://www.desertlilyesthetics.com/contact,Gift Cards,"
Contact
",1,CA,92260,beauty_salon
Sugar Bare Waxing Studio,"1924 Grant St #7, Concord, CA 94520",Waxing hair removal service,Concord,,http://sugarbare.skincaretherapy.net/,,http://squareup.com/gift/YZXN2DABWGFWS/order,http://sugarbare.skincaretherapy.net/contact-information,"E-gift card every $50 purchase, $10 credit will be added to your account for future services.",Contact Information,1,CA,94520,beauty_salon
Stem Salon,"1698 Bonanza St, Walnut Creek, CA 94596",Beauty salon,Walnut Creek,,http://www.stemsalon.com/,,https://gift-cards.phorest.com/salons/stemsaloninc,,"
      Buy Gift Card
    ",Contact,1,CA,94596,beauty_salon
SalonAmour Hair Salon Walnut Creek,"1459 East, Newell Ave, Walnut Creek, CA 94596",Beauty salon,Walnut Creek,,http://www.salonamouronline.com/,,https://clients.mindbodyonline.com/classic/home?studioid=100009,https://salonamouronline.com/contact/,,Contact Us,1,CA,94596,beauty_salon
Orchard Nails,"2150 California Ave Suite 102, Corona, CA 92881",Beauty salon,Corona,,https://www.orchardnails.com/,,https://www.orchardnails.com/gift-cards,https://www.orchardnails.com/contact," Gift Cards

"," Contact

",1,CA,92881,beauty_salon
Area One Nail Spa,"2310 California Ave #103, Corona, CA 92881",Nail salon,Corona,,https://area1nailspa.favesalon.com/,,https://area1nailspa.favesalon.com/#buy-gift-card,,Purchase,,1,CA,92881,beauty_salon
California Cosmetics,"260 E Ontario Ave #104, Corona, CA 92879",Medical spa,Corona,,http://www.californiacosmetics.com/,,https://californiacosmetics.com/products/gift-card,http://www.californiacosmetics.com/pages/contact,"
                            GIFT CARDS
                          ","
                            CONTACT
                          ",1,CA,92879,beauty_salon
Kneaded Therapy,"110 W 10th St, Corona, CA 92882",Massage therapist,Corona,,http://www.kneadedtherapy.org/,,http://www.kneadedtherapy.org/view/kneadedtherapyorg/home/gift-certificates,http://www.kneadedtherapy.org/view/kneadedtherapyorg/contact,Gift Certificates,Contact,1,CA,92882,beauty_salon
Bello Salon,"3600 Lime St STE 115, Riverside, CA 92501",Beauty salon,Riverside,,http://www.bellosalon.net/,,http://stylenet.com/BelloSalon/gift-certificates,https://www.bellosalon.net/contact-riverside-hair-salon/,Gift Certificates,Contact,1,CA,92501,beauty_salon
Men's Hair by Merissa,"1835 Newport Blvd #210, Costa Mesa, CA 92627",Beauty salon,Costa Mesa,,http://www.merissadale.com/,,https://squareup.com/gift/EVG0A6XPNYWHM/order,http://www.merissadale.com/#contact-section,purchase gift card,"
                        Contact
                      ",1,CA,92627,beauty_salon
Madison Salon,"445 E 17th St suite b, Costa Mesa, CA 92627",Hair salon,Costa Mesa,,http://www.madisonsalon.com/,,http://www.madisonsalon.com/#book-now,http://www.madisonsalon.com/contact-us,Online Gift Cards,"
            Contact & Hours
          ",1,CA,92627,beauty_salon
3 Thirty 3 Nail Bar  Costa Mesa,"801 Baker St C, Costa Mesa, CA 92626",Nail salon,Costa Mesa,,http://3thirty3nailbar.com/,,https://www.instagram.com/p/B_p8NA6JU4L/,http://maps.google.com/maps?q=brea+.+costa+mesa+.+uci+irvine,"We donated to our Front lines 100 x 19.75 with $1975 gift cards for services to Honor the Nailing It for America! Thank you for your partnership!

https://3thirty3nailbar.com “No amount is too small as each donation fills our energy and lifts our spirits in the work we do collectively to make an impact.”⁣ Donate: ⁣
Designate it to “Nailing It” ⁣
https://www.unitedwayoc.org/get-involved/nailing-it-for-health-care-workers/⁣
⁣
Learn more⁣:
unitedwayoc.org/viet⁣
unitedwayoc.org/espanol⁣
unitedwayoc.org/nailingit

#333nailbar #actsofkindness #NailsIndustry #1975services #LittleSaigonRestaurants #1975meals #HelpingOthersInNeed #GivingBackInToughUncertainTimes⁣
#OCsmallbusinessowners #texas #Houston #Dallas #Boston #NYC #nailingitforhealthcareworkers #conquercovid #COVID19 #CoronaVirusEmergency #NailingItForAmerica #love2yeu","
Location   BREA . COSTA MESA . UCI IRVINE
",1,CA,92626,beauty_salon
Nail Poetry,"230 E 17th St Suite 150, Costa Mesa, CA 92627",Nail salon,Costa Mesa,,http://nail-poetry.com/,,https://go.booker.com/#/location/NailPoetry/buy,https://www.nail-poetry.com/contact,Gift Card/Series,Contact,1,CA,92627,beauty_salon
Lollipop Nail Studio,"2937 Bristol St, Costa Mesa, CA 92626",Nail salon,Costa Mesa,,http://www.lollipopnailstudio.com/,,https://www.instagram.com/p/BxXjaljAhf1/,http://www.lollipopnailstudio.com/contact,"

",Contact,1,CA,92626,beauty_salon
MySkin Medical Spa,"711 W 17th St Suite C2, Costa Mesa, CA 92627",Medical spa,Costa Mesa,,http://myskinmedicalspa.com/,,http://myskinmedicalspa.com/contact/,http://myskinmedicalspa.com/mailto:contactus@myskinmedicalspa.com,GIFT CARD,contactus@myskinmedicalspa.com,1,CA,92627,beauty_salon
Blanc Noir Hairdressing,"3473 Via Lido, Newport Beach, CA 92663",Beauty salon,Newport Beach,,http://www.blancnoirhairdressing.com/,,https://squareup.com/gift/86J7W815YFJSX/order,http://www.blancnoirhairdressing.com/contact-us,Gift Cards,"
        
        Contact Us
      ",1,CA,92663,beauty_salon
Salon Lido,"3441 Via Lido #H, Newport Beach, CA 92663",Hair salon,Newport Beach,,http://www.salonlido.com/,,http://www.salonlido.com/promotion.html,,GIFT CERTIFICATE,,1,CA,92663,beauty_salon
My Little Beautique,"12112 Washington Blvd #1, Los Angeles, CA 90066",Beauty salon,Los Angeles,,http://www.mylittlebeautiquela.com/,,https://www.mylittlebeautiquela.com/gift-cards,https://www.mylittlebeautiquela.com/contact,Gift Cards,Contact,1,CA,90066,beauty_salon
Escape Day Spa,"11497 Jefferson Blvd, Culver City, CA 90230",Day spa,Culver City,,http://escapedayspala.com/,,http://escapedayspala.com/gift-card/gift-card-eletronic/electronic.html,http://escapedayspala.com/contact.html,Gift Card,Contact,1,CA,90230,beauty_salon
Knox Salon,"2823 S Robertson Blvd, Los Angeles, CA 90034",Beauty salon,Los Angeles,,http://www.knoxsalon.com/,,https://knoxsalon.com/book-now/,https://knoxsalon.com/about-us/contact/,Book Now,Contact Us,1,CA,90034,beauty_salon
Aveda Azure Lifestyle Salon,"13161 Mindanao Way #D-6A, D6A, Marina Del Rey, CA 90292",Beauty salon,Marina Del Rey,,http://www.azuresalon.com/,,https://www.instagram.com/p/B6TYEqcgTEI/,http://www.azuresalon.com/contact,"

","
        Contact
      ",1,CA,90292,beauty_salon
Taka Hair Salon,"1845 Westwood Blvd, West Los Angeles, CA 90025",Beauty salon,West Los Angeles,,http://www.takahair.com/,,https://takahair.millenniumegift.com/,http://www.takahair.com/contact-us.html,"gift
                        certificates",contact us,1,CA,90025,beauty_salon
Raindrop Bodyworks,"3500 Overland Ave #230, Los Angeles, CA 90034",Massage spa,Los Angeles,,http://raindropbodyworks.com/,,https://squareup.com/gift/FDMXJJTS3N93G/order,http://raindropbodyworks.com/tel:3102020056,Purchase Gift Certificate,310-202-0056,1,CA,90034,beauty_salon
Blind Barber,"10797 Washington Blvd, Culver City, CA 90232",Barber shop,Culver City,"Hidden behind a barber shop, this lounge offers craft cocktails & modern pub bites in a hip setting.",http://www.blindbarber.com/,,http://www.blindbarber.com/products/haircut-gift-card,http://www.blindbarber.com/,"





","


























",1,CA,90232,beauty_salon
LAK Nail Bar,"1747 Westwood Blvd, Los Angeles, CA 90024",Nail salon,Los Angeles,,http://www.laknailbar.com/,,http://www.laknailbar.com/gift-cards,,Gift Cards,,1,CA,90024,beauty_salon
Hairzoo,"510 Wilshire Blvd, Santa Monica, CA 90401",Beauty salon,Santa Monica,,https://www.hairzoosantamonica.com/,,https://www.hairzoosantamonica.com/products/gift-certificates,https://www.hairzoosantamonica.com/contact,Gift Certificates,Contact Us,1,CA,90401,beauty_salon
Hair By Erna Hobbs,"10633 S Foothill Blvd, Cupertino, CA 95014",Hair salon,Cupertino,,http://hairbyerna.com/,,https://www.hairbyerna.com/gift-cards,https://www.hairbyerna.com,GIFT CARDS,Contact&Info,1,CA,95014,beauty_salon
Salon 815,"815 Ulloa St, San Francisco, CA 94127",Beauty salon,San Francisco,,http://www.salon815.com/,,https://go.booker.com/#/location/Salon815/buy/gift-certificate,http://www.salon815.com/#contact,Gift Certificates,Contact,1,CA,94127,beauty_salon
Skin By Chantel,"24672 San Juan Ave UNIT 104, Dana Point, CA 92629",Skin care clinic,Dana Point,,http://www.skinbychantel.com/,,https://www.skinbychantel.com/gift-certificates,https://www.skinbychantel.com/contact,Gift Certificates,Contact,1,CA,92629,beauty_salon
Apple Nail Salon,"30001 Crown Valley Pkwy # A2, Laguna Niguel, CA 92677",Nail salon,Laguna Niguel,,http://applenailsalon.com/,,http://applenailsalon.com/p105/gift-certificate,http://applenailsalon.com/p107/contact-us,Gift Certificate,Contact Us,1,CA,92677,beauty_salon
Thai Body Works Dana Point,"34255 CA-1 #106, Dana Point, CA 92629",Massage therapist,Dana Point,,http://www.thaibodyworks.net/,,http://www.thaibodyworks.net/gift-card-order,http://www.thaibodyworks.net/laguna-beach," Gift Card Order
","  

Contact Us
",1,CA,92629,beauty_salon
The Rouge Cosmetics,"145 E Prospect Ave #100, Danville, CA 94526",Beauty salon,Danville,,http://www.therougecosmetics.com/,,http://www.therougecosmetics.com/shop/gift-card/rouge-cosmetics-gift-card/,https://www.therougecosmetics.com/contact/,Gift Card,Contact,1,CA,94526,beauty_salon
Great Clips in Blackhawk Danville,"3478 Camino Tassajara Ste B, Danville, CA 94506",Beauty salon,Danville,Casual salon offering haircuts for adults & kids along with professional styling products for sale.,http://greatclips.com/,,https://www.greatclips.com/gift-card-balance,https://www.greatclips.com/about-us/contact-us,Gift Card Balance,Contact Us,1,CA,94506,beauty_salon
Bliss Hair Salon,"225 Alamo Plaza A-134, Alamo, CA 94507",Hair salon,Alamo,,http://www.blisshairsalon.net/,,https://www.blisshairsalon.net/gift-cards,https://www.blisshairsalon.net,GIFT CARDS,CONTACT,1,CA,94507,beauty_salon
Frank E's,"329 Hartz Ave #3307, Danville, CA 94526",Barber shop,Danville,,https://www.frankesbarbershop.com/,,https://www.thegiftcardcafe.com/cart/indexpac.php?storeID=15641,,"


Buy Gift Certificate",,1,CA,94526,beauty_salon
La Renew Skin Care,"622 E 8th St, Davis, CA 95616",Waxing hair removal service,Davis,,http://www.larenewdayspa.com/,,http://s.thegiftcardcafe.com/ZF86Lf,http://www.larenewdayspa.com/contact.html,Gift Certificates,Contact,1,CA,95616,beauty_salon
Hair by Jordan,"526 G St, Davis, CA 95616",Hair salon,Davis,,http://www.hairbyjordan.net/,,http://www.hairbyjordan.net/gift-cards--specials.html,,"
				Gift Cards & Specials
			
			",,1,CA,95616,beauty_salon
Dynamics Hair & Massage Studio,"219 E St # B, Davis, CA 95616",Massage therapist,Davis,,http://www.dynamicsdavis.com/,,https://squareup.com/gift/Q17RDGE3GHZP8/order,http://www.dynamicsdavis.com/contact-dynamics-massage-hair-studio,Gift Cards,Contact Us,1,CA,95616,beauty_salon
Spa Central,"1111 Kennedy Pl #6, Davis, CA 95616",Spa,Davis,,http://spacentraldavis.com/,,http://www.secure-booker.com/SpaCentralDavis/InstantGiftCertificate.aspx,http://spacentraldavis.com/contact,Purchase a Gift Certificate,"
                Contact
              ",1,CA,95616,beauty_salon
iBeauty & Tan Salon,"4625 First St #150, Pleasanton, CA 94566",Beauty salon,Pleasanton,,http://www.ibeautytansalon.com/,,http://www.ibeautytansalon.com/gift-certificate.html,http://www.ibeautytansalon.com/contact.html,"
				GIFT CERTIFICATE
			","
				CONTACT
			",1,CA,94566,beauty_salon
Gamma Salon,"739 Main St H, Pleasanton, CA 94566",Beauty salon,Pleasanton,,http://www.gammasalon.com/,,http://stylenet.com/GammaSalon/gift-certificates/,http://stylenet.com/GammaSalon/contact-us/,Gift Certificates,Contact Us,1,CA,94566,beauty_salon
The Image Salon & Day Spa,"3037 Hopyard Rd, Pleasanton, CA 94588",Beauty salon,Pleasanton,,http://theimagesalonspa.com/,,https://www.theimagesalonspa.com/gift-cards-xw6m0,https://www.theimagesalonspa.com/contact,,CONTACT,1,CA,94588,beauty_salon
Brush & Blow Blowout Bar,"55 W Angela St #100b, Pleasanton, CA 94566",Beauty salon,Pleasanton,,https://www.brush-and-blow.com/,,https://go.booker.com/location/BrushandBlow/service-menu,https://www.brush-and-blow.com,BOOK ONLINE/PURCHASE GIFT CARDS,CONTACT,1,CA,94566,beauty_salon
Ma Jolie Salon & Spa,"2416 San Ramon Valley Blvd #200, San Ramon, CA 94583",Beauty salon,San Ramon,,http://www.majoliesalon.com/,,https://burtonphillipsco.boomtime.com/lgift,https://www.majoliesalon.com/contact,GIFT CARDS,CONTACT,1,CA,94583,beauty_salon
Nail Creations by Amanda,"5686 Stoneridge Dr STE B, Pleasanton, CA 94588",Nail salon,Pleasanton,,http://www.amandacure.com/,,https://squareup.com/gift/0XJJFZ9P2MG0Z/order,http://www.amandacure.com/tel:9259978649,GIFT CARDS,(925) 997-8649,1,CA,94588,beauty_salon
The Shear Style Salon,"9105 Laguna Main St #140, Elk Grove, CA 95758",Hair salon,Elk Grove,,http://www.theshearstyle.com/,,http://www.theshearstyle.com/e-gift-cards,http://www.theshearstyle.com/contact,"
                E Gift Cards
              ","
                Contact
              ",1,CA,95758,beauty_salon
WAX BARe,"9320 Elk Grove Blvd #175, Elk Grove, CA 95624",Waxing hair removal service,Elk Grove,,http://www.wax-bare.com/,,https://www.wax-bare.com/gift-cards,,20% OFF GIFT CARDS,,1,CA,95624,beauty_salon
Skincare by Mercedes,"9401 E Stockton Blvd #130, Elk Grove, CA 95624",Day spa,Elk Grove,,http://www.wellnessspaeg.com/,,http://www.wellnessspaeg.com/gift,http://www.wellnessspaeg.com/contact,Instant Gift Certificate,Contact us,1,CA,95624,beauty_salon
Sole' Salon & Spa,"8815 Elk Grove Blvd, Elk Grove, CA 95624",Hair salon,Elk Grove,,http://solesalonandspa.com/,,https://www.thegiftcardcafe.com/shop/all.php?shop=18569,,,,1,CA,95624,beauty_salon
Kenie's Beauty Palace formally called Hair La Belle,"8111 Scottsdale Dr suite D, Sacramento, CA 95828",Beauty salon,Sacramento,,http://www.keniesbeautypalace.com/,,https://www.salonbuilder.com/website/193628/giftcert.asp?func=R,https://www.salonbuilder.com/website/193628/contact.asp,Gift Certificates,Contact,1,CA,95828,beauty_salon
Avia Salon and Day Spa,"5500 Grossmont Center Dr, La Mesa, CA 91942",Beauty salon,La Mesa,,http://aviasalonanddayspa.com/,,http://stylenet.com/AviaSalonandDaySpa/giftcertificates/,http://stylenet.com/AviaSalonandDaySpa/contact-us/,Gift Certificates,Contact Us,1,CA,91942,beauty_salon
Templeton Beauty Salon,"321 S Main St A, Templeton, CA 93465",Beauty salon,Templeton,,http://aveda.com/,,http://aveda.com/gift-cards,http://aveda.com/customer-service-contact-us-page,egift card,EMAIL US,1,CA,93465,beauty_salon
Heart & Soles Day Spa Salon,"5405 El Camino Real, Atascadero, CA 93422",Beauty salon,Atascadero,,http://www.handsdayspa.com/,,http://www.handsdayspa.com/#gift-certificate,http://www.handsdayspa.com/#contact,Gift Certificate,Contact,1,CA,93422,beauty_salon
The Garden Spa,"466 N Coast Hwy 101, Encinitas, CA 92024",Day spa,Encinitas,,http://thegardenspaonline.com/,,http://thegardenspaonline.com/products/gift-card,http://thegardenspaonline.com/pages/contact-us,"
Gift Cards
","
Contact Us
",1,CA,92024,beauty_salon
Four Moons Spa,"775 N Vulcan Ave, Encinitas, CA 92024",Spa,Encinitas,,https://fourmoonsspa.com/,,https://go.booker.com/location/FourMoonsSpa/buy/gift-certificate,https://fourmoonsspa.com/contact-us/,Gift Card,Contact Us,1,CA,92024,beauty_salon
SugarCoated Skincare,"1042 S Coast Hwy 101, Encinitas, CA 92024",Skin care clinic,Encinitas,,http://www.sugarcoatedskincare.com/,,http://www.sugarcoatedskincare.com/gift-certificates.html,http://www.sugarcoatedskincare.com/contact.html,,Contact SugarCoated Skincare and Kristin Fennema,1,CA,92024,beauty_salon
KAT Beauty,"2121 Newcastle Ave, Cardiff, CA 92007",Beauty salon,Cardiff,,https://www.katbeautyco.com/,,https://www.katbeautyco.com/egift-cards,https://www.katbeautyco.com/contact,"
            EGIFT CARDS
          ","
            CONTACT US
          ",1,CA,92007,beauty_salon
Future Faces Skin Care,"351 Santa Fe Dr #220, Encinitas, CA 92024",Facial spa,Encinitas,,http://www.futurefacesskincare.com/,,http://futurefacesskincare.com/gift-certificate/,,Gift Certificate,,1,CA,92024,beauty_salon
All Seasons Nails Hair & Wax,"1507 E Valley Pkwy #2, Escondido, CA 92027",Nail salon,Escondido,,http://allseasonnailhairwax.com/,,http://allseasonnailhairwax.com/giftcards,http://allseasonnailhairwax.com/contact,Gift Cards,Contact US,1,CA,92027,beauty_salon
Eyebrow Threading Salon,"306 W El Norte Pkwy Suite L, Escondido, CA 92026",Beauty salon,Escondido,,http://www.sdthreading.com/,,http://www.sdthreading.com/gifts.html,http://www.sdthreading.com/contact.html,,,1,CA,92026,beauty_salon
Skin and Tonique,"300 S Escondido Blvd, Escondido, CA 92025",Permanent makeup clinic,Escondido,,https://www.skinandtonique.com/,,https://squareup.com/gift/XS183J0D5TGWZ/order,https://www.skinandtonique.com/contact,"
        E-Gift Cards
      ","
            Contact
          ",1,CA,92025,beauty_salon
Bella TheSe Day Spa,"4171 Suisun Valley Rd suite d, Fairfield, CA 94534",Day spa,Fairfield,,http://www.bellathese.com/,,https://www.vagaro.com/bellathesedayspa/gift-certificates,https://bellathese.com/contact/,"
Give a Gift",Contact,1,CA,94534,beauty_salon
Skincare 4 All Seasons,"1545 N Texas St #301, Fairfield, CA 94533",Skin care clinic,Fairfield,,https://www.skincare4allseasons.com/,,http://www.skincare4allseasons.com/gift-certificate,"http://maps.google.com/?q=1545 N. Texas Street, Fairfield, CA 94533",Gift Certificate,,1,CA,94533,beauty_salon
BELLA BY KCLYN,"411 Main St A, Suisun City, CA 94585",Day spa,Suisun City,,http://bellabykclyn.com/,,https://squareup.com/gift/0MX4ASANRBVZE/order,,E-GIFT CERTIFICATE,,1,CA,94585,beauty_salon
Suite Serenity Makeup and Skincare,"1725 Iron Point Rd #109, Folsom, CA 95630",Beauty salon,Folsom,,http://suiteserenitymakeupandskincare.com/,,http://stylenet.com/SuiteSerenity/gift-certificates/,http://stylenet.com/SuiteSerenity/contact-us/,Gift Certificates,Contact Us,1,CA,95630,beauty_salon
Esthetics by Meghan Buchanan LE,"13405 Folsom Blvd building 700 suite 750, Folsom, CA 95630",Tanning salon,Folsom,,http://www.meghanbesthetics.com/,,https://squareup.com/gift/5K1M0ZYZM6MSE/order,,15% off e-Gift cards,,1,CA,95630,beauty_salon
Beyond Skin By Kerry,"929 Sutter St, Folsom, CA 95630",Facial spa,Folsom,,https://www.beyondskinbykerry.com/,,https://www.beyondskinbykerry.com/pages/shop,https://www.beyondskinbykerry.com/pages/contact,GIFT CERTIFICATES,CONTACT,1,CA,95630,beauty_salon
Tanya Martin Skincare,"1004 River Rock Dr Suite 150, Folsom, CA 95630",Beauty salon,Folsom,,http://www.tanyamartinskincare.com/,,http://www.tanyamartinskincare.com/gift-cards,http://www.tanyamartinskincare.com/contact,"
            Gift Cards
          ","
            Contact
          ",1,CA,95630,beauty_salon
Exclusively Aesthetics,"1731 Creekside Drive Suite #150 Studio #107, Folsom, CA 95630",Facial spa,Folsom,,https://www.exclusivelyaesthetics.com/,,https://exclusivelyaesthetics.com/?product=gift-certifcate,https://exclusivelyaesthetics.com/contacts/,GIFT CERTIFICATES,(916) 597-6635,1,CA,95630,beauty_salon
Adagio for Hair Salon,"4356 Town Center Blvd, El Dorado Hills, CA 95762",Beauty salon,El Dorado Hills,,http://adagioforhair.com/,,https://www.instagram.com/p/B-PqjfRDtux/,https://adagioforhair.com/contact-us/,"
Instagram post 2274223493552724913_1199602063

",Contact Us,1,CA,95762,beauty_salon
MayAllure,"500 Plaza Dr # 19, Folsom, CA 95630",Beauty salon,Folsom,,https://mayallure.com/,,https://squareup.com/gift/BG9RBJTMR45RT/order,https://mayallure.com/tel:9162726338,Click here to help MayAllure during this difficult time by purchasing a gift card.,(916) 272-6338,1,CA,95630,beauty_salon
Soleil Luna Nail Spa,"176 W 25th Ave, San Mateo, CA 94403",Nail salon,San Mateo,,http://www.soleillunanailspa.com/,,http://www.soleillunanailspa.com/#gift_cards,http://www.soleillunanailspa.com/#contact_us,Gift Cards,Contact,1,CA,94403,beauty_salon
Onyx Salon,"1113 Burlingame Ave, Burlingame, CA 94010",Beauty salon,Burlingame,,http://www.onyxsalonburlingame.com/,,https://onyxsalon.millenniumegift.com/,http://www.onyxsalonburlingame.com/contact/,Gift Certificates,Contact,1,CA,94010,beauty_salon
Baysix Health Center,"636 El Camino Real, Redwood City, CA 94063",Massage therapist,Redwood City,,http://www.baysixhealthcenter.com/,,http://clients.mindbodyonline.com/ws.asp?studioid=9971&stype=42,https://www.baysixhealthcenter.com/contact,Gift Certificates,Contact,1,CA,94063,beauty_salon
Origins Massage and Bodyworks,"18303 Brookhurst St, Fountain Valley, CA 92708",Day spa,Fountain Valley,,http://www.originsmassage.com/,,http://clients.mindbodyonline.com/ws.asp?studioid=8245&stype=42,https://originsmassage.com/contact/,Gift Cards,Contact,1,CA,92708,beauty_salon
Salon Valenti Hair Nails Skin,"43360 Mission Blvd #130, Fremont, CA 94539",Hair salon,Fremont,,http://www.salonvalenti.com/,,http://stylenet.com/SalonValenti/gift-cards/,http://stylenet.com/SalonValenti/contact-us/,Gift Cards,Contact & Policies,1,CA,94539,beauty_salon
Great Clips in Fremont  Osgood Road,"44029 Osgood Rd #150, Fremont, CA 94539",Hair salon,Fremont,Casual salon offering haircuts for adults & kids along with professional styling products for sale.,http://www.greatclips.com/,,https://www.greatclips.com/gift-card-balance,https://www.greatclips.com/about-us/contact-us,Gift Card Balance,Contact Us,1,CA,94539,beauty_salon
Le Soma Clinique,"41277 Roberts Ave #4, Fremont, CA 94538",Day spa,Fremont,"Facials, massage, body treatments, spray tans, waxing & more in a simple, unassuming locale.",http://www.lesoma-clinique.com/,,https://www.thegiftcardcafe.com/cart/indexpac.php?storeID=3886,http://www.lesoma-clinique.com/contact," GIFT CERTIFICATES

"," CONTACT

",1,CA,94538,beauty_salon
Wig It2 Urban Salon,"2100 N Winery Ave #104, Fresno, CA 93703",Hair salon,Fresno,"Salon offering natural hair styling as well as replacements, custom wigs & toupees.",http://www.wigit2.com/,,https://www.wigit2.com/apps/webstore/products/category/1413634,https://www.wigit2.com/contact-us,Purchase Gift Certificates,Contact Us,1,CA,93703,beauty_salon
Sheer Bliss,"1910 N Echo Ave, Fresno, CA 93704",Facial spa,Fresno,,https://www.mysheerbliss.com/,,https://www.mysheerbliss.com/pages/gift-certificates,https://sheer-bliss-organic-spa.myshopify.com/pages/contact-us-spa-policy,Gift Certificates,"
            Contact Us | Spa Policy
            


",1,CA,93704,beauty_salon
Muses Day Spa & Wellness Center,"8525 N Cedar Ave, Fresno, CA 93720",Day spa,Fresno,,http://www.musesspa.com/,,http://www.musesspa.com/purchase-a-gift-card,http://www.musesspa.com/contact-us,Purchase a Gift Card,Contact Us,1,CA,93720,beauty_salon
DEA Skin Centre,"121 Artsakh Ave, Glendale, CA 91206",Laser hair removal service,Glendale,,https://deaskincentre.com/,,https://deaskincentre.com/gift-cards/,,Gift Cards,,1,CA,91206,beauty_salon
Bokaos Aveda,"52 Hugus Alley, Pasadena, CA 91103",Beauty salon,Pasadena,,http://bokaosaveda.com/,,https://online-booking.salonbiz.com/olb/!page.widget_start?wbid=c477t201603041318p5V86438vyUV25PCpK48T&theme=1263&p_start=2,, Purchase a Gift Card,,1,CA,91103,beauty_salon
Pure Tan,"2563 N 11th Ave, Hanford, CA 93230",Tanning salon,Hanford,,http://www.puretanca.com/,,https://squareup.com/gift/WY0WJWW0TB4SP/order,http://www.puretanca.com/tel:5595840826,Buy Now,(559) 584-0826,1,CA,93230,beauty_salon
Beach Beauty Bar and Acne Clinic,"1120 CA-1 D, Huntington Beach, CA 92648",Skin care clinic,Huntington Beach,,http://www.beachbeautybar.com/,,https://beachbeautybar.com/product-category/gift-cards/,https://beachbeautybar.com/contact/,Gift Cards,"1120 Pacific Coast Highway, Suite D, Huntington Beach, CA 92648  ph: 714-391-1973",1,CA,92648,beauty_salon
Iconic Hair  The Huntington Beach Salon,"18531 Main St Suite #130, Huntington Beach, CA 92648",Hair salon,Huntington Beach,,http://www.iconic-hair.com/,,https://squareup.com/gift/6GFS5NQEKPVCF/order,https://www.iconic-hair.com/contact-us,"GIFT CARDS




",Contact Us,1,CA,92648,beauty_salon
CloudMover Day Spa,"18685 Main St STE 104, Huntington Beach, CA 92648",Day spa,Huntington Beach,,http://www.cloudmover.com/,,https://www.secure-booker.com/cloudmover/ShopOnline/GiftCertificate.aspx,https://www.cloudmover.com/contact/,,Contact Us,1,CA,92648,beauty_salon
Haven of Wellness Day Spa,"315 3rd St Ste K, Huntington Beach, CA 92648",Day spa,Huntington Beach,,http://www.havenofwellness.com/,,https://havenofwellness.boomtime.com/lgift,https://www.havenofwellness.com/contact,Instant Gift Certificates,Contact,1,CA,92648,beauty_salon
Hand & Stone Massage and Facial Spa,"19732 Beach Blvd, Huntington Beach, CA 92648",Massage therapist,Huntington Beach,,https://www.handandstonehuntingtonbeach.com/,,https://handstone.boomtime.com/lgift,https://www.handandstonehuntingtonbeach.com/#,Instant Gift Cards,Contact Us,1,CA,92648,beauty_salon
The TANNERY,"16075 Goldenwest St, Huntington Beach, CA 92647",Spa,Huntington Beach,,http://thetanneryco.com/,,https://go.booker.com/location/thetannery/buy/gift-certificate,,"
        Gift Cards
      ",,1,CA,92647,beauty_salon
Healing Horizons Massage & Spa,"17672 Beach Blvd Suite #E, Huntington Beach, CA 92647",Massage spa,Huntington Beach,,http://healinghorizonsdayspa.com/,,http://healinghorizonsdayspa.com/#c-jzke6buvWhdo,http://healinghorizonsdayspa.com/bWFpbHRvOmhlYWxpbmdob3Jpem9uc2RheXNwYUBnbWFpbC5jb20=,Gift Certificates,aGVhbGluZ2hvcml6b25zZGF5c3BhQGdtYWlsLmNvbQ==,1,CA,92647,beauty_salon
Lynda's Hair Braiding & Beauty Supply,"17985 Main St Bldg 40 Ste. C, Irvine, CA 92614",Hair salon,Irvine,,http://www.lyndashair.com/,,http://www.lyndashair.com/products/gift-card,http://www.lyndashair.com/pages/contact-us,Gift Cards,Contact,1,CA,92614,beauty_salon
House of Lange at Irvine Spectrum Center,"719 Spectrum Center Dr, Irvine, CA 92618",Beauty salon,Irvine,,https://www.houseoflange.com/,,https://gift-cards.phorest.com/salons/houseoflangehairdesign,https://www.houseoflange.com/contact,GIFT CARDS,Contact,1,CA,92618,beauty_salon
MassageLuXe,"3800 Barranca Pkwy E, Irvine, CA 92606",Massage therapist,Irvine,,http://massageluxe.com/,,http://massageluxe.com/us,https://massageluxe.com/contact-2/,Gift Certificates,Contact Us,1,CA,92606,beauty_salon
Image Perfect Laser,"4605 Barranca Pkwy Suite 205, Irvine, CA 92604",Medical spa,Irvine,,https://imageperfectlaser.com/,,https://imageperfectlaser.com/gift-certificate/,https://imageperfectlaser.com/contact-us/,Gift Certificate,Make an Appointment,1,CA,92604,beauty_salon
MasterCuts,"22500 Town Cir #1193, Moreno Valley, CA 92553",Beauty salon,Moreno Valley,,https://www.mastercuts.com/,,https://www.mastercuts.com/gift-cards.html,https://www.mastercuts.com/about-signature-style/contact-us.html,Gift Cards ,Contact Us,1,CA,92553,beauty_salon
Advance Beauty College,"25332 McIntyre St, Laguna Hills, CA 92653",Beauty salon,Laguna Hills,,https://advancebeautycollege.com/,,https://abcgg.favesalon.com/index.html?action=buy-gift-card,https://advancebeautycollege.com/contact-us/,Gift Card Garden Grove location,Contact Us,1,CA,92653,beauty_salon
Rich Low Hair at Serandi Salon,"#100, 3267, 1833 S Coast Hwy, Laguna Beach, CA 92651",Beauty salon,Laguna Beach,,http://www.richlowhair.com/,,http://bit.ly/RichLowHairGiftCards,,Gift Cards,,1,CA,92651,beauty_salon
D'Modern Beauty Microblading Lash Skin Studio Dana Point,"32525 Street of the, Golden Lantern C, Dana Point, CA 92629",Beauty salon,Dana Point,,https://www.dmodernbeauty.com/,,https://squareup.com/gift/W1HM5H8M8VJ6S/order,,Buy Gift Cards Online,,1,CA,92629,beauty_salon
Ocean NailBar,"1100 S Coast Hwy #112, Laguna Beach, CA 92651",Beauty salon,Laguna Beach,,https://oceannailbar.com/,,https://oceannailbar.com/egift-cards,https://oceannailbar.com/tel:9497153989,eGift Cards,949-715-3989,1,CA,92651,beauty_salon
Belo Blow Dry Bar,"302 Forest Ave, Laguna Beach, CA 92651",Hair salon,Laguna Beach,,http://beloblowdrybar.com/,,https://www.instagram.com/p/B-YRMLcFCBE/,http://beloblowdrybar.com/contact-us,"

","
            Contact Us
          ",1,CA,92651,beauty_salon
skinterest wellness spa,"384 Forest Ave #27, Laguna Beach, CA 92651",Day spa,Laguna Beach,,http://www.lagunabeachbeauty.com/,,https://www.secure-booker.com/ymspa/ShopOnline/GiftCertificate.aspx,https://www.lagunabeachbeauty.com/contact/,Gift Cards,Contact,1,CA,92651,beauty_salon
Therapy Cryosalon,"22622 Lambert St #308, Lake Forest, CA 92630",Massage therapist,Lake Forest,,http://www.therapycryosalon.com/,,https://www.instagram.com/p/B54WXiQJvNK/,http://www.therapycryosalon.com/#contact-us,"

","
              Contact
            ",1,CA,92630,beauty_salon
Oc Westhetics by Vero West,"138 inside Phenix salon, 23600 Rockfield Blvd Unit 2-C. Suite, Lake Forest, CA 92630",Waxing hair removal service,Lake Forest,,http://www.ocwesthetics.com/,,https://www.ocwesthetics.com/gift-card,https://www.ocwesthetics.com/contact,Buy Gift Card,Contact,1,CA,92630,beauty_salon
Antelope Springs Day Spa,"1672 W Ave J UNIT 202, Lancaster, CA 93534",Massage therapist,Lancaster,,http://www.antelopesprings.net/,,http://www.antelopesprings.net/GiftCertificates.html,,,,1,CA,93534,beauty_salon
Decadence Organic Beauty Boutique,"41973 50th St W, Quartz Hill, CA 93536",Facial spa,Quartz Hill,,http://www.decadencebeautyboutique.com/,,http://www.decadencebeautyboutique.com/collections/gift-cards,http://www.decadencebeautyboutique.com/pages/contact-us,"
                GIFT CARDS
            ",Contact Us,1,CA,93536,beauty_salon
A Day Spa,"8348 Center Dr, La Mesa, CA 91942",Day spa,La Mesa,,http://adayspa.com/,,https://www.adayspa.com/ecommerce/,,Daily Deal & Purchase Gift Certificate,,1,CA,91942,beauty_salon
Heavenly Treatment,"364 S Livermore Ave, Livermore, CA 94550",Day spa,Livermore,,http://www.heavenlytx.com/,,https://www.thegiftcardcafe.com/cart/index.php?storeID=3221,http://www.heavenlytx.com/contact-us,ONLINE GIFT CARDS,"
                CONTACT US
              ",1,CA,94550,beauty_salon
Livermore Barber Shop Third Street OG,"2027 Third St, Livermore, CA 94550",Hair salon,Livermore,,http://www.livermorebarbershop.com/,http://places.singleplatform.com/hairtini/menu?ref=google,https://www.vagaro.com/livermorebarbershop/gift-certificates,,Here,,1,CA,94550,beauty_salon
La La Lashes Boutique,"1240 W Robinhood Dr F, Stockton, CA 95207",Beauty salon,Stockton,,http://www.lalalashesboutique.com/,,https://clients.mindbodyonline.com/classic/ws?studioid=924925&stype=42,https://www.lalalashesboutique.com/contact,Gift Certificate ,Contact,1,CA,95207,beauty_salon
Salon Soma,"203 Glendora Ave, Long Beach, CA 90803",Hair salon,Long Beach,,http://www.salonsoma.com/,,http://www.salonsoma.com/salon-soma-giftcards,http://www.salonsoma.com/contact,"
                  Salon Soma Giftcards
                ","
                Contact
              ",1,CA,90803,beauty_salon
Essencial Studio,"3550 Long Beach Blvd Suite F, Long Beach, CA 90807",Skin care clinic,Long Beach,,https://www.essencialstudio.net/,,http://www.secure-booker.com/essencialstudio/InstantGiftCertificate.aspx,https://www.essencialstudio.net/contact,Buy Gift Certificate,CONTACT,1,CA,90807,beauty_salon
La Dolce Vita Spa,"927 E Broadway, Long Beach, CA 90802",Day spa,Long Beach,,http://www.ladolcevitaspa.com/,,https://www.ladolcevitaspa.com/gift-certificates,https://www.ladolcevitaspa.com/contact,gift certificates,contact,1,CA,90802,beauty_salon
Salon Benders,"957 E 4th St, Long Beach, CA 90802",Hair salon,Long Beach,,http://www.salonbenders.com/,,https://www.vagaro.com/salonbenders/gift-certificates,, Gift Card,,1,CA,90802,beauty_salon
Polished Rx Skin Couture,"5708 2nd St, Long Beach, CA 90803",Skin care clinic,Long Beach,"High-end medical & beauty spa administering custom facials, anti-aging & other skin-care treatments.",http://www.polishedrx.com/,,https://www.polishedrx.com/giftcards/,https://www.polishedrx.com/contact-us/,Gift Cards,Click to Contact,1,CA,90803,beauty_salon
The Nail Bar Los Altos,"981 Fremont Ave, Los Altos, CA 94024",Nail salon,Los Altos,,http://www.thenailbarlosaltos.com/,,https://app.gifted.co/gift-card/252900/,http://www.thenailbarlosaltos.com/tel:6507978779,GO TO THIS LINK,Contact Us Today,1,CA,94024,beauty_salon
Bloom Skincare  Facials Waxing & Microdermabrasion,"220 State St #4, Los Altos, CA 94022",Day spa,Los Altos,,http://www.bloomskincare.com/,,https://squareup.com/gift/TDZKMCW7JZ3P8/order,http://www.bloomskincare.com/contact,BUY GIFT CARDS,Contact,1,CA,94022,beauty_salon
Refine Men's Salon of Mountain View,"565 San Antonio Rd #24, Mountain View, CA 94040",Barber shop,Mountain View,,http://www.refinemv.com/,,https://squareup.com/gift/2P52P4JXYJYFS/order,,Buy Giftcards,,1,CA,94040,beauty_salon
Pursuit Salon,"4744 W El Camino Real, Los Altos, CA 94022",Hair salon,Los Altos,,http://pursuitsalon.com/,,https://gift-cards.phorest.com/salons/pursuitsalon,http://pursuitsalon.com/contact-us/,Gift Card,CONTACT US,1,CA,94022,beauty_salon
Immersion Spa,"3990 El Camino Real, Palo Alto, CA 94306",Spa,Palo Alto,,http://immersionspa.com/,,http://www.secure-booker.com/immersionspa/ShopOnline/GiftCertificate.aspx,https://www.immersionspa.com/about-us/#contact-us,Gift Cards,Contact Us,1,CA,94306,beauty_salon
Shiseido,"380 Castro St, Mountain View, CA 94041",Facial spa,Mountain View,,https://www.shiseido.com/,,https://www.shiseido.com/us/en/gift-card,https://www.shiseido.com/#,"

eGift Card

","
Contact
",1,CA,94041,beauty_salon
French Spa Skin Care by Marianne,"620 S Main St #602, Los Angeles, CA 90014",Beauty salon,Los Angeles,,http://lafrenchspa.com/,,https://lafrenchspa.com/gift-certificate/,,Gift Certificate,,1,CA,90014,beauty_salon
Brow Down Studio,"704 S Spring St, Los Angeles, CA 90014",Facial spa,Los Angeles,,http://www.browdownstudio.com/,,https://squareup.com/gift/82P4AMKE73CBH/order,https://www.yelp.com/biz/brow-down-studio-los-angeles?uid=YKJ2bMj_pwpYoc6RVgpkMg&utm_campaign=www_business_share_popup&utm_medium=copy_link&utm_source=(direct),"
        EGIFTCARDS
      ",Find us on Yelp,1,CA,90014,beauty_salon
Juan Juan Salon,"11674 San Vicente Blvd, Los Angeles, CA 90049",Hair salon,Los Angeles,,http://juanjuansalon.com/,,https://juanjuansalon.com/gift-cards/,,Gift Cards,,1,CA,90049,beauty_salon
The Spa  Los Gatos,"100 S Santa Cruz Ave, Los Gatos, CA 95030",Day spa,Los Gatos,,http://thespaoflosgatos.com/,,http://thespaoflosgatos.com/gift-cards,http://thespaoflosgatos.com/connect,"
            Gift Cards
          ","
            Contact/Map
          ",1,CA,95030,beauty_salon
Azure Spa Los Gatos,"652 N Santa Cruz Ave b, Los Gatos, CA 95030",Spa,Los Gatos,,http://azurespalosgatos.com/,,http://azurespalosgatos.com/giftcards,,"
                GIFT CARDS
              ",,1,CA,95030,beauty_salon
DRYWALK BLOW DRY BAR,"422 N Santa Cruz Ave, Los Gatos, CA 95030",Hair salon,Los Gatos,,http://www.drywalk.com/,,https://www.secure-booker.com/drywalk/ShopOnline/GiftCertificate.aspx,https://drywalkbar.com/contact/,Gift Certificates,CONTACT,1,CA,95030,beauty_salon
Fox & Rose Salon,"529 N Santa Cruz Ave, Los Gatos, CA 95030",Hair salon,Los Gatos,,http://www.foxandrosesalon.com/,,https://www.foxandrosesalon.com/gift-cards,,Gift Cards,,1,CA,95030,beauty_salon
Rocks Blow Dry Bar,"15466 Los Gatos Blvd #113, Los Gatos, CA 95032",Hair salon,Los Gatos,,http://www.rocksblowdrybar.com/,,http://www.secure-booker.com/rocks/ShopOnline/GiftCertificate.aspx,,A Giftcard,,1,CA,95032,beauty_salon
Timeless Skin Spa,"413 B Monterey Ave, Los Gatos, CA 95030",Permanent makeup clinic,Los Gatos,"Facials, waxing & massage, plus permanent makeup, offered in an upscale, charming space.",https://timelessskinspa.com/,,https://www.timelessskinspa.com/gift_certificates.html,,Gift Certificates,Contact,1,CA,95030,beauty_salon
Eye Envy Microblading,"15466 Los Gatos Blvd #207, Los Gatos, CA 95032",Beauty salon,Los Gatos,,https://www.eyeenvymicroblading.com/,,https://squareup.com/gift/HH99CX78M0ZNG/order,https://www.eyeenvymicroblading.com/contact-us,"
        Gift Card
      ","
              Contact
            ",1,CA,95032,beauty_salon
Montage Boutique Spa,"923 N Sepulveda Blvd, Manhattan Beach, CA 90266",Day spa,Manhattan Beach,,http://www.montagemb.com/,,https://www.montagemb.com/product/montage-gift-card/,https://www.montagemb.com/contact/,Gift Cards,Contact,1,CA,90266,beauty_salon
Elegance Spa,"3516 Highland Ave, Manhattan Beach, CA 90266",Beauty salon,Manhattan Beach,,http://www.elegancespa.com/,,https://www.elegancespa.com/quote,https://www.elegancespa.com/contact,INSTANT GIFT CERTIFICATE,CONTACT,1,CA,90266,beauty_salon
Hair On the Run,"246 CA-1, Hermosa Beach, CA 90254",Beauty salon,Hermosa Beach,,http://hairontherun1.com/,,http://hairontherun1.com/gift-certificates,http://hairontherun1.com/tel:3103744247,Gift Certificates,(310) 374-4247,1,CA,90254,beauty_salon
Trilogy Day Spa,"451 Manhattan Beach Blvd, Manhattan Beach, CA 90266",Day spa,Manhattan Beach,,http://www.trilogyspa.com/,,http://www.trilogyspa.com/#e-giftcards,http://www.trilogyspa.com/#contact,E-GIFTCARDS,CONTACT,1,CA,90266,beauty_salon
The ivy day spa,"813 Crest Dr #100, Manhattan Beach, CA 90266",Day spa,Manhattan Beach,,http://www.theivydayspa.com/,,https://ivyspa.boomtime.com/lgift,,Gift Cards,,1,CA,90266,beauty_salon
Beauty Cult,"1312 Aviation Blvd Suite 103, Redondo Beach, CA 90278",Medical spa,Redondo Beach,,https://www.joinbeautycult.com/,,https://clients.mindbodyonline.com/classic/ws?studioid=759204&stype=42,https://www.joinbeautycult.com/contact-med-spa-redondo-beach,Gift Cards,"
            Contact
          ",1,CA,90278,beauty_salon
myoglowskinspa,"950 Aviation Blvd suite j, Hermosa Beach, CA 90254",Beauty salon,Hermosa Beach,,https://www.myoglowskinspa.com/,,https://www.myoglowskinspa.com/gift-cards,https://www.myoglowskinspa.com/contact,Gift Cards,Contact,1,CA,90254,beauty_salon
Dermstore,"1316 Hermosa Ave, Hermosa Beach, CA 90254",Facial spa,Hermosa Beach,,https://www.dermstore.com/,,https://www.dermstore.com/giftcard/order.php,,Gift Cards,,1,CA,90254,beauty_salon
Hermosa Beauty,"703 Pier Ave, Hermosa Beach, CA 90254",Beauty supply store,Hermosa Beach,,http://www.hermosabeauty.com/,,http://www.hermosabeauty.com/giftcertificates.php,,Gift Certificate,,1,CA,90254,beauty_salon
Inspiration Beauty,"644 Menlo Ave, Menlo Park, CA 94025",Beauty salon,Menlo Park,,https://inspirationdayspa.com/,,https://inspirationdayspa.com/gift-cards,https://inspirationdayspa.com/contact-us,Gift Cards,Contact Us,1,CA,94025,beauty_salon
Simply Be Beautiful Salon and Spa,"530A University Ave, Palo Alto, CA 94301",Beauty salon,Palo Alto,,http://www.simplybebeautifulpa.com/,,https://simplybe.boomtime.com/gift,http://www.simplybebeautifulpa.com/contact.html,"
				Gift Certificates
			","
				Contact
			",1,CA,94301,beauty_salon
Sense Spa(r) at Rosewood Sand Hill,"2825 Sand Hill Rd, Menlo Park, CA 94025",Beauty salon,Menlo Park,,http://www.rosewoodhotels.com/,,https://rosewoodgiftcard.com/,http://www.rosewoodhotels.com/en/sand-hill-menlo-park/contact,Purchase Gift Cards,Contact Us,1,CA,94025,beauty_salon
Mahin & Co Beauty Salon,"350 N California Ave, Palo Alto, CA 94306",Nail salon,Palo Alto,,http://www.mahinco.com/,,http://www.mahinco.com/public/gift-card/,http://www.mahinco.com/public/contact/,Gift Card,Contact,1,CA,94306,beauty_salon
Casual Chic Salon,"409 California Ave, Palo Alto, CA 94306",Beauty salon,Palo Alto,,http://casualchicsalon.com/,,https://www.casualchicsalon.com/services/gift-certificates/,http://casualchicsalon.com/#section-contact,Gift Certificates,Contact,1,CA,94306,beauty_salon
188 Fine Men's Salons  Palo Alto Temporarily closed due to COVID19,"855 El Camino Real Building #1 Suite #3, Palo Alto, CA 94301",Beauty salon,Palo Alto,,https://www.188paloalto.com/,,https://eighteeneight.zenoti.com/webstore/GiftCards.aspx?WebstoreType=0&centerid=14de501b-3fb9-445b-8ea3-1ad639e323be,https://www.188paloalto.com/contact/,  Buy e-Gift Card  ,Contact,1,CA,94301,beauty_salon
The Mane Beauty Lounge,"27001 La Paz Rd #192, Mission Viejo, CA 92691",Hair salon,Mission Viejo,,https://manebeautylounge.com/,,https://go.booker.com/location/ManeBeautyLounge/buy/gift-certificate,,Gift Certificates,,1,CA,92691,beauty_salon
In Essence Day Spa,"20532 El Toro Rd #104, Mission Viejo, CA 92692",Day spa,Mission Viejo,"Studio for massage, chiropractic work, facials & waxing, with an outdoor atrium with a waterfall.",http://www.inessencedayspa.com/,,http://inessencedayspa.com/about-us/gift-certificates/,http://inessencedayspa.com/contact-us/,Gift Certificates,Contact Us,1,CA,92692,beauty_salon
Athena Spa at Ayres Hotel Mission Viejo,"28951 Los Alisos Blvd, Mission Viejo, CA 92692",Day spa,Mission Viejo,,http://www.athenaspa-mv.com/,,http://www.athenaspa-mv.com/spa-parties,http://www.athenaspa-mv.com/contact-us,Gift Certificates,Contact Us,1,CA,92692,beauty_salon
Serenity MedSpa & Chiropractic,"2401 Coffee Rd, Modesto, CA 95355",Medical spa,Modesto,,http://www.serenityspachiropractic.com/,,https://www.serenityspachiropractic.com/product-page/900-gift-card,,Quick View$50 Gift Certificate,,1,CA,95355,beauty_salon
LaRue's Massage & Bodywork,"29950 Hunter Rd #101, Murrieta, CA 92563",Massage therapist,Murrieta,,http://www.laruesmassageandbodywork.com/,,http://www.laruesmassageandbodywork.com/gift-certificatesspa-deals,,GIFT CERTIFICATES/SPA DEALS,,1,CA,92563,beauty_salon
Acappella Hair Design & Color Studio,"28780 Old Town Front St C6, Temecula, CA 92590",Beauty salon,Temecula,,http://www.acappellasalon.com/,,https://acappellasalon.com/boutique/#giftc,https://acappellasalon.com/contact/," Gift Certificates
"," Contact
",1,CA,92590,beauty_salon
Greenhaus Day Spa,"1300 Pearl St, Napa, CA 94559",Day spa,Napa,,http://www.greenhausspa.com/,,https://www.secure-booker.com/greenhaus/ShopOnline/GiftCertificate.aspx,https://greenhausspa.com/contact-napa-valley-day-spa/,Gift Certificate,Contact,1,CA,94559,beauty_salon
Blue Water Day Spa  Napa Valley,"1763 2nd St, Napa, CA 94559",Day spa,Napa,,http://bluewaterdayspanapa.com/,,https://bluewaterdayspanapa.com/gift-certificates/,,Gift Certificates & Shopping,,1,CA,94559,beauty_salon
Sugar  Lemon,"1322 3rd St, Napa, CA 94559",Hair removal service,Napa,,https://www.napasugar.com/,,https://www.napasugar.com/instant-gift-certificates.html,https://www.napasugar.com/contact-us.html,"
				Instant Gift Certificates
			","

			Contact Us
		
",1,CA,94559,beauty_salon
Pure Skin Spa,"1401 Lincoln Ave, Napa, CA 94558",Day spa,Napa,,http://pureskinspanapa.com/,,https://pureskinspa.boomtime.com/lgift,https://pureskinspanapa.com/contact-us/,Gift Certificates,Contact Us,1,CA,94558,beauty_salon
Awaken Massage & Spa  Best Facial Napa,"1111 Jefferson St, Napa, CA 94559",Massage therapist,Napa,,http://awakenmassagespa.com/,,http://awakenmassagespa.com/gift-certificates/,http://awakenmassagespa.com/contact-us/,Gift Certificates,Contact,1,CA,94559,beauty_salon
Napa Valley Massage & Wellness Spa,"1227 Coombs St, Napa, CA 94559",Massage spa,Napa,,http://www.nvmassageandwellness.com/,,https://atretinero.boomtime.com/lgift,,Gift Certificates,,1,CA,94559,beauty_salon
Cindy O'Brien Aesthetics,"1763 2nd St, Napa, CA 94559",Beauty salon,Napa,,http://www.bluewaterdayspanapa.com/,,https://bluewaterdayspanapa.com/gift-certificates/,,Gift Certificates & Shopping,,1,CA,94559,beauty_salon
The Spa at Napa River Inn,"1091 5th St, Napa, CA 94559",Day spa,Napa,,http://www.napariverinn.com/,,https://www.napariverinn.com/gift-certificates/,http://www.napariverinn.com/contact/,"
									Gift Certificates
								","
					Contact
				",1,CA,94559,beauty_salon
Spa Terra,"875 Bordeaux Way, Napa, CA 94558",Day spa,Napa,,https://meritagecollection.com/,,https://www.secure-booker.com/meritage/ShopOnline/GiftCertificate.aspx,https://meritagecollection.com/meritage-resort/discover/contact-us,Spa Gift Certificates,Contact Us,1,CA,94558,beauty_salon
Klipper Cutz Barbershop,"605 Highland Ave, National City, CA 91950",Barber shop,National City,,http://www.facebook.com/,,http://www.facebook.com/klippercutz/photos/pb.1877644542481484.-2207520000../2625145847731346/?type=3&eid=ARBjViv862E-i4MeaaHriQVnMdXVy9OJy_3Osbp89yA4ACjdkdhurse1NJfJ5hUsXTNY1KK8fOea8LAC,http://www.facebook.com/#,,Contact Klipper Cutz Barbershop on Messenger,1,CA,91950,beauty_salon
Nail Salon Near Me  Newport Beach,"4509 West Coast Hwy, Newport Beach, CA 92663",Nail salon,Newport Beach,,http://nailsalonnearmeoc.com/,,http://nailsalonnearmeoc.com/#buy-gift-card,,Purchase,,1,CA,92663,beauty_salon
Number 4 High Performance Hair,"3400 Irvine Ave #115a, Newport Beach, CA 92660",Beauty salon,Newport Beach,,https://www.number4hair.com/,,https://www.number4hair.com/shop/featured-products/gift-card/,https://www.number4hair.com/concierge/,N4 Gift Cards,Contact Us,1,CA,92660,beauty_salon
Spa Gregorie's Newport Beach,"200 Newport Center Dr Suite 100, Newport Beach, CA 92660",Beauty salon,Newport Beach,,https://spagregories.com/,,https://www.spagregories.com/gift-certificates/,,Gift Certificates,,1,CA,92660,beauty_salon
Newport Beach MedSpa,"100 West Coast Hwy Suite #102, Newport Beach, CA 92663",Medical spa,Newport Beach,,https://www.newportbeachmedspa.com/,,//newportbeachmedspa.myshopify.com/collections/all,https://www.newportbeachmedspa.com/contactus.aspx,Gift Cards and Products,Contact Us,1,CA,92663,beauty_salon
Mobile Massage Newport Beach,"13 Corporate Plaza Dr #100, Newport Beach, CA 92660",Massage therapist,Newport Beach,,http://www.amagictouchmobilemassage.com/,,https://amagictouchmobilemassage.com/gift-certificates-for-mobile-massage/,https://amagictouchmobilemassage.com/contact-us/,gift certificates for mobile massage,contact us,1,CA,92660,beauty_salon
OC Peel Bar,"456 Old Newport Blvd, Newport Beach, CA 92663",Day spa,Newport Beach,,http://ocpeelbar.com/,,https://www.instagram.com/p/B0Q_eKjBRB0/,http://ocpeelbar.com/connect,"

","
            Contact
          ",1,CA,92663,beauty_salon
All About Face,"359 San Miguel Dr #106, Newport Beach, CA 92660",Skin care clinic,Newport Beach,,http://aboutfaceandbody.org/,,https://squareup.com/gift/1C14P7Y95G7ZA/order,https://aboutfaceandbody.org/?page_id=35,EGift Card,Contact,1,CA,92660,beauty_salon
A Little Touch of Heaven,"3363 Via Lido, Newport Beach, CA 92663",Day spa,Newport Beach,,http://aliltouchofheaven.com/,,http://aliltouchofheaven.com/purchase-gift-card,,GIFT CARDS,,1,CA,92663,beauty_salon
Rochell Overn Esthetics,"1530 Center Rd #14, Novato, CA 94947",Facial spa,Novato,,http://rochellovern.com/,,https://rochellovern.glossgenius.com/gift-cards,https://www.rochellovern.com/contact,Gift Cards Available,Contact,1,CA,94947,beauty_salon
Beauty Heroes,"817 Grant Ave, Novato, CA 94945",Health and beauty shop,Novato,,http://www.beauty-heroes.com/,,https://shop.beauty-heroes.com/shop/gift-card/,https://www.beauty-heroes.com/about/contact/,Gift Cards,Contact,1,CA,94945,beauty_salon
Elise Armeen,"1114 Grant Ave, Novato, CA 94945",Hair salon,Novato,,https://www.elisearmeen.com/,,https://www.instagram.com/p/B6Le5liJbY0/,https://www.instagram.com/p/B61TiyKJPQz/,"

","

",1,CA,94945,beauty_salon
Village Clip Joint,"816 Grant Ave, Novato, CA 94945",Hair salon,Novato,,https://www.villageclipjoint.com/,,https://squareup.com/gift/0049KJBF1VRZG/order,https://www.villageclipjoint.com/contact,Click here for GIFT CERTIFICATE,Contact,1,CA,94945,beauty_salon
DAVID JAMES,"1018 B St, San Rafael, CA 94901",Beauty salon,San Rafael,,http://www.davidjamessalons.com/,,https://www.instagram.com/p/B-X6ovGDPi5/,http://www.davidjamessalons.com/mailto:david@davidjamessalons.com?subject=DJS.%20Contact,"

",email us,1,CA,94901,beauty_salon
Bilancio,"1414 4th St, San Rafael, CA 94901",Beauty salon,San Rafael,,http://www.salonbilancio.com/,,http://www.salonbilancio.com/gift-certificate/,https://www.salonbilancio.com/contact/,,CONTACT,1,CA,94901,beauty_salon
Classy Nails 2,"2017 Mission Ave, Oceanside, CA 92058",Nail salon,Oceanside,,http://classynails.net/,,http://classynails.net/gift-cards,http://classynails.net/contact,Gift Cards,Contact Us,1,CA,92058,beauty_salon
Entourage Salon,"530 Carlsbad Village Dr, Carlsbad, CA 92008",Beauty salon,Carlsbad,,http://www.entouragesalon.com/,,http://www.entouragesalon.com/gift-items-gift-certificates-2/,http://www.entouragesalon.com/contact-us/,Gift Items & Gift Certificates,Contact Us,1,CA,92008,beauty_salon
Fresh Look By Katrina,"1108 E Katella Ave, Orange, CA 92867",Permanent makeup clinic,Orange,,http://www.freshlook4u.com/,,https://www.freshlook4u.com/gift-cards/,https://www.freshlook4u.com/contact/,Gift Cards,Contact,1,CA,92867,beauty_salon
Facials and Skin Care By Debbie,"3606 E Chapman Ave, Orange, CA 92869",Facial spa,Orange,,https://www.facialsinorange.com/,,https://squareup.com/gift/2QBQCT20AQWEM/order,https://www.facialsinorange.com/contact/,"

Get Your Gift Card

",Contact,1,CA,92869,beauty_salon
Mel's Skinspa Ink,"4122 E Chapman Ave #29, Orange, CA 92869",Skin care clinic,Orange,,http://www.melsskinspaink.com/,,http://www.melsskinspaink.com/gift-cards,http://www.melsskinspaink.com/tel:9494239279,Gift Cards,(949) 423-9279,1,CA,92869,beauty_salon
The Gardens Wellness Spa,"900 E Katella Ave suite g, Orange, CA 92867",Massage spa,Orange,,http://thegardenswellnessspa.com/,,https://thegardenswellnessspa.com/gift-certificates-gardens-wellness-spa/,http://thegardenswellnessspa.com/#!,Gift Certificates,Contact,1,CA,92867,beauty_salon
Bella Mar Day Spa and Salon,"1901 S Victoria Ave #105, Oxnard, CA 93035",Beauty salon,Oxnard,,http://www.bellamarspa.com/,,https://bellamarspa.com/product/gift-certificate/,,Shop,,1,CA,93035,beauty_salon
Euphoria Nails & Spa,"191 W Esplanade Dr, Oxnard, CA 93036",Nail salon,Oxnard,,http://euphorianailsspa.com/,,http://euphorianailsspa.com/gift-card,http://euphorianailsspa.com/contactus,E-Gift,Contact Us,1,CA,93036,beauty_salon
LUXE Salon and Day Spa,"1752 S Victoria Ave, Ventura, CA 93003",Beauty salon,Ventura,,http://www.ventura-salon.com/,,https://ventura-salon.com/book-now-gift-cards/,https://ventura-salon.com/about-us/contact/,Book Now / Gift Cards,Contact Us,1,CA,93003,beauty_salon
Honeycomb Salon,"3915 24th St C, San Francisco, CA 94114",Hair salon,San Francisco,,http://www.honeycombsalon.com/,,https://squareup.com/gift/CTY7CYBPR202H/order,,purchase an e-gift certificate online »,,1,CA,94114,beauty_salon
Chignon,"41 Union St, Pasadena, CA 91103",Hair salon,Pasadena,,http://www.chignonsalon.com/,,https://squareup.com/gift/PHE1VJNRRQWMR/order,,Buy a gift card,,1,CA,91103,beauty_salon
NS Secret Salon,"1729 E Washington Blvd, Pasadena, CA 91104",Beauty salon,Pasadena,,https://nssecretsalon.com/,,https://squareup.com/gift/P6QNAR8PDDWWK/order,https://nssecretsalon.com/contact/,Click Here to Purchase eGift cards,Contact,1,CA,91104,beauty_salon
Yolo Studio,"850 E Green St, Pasadena, CA 91101",Beauty salon,Pasadena,,http://www.yolostudiopasadena.com/,,https://squareup.com/gift/AQAS38Z6TJK2Q/order,https://www.yolostudiopasadena.com/contact,GIFT CARDS,CONTACT US,1,CA,91101,beauty_salon
Skin Deep Laser Medspa,"425 S Fair Oaks Ave, Pasadena, CA 91105",Medical spa,Pasadena,,https://www.skindeeplaser.com/,,https://skindeeplaser.boomtime.com/lgift,https://www.skindeeplaser.com/contactus,"
Gift Certificates
","
Contact
",1,CA,91105,beauty_salon
Cheeks & Co,"20 S Raymond Ave, Pasadena, CA 91105",Facial spa,Pasadena,,http://www.cheeks.co/,,https://go.booker.com/location/CheeksCo/buy/gift-certificate,http://www.cheeks.co/pages/contact-us,Gift Certificates,Contact Us ,1,CA,91105,beauty_salon
Harmon Face Values,"3609 E Foothill Blvd, Pasadena, CA 91107",Beauty supply store,Pasadena,,http://www.harmondiscount.com/,,http://www.harmondiscount.com/Gift-Cards/c/1251,http://www.harmondiscount.com/Contact-Multipurpose-Solution/c/1132,Gift Cards,Contact & Multipurpose Solution,1,CA,91107,beauty_salon
Keith O'Brien Hair Design,"135 Keller St suite D, Petaluma, CA 94952",Hair salon,Petaluma,,https://www.keithobrienhair.com/,,https://squareup.com/gift/9S5DAAY31BF9X/order,https://www.keithobrienhair.com/contact-keith-obrien-hair-petaluma-ca,," Contact
",1,CA,94952,beauty_salon
Florencia Skin Care,"718 E Washington St, Petaluma, CA 94952",Skin care clinic,Petaluma,,https://www.florenciaskin.com/,,https://www.florenciabeauty.com/products/florencia-services-gift-certificate,https://www.florenciaskin.com/contact-us/,Gift Certificates,Contact Us,1,CA,94952,beauty_salon
Sensational Skin,"186 Keller St, Petaluma, CA 94952",Beauty salon,Petaluma,,http://www.sensationalskinspa.com/,,https://squareup.com/gift/YZ9F0A4VBPS9Q/order,http://www.sensationalskinspa.com/contact-us,Buy a Gift Card,Contact Us,1,CA,94952,beauty_salon
Aesthetics y Flores,"800 Baywood Dr Ste C, Petaluma, CA 94954",Facial spa,Petaluma,,https://www.aestheticsyflores.com/,,https://aestheticsyflores.glossgenius.com/gift-cards,https://www.aestheticsyflores.com/tel:7077826979,BUY NOW,707.782.6979,1,CA,94954,beauty_salon
Skin & Body Aesthetics,"1580 E Washington St #107, Petaluma, CA 94954",Facial spa,Petaluma,,https://www.skinandbodyaesthetics.com/,,https://squareup.com/gift/2Q44K27NFCCG4/order,https://www.skinandbodyaesthetics.com/contact,Buy EGIFT CARD,Book,1,CA,94954,beauty_salon
Glamor Nails and Spa,"1071 N Tustin Ave #105, Anaheim, CA 92807",Nail salon,Anaheim,,http://glamornailandspa.com/,,https://giftup.app/place-order/3e22f07e-7308-4868-9367-9dfd9a027d79,https://glamornailandspa.com/contact.html,Gift Card,Contact Us,1,CA,92807,beauty_salon
HD Beauty Skincare Boutique,"16486 Bernardo Center Dr #120, San Diego, CA 92128",Facial spa,San Diego,,http://theskincareboutique.com/,,https://theskincareboutique.com/product/gift-card/,https://theskincareboutique.com/contact-us/,Gift Cards,Contact,1,CA,92128,beauty_salon
Nova Nail Spa,"10175 Rancho Carmel Dr, San Diego, CA 92128",Nail salon,San Diego,,http://novanailspasandiego.com/,,http://novanailspasandiego.com/giftcards,http://novanailspasandiego.com/contact,Gift Cards,Contact Us,1,CA,92128,beauty_salon
Pure Vitality Skin and Body,"15731 Bernardo Heights Pkwy #104, San Diego, CA 92128",Skin care clinic,San Diego,,http://www.purevitalityskinandbody.com/,,https://www.purevitalityskinandbody.com/gift-certificates,https://www.purevitalityskinandbody.com/contact,Gift Certificates,Contact & Hours,1,CA,92128,beauty_salon
Zenspa,"11865 Carmel Mountain Rd Suite #1102, San Diego, CA 92128",Day spa,San Diego,,http://www.zenspasandiego.com/,,https://zenspasandiego.com/buy-gift-cards-2/,https://zenspasandiego.com/contact-us/,Buy Gift Cards,Contact,1,CA,92128,beauty_salon
All About Me Medical Day Spa,"12650 Sabre Springs Pkwy #201, San Diego, CA 92128",Medical spa,San Diego,,https://www.allaboutmemedispa.com/,,http://www.secure-booker.com/allaboutmemed/InstantGiftCertificate.aspx,https://www.allaboutmemedispa.com/contactus,"
Gift Certificates
","
Contact
",1,CA,92128,beauty_salon
Aura Salon Day Spa,"13859 Carmel Valley Rd, San Diego, CA 92130",Beauty salon,San Diego,,http://www.aurasalondayspa.com/,,http://www.aurasalondayspa.com/aura%20gift%20certificates.htm,http://www.aurasalondayspa.com/aura%20contact%20us.htm,"
GIFT CERTIFICATES","
CONTACT US",1,CA,92130,beauty_salon
Sour Lashes Studio,"7365 Carnelian St #101, Rancho Cucamonga, CA 91730",Beauty salon,Rancho Cucamonga,,http://www.sourlashes.com/,,https://squareup.com/gift/31YGD2X2ARSNY/order,https://www.sourlashes.com/contact,eGift Cards,Contact,1,CA,91730,beauty_salon
Sweet & Sassy,"6237 Quartz Ave, Rancho Cucamonga, CA 91701",Beauty salon,Rancho Cucamonga,,https://www.sweetandsassy.com/,,https://www.sweetandsassy.com/about-us/gift-cards-certificates/,//contact-us/,Gift Cards & Certificates,Contact Us,1,CA,91701,beauty_salon
Beyond Bella Skin Care,"10828 Foothill Blvd, Rancho Cucamonga, CA 91730",Beauty salon,Rancho Cucamonga,,http://beyondbella.net/,,https://beyondbella.net/e-gift-card/,https://www.facebook.com/beyondbellaskincare/photos/a.1465454323693042/2525438031027994/?type=3,Gift Cards,,1,CA,91730,beauty_salon
Bella Vous,"7890 Haven Ave #7, Rancho Cucamonga, CA 91730",Nail salon,Rancho Cucamonga,,http://www.bellavouspa.com/,,https://www.bellavouspa.com/gift-certificates,https://www.bellavouspa.com/contact,Gift Certificates,Contact,1,CA,91730,beauty_salon
Vida Salon,"2030 Fourth St, Berkeley, CA 94710",Hair salon,Berkeley,,http://ketersalon.com/,,https://www.thegiftcardcafe.com/cart/index.php?storeID=18709,,,,1,CA,94710,beauty_salon
Essentials Laser & Imaging,"7360 Milliken Ave, Rancho Cucamonga, CA 91730",Laser hair removal service,Rancho Cucamonga,,http://www.essentialmedspa.com/,,https://squareup.com/gift/9M6GCSZB6SZG5/order,,"PURCHASE A GIFT CARD




",,1,CA,91730,beauty_salon
Skincare By Di,"30501 Avenida De Las Flores, Suite B-1, #115, Rancho Santa Margarita, CA 92688",Day spa,Rancho Santa Margarita,,http://www.skincarebydi.com/,,https://www.thegiftcardcafe.com/cart/index.php?storeID=11476,http://skincarebydi.com/contact/,Give the gift of great skin.,CONTACT,1,CA,92688,beauty_salon
Gild Beauty Bar,"1650 East St, Redding, CA 96001",Beauty salon,Redding,,http://gildbeautybar.com/,,https://squareup.com/gift/252D85Q8396VV/order,,"
              GIFT CARDS
            ",,1,CA,96001,beauty_salon
Infusion Skin Spa & Beautique,"1153 Hilltop Dr, Redding, CA 96003",Beauty salon,Redding,,https://infusionskinspa.com/,,https://infusionskinspa.salontarget.com/egift?guestonly,https://infusionskinspa.com/pages/contact,Gift Cards,Contact,1,CA,96003,beauty_salon
Monique Hohman At Razors Edge,"1361 E Cypress Ave # A, Redding, CA 96002",Beauty salon,Redding,,http://www.razorsedgesalon.com/,,http://www.razorsedgesalon.com/home#gift-certificate,http://www.razorsedgesalon.com/home#contact,"
        Gift Certificate
      ","
        Contact
      ",1,CA,96002,beauty_salon
Shear Heaven Expressions skin care and makeup,"2785 Bechelli Ln, Redding, CA 96002",Day spa,Redding,,http://www.shearheavensalonandspa.com/,,https://www.expressionskincare.com/gift-certificates-2,,Gift Certificates,,1,CA,96002,beauty_salon
Amarte,"1475 Placer St, Redding, CA 96001",Beauty salon,Redding,,http://www.amartesalon.com/,,https://amartesalon.com/gift-cards/,https://amartesalon.com/contact-us/,Gifts,Contact,1,CA,96001,beauty_salon
Urban Retreat Day Spa,"2831, 2515 Park Marina Dr Ste 103, Redding, CA 96001",Spa,Redding,,https://www.urbanretreatspa.com/,,https://occasionsjs.boomtime.com/lgift,https://www.urbanretreatspa.com/contact,Buy Gift Certificate,Contact UR,1,CA,96001,beauty_salon
Bella Nails,"1003 Dana Dr, Redding, CA 96003",Nail salon,Redding,,http://bellanailsredding.com/,,http://bellanailsredding.com/gift-card,http://bellanailsredding.com/contactus,E-Gift,Contact Us,1,CA,96003,beauty_salon
Tre Donne Day Spa On the River,"2301 Park Marina Dr, Redding, CA 96001",Beauty salon,Redding,,http://www.tre-donne.com/,,https://tredonne.boomtime.com/lgift,https://www.tre-donne.com/contact-us/,Gift Certificates,Contact,1,CA,96001,beauty_salon
Generation Skin by Jen Siqueiros  Esthetician & Makeup,"1447 Market St suite b, Redding, CA 96001",Makeup artist,Redding,,https://www.generationskininc.com/,,https://squareup.com/gift/SPV9P2GHKHRYG/order,https://www.generationskininc.com/#preFooter,"
                  Gift Certificate
                ",Contact Us,1,CA,96001,beauty_salon
Daisy Nails,"2580 Bechelli Ln, Redding, CA 96002",Nail salon,Redding,,http://daisynailsredding.com/,,https://online-booking.salonbiz.com/olb/!page.widget_start?wbid=c2438t201807131302pQ7VRZ8774WB5v8V4fQ43&theme=3281&p_start=2,http://daisynailsredding.com/contact-us,Buy Now,Contact Us,1,CA,96002,beauty_salon
Sally's Nails,"54 Lake Blvd, Redding, CA 96003",Nail salon,Redding,,https://www.sallybeauty.com/,,https://www.sallybeauty.com/hair/gift-cards/,https://www.sallybeauty.com/customer-service/email-sally/,Gift Cards,Contact Us,1,CA,96003,beauty_salon
Jennifer Fairfield Nail Tech,"2785 Bechelli Ln, Redding, CA 96002",Nail salon,Redding,,http://www.expressionskincare.com/,,https://www.expressionskincare.com/gift-certificates-2,,Gift Certificates,,1,CA,96002,beauty_salon
Aesthete,"2051 Hilltop Dr a2, Redding, CA 96002",Waxing hair removal service,Redding,,http://iamaesthete.com/,,https://squareup.com/gift/QD364RS5E7QGS,,BUY GIFT CARDS,,1,CA,96002,beauty_salon
Glamorous Day Spa,"2887 Ventura St, Anderson, CA 96007",Day spa,Anderson,,http://www.glamorousdayspa.net/,,http://www.glamorousdayspa.net/book,http://www.glamorousdayspa.net/contact,Gift Certificates,Contact,1,CA,96007,beauty_salon
International Day Spa,"325 Cajon St, Redlands, CA 92373",Beauty salon,Redlands,,http://www.intldayspa.com/,,https://www.intldayspa.com/gift-certificates/,https://www.intldayspa.com/contact/,GIFT CERTIFICATES,CONTACT,1,CA,92373,beauty_salon
Alec Ian Holistic Center & Spa,"1428 Industrial Park Ave #4517, Redlands, CA 92374",Spa,Redlands,,http://www.alecianhc.com/,,http://www.alecianhc.com/instantgiftcertificates.html,,INSTANT GIFT CERTIFICATES,,1,CA,92374,beauty_salon
Rebeccana Spa,"1199A Laurel St, San Carlos, CA 94070",Day spa,San Carlos,,http://www.rebeccanaspa.com/,,http://www.rebeccanaspa.com/#coming-soon,,gift certificates: treat those you care about,,1,CA,94070,beauty_salon
AvantGard Spa,"1151 Greenwood Ave, San Carlos, CA 94070",Beauty salon,San Carlos,,http://www.avantspa.com/,,https://saas.shopsite.com/sc/order.cgi?storeid=*10fb9258a61784402f07&cert=gift,,gift cards,,1,CA,94070,beauty_salon
The Lash Lab,"6100 Horseshoe Bar Rd suite d, Loomis, CA 95650",Beauty salon,Loomis,,https://www.thelashlab.com/,,https://squareup.com/gift/7W8MZZ10D283A/order,https://www.thelashlab.com,Gift Cards,Contact,1,CA,95650,beauty_salon
Urban Aesthetics,"2110 Sunset Blvd, 500, Rocklin, CA 95765",Beauty salon,Rocklin,,http://www.urbanaestheticsca.com/,,http://www.urbanaestheticsca.com/retail-1,http://www.urbanaestheticsca.com/find-us,"
            Products & Gift Cards
          ","
            Find Us
          ",1,CA,95765,beauty_salon
Beautigirl Esthetics,"inside Tranquil Moments Wellness Spa, 3101 Sunset Blvd Suite 2-E, Rocklin, CA 95677",Facial spa,Rocklin,,http://www.beautigirlskincare.com/,,http://www.beautigirlskincare.com/menuschedulegift-certificates.html,,"
				Menu/Schedule/Gift Certificates
			",,1,CA,95677,beauty_salon
Rejuven8 Wellness Spa formerly Rejuvenate Day Spa,"5175 Meyers St, Rocklin, CA 95677",Beauty salon,Rocklin,,http://www.rejuven8wellnessspa.com/,,https://rejuven8wellnessspa.com/gift-certificates/,https://rejuven8wellnessspa.com/contact-us/,Gift Certificates,Contact,1,CA,95677,beauty_salon
spavia day spa  blue oaks,"6688 Lonetree Blvd ste 500, Rocklin, CA 95765",Day spa,Rocklin,,https://spaviadayspa.com/,,http://clients.mindbodyonline.com/ws.asp?studioid=664944&stype=42,https://spaviadayspa.com/rocklin-ca/contact-us/,Gift Cards,Contact Us,1,CA,95765,beauty_salon
Prive Nail Bar,"6696 Lonetree Blvd #400, Rocklin, CA 95765",Nail salon,Rocklin,,https://www.privenailbar.net/,,https://www.privenailbar.net/gift-certificates/,https://www.privenailbar.net/contact-us/,Gift Certificates,Contact Us,1,CA,95765,beauty_salon
Charis Day Spa,"Near Albertson Drive and Midas Brakes, 9077 Foothills Blvd Suite 200, Roseville, CA 95747",Day spa,Roseville,,http://www.charisdayspa.com/,,https://www.thegiftcardcafe.com/cart/index.php?storeID=5923,http://www.charisdayspa.com/contact-us,".pip[data-tower-id=""7e7ee0591526456db055249c9770b31a-0-0-8""]{margin-left:auto;margin-right:auto;margin-bottom:22px;margin-top:0;width:100%;}@media screen and (min-width: 30em){.pip[data-tower-id=""7e7ee0591526456db055249c9770b31a-0-0-8""]{margin-left:auto;margin-right:auto;margin-bottom:22px;margin-top:0;width:33.0440810862498%;}}@media screen and (min-width: 60em){.pip[data-tower-id=""7e7ee0591526456db055249c9770b31a-0-0-8""]{margin-left:auto;margin-right:auto;margin-bottom:22px;margin-top:0;width:33.0440810862498%;}}.pip[data-tower-id=""7e7ee0591526456db055249c9770b31a-0-0-8""] .image-media__image-container{padding-bottom:32.25806451612903%;}",Contact Us,1,CA,95747,beauty_salon
Jessica Saren Skincare,"2007-B, Opportunity Dr #9, Roseville, CA 95678",Beauty salon,Roseville,,http://jessicasarenskincare.com/,,https://www.thegiftcardcafe.com/cart/index.php?storeID=11893,,,,1,CA,95678,beauty_salon
Trinity Medical Spa,"576 N Sunrise Ave #250, Roseville, CA 95661",Medical spa,Roseville,,https://www.trinitymedicalspa.com/,,https://trinitymedicalspa.com/trinity-medical-spa-gift-cards-specials/,,"Gift Cards, Specials, Packages",,1,CA,95661,beauty_salon
Sterling Shears,"1402 Blue Oaks Blvd Ste 140, Roseville, CA 95747",Hair salon,Roseville,,http://www.sterlingshears.com/,,https://sterlingshears.com/buy-a-gift-card-here/,https://sterlingshears.com/contact/,Buy a Gift Card Here!,Contact,1,CA,95747,beauty_salon
Images Salon Spa,"3175 Riverside Blvd #3754, Sacramento, CA 95818",Beauty salon,Sacramento,,https://imagessalonspa.com/,,https://imagessalonspa.com/gift-certificates/,https://imagessalonspa.com/contact/,Gift Certificates,Contact,1,CA,95818,beauty_salon
Thea Skin Hair Body & Light,"912 21st St, Sacramento, CA 95811",Beauty salon,Sacramento,,http://theabeauty.net/,,https://theaspa.boomtime.com/lgift,http://theabeauty.net/productcart/pc/contact.asp,GIFT CERTIFICATES,CONTACT US,1,CA,95811,beauty_salon
Salon 88,"4331 Truxel Rd, Sacramento, CA 95834",Beauty salon,Sacramento,,http://www.salon88m.com/,,http://www.salon88m.com/gift_specials.htm,http://www.salon88m.com/contact_us.htm,"
","
",1,CA,95834,beauty_salon
Dandelion Facials & Waxing,"2400 21st St, Sacramento, CA 95818",Waxing hair removal service,Sacramento,,http://spadandelion.com/,,http://spadandelion.com/#gift,http://spadandelion.com/#contact,Gift Cards,Contact Us,1,CA,95818,beauty_salon
Rarity Salon,"5701 Broadway, Sacramento, CA 95820",Hair salon,Sacramento,,http://raritysalon.com/,,https://na1.meevo.com/EgiftApp/home?tenantId=20189,https://www.raritysalon.com,PURCHASE GIFT CARDS,CONTACT US,1,CA,95820,beauty_salon
Esthetics By Jeanette Salon,"2322 Butano Dr #103, Sacramento, CA 95825",Beauty salon,Sacramento,,http://ebjspa.com/,,https://www.ebjspa.com/gift-card,http://ebjspa.com/mailto:contact@ebjspa.com,GIFT CERTIFICATE,contact@ebjspa.com,1,CA,95825,beauty_salon
Total Beauty Experience,"2929 Arden Way, Sacramento, CA 95825",Beauty salon,Sacramento,,https://totalbeautyexp.com/,,https://totalbeautyexp.com/collections/gift-cards,https://totalbeautyexp.com/mailto:info@totalbeautyexp.com,"
          GIFT CARDS

          
        ",info@totalbeautyexp.com,1,CA,95825,beauty_salon
Lifted Salon,"1725 Iron Point Rd, Folsom, CA 95630",Beauty salon,Folsom,,https://www.liftedsalon.com/,,https://images.squarespace-cdn.com/content/v1/59e0fe5ff43b55bbc636e003/1588275427757-F56OR62GU27W7MLR21L0/ke17ZwdGBToddI8pDm48kEpVg-ILAPna1wRh-xAJ9fRZw-zPPgdn4jUwVcJE1ZvWQUxwkmyExglNqGp0IvTJZUJFbgE-7XRK3dMEBRBhUpwEv36x-EUL2-BSQ5feDhwGCbXuJBFqZ-erYzVouT8yOb9TwqchglLQOCYTRn7ZGxI/image-asset.jpeg,https://www.liftedsalon.com/contact,"

","
            Contact
          ",1,CA,95630,beauty_salon
P3 Hair Design,"1819 Cliff Dr, Santa Barbara, CA 93109",Hair salon,Santa Barbara,,http://www.p3hair.com/,,http://squareup.com/gift/8W71795N1458D/order,,GIFT CARDS,,1,CA,93109,beauty_salon
One Carat Mani & Pedi,"8 W Figueroa St, Santa Barbara, CA 93101",Nail salon,Santa Barbara,,http://www.onecaratmaniandpedi.com/,,http://www.onecaratmaniandpedi.com/mailto:onecaratnail@gmail.com?subject=Request%20for%20e-gift%20card,https://www.onecaratmaniandpedi.com/contact,Gift Cards are available at the salon!,CONTACT,1,CA,93101,beauty_salon
Organic Aesthetics Day Spa & Skincare Lounge,"3 W Carrillo St UNIT 214, Santa Barbara, CA 93101",Beauty salon,Santa Barbara,,http://organicaestheticssb.com/,,http://organicaestheticssb.com/shop,http://organicaestheticssb.com/contact,"
            Gift Certificates
          ","
        Contact
      ",1,CA,93101,beauty_salon
Evolutions Medical & Day Spa,"350 Chapala St STE 103, Santa Barbara, CA 93101",Medical spa,Santa Barbara,,https://www.evolutionsmedicalspa.com/,,https://www.evolutionsmedicalspa.com/services/buy-gift-certificate/,https://www.evolutionsmedicalspa.com/contact/,Buy A Gift Certificate!,Contact,1,CA,93101,beauty_salon
Haven Salon,"1150 Coast Village Rd, Montecito, CA 93108",Hair salon,Montecito,,http://havensalon.us/,,https://squareup.com/gift/FG3YCH9Q846T9/order,http://havensalon.us/#contact-1-section,Gift certificate,"
                        Contact
                      ",1,CA,93108,beauty_salon
glo aesthetics by caren,"31 Parker Way, Santa Barbara, CA 93101",Facial spa,Santa Barbara,,http://gloaestheticsbycaren.com/,,https://www.gloaestheticsbycaren.com/gift-cards,https://www.gloaestheticsbycaren.com/contact-me,Gift Cards,Contact Me,1,CA,93101,beauty_salon
Charisma Nails*Waxing,"3233 Coronado Pl, Santa Clara, CA 95054",Nail salon,Santa Clara,,http://www.charismasalonsantaclara.com/,,http://www.charismasalonsantaclara.com/giftcards,http://www.charismasalonsantaclara.com/contact,Gift Cards,Contact Us,1,CA,95054,beauty_salon
Atelier Salon Willow Glen,"1047 Lincoln Ave #101, San Jose, CA 95125",Beauty salon,San Jose,Upscale salon providing hair design & Aveda care products in a stylish venue.,http://www.ateliersalon.com/,,https://ateliersalon.com/online-booking/,,Book Online / Gift Cards,,1,CA,95125,beauty_salon
Dynasty Nails,"26566 Bouquet Canyon Rd, Santa Clarita, CA 91350",Nail salon,Santa Clarita,,http://dynastynailssantaclarita.com/,,http://dynastynailssantaclarita.com/giftcards,http://dynastynailssantaclarita.com/contact,Gift Cards,Contact Us,1,CA,91350,beauty_salon
C'est L'amour Nail,"24309 Magic Mountain Pkwy, Valencia, CA 91355",Nail salon,Valencia,,http://www.cestlamournail.com/,,http://www.cestlamournail.com/product-category/gift-card/,http://www.cestlamournail.com/contact-us/,Shop,Contact Us,1,CA,91355,beauty_salon
Infinity MedSpa,"27019 McBean Pkwy, Santa Clarita, CA 91355",Medical spa,Santa Clarita,,https://infinitymedspa.com/,,https://infinitymedspa.com/gift-cards/,https://infinitymedspa.com/contact-us/,Gift Cards,Contact Us,1,CA,91355,beauty_salon
The Ivy Day Spa,"24320 Town Center Dr #100, Valencia, CA 91355",Day spa,Valencia,,http://theivydayspa.com/,,https://ivyspa.boomtime.com/lgift,,Gift Cards,,1,CA,91355,beauty_salon
GLO By Grace  Skin Care & Facials,"23550 Lyons Ave # 209A, Santa Clarita, CA 91321",Facial spa,Santa Clarita,,https://globygrace.com/,,https://squareup.com/gift/4WZ8T1CBM7MMZ/order,https://globygrace.com/contact-us,,Contact Us,1,CA,91321,beauty_salon
Golden Hands Therapeutic Massage,"22919 Soledad Canyon Rd, Santa Clarita, CA 91350",Massage therapist,Santa Clarita,"Comfortable studio offering a range of therapeutic massage, plus facials, waxing & cosmetic tattoos.",http://www.goldenhandsmt.com/,,https://www.thegiftcardcafe.com/cart/indexpac.php?storeID=4005,http://goldenhandsmt.com/gd/?page_id=40,,Contact Us,1,CA,91350,beauty_salon
Susanna's Organics,"24363 Main St, Newhall, CA 91321",Facial spa,Newhall,,http://susannaorganics.com/,,https://squareup.com/gift/DD59VKMSXW91Q/order?external_source=postoffice-egift-widget&external_token=YJYaS8nlkPl3kbDa,,Gift Cards,,1,CA,91321,beauty_salon
Chase Beauty,"24251 Town Center Dr Suite 116, Valencia, CA 91354",Skin care clinic,Valencia,,http://www.chasebeautyscv.com/,,https://squareup.com/gift/F3YANFH3HJZVD/order,http://www.chasebeautyscv.com/contact-location,"
              Purchase Gift Cards
            ","
            Contact + Location
          ",1,CA,91354,beauty_salon
Body Resultz Skin Care,"1001 Center St #3, Santa Cruz, CA 95060",Skin care clinic,Santa Cruz,,http://www.bodyresultz.com/,,http://www.bodyresultz.com/gift_certificates.php,http://www.bodyresultz.com/contact.php,,,1,CA,95060,beauty_salon
LV Hair Extensions & Makeup Bar,"6006 La Madrona Dr suite b, Scotts Valley, CA 95060",Beauty salon,Scotts Valley,,http://www.lvhairextensions.com/,,https://www.lvhairextensions.com/products/giftcards/,https://www.lvhairextensions.com/contact/,GIFT CARDS,CONTACT,1,CA,95060,beauty_salon
Well Within Spa,"417 Cedar St, Santa Cruz, CA 95060",Beauty salon,Santa Cruz,,http://www.wellwithinspa.com/,,https://wellwithinspa.com/gift-certificates/,https://wellwithinspa.com/contact/,Gift Certificates,Contact,1,CA,95060,beauty_salon
Faust Salon & Spa,"219 Mt Hermon Rd, Scotts Valley, CA 95066",Beauty salon,Scotts Valley,,http://faustsalon.com/,,http://faustsalon.com/gift-cards,,Gift Cards,,1,CA,95066,beauty_salon
Get Faded Barbershop,"907 Cedar St #3801, Santa Cruz, CA 95060",Hair salon,Santa Cruz,,https://getfadedsc.com/,,https://www.instagram.com/p/B_p-CTSnNp9/,https://www.instagram.com/p/B92Wsj9HXCF/,"
As most probably already know, as of 4/28 the shel
 
","
Thank you for everyone’s support. We will be be 

",1,CA,95060,beauty_salon
Monet Salon,"312 Capitola Ave c, Capitola, CA 95010",Beauty salon,Capitola,,http://www.monetsaloncapitola.com/,,https://www.monetsaloncapitola.com/gift-cards,https://www.monetsaloncapitola.com/contact,E GIFT CARD,CONTACT,1,CA,95010,beauty_salon
Parlour at the Point,"857 41st Ave, Santa Cruz, CA 95062",Hair salon,Santa Cruz,,http://www.parlouratthepoint.com/,,https://squareup.com/gift/N6WGVM046CBSF/order,https://www.parlouratthepoint.com/contact,"Gift cards




",C O N T A C T,1,CA,95062,beauty_salon
Polished Skin and Beauty,"2121 41st Ave #104a, Capitola, CA 95010",Facial spa,Capitola,,http://www.spasantacruz.com/,,https://www.spa-santa-cruz.com/cart.php?m=gift_certificates,https://www.spa-santa-cruz.com/Contact-Us.html,Gift Certificates,Contact Us,1,CA,95010,beauty_salon
Opal Spa & Boutique,"1066 41st Ave a103, Capitola, CA 95010",Spa,Capitola,,http://www.opalspacapitola.com/,,https://www.opalspacapitola.com/contact/,https://www.opalspacapitola.com/contact/,Gift Cards,Gift Cards,1,CA,95010,beauty_salon
Pure Bliss Olde Town Spa,"237 W Tefft St, Nipomo, CA 93444",Massage spa,Nipomo,,http://pureblissoldetownspa.com/,,https://www.vagaro.com/pureblissspallc/gift-certificates,http://pureblissoldetownspa.com/contact,"

Gift Certifcates

",Contact,1,CA,93444,beauty_salon
Cost Cutters,"1758 W Grand Ave, Grover Beach, CA 93433",Beauty salon,Grover Beach,,https://www.signaturestyle.com/,,https://www.signaturestyle.com/gift-cards.html,https://www.signaturestyle.com/about-signature-style/contact-us.html,Gift Cards ,Contact Us,1,CA,93433,beauty_salon
APOLONIA SKIN CARE,"1358 5th St studio #202, Santa Monica, CA 90401",Beauty salon,Santa Monica,,http://apoloniaskincare.com/,,https://squareup.com/gift/EVQ5H3K8EPH5N/order,http://apoloniaskincare.com/find-us/,gift certificates,find us,1,CA,90401,beauty_salon
Framed Salon,"2821 Pico Blvd, Santa Monica, CA 90405",Hair salon,Santa Monica,,http://www.framedsalon.com/,,https://squareup.com/gift/T9PC939KHXA03/order,,Buy Gift Card,,1,CA,90405,beauty_salon
LOQUI BEAUTY By Yvonne,"1358 5th St #401, Santa Monica, CA 90401",Eyebrow bar,Santa Monica,,http://www.loquibeauty.com/,,https://squareup.com/gift/BFK5E34FM6589/order,http://www.loquibeauty.com/contact-santamonica,e-gift cards available ,Contact,1,CA,90401,beauty_salon
Organic To Green Beauty Spa & Infrared Sauna Bungalow  Santa Monica,"2218 Main St 1st floor, Santa Monica, CA 90405",Beauty salon,Santa Monica,,https://organicspalosangeles.com/,,https://organicspalosangeles.com/#gift-cards,https://organicspalosangeles.com/#contact,Gift Cards,Call Now,1,CA,90405,beauty_salon
Beauty Park Medical Spa,"1511 Montana Ave, Santa Monica, CA 90403",Medical spa,Santa Monica,,http://www.beautyparkspa.com/,,https://beautyparkspa.com/specials,https://beautyparkspa.com/contact,Spa Specials & Gift Cards,Contact,1,CA,90403,beauty_salon
Petite Spa,"723 Broadway, Santa Monica, CA 90401",Beauty salon,Santa Monica,,https://petitespa.net/,,https://petitespa.net/gift-certificates,https://petitespa.net/contact-us-1,Gift Certificates,Contact Us,1,CA,90401,beauty_salon
Alchemie Spa,"2021 Main St suite b, Santa Monica, CA 90405",Day spa,Santa Monica,,http://alchemiespa.com/,,http://www.secure-booker.com/alchemiespa/ShopOnline/GiftCertificate.aspx,https://www.alchemiespa.com/about/contact/,Send E-gift,Contact,1,CA,90405,beauty_salon
Serenity Nail Lounge,"12209 Wilshire Blvd, Los Angeles, CA 90025",Nail salon,Los Angeles,,http://serenitynaillounge.org/,,https://go.booker.com/#/location/SerenityNailLounge/buy,,Gift Card ,,1,CA,90025,beauty_salon
Studio 4,"509 7th St, Santa Rosa, CA 95401",Hair salon,Santa Rosa,,http://www.studio4santarosa.com/,,https://www.studio4santarosa.com/gift-card,https://www.studio4santarosa.com,GIFT CERTIFICATES,CONTACT,1,CA,95401,beauty_salon
Lash Affair Studio,"3270 Mendocino Ave, Santa Rosa, CA 95403",Beauty salon,Santa Rosa,,http://lashaffairstudio.com/,,http://s.thegiftcardcafe.com/H9WEhn,http://lashaffairstudio.com/contact,Gift Certificates,Contact,1,CA,95403,beauty_salon
Pure Skin Advanced Skin Care Center,"420 College Ave, Santa Rosa, CA 95401",Beauty salon,Santa Rosa,,https://pureskin420.wordpress.com/,,https://pureskin420.wordpress.com/about/gift-certificates/,,Gift Certificates,,1,CA,95401,beauty_salon
Cypress Day Spa & Salon  Amelia James,"2323 4th St, Santa Rosa, CA 95404",Beauty salon,Santa Rosa,,http://cypressdayspa.com/,,https://cypress2323.boomtime.com/lgift,http://cypressdayspa.com/en/contact-me,"
					Gift Certificates									","
					Contact Me 									",1,CA,95404,beauty_salon
Sparrow hair co,"100 E St #110, Santa Rosa, CA 95404",Hair salon,Santa Rosa,"Bright beauty salon offering haircuts & coloring for all ages, plus haircare products & candles.",http://www.sparrowhairco.com/,,http://www.sparrowhairco.com/#e-gift-cards,,"

E-gift cards
",,1,CA,95404,beauty_salon
Natural Beauty Spa,"2345 4th St Suite B, Santa Rosa, CA 95404",Facial spa,Santa Rosa,,https://naturalbeautyspa.com/,,https://naturalbeautyspa.com/buy-gift-certificate-for-day-spa.html,https://naturalbeautyspa.com/?target=advanced_contact_us,Gift Certificates,Day Spa Contact,1,CA,95404,beauty_salon
Caelie Steele Skin Care,"659 Cherry St, Santa Rosa, CA 95404",Beauty salon,Santa Rosa,,http://www.caeliesteele.com/,,https://www.vagaro.com/caeliesteeleskincare/gift-certificates,http://www.caeliesteele.com/contact/,Gift Certificates,Contact,1,CA,95404,beauty_salon
ME SPA,"728 Farmers Ln, Santa Rosa, CA 95405",Day spa,Santa Rosa,,http://www.me-spas.com/,,http://me-spas.com/gift-cards,http://me-spas.com/contact,"
              gift cards
            ","
              contact
            ",1,CA,95405,beauty_salon
Scrumptious Skin,"858 4th St, Santa Rosa, CA 95404",Beauty salon,Santa Rosa,,http://www.scrumptiousskin.com/,,https://www.vagaro.com/scrumptiousskin/gift-certificates,http://www.scrumptiousskin.com/contact.html,,"
contact
",1,CA,95404,beauty_salon
Sahana Wellness Center Marina Gachet,"635 5th St Suite C, Santa Rosa, CA 95404",Facial spa,Santa Rosa,,http://marinagachet.com/,,http://marinagachet.com/gift-certificates,http://marinagachet.com/node/4,Gift Certificates,Contact Us,1,CA,95404,beauty_salon
Rock A Betties Beauty Salon,"158 E Main St, El Cajon, CA 92020",Beauty salon,El Cajon,,http://www.salonvision.com/,,http://www.salonvision.com/gift.aspx,http://www.salonvision.com/contact.aspx,Gift Certificates,,1,CA,92020,beauty_salon
Coastal Skin Care Day Spa,"428 Poli St STE 2C, Ventura, CA 93001",Day spa,Ventura,,http://www.coastalskincare.net/,,https://coastal.boomtime.com/lgift,,Shop For Gift Certificates,,1,CA,93001,beauty_salon
Cara Mia,"1484 E Main St, Ventura, CA 93001",Cosmetics store,Ventura,,http://www.caramiamakeup.com/,,https://caramiamakeup.boomtime.com/lgift,http://www.caramiamakeup.com/pages/contact-us,Instant Gift Certificates,Contact,1,CA,93001,beauty_salon
BE U THREADING,"415 E Avenida Pico Suite I, San Clemente, CA 92672",Beauty salon,San Clemente,,http://www.beuthreading.com/,,https://www.beuthreading.com/services_group/special-gifts/,https://www.beuthreading.com/contacts-us/,Gift Cards,Contacts Us,1,CA,92672,beauty_salon
Seaside Skin Care,"1401 N El Camino Real Suite 200, San Clemente, CA 92672",Medical spa,San Clemente,,https://seasideskincare.com/,,https://seasideskincare.com/product/giftcard/,https://seasideskincare.com/contactus/,Shop Gift Cards,Get started,1,CA,92672,beauty_salon
Professional Nail & Spa,"943 Avenida Pico D, San Clemente, CA 92673",Beauty salon,San Clemente,,http://professionalnailslagunahills.com/,,http://professionalnailslagunahills.com/p/gift-certificates,http://professionalnailslagunahills.com/contact,Gift Certificates,Contact Us,1,CA,92673,beauty_salon
Waves Beyond Skin Care,"215 Avenida Del Mar, San Clemente, CA 92672",Beauty salon,San Clemente,,http://www.wavesbeyondskincare.com/,,http://www.wavesbeyondskincare.com/gift-certificates,,Gift Certificates,,1,CA,92672,beauty_salon
Studio K Skincare,"111 Avenida Del Mar Suite #215, San Clemente, CA 92672",Skin care clinic,San Clemente,,http://studiokskincare.com/,,http://www.secure-booker.com/5elements/InstantGiftCertificate.aspx,http://studiokskincare.com/contact/,Gift Certificates,Contact,1,CA,92672,beauty_salon
C'Siren Day Spa,"312 Avenida de la Estrella, San Clemente, CA 92672",Day spa,San Clemente,,http://www.csirendayspa.com/,,https://squareup.com/gift/C8TY1P3SHEDZ1/order,https://www.csirendayspa.com/contact,Gift Certificates,Contact,1,CA,92672,beauty_salon
Qet Botanicals Skin Studio,"223 Avenida Del Mar, San Clemente, CA 92672",Beauty supply store,San Clemente,,http://www.qetbotanicals.com/,,http://www.qetbotanicals.com/products/gift-card,http://www.qetbotanicals.com/pages/contact-us,Gift Cards,Contact,1,CA,92672,beauty_salon
Meridian Salon,"220 W G St suite b, San Diego, CA 92101",Hair salon,San Diego,,http://www.meridiansalon.com/,,https://clients.mindbodyonline.com/classic/ws?studioid=92630&stype=-9,https://meridiansalon.com/contact/,Purchase Gift Cards,Contact,1,CA,92101,beauty_salon
Young Attitudes Aveda Salon & Spa,"8843 Villa La Jolla Dr #206, La Jolla, CA 92037",Beauty salon,La Jolla,,http://youngattitudes.com/,,http://youngattitudes.com/gift-cards.html,http://youngattitudes.com/contact-us.html,Gift Cards,Contact Us,1,CA,92037,beauty_salon
Flutter and Honey inside Flirt Urban Salon,"435 Tenth Ave, San Diego, CA 92101",Waxing hair removal service,San Diego,,http://flutterandhoney.com/,,https://squareup.com/gift/1E4FANBHGVZEN/order,http://flutterandhoney.com/contact,"
        Gift Cards
      ",Contact,1,CA,92101,beauty_salon
Sugaring SD Hair Removal,"925 B St #204, San Diego, CA 92101",Hair removal service,San Diego,,http://www.sugaringsd.com/,,https://www.secure-booker.com/SugaringSD/ShopOnline/GiftCertificate.aspx,http://www.sugaringsd.com/contact-us,"
              Gift Certificates
            ","
            Contact
          ",1,CA,92101,beauty_salon
La Di Da Sugaring & MediSpa,"2308 Sixth Ave, San Diego, CA 92101",Hair removal service,San Diego,,http://ladidasugaringsd.com/,,http://ladidasugaringsd.com/gift-certificates,http://ladidasugaringsd.com/contact,"
            Gift Certificates
          ","
            Contact Us
          ",1,CA,92101,beauty_salon
Sweet Jane Salon,"1443 University Ave suite b, San Diego, CA 92103",Beauty salon,San Diego,,https://www.sweetjanesalon.com/,,https://squareup.com/gift/NZQ428FY2H22A/order,https://www.sweetjanesalon.com/contact,Gift Cards,"
                Contact Us
              ",1,CA,92103,beauty_salon
dearinger,"307 Market St, San Diego, CA 92101",Hair salon,San Diego,,http://www.dearinger.com/,,https://go.booker.com/location/dearinger1/buy,https://www.dearinger.com/contact,ONLINE GIFT CARDS,CONTACT,1,CA,92101,beauty_salon
Routine Beauty,"2323 Broadway Suite 102, San Diego, CA 92102",Beauty salon,San Diego,,http://routinebeauty.com/,,https://squareup.com/gift/8A3156G4RQ1PZ/order,http://routinebeauty.com/#contact2,"
        eGift Cards
      ","

contact
",1,CA,92102,beauty_salon
Gloss Hair Studio 4S,"# 161 10519, 3516, 4S Commons Dr, San Diego, CA 92127",Hair salon,San Diego,,http://www.glosshairstudio4s.com/,,https://www.instagram.com/p/B-pyWI1FG1e/,http://glosshairstudio4s.com/contact/,"
We miss you!!! The Salon phones are open from now 

",Contact,1,CA,92127,beauty_salon
Bluxom Salon,"2855 El Cajon Blvd #2, San Diego, CA 92104",Hair salon,San Diego,,http://www.bluxomsalon.com/,,https://www.bluxomsalon.com/gift-cards,https://www.bluxomsalon.com/contact,Gift Cards,Contact,1,CA,92104,beauty_salon
Suki Day Spa,"541 Fourth Ave, San Diego, CA 92101",Day spa,San Diego,,http://www.sukidayspa.com/,,http://www.shop.sukidayspa.com/,http://www.sukidayspa.com/javascript:void(0);,Product - Gift Card,SEND MESSAGE,1,CA,92101,beauty_salon
Exquisite MD Spa,"2100 Fifth Ave #100, San Diego, CA 92101",Medical spa,San Diego,,https://www.exquisitemdspa.com/,,https://squareup.com/gift/7X5KYTK2DQTBY/order,https://www.exquisitemdspa.com/tel:6193762466,Gift Cards, (619) 376-2466,1,CA,92101,beauty_salon
Belle Sirene Salon,"7838 Herschel Ave, La Jolla, CA 92037",Hair salon,La Jolla,,http://www.bellesirenesalon.com/,,https://bellesirenesalon.com/belle-sirene-salon-gift-certificates/,https://bellesirenesalon.com/contact/,Gift Certificates,Contact,1,CA,92037,beauty_salon
DCOMPRESS DOWNTOWN,"1202 Kettner Blvd Conference Room, San Diego, CA 92101",Massage therapist,San Diego,,http://www.dcompressdowntown.com/,,https://www.secure-booker.com/dcompress/ShopOnline/GiftCertificate.aspx,,Buy Gift Certificates,,1,CA,92101,beauty_salon
Lemongrass Aveda Salon & Spa,"910 2nd St, Encinitas, CA 92024",Day spa,Encinitas,,https://lemongrasscenter.com/,,https://lemongrasscenter.com/gift-cards/,https://lemongrasscenter.com/contact-lemongrass/,Gifts Cards,Contact,1,CA,92024,beauty_salon
Sublime Salon,"3354A Sacramento St, San Francisco, CA 94118",Beauty salon,San Francisco,,http://www.sublimesf.com/,,https://sublime-certificates.com,http://www.sublimesf.com/contact,Gift Certificates,map,1,CA,94118,beauty_salon
Galleria Hair Design,"50 Post St, San Francisco, CA 94104",Beauty salon,San Francisco,,http://galleriahairdesign.com/,,http://galleriahairdesign.com/gift-card-or-donation/gift,http://galleriahairdesign.com/contact,Gift Card or Donation/Gift,Contact,1,CA,94104,beauty_salon
Steel  Lacquer,"14 10th St, San Francisco, CA 94103",Beauty salon,San Francisco,"Upscale hair salon & barbershop with a modern, minimalist vibe & on-trend services.",http://www.steelandlacquer.com/,,http://squareup.com/gift/EM592AZX583X3/order,http://www.steelandlacquer.com/mailto:frontdesk@steelandlacquer.com,Purchase Gift Card,Contact,1,CA,94103,beauty_salon
LUX SF,"490 Hayes St, San Francisco, CA 94102",Nail salon,San Francisco,,http://luxsf.net/,,https://www.luxsf.net/gift-cards,https://www.luxsf.net/contact-us,GIFT CARDS,CONTACT US,1,CA,94102,beauty_salon
ZAZA Nail and Wine Lounge,"543 2nd St, San Francisco, CA 94107",Nail salon,San Francisco,,http://www.zazaspa.com/,,http://zazaspa.com/zaza-gift-cards-the-perfect-gift/,,Gift Certificates,,1,CA,94107,beauty_salon
Posh Salon,"2444 Fillmore St, San Francisco, CA 94115",Beauty salon,San Francisco,,https://www.poshsf.com/,,https://es.salontranscripts.com/4B0234F2476151550B4FA8C0/,https://www.poshsf.com/contact,Buy Gift cards here,Contact,1,CA,94115,beauty_salon
Marion Pernoux Ensoma,"352 6th St, San Francisco, CA 94107",Beauty salon,San Francisco,,http://marionpernoux.com/,,http://marionpernoux.com/gift-certificates,http://marionpernoux.com/contact,"
            Gift Certificates
          ","
            Contact
          ",1,CA,94107,beauty_salon
Primrose Natural Skincare,"519 Laguna St, San Francisco, CA 94102",Beauty salon,San Francisco,,http://www.primroseskincare.com/,,https://squareup.com/store/primrose-natural-skincare,http://www.primroseskincare.com/contact-holiday,gift certificates,contact & Covid 19,1,CA,94102,beauty_salon
LashSpot SF,"1746 Post St 2nd floor, San Francisco, CA 94115",Beauty salon,San Francisco,,https://www.lashspotsf.com/,,https://squareup.com/gift/966X0CJPGV5F5/order,https://www.lashspotsf.com/contact,PURCHASE GIFT CERTIFICATE,"
            Contact
          ",1,CA,94115,beauty_salon
Public Barber Salon,"1528 Grant Ave, San Francisco, CA 94133",Beauty salon,San Francisco,,http://www.publicbarbersalon.com/,,http://www.publicbarbersalon.com/gift-cards,http://www.publicbarbersalon.com/contact,Gift Cards,"
        
        Contact
      ",1,CA,94133,beauty_salon
Queenp threading salon,"660 Market St #215, San Francisco, CA 94104",Beauty salon,San Francisco,,http://queenpthreadingsalon.skincaretherapy.info/,,http://queenpthreadingsalon.skincaretherapy.info/gift-certificates,http://queenpthreadingsalon.skincaretherapy.info/contact-information,Gift Certificates,Contact Information,1,CA,94104,beauty_salon
The Nail Hall,"1401 Mission St, San Francisco, CA 94103",Nail salon,San Francisco,,http://thenailhall.com/,,https://go.booker.com/location/TheNailHall/buy/gift-certificate,,"
        Gift Cards
      ",,1,CA,94103,beauty_salon
Mane Attraction,"103 Carl St, San Francisco, CA 94117",Hair salon,San Francisco,,http://maneattractionsf.com/,,http://maneattractionsf.com/giftcards,http://maneattractionsf.com/contact,"
            Gift Cards
          ","
            Contact
          ",1,CA,94117,beauty_salon
Brand Benjamin Salon,"2848 Webster St, San Francisco, CA 94123",Beauty salon,San Francisco,,http://brandbenjamin.com/,,https://www.vagaro.com/brandbenjamin/gift-certificates,,gift cards,,1,CA,94123,beauty_salon
International Orange San Francisco,"2044 Fillmore St, San Francisco, CA 94115",Spa,San Francisco,,http://internationalorange.com/,,http://internationalorange.com/shop/cat/gift-certificates/,https://internationalorange.com/about-us/contact/,Gift Certificates,Contact IO,1,CA,94115,beauty_salon
Kabuki Springs & Spa,"1750 Geary Blvd, San Francisco, CA 94115",Spa,San Francisco,"This relaxed day spa offers both familiar & Asian treatments, plus Japanese-style communal baths.",http://www.kabukisprings.com/,,https://kabukisprings.com/gift-cards/,https://kabukisprings.com/contact-us/,Gift Cards,CONTACT US,1,CA,94115,beauty_salon
Luminous Day Spa,"204 Grand Ave, South San Francisco, CA 94080",Spa,South San Francisco,,http://www.luminousspa.com/,,http://www.luminousspa.com/gift-certs.html,http://www.luminousspa.com/contact-us.html,Gift Certificates,Contact Us,1,CA,94080,beauty_salon
BEN Beauty Salon,"2549 S King Rd a12, San Jose, CA 95122",Hair salon,San Jose,,http://bit.ly/,,https://benbeautysalon.com/danh-muc/gift-card/,https://benbeautysalon.com/contact/,Gift card,Contact,1,CA,95122,beauty_salon
Strada Salon and Day Spa,"2292 Lincoln Ave, San Jose, CA 95125",Beauty salon,San Jose,,http://stradadayspa.com/,,https://squareup.com/gift/M15NFCWQ17SWR/order,https://stradadayspa.com/about/contact/,Gift Certificate,Contact Us,1,CA,95125,beauty_salon
All Natural Day Spa,"1042 Lincoln Ave, San Jose, CA 95125",Day spa,San Jose,,http://allnaturaldayspa.net/,,https://www.allnaturaldayspa.net/gift-certificates/,https://www.allnaturaldayspa.net/contact-us/,Gift Certificates,Contact Us,1,CA,95125,beauty_salon
San Jose Medical Spa,"2360 McKee Rd #10, San Jose, CA 95116",Medical spa,San Jose,,http://www.sanjosemedspa.com/,,http://www.sanjosemedspa.com/contents/gift-certificate,http://www.sanjosemedspa.com/contactus,"
Gift Certificate
","
Contact
",1,CA,95116,beauty_salon
Modest Spot Salon,"106 W Mariposa, San Clemente, CA 92672",Beauty salon,San Clemente,,http://www.modestspotsalon.com/,,http://www.secure-booker.com/modestspot/InstantGiftCertificate.aspx,http://www.modestspotsalon.com/contact,Gift Certificates,Book Now,1,CA,92672,beauty_salon
Niloo Hair Design at home or Studio OC,"28940 Golden Lantern Ste B, Laguna Niguel, CA 92677",Beauty salon,Laguna Niguel,,http://hairservicesathome.com/,,http://stylenet.com/NilooHairDesign2/gift-certificates/,http://stylenet.com/NilooHairDesign2/contact-us/,Gift Certificates,Contact,1,CA,92677,beauty_salon
SLO Blowout Bar,"940 Chorro St, San Luis Obispo, CA 93401",Beauty salon,San Luis Obispo,,http://www.sloblowoutbar.com/,,https://www.sloblowoutbar.com/gift-cards,https://www.sloblowoutbar.com/contact-us,GIFT CARDS,CONTACT US,1,CA,93401,beauty_salon
 Nails,"1519 Froom Ranch Way, San Luis Obispo, CA 93405",Nail salon,San Luis Obispo,,http://atnails.com/,,http://atnails.com/giftcard.php,, Gift Cards Balance,,1,CA,93405,beauty_salon
Beauty Poet,"1920 Broad St, San Luis Obispo, CA 93401",Facial spa,San Luis Obispo,,http://www.thebeautypoet.com/,,http://www.thebeautypoet.com/products/beauty-poet-gift-card,http://www.thebeautypoet.com/pages/contact-us,"
                    Gift Cards
                  ","
            Contact Us
          ",1,CA,93401,beauty_salon
Hair by Kellie Lewis,"3071 S Higuera St, San Luis Obispo, CA 93401",Hair salon,San Luis Obispo,,http://www.hairbykellielewis.com/,,http://stylenet.com/SalonVictoriaLauren/gift-certificates/,http://stylenet.com/SalonVictoriaLauren/contact-us/,Gift Certificates,Contact Me,1,CA,93401,beauty_salon
Open Canvas Laser,"1242 Monterey St Suite 130, San Luis Obispo, CA 93401",Medical spa,San Luis Obispo,,https://www.opencanvaslaser.com/,,http://www.secure-booker.com/OpenCanvasLaser/InstantGiftCertificate.aspx,https://www.opencanvaslaser.com/contactus,"
Gift Card
","
Contact
",1,CA,93401,beauty_salon
Sloco Massage  Wellness Spa,"1957 Santa Barbara Ave, San Luis Obispo, CA 93401",Day spa,San Luis Obispo,,https://slocomassage.com/,,https://slocomassage.com/gift-certificates,https://slocomassage.com/contact,Gift Cards,Contact,1,CA,93401,beauty_salon
Spa At Madonna Inn,"100 Madonna Rd, San Luis Obispo, CA 93405",Beauty salon,San Luis Obispo,,https://www.madonnainn.com/,,https://www.shopmadonnainn.com/gift-cards-special-services/gift-card,,Gift Cards,,1,CA,93405,beauty_salon
Aromatic Botany,"1582 W San Marcos Blvd, San Marcos, CA 92078",Skin care clinic,San Marcos,,https://www.aromaticbotany.com/,,https://www.aromaticbotany.com/egift-card,https://www.aromaticbotany.com/contact,eGift Card,Contact,1,CA,92078,beauty_salon
Skin Eden & Eyelash Envy,"574 E Mission Rd, San Marcos, CA 92069",Skin care clinic,San Marcos,,http://www.edenenvy.com/,,https://www.vagaro.com/skinedenandeyelashenvy/gift-certificates,http://www.edenenvy.com/contact_us.html, ,Contact,1,CA,92069,beauty_salon
Sai Gon Day Spa San Mateo,"135 S B St, San Mateo, CA 94401",Nail salon,San Mateo,,http://saigondayspasanmateo.com/,,http://saigondayspasanmateo.com/giftcards,http://saigondayspasanmateo.com/contact,Gift Cards,Contact Us,1,CA,94401,beauty_salon
Face & Body Studio,"44 42nd Ave, San Mateo, CA 94403",Beauty salon,San Mateo,,http://salonvision.com/,,http://salonvision.com/gift.aspx,http://salonvision.com/contact.aspx,Gift Certificates,,1,CA,94403,beauty_salon
HEADLINES a cut above,"993 Laurel St, San Carlos, CA 94070",Beauty salon,San Carlos,,http://headlinesalon.net/,,http://stylenet.com/HeadlinesSalon2/gift-certificates/,http://stylenet.com/HeadlinesSalon2/contact-us/,Gift Certificates,Contact Us,1,CA,94070,beauty_salon
The Estheticians,"315 N San Mateo Dr, San Mateo, CA 94401",Spa,San Mateo,,https://www.the-estheticians.com/,,https://mycloud.prosoinc.com/psgconlineaut/gcmain.asp?cl=13108,https://www.the-estheticians.com/san-mateo-facials-waxing-lashes,GIFT CARDS,CONTACT,1,CA,94401,beauty_salon
Dollface Beauty,"341 San Anselmo Ave, San Anselmo, CA 94960",Beauty salon,San Anselmo,,http://dollfacemarin.com/,,https://go.booker.com/location/dollfacebeauty/buy/gift-certificate,https://dollfacemarin.com/contact-2/,"



GIFT CERTIFICTES
Reserve Your Future Appointment



",Contact,1,CA,94960,beauty_salon
The Fifth Avenue Spa,"1000 Fifth Ave, San Rafael, CA 94901",Beauty salon,San Rafael,,http://www.thefifthavenuespa.com/,,https://fifthavenuespa.boomtime.com/lgift,http://www.thefifthavenuespa.com/contact-us.html,,Contact,1,CA,94901,beauty_salon
SkinCare by Susan,"1009 4th St, San Rafael, CA 94901",Skin care clinic,San Rafael,,http://www.skincarebysusan.com/,,https://squareup.com/gift/3KKCNZJ2ATP9V/order,http://www.skincarebysusan.com/contact/,Gift Card,Contact,1,CA,94901,beauty_salon
Body Celebration  Holistic Skincare & Wellness,"745 B St, San Rafael, CA 94901",Skin care clinic,San Rafael,,http://bodycelebration.net/,,https://go.booker.com/#/location/BodyCelebration/buy/gift-certificate?source=mpp,https://bodycelebration.net/contact-us/,GIFT CERTIFICATES,CONTACT US,1,CA,94901,beauty_salon
Eden Day Spa  Advanced Facial Treatments Microblading Microneedling Massage,"411 San Anselmo Ave, San Anselmo, CA 94960",Beauty salon,San Anselmo,,https://edendayspa.com/,,https://www.secure-booker.com/edendayspa/MakeAppointment/Search.aspx,https://edendayspa.com/#,Gift Certificates,CONTACT,1,CA,94960,beauty_salon
Beau & Bella A Modern Day Spa,"11040 Bollinger Canyon Rd suite h, San Ramon, CA 94582",Day spa,San Ramon,,http://www.beaubellaspa.com/,,https://squareup.com/gift/42E6X2NAJZW50/order,http://www.beaubellaspa.com/contact-1,Gift Card For Special Someone!,Contact,1,CA,94582,beauty_salon
SkinGlamour Studio,"158 Sunset Dr, San Ramon, CA 94583",Facial spa,San Ramon,,http://www.skinglamourstudio.com/,,http://www.skinglamourstudio.com/gift-certifiacates.html,,Gift Certificates,,1,CA,94583,beauty_salon
Anu's Beautique,"6046 Dougherty Rd, Dublin, CA 94568",Beauty salon,Dublin,,http://www.anusbeautique.com/,,https://squareup.com/gift/8VRYS4B0B14W5/order,,Gift Cards,,1,CA,94568,beauty_salon
Healing Hands Spa Studio,"2551 San Ramon Valley Blvd #107b, San Ramon, CA 94583",Massage spa,San Ramon,,http://www.healinghandssalon.net/,,https://itsher62.boomtime.com/lgift,http://www.healinghandssalon.net/contact.php,Click Here to Purchase Instant Gift Certificates,Contact,1,CA,94583,beauty_salon
Arlene's Skin Care & Electrolysis,"1633 Erringer Rd UNIT 202, Simi Valley, CA 93065",Beauty salon,Simi Valley,,http://www.arlenesskincare.com/,,https://arlenesskincare.boomtime.com/lgift,http://www.arlenesskincare.com/contact-us/,Gift Certificates Always Available,Contact Us,1,CA,93065,beauty_salon
Salt And Sage Spa,"3310 E Los Angeles Ave, Simi Valley, CA 93063",Day spa,Simi Valley,,http://saltnsage.com/,,http://saltnsage.com/gift-certificates,http://saltnsage.com/contact,,,1,CA,93063,beauty_salon
Aveda Salon & Products,"3835 Thousand Oaks Blvd, Westlake Village, CA 91362",Beauty salon,Westlake Village,,https://www.aveda.com/,,https://www.aveda.com/gift-cards,https://www.aveda.com/customer-service-contact-us-page,egift card,EMAIL US,1,CA,91362,beauty_salon
Cosmetic Creations Skin Sanctuary Med Spa & Ultimate Hair Design,"9923 Topanga Canyon Blvd, Chatsworth, CA 91311",Medical spa,Chatsworth,,http://cosmeticcreationsspa.com/,,http://cosmeticcreationsspa.com/#collapse4,http://cosmeticcreationsspa.com/#collapse7,Gift Certificates,Contact,1,CA,91311,beauty_salon
Euodia Salon & Day Spa,"142 Los Angeles Ave, Moorpark, CA 93021",Beauty salon,Moorpark,,http://www.euodiasalon.com/,,http://stylenet.com/euodia/gift-certificates/,http://stylenet.com/euodia/contact-us/,Gift Cards,Contact Us,1,CA,93021,beauty_salon
The Spa At Southern Exposure,"2323 Pacific Ave, Stockton, CA 95204",Spa,Stockton,,http://southernexposuresalonandspa.com/,,http://southernexposuresalonandspa.com/gift-certificates/5423620,http://southernexposuresalonandspa.com/contact/1927795,GIFT CERTIFICATES,"Policies, Maps & Directions",1,CA,95204,beauty_salon
Karen Allen Salon  Spa,"40770 Winchester Rd Ste 710, Temecula, CA 92591",Hair salon,Temecula,,http://www.karenallensalon.com/,,http://www.karenallensalon.com/gift-cards,http://karenallensalon.com/contact/,Gift Cards,Contact,1,CA,92591,beauty_salon
Skin Care by Angelique,"Talk Of The Town Salon Suites, 27485 Ynez Rd UNIT 26, Temecula, CA 92591",Day spa,Temecula,,http://www.skincarebyangelique.com/,,https://skincarebyangelique.com/gift-certificates/,https://skincarebyangelique.com/contact/,Gift Certificates,Contact,1,CA,92591,beauty_salon
Glow Up Blowout Bar,"40820 Winchester Rd #1950, Temecula, CA 92591",Hair salon,Temecula,,https://glowupbar.com/,,https://go.booker.com/location/glowupbar/buy/gift-certificate,https://glowupbar.com/contact/,Gift Cards,Contact,1,CA,92591,beauty_salon
Face & Soul Studio,"2517 Thousand Oaks Blvd, Thousand Oaks, CA 91362",Beauty salon,Thousand Oaks,,http://faceandsoulstudio.com/,,http://faceandsoulstudio.com/store/gift-card,http://faceandsoulstudio.com/contact,"










Gift Card

from 25.00




",Contact,1,CA,91362,beauty_salon
tawny k cosmo,"1861 Thousand Oaks Blvd, Thousand Oaks, CA 91362",Beauty salon,Thousand Oaks,,http://www.tawnykcosmo.com/,,https://www.tawnykcosmo.com/features-1,,eGift Cards,,1,CA,91362,beauty_salon
Tan LA,"1625 Thousand Oaks Blvd, Thousand Oaks, CA 91362",Tanning salon,Thousand Oaks,,http://www.tanla.la/,,https://www.thegiftcardcafe.com/cart/index.php?storeID=12022,https://tanla.la/contact-us/,Gift Cards,Contact Us,1,CA,91362,beauty_salon
Skin by Tara  Skin Care & Permanent Cosmetics,"2667 N Moorpark Rd #101, Thousand Oaks, CA 91360",Permanent makeup clinic,Thousand Oaks,,http://www.skinbytara.com/,,http://skinbytara.com/purchase-gift-card/,,Gift Cards,,1,CA,91360,beauty_salon
Elixir Luxe Beauty,"3625 Thousand Oaks Blvd STE 135, Westlake Village, CA 91362",Skin care clinic,Westlake Village,,http://www.elixirluxe.com/,,https://squareup.com/gift/5TT82CY4MV3QA/order,https://www.elixirluxe.com/about-us,Gift Cards,Contact,1,CA,91362,beauty_salon
Elle Marie Spa,"21880 Hawthorne Blvd #305, Torrance, CA 90503",Spa,Torrance,,http://www.ellemariespa.com/,,https://clients.mindbodyonline.com/classic/ws?studioid=169214&stype=42&giftCardID=54,https://www.ellemariespa.com/contact,GIFT CARDS,CONTACT,1,CA,90503,beauty_salon
Organically At Your Best,"1218 El Prado Ave #128, Torrance, CA 90501",Facial spa,Torrance,,http://www.organicallyatyourbest.com/,,http://www.organicallyatyourbest.com/gift-certificates/,http://www.organicallyatyourbest.com/contact/,Gift Certificates,Contact,1,CA,90501,beauty_salon
Harmony Beauty Spa,"601 Georgia St # 2, Vallejo, CA 94590",Spa,Vallejo,,http://www.harmonybeautyspa.com/,,http://www.harmonybeautyspa.com/index.php?main_page=index&cPath=62,http://www.harmonybeautyspa.com/index.php?main_page=contact_us&zenid=o4o0rd34r05j9cam5bs99uvg45,Gift Certificates,Contact Us,1,CA,94590,beauty_salon
Happiness Nails & Spa,"4022 S Mooney Blvd, Visalia, CA 93277",Nail salon,Visalia,,http://happinessnailsvisalia.com/,,http://happinessnailsvisalia.com/tel:Gift Certificates Availabie: 770-860-1843,http://happinessnailsvisalia.com/contact,Gift Certificates Available: 770-860-1843,Contact Us,1,CA,93277,beauty_salon
Creekside Laser Center,"2820 W Main St, Visalia, CA 93291",Laser hair removal service,Visalia,,http://creeksidedayspa.com/,,http://www.creeksidedayspa.com/spa-skin-center/spa-packages/,http://www.creeksidedayspa.com/contact-us/,Spa Packages & Gift Certificates,Contact,1,CA,93291,beauty_salon
Changes Salon & Day Spa,"1475 N Broadway STE 195, Walnut Creek, CA 94596",Beauty salon,Walnut Creek,,http://www.changessalon.com/,,http://saas.shopsite.com/chan13/,https://www.changessalon.com/contact-us/,Gift Cards,Contact Us,1,CA,94596,beauty_salon
Kim's Nails Salon,"1542 Newell Ave, Walnut Creek, CA 94596",Nail salon,Walnut Creek,,http://kimnailsalonwalnutcreek.com/,,http://kimnailsalonwalnutcreek.com/giftcards,http://kimnailsalonwalnutcreek.com/contact,E-Gift,Contact,1,CA,94596,beauty_salon
The Woodhouse Day Spa  Walnut Creek,"1636 Cypress St, Walnut Creek, CA 94596",Day spa,Walnut Creek,,https://walnutcreek.woodhousespas.com/,,https://walnutcreek.woodhousespas.com/purchase-gift-card,https://walnutcreek.woodhousespas.com/contact-us,Gift Cards,Contact Us,1,CA,94596,beauty_salon
Elaine's Eyebrows & Lashes,"106 La Casa Via, Walnut Creek, CA 94598",Beauty salon,Walnut Creek,,https://elaineseyebrows.com/,,https://elaineseyebrows.com/index.php/eyebrow-and-lashes-walnut-creek/gift-certificate,,Gift Certificate,,1,CA,94598,beauty_salon
PUREBEAUTY at Macy's Sun Valley Mall,"341 Sun Valley Mall, Concord, CA 94520",Beauty salon,Concord,,https://www.purebeauty.com/,,http://www.purebeauty.com/gifts/,https://www.purebeauty.com/contact-us/,,Contact Us,1,CA,94520,beauty_salon
Harper Salon,"8259 Melrose Ave, Los Angeles, CA 90046",Beauty salon,Los Angeles,,http://www.harperonmelrose.com/,,http://www.harperonmelrose.com/giftcards,http://www.harperonmelrose.com/contact,"
                Giftcards
              ","
                Contact
              ",1,CA,90046,beauty_salon
Beauty Collection,"8951 Santa Monica Blvd, West Hollywood, CA 90069",Beauty salon,West Hollywood,,https://www.beautycollection.com/,,https://forms.na3.netsuite.com/app/site/hosting/scriptlet.nl?script=795&deploy=1&compid=3596305&h=a1dc32a63be86f7736a7,https://www.beautycollection.com/contacts,Check Your Gift Card Balance,Contact Us,1,CA,90069,beauty_salon
Color Coat Beauty Boutique,"7300 Sunset Blvd c, Los Angeles, CA 90046",Nail salon,Los Angeles,,http://www.colorcoatla.com/,,http://www.colorcoatla.com/gift-card,,"
            Gift Card
          ",,1,CA,90046,beauty_salon
Base Coat Nail Salon Fairfax,"830 N Fairfax Ave, Los Angeles, CA 90046",Nail salon,Los Angeles,,https://www.basecoatnailsalon.com/,,https://www.basecoatnailsalon.com/pages/gift-cards,https://www.basecoatnailsalon.com/pages/contact,Gift Cards,Contact,1,CA,90046,beauty_salon
Carasoin Day Spa & Skin Clinic,"8474 CA-2, West Hollywood, CA 90069",Beauty salon,West Hollywood,,http://www.carasoin.com/,,https://carasoin.com/gift-certificates/,https://carasoin.com/contact/,Give a Gift,Contact,1,CA,90069,beauty_salon
Le Jolie Medi Spa,"652 N Doheny Dr, West Hollywood, CA 90069",Beauty salon,West Hollywood,,https://lejoliespa.com/,,https://lejoliespa.com/,https://lejoliespa.com/contact/, Buy a Gift Card, Contact Us,1,CA,90069,beauty_salon
Mila Moursi Skin Care Institute,"9255 Sunset Blvd #102, West Hollywood, CA 90069",Beauty salon,West Hollywood,,http://www.milamoursi.com/,,http://www.milamoursi.com/e-gift-card,http://www.milamoursi.com/contact-support,E-Gift Cards,"
Contact Support

",1,CA,90069,beauty_salon
Joli Visage Skincare,"21545 Palomar St, Wildomar, CA 92595",Skin care clinic,Wildomar,,http://www.jolispa.com/,,http://www.jolispa.com/giftcertificates.php,,Gift Certificates,,1,CA,92595,beauty_salon
Daily Charme,"3920 Prospect Ave unit f, Yorba Linda, CA 92886",Beauty supply store,Yorba Linda,,http://www.dailycharme.com/,,http://www.dailycharme.com/products/gift-card,http://www.dailycharme.com/pages/contact-us,Gift Cards,Contact Us,1,CA,92886,beauty_salon
Beauty Club House,"1822 E Collins Ave, Orange, CA 92867",Nail salon,Orange,,http://beautyclubhouse.com/,,http://beautyclubhouse.com/#buy-gift-card,,Purchase,,1,CA,92867,beauty_salon
Salon Cabochon,"1220 Arden Hills Ln, Sacramento, CA 95864",Beauty salon,Sacramento,,http://ardenhills.club/,,https://ardenhills.club/giftcards/,http://ardenhills.club/contact/event-sales,Gift Cards,Request More Information,1,CA,95864,beauty_salon
Sun Nails & Spa,"330 6th St, Redlands, CA 92374",Nail salon,Redlands,,http://sunnailsspa.com/,,http://sunnailsspa.com/gift-card,http://sunnailsspa.com/contactus,E-Gift,Contact Us,1,CA,92374,beauty_salon
