name,address,type,place,description,website_url,menu_url,gift_card_website,contact_website,gift_card_txt,contact_txt,searched,state,zipcode,store_type
Alameda Cinema Grill,"2301 Central Ave, Alameda, CA 94501",American,Alameda,"American bar & grill in the Alameda Cinema, with seating or options to carry into the theater.",http://www.alamedacinemagrill.com/,http://www.alamedacinemagrill.com/menus/,http://www.alamedacinemagrill.com/gift-cards/,http://www.alamedacinemagrill.com/contact/,,Contact,1,CA,94501,restaurant
La Penca Azul,"891-B Island Dr, Alameda, CA 94502",Mexican,Alameda,"Traditional Mexican dishes & street eats in a big, bright, bustling restaurant with a tequila bar.",http://www.lapencaazul.com/,,http://www.lapencaazul.com/menu/gift-cards,http://www.lapencaazul.com/contact, GIFT CARDS, Contact,1,CA,94502,restaurant
Koja Kitchen,"2680 5th St D, Alameda, CA 94501",Korean,Alameda,Food truck team's stylish permanent space serving innovative Korean & Japanese fusion dishes.,http://www.kojakitchen.com/,http://places.singleplatform.com/koja-kitchen-19/menu?ref=google,http://www.kojakitchen.com/gift-cards,http://www.kojakitchen.com/contact,order gift card no,CONTACT,1,CA,94501,restaurant
Spinning Bones,"1205 Park St, Alameda, CA 94501",Restaurant,Alameda,"A contemporary locale known for rotisserie meats & American sides, plus a few vegetarian items.",http://www.spinningbones.com/,https://www.spinningbones.com/all-day-menu,https://squareup.com/gift/N4C0HQ9MTXFD0/order,https://www.spinningbones.com/contact,Gift Cards,Contact,1,CA,94501,restaurant
Yoshi's,"510 Embarcadero West, Oakland, CA 94607",Japanese,Oakland,Combination sushi restaurant & nightclub offering Japanese fare & live jazz in a relaxed setting.,http://www.yoshis.com/,http://places.singleplatform.com/yoshis-jazz-club-and-japanese-restaurant/menu?ref=google,https://shop.yoshis.com/gifts,,Gift Cards/Shop,,1,CA,94607,restaurant
Beanery of Alameda,"1650 Park St, Alameda, CA 94501",Coffee shop,Alameda,,http://www.beaneryofalameda.com/,,https://squareup.com/gift/BRAT5C20AKHZ4/order,https://beaneryofalameda.square.site/,"
                Gift Cards
              ","
CLICK HERE TO ORDER ONLINE! We are open for Contactless Pick Up!
",1,CA,94501,restaurant
Lake Chalet,"1520 Lakeside Dr, Oakland, CA 94612",Seafood,Oakland,"Basic seafood, cocktails & Lake Merritt views are found at this renovated boathouse with a patio.",http://www.thelakechalet.com/,https://www.thelakechalet.com/menus/,http://www.thelakechalet.com/chalet-gift-cards,,Gift Cards,,1,CA,94612,restaurant
Chibiscus Ramen,"345 E Main St, Alhambra, CA 91801",Ramen,Alhambra,,http://chibiscus.com/,,http://chibiscus.com/?category=Physical+Giftcard,http://chibiscus.com/contact,"
              Physical Giftcard
            ","
            Contact
          ",1,CA,91801,restaurant
The Granada LA,"17 S 1st St, Alhambra, CA 91801",Restaurant,Alhambra,"Nightclub has DJs & Latin bands, bottle service & tapas along with ballroom dancing nights.",http://www.thegranadala.com/,,https://www.thegranadala.com/dance-studio/gift-certificates/,,Gift Certificates,,1,CA,91801,restaurant
Julienne Fine Foods And Celebrations,"2649 Mission St, San Marino, CA 91108",French,San Marino,Bustling standby for creative French breakfast & lunch dishes in a cozy cafe setting with a patio.,http://www.juliennetogo.com/,https://docs.google.com/document/d/1JiYdOJ8aFkZAFV3-cVK1PIDYetauyZmSzWDY_b9klD0/edit?usp=sharing,https://www.toasttab.com/julienne/giftcards,https://www.juliennetogo.com/contact-us/,Gift Cards,Contact,1,CA,91108,restaurant
Bagels & Brew,"26601 Aliso Creek Rd Suite D, Aliso Viejo, CA 92656",Cafe,Aliso Viejo,Family-owned cafe serves everything from salads & pancakes to sandwiches on its housemade bagels.,http://www.bagelsandbrew.com/,http://av.bagelsandbrew.com/,http://www.bagelsandbrew.com/gift_card.html,,,,1,CA,92656,restaurant
Spike's Fish House,"27020 Alicia Pkwy, Laguna Niguel, CA 92677",Seafood,Laguna Niguel,"Relaxed counter-serve restaurant offering a rotating fish selection for salads, wraps & plates.",http://www.spikesfishhouse.com/,,http://www.spikesfishhouse.com/store/gift-cards/,http://www.spikesfishhouse.com/contact/,Order Gift Cards,Contact,1,CA,92677,restaurant
Sgt Pepperoni's Pizza Store,"26601 Aliso Creek Rd Suite D, Aliso Viejo, CA 92656",Pizza,Aliso Viejo,,http://www.sgtpepps.com/,,//scontent-lax3-2.cdninstagram.com/v/t51.2885-15/e35/s1080x1080/94328217_544577373094003_292453181515620974_n.jpg?_nc_ht=scontent-lax3-2.cdninstagram.com&_nc_cat=107&_nc_ohc=3b4HOhZZZXUAX9slO5M&oh=c0cb8e4eb429776bc3a0b4364adb0c18&oe=5ECD41BF,,,,1,CA,92656,restaurant
China Moon,"30001 Town Center Dr #4, Laguna Niguel, CA 92677",Chinese,Laguna Niguel,Chinese eatery dishes up Mandarin-style fare in a contemporary setting with painted ceiling mural.,http://www.chinamoonrestaurant.com/,http://www.chinamoonrestaurant.com/menu/starters/,https://www.chinamoonrestaurant.com/gift-cards/,https://www.chinamoonrestaurant.com/contact/,Gift Cards,Contact,1,CA,92677,restaurant
Chelas Mexican Grill,"29975 Alicia Pkwy, Laguna Niguel, CA 92677",Mexican,Laguna Niguel,,http://www.chelasmexicangrill.com/,https://chelasmexicangrill.com/menu/,https://chelasmexicangrill.com/shop/,https://chelasmexicangrill.com/contact/,GIFT CARDS,CONTACT,1,CA,92677,restaurant
Fresh Brothers Pizza Laguna Niguel,"24002 Aliso Creek Rd #16, Laguna Niguel, CA 92677",Pizza Delivery,Laguna Niguel,,https://freshbrothers.com/,https://www.freshbrothers.com/menu/,https://onelink.quickgifts.com/merchant/fresh-brothers/,https://freshbrothers.com/contact-us,Gift Cards,Contact Us,1,CA,92677,restaurant
Ralph Brennan's Jazz Kitchen,"1590 Disneyland Dr, Anaheim, CA 92802",Familyfriendly,Anaheim,Outfit in the Downtown Disney District with Creole fare & live jazz that's suitable for families.,http://www.rbjazzkitchen.com/,https://www.rbjazzkitchen.com/menus,https://www.neworleans-food.com/gift-cards/,,Gift Cards,,1,CA,92802,restaurant
JT Schmid's Restaurant & Brewery,"2610 E Katella Ave, Anaheim, CA 92806",Brewpub,Anaheim,A classic menu of pub fare & handcrafted beers on tap make this a popular spot to catch the game.,http://jtschmidsrestaurants.com/,http://places.singleplatform.com/jt-schmids/menu?ref=google,https://www.toasttab.com/jt-schmids-restaurant-brewery-anaheim/giftcards,http://jtschmidsrestaurants.com/contact,Gift Cards,Get in touch,1,CA,92806,restaurant
Anaheim White House,"887 S Anaheim Blvd, Anaheim, CA 92805",Italian,Anaheim,High-end restaurant located in a historic old home offers formal Italian dining in a regal setting.,http://www.anaheimwhitehouse.com/,http://places.singleplatform.com/anaheim-white-house-restaurant/menu?ref=google,https://onelink.quickgifts.com/merchant/anaheim-white-house/,https://anaheimwhitehouse.com/contact-us/,Gift Cards,Contact Us,1,CA,92805,restaurant
The Catch,"2100 E Katella Ave #104, Anaheim, CA 92806",Seafood,Anaheim,Go-to for seafood & steakhouse fare is spacious & relaxed with an upscale sports pub ambiance.,http://www.catchanaheim.com/,http://www.catchanaheim.com/wp-content/uploads/2015/04/Game.Day_.2015.pdf,https://catchanaheim.com/gift-cards/,http://www.catchanaheim.com/#lightbox-contactus,Gift Cards,Contact Us,1,CA,92806,restaurant
Lindo Michoacan,"327 S Anaheim Blvd #C, Anaheim, CA 92805",Mexican,Anaheim,Counter-serve Mexican cafe offering comfort items like tacos & burritos in a compact space.,http://lindo-michoacan.cafes-guide.com/,,http://topmountainvillage.com/en/?utm_source=usa_restaurants,,"


",,1,CA,92805,restaurant
DonerG Turkish & Mediterranean Grill  Anaheim,"2139 E Ball Rd, Anaheim, CA 92806",Mediterranean,Anaheim,"Turkish counter-service spot for kebab platters, wraps, vegetarian fare & more in a sit-down space.",http://www.donerg.com/,http://places.singleplatform.com/doner-g/menu?ref=google,https://www.toasttab.com/donerg-irvine/giftcards,,Gift Cards,,1,CA,92806,restaurant
Specialty Restaurants Corporation,"8191 E Kaiser Blvd, Anaheim, CA 92808",Corporate office,Anaheim,,http://www.specialtyrestaurants.com/,http://places.singleplatform.com/specialty-restaurants/menu?ref=google,http://www.specialtyrestaurants.com/gift-cards,http://www.specialtyrestaurants.com/contact,Gift Cards,Contact,1,CA,92808,restaurant
Refreshment Corner hosted by CocaCola,"217 S Main St, Anaheim, CA 92802",Snack bar,Anaheim,"Vintage-style American snack bar at Disneyland featuring hot dogs, pretzels & ragtime piano music.",http://disneyland.disney.go.com/,,http://www.disneygiftcard.com/home/,https://disneyland.disney.go.com/help/phone/,Disney Gift Card,Phone Directory,1,CA,92802,restaurant
Hoa Sen,"12180 Brookhurst St, Garden Grove, CA 92840",Vegetarian,Garden Grove,Unpretentious eatery offering vegetarian & vegan versions of traditional Vietnamese specialties.,http://hoa-sen.cafes-nearby.com/,http://places.singleplatform.com/hoa-sen-vegetarian-restaurant/menu?ref=google,http://topmountainvillage.com/en/?utm_source=usa_restaurants,,"


",,1,CA,92840,restaurant
Playground,"220 E 4th St #102, Santa Ana, CA 92701",Small Plates,Santa Ana,Creative chef Jason Quinn's modern gastropub offers changing New American fare & top-shelf drinks.,http://www.playgrounddtsa.com/,http://www.playgrounddtsa.com/dinner/,http://www.toasttab.com/playground/giftcards,http://www.playgrounddtsa.com/contact,"

Gift Cards

","

Contact

",1,CA,92701,restaurant
The Vox Kitchen,"16161 Brookhurst St, Fountain Valley, CA 92708",Asian Fusion,Fountain Valley,"Popular spot serving Asian fusion fare, including seasonal veggies & small plates, in modern digs.",http://www.eatvox.com/,,https://www.toasttab.com/vox-kitchen/giftcards,http://www.eatvox.com/contact-us,Giftcard,Contact Us,1,CA,92708,restaurant
Cedar Creek Brea,"20 Pointe Dr, Brea, CA 92821",Restaurant,Brea,"Warm & woodsy Craftsman-style eatery serving hearty burgers, seafood & signature coconut cake.",https://www.cedarcreekbrea.com/,,https://www.cedarcreekbrea.com/online-store,https://www.cedarcreekbrea.com/contact-us,Gift Certificates,Contact Us,1,CA,92821,restaurant
Lucky Chen,"1721 Alhambra Drive, Antioch, CA 94509",Asian,Antioch,,http://luckychenca.com/,http://luckychenca.com/,http://www.luckychenca.com/index.php?main_page=gv_faq&zenid=4283073db7ec6f52b2cf3c5f43f04e2c,http://www.luckychenca.com/index.php?main_page=report_bug&zenid=4283073db7ec6f52b2cf3c5f43f04e2c,Gift Certificate FAQ,Contact Web Master,1,CA,94509,restaurant
Nubi Yogurt,"19201 Bear Valley Rd, Apple Valley, CA 92308",FroYo,Apple Valley,"Bright, modern cafe offering self-serve frozen yogurt with fat-free options & assorted toppings.",http://www.nubiyogurt.com/,http://places.singleplatform.com/nubi-yogurt-1/menu?ref=google,http://www.nubiyogurt.com/giftcard.html,http://www.nubiyogurt.com/#,,,1,CA,92308,restaurant
Westfield Santa Anita,"400 S Baldwin Ave, Arcadia, CA 91007",Restaurant,Arcadia,,http://www.westfield.com/,,http://www.westfield.com/santaanita/stores/Gift%20Cards,,Gift Cards,,1,CA,91007,restaurant
WR Restaurant and Food Catering,"400 S Baldwin Ave, Arcadia, CA 91007",Familyfriendly,Arcadia,,https://www.woodranch.com/,,https://www.woodranch.com/wr-gift-cards/,https://www.woodranch.com/contact/,Gift Cards,Contact Us ,1,CA,91007,restaurant
Auntie Anne's Pretzels Level 1,"400 S Baldwin Ave, Arcadia, CA 91007",Restaurant,Arcadia,,https://www.auntieannes.com/,,https://www.auntieannes.com/gift-cards,https://www.auntieannes.com/contact-us/careers,Gift Cards,apply now,1,CA,91007,restaurant
Mantra Coffee Company & BnB,"615 N San Gabriel Ave, Azusa, CA 91702",Coffee shop,Azusa,,http://mantracoffee.com/,,https://squareup.com/gift/BEM5JW2MFQNMB/order,http://mantracoffee.com/location-hours,"
              E-GIFT CARD
            ","
                  Contact
                ",1,CA,91702,restaurant
Spaghetti Eddie's Cucina Italiana,"946 S Grand Ave, Glendora, CA 91740",Italian,Glendora,"Bustling Italian eatery with comfy booth seating, a family-friendly ambiance & and hearty portions.",http://www.spaghettieddies.com/,https://www.spaghettieddies.com/dinner-menu,https://www.spaghettieddies.com/gift-cards,https://www.spaghettieddies.com/contact-us,GIFT CARDS,CONTACT US,1,CA,91740,restaurant
Tahoe Joe's,"9000 Ming Ave, Bakersfield, CA 93311",Steak,Bakersfield,This outpost for meat-centric meals offers hearty entrees & sides among pine beams & a fireplace.,https://www.tahoejoes.com/,http://places.singleplatform.com/tahoe-joes-16/menu?ref=google,https://tahoejoes.myshopify.com/products/gift-card,https://www.tahoejoes.com/contact-us/,GIFT CARDS,CONTACT US,1,CA,93311,restaurant
Saigon Restaurant,"3113 Chester Ln, Bakersfield, CA 93304",Vietnamese,Bakersfield,"Old-fashioned fixture in a strip mall with pho & other down-home Vietnamese meals, plus beer & wine.",http://saigon.cafes-guide.com/,http://places.singleplatform.com/saigon-restaurant-21/menu?ref=google,http://topmountainvillage.com/en/?utm_source=usa_restaurants,,"


",,1,CA,93304,restaurant
Thai Kitchen,"9901 Hageman Rd STE 200, Bakersfield, CA 93312",Thai,Bakersfield,Cozy storefront preparing curries & other traditional Thai dishes for dine in or take out.,http://thai-kitchen.local-cafes.com/,,http://topmountainvillage.com/en/?utm_source=usa_restaurants,,"


",,1,CA,93312,restaurant
Stars Theatre Restaurant,"1931 Chester Ave, Bakersfield, CA 93301",Restaurant,Bakersfield,Bank building turned dinner theater establishment offers a variety of shows with a set price meal.,http://www.bmtstars.com/,https://bmtstars.com/showmenus/,https://bmtstars.com/tickets/gift-cards/,https://bmtstars.com/contact/,Gift Cards,Contact,1,CA,93301,restaurant
Blue Elephant Thai Cuisine,"8200 Stockdale Hwy suite m-1, Bakersfield, CA 93311",Thai,Bakersfield,"White-tablecloth destination offering spiced-to-order Thai dishes with beer, wine & desserts.",http://www.blueelephantca.com/,http://www.blueelephantca.com/,https://www.blueelephantca.com/product/gift-certificate/,https://www.blueelephantca.com/#contact,Gift Certificate,Contact Us,1,CA,93311,restaurant
Zingo's Cafe,"3201 Buck Owens Blvd, Bakersfield, CA 93308",Restaurant,Bakersfield,"Homestyle American eats are served in a retro atmosphere at this long-standing, old-school pit stop.",http://zingos.cafes-guide.com/,,http://topmountainvillage.com/en/?utm_source=usa_restaurants,,"


",,1,CA,93308,restaurant
Great Castle Chinese Restaurant,"410 Union Ave, Bakersfield, CA 93307",Chinese,Bakersfield,Spacious spot for traditional entrees like walnut shrimp & pot stickers in a casual environment.,http://great-castle-chinese.cafes-guide.com/,http://places.singleplatform.com/great-castle-chinese-restaurant/menu?ref=google,http://topmountainvillage.com/en/?utm_source=usa_restaurants,,"


",,1,CA,93307,restaurant
Moo Creamery,"4885 Truxtun Ave, Bakersfield, CA 93309",Ice Cream,Bakersfield,"Gourmet burgers with scratch-made sauces & brioche buns along with creative milkshakes, beer & wine.",http://www.moocreamery.com/,,http://www.moocreamery.com/giftcard,,buy a moo gift card,,1,CA,93309,restaurant
Belvedere Restaurant,"1702 18th St, Bakersfield, CA 93301",American,Bakersfield,"Carefully sourced steaks & other American cuisine in a stylish, upscale space at the Padre Hotel.",http://www.thepadrehotel.com/,,https://thepadrehotel.cardfoundry.com/giftcards.php,http://www.thepadrehotel.com/contact/,Gift Cards, 05  Contact,1,CA,93301,restaurant
La Mina Mexican Restaurant,"354 Oak St, Bakersfield, CA 93304",Restaurant,Bakersfield,Stalwart eatery providing hearty plates of familiar Mexican fare & margaritas in a no-frills space.,http://la-mina-mexican-restaurant.local-cafes.com/,,http://topmountainvillage.com/en/?utm_source=usa_restaurants,,"


",,1,CA,93304,restaurant
Toro Fusion Grill,"9000 Ming Ave, Bakersfield, CA 93311",Sushi,Bakersfield,,http://toro-fushion-grill.cafes-guide.com/,http://places.singleplatform.com/toro-fushion-grill/menu?ref=google,http://topmountainvillage.com/en/?utm_source=usa_restaurants,,"


",,1,CA,93311,restaurant
Sabor A Mexico Mexican Food,"515 E California Ave, Bakersfield, CA 93307",Mexican,Bakersfield,,http://sabor-a.cafes-guide.com/,,http://topmountainvillage.com/en/?utm_source=usa_restaurants,,"


",,1,CA,93307,restaurant
The Bistro,"5105 California Ave, Bakersfield, CA 93309",Bistro,Bakersfield,This upscale choice with a wood-paneled bar & warm atmosphere offers American classics & cocktails.,http://the-bistro.local-cafes.com/,http://places.singleplatform.com/the-bistro-restaurant-at-the-four-points-by-sheraton-hotel/menu?ref=google,http://topmountainvillage.com/en/?utm_source=usa_restaurants,,"


",,1,CA,93309,restaurant
dot x ott,"930 18th St, Bakersfield, CA 93301",Restaurant,Bakersfield,,http://www.dotandott.com/,https://www.dotandott.com/menu,https://squareup.com/gift/F4RS665W0QQ78/order,http://www.dotandott.com/#new-page-1,"
        Gift Cards
      ","

Contact Us
",1,CA,93301,restaurant
JUST WING IT,"4837 Panama Ln B, Bakersfield, CA 93313",Restaurant,Bakersfield,"Small, low-key game-day spot offering wings with various sauces & other pub food, plus a full bar.",http://just-wing-it.local-cafes.com/,http://places.singleplatform.com/just-wing-it-4/menu?ref=google,http://topmountainvillage.com/en/?utm_source=usa_restaurants,,"


",,1,CA,93313,restaurant
Aqui es Texcoco,"5850 S Eastern Ave, Commerce, CA 90040",Mexican,Commerce,,http://aquiestexcoco.com/,http://places.singleplatform.com/aqui-es-texcoco-0/menu?ref=google,http://www.aquiestexcoco.com/contact/gift-card/,http://www.aquiestexcoco.com/contact/,Reward & Gift Card,Contact,1,CA,90040,restaurant
Dal Rae Restaurant,"9023 Washington Blvd, Pico Rivera, CA 90660",American,Pico Rivera,Local icon serving upscale steakhouse fare in a wood-paneled setting evoking a swanky retro vibe.,http://www.dalrae.com/,http://www.dalrae.com/lunch/,https://dalrae.cardfoundry.com,http://www.dalrae.com/contact-us,Gift Cards,Contact Us,1,CA,90660,restaurant
Bestia,"2121 E 7th Pl, Los Angeles, CA 90021",Italian,Los Angeles,Trendy Italian restaurant from an acclaimed husband-&-wife team highlights creative seasonal fare.,http://www.bestiala.com/,http://places.singleplatform.com/bestia/menu?ref=google,https://bestiala.com/gift-cards/,https://bestiala.com/contact/,Gift Cards,Contact,1,CA,90021,restaurant
Lock & Key Social Drinkery  Kitchen,"11033 Downey Ave, Downey, CA 90241",American,Downey,"Burgers, steaks & other American eats are offered at this cool bar with a variety of craft brews.",http://www.lksddowney.com/,https://www.lksdkitchen.com/food,https://www.toasttab.com/lock-key-social-drinkery-and-kitchen/giftcards,http://www.lksddowney.com/contact-us,Gift Cards,"
        Contact Us
      ",1,CA,90241,restaurant
Tempo Cantina,"12056 Paramount Blvd, Downey, CA 90242",Mexican,Downey,,https://tempocantina.com/,http://places.singleplatform.com/tempo-cantina/menu?ref=google,https://www.toasttab.com/king-and-queen-cantina/giftcards,https://tempocantina.com/contact-us/,Gift Cards,Contact Us,1,CA,90242,restaurant
La Marcha Tapas Bar,"2026 San Pablo Ave, Berkeley, CA 94702",Spanish,Berkeley,"Rustic-chic bistro known for paella & tapas, plus Spanish drinks & complimentary happy-hour snacks.",http://www.lamarchaberkeley.com/,https://store.lamarchaberkeley.com/,https://squareup.com/gift/KTTB2N1DS9D98/order,,Gift Cards,,1,CA,94702,restaurant
Rivoli,"1539 Solano Ave, Berkeley, CA 94707",New American,Berkeley,Californian-Mediterranean spot is known for simple cuisine in a romantic space overlooking a garden.,https://www.rivolirestaurant.com/,,https://giftrocker.com/Rivoli,https://www.rivolirestaurant.com/#contact-section,"
              Gift Cards
            ","
                        Reservations & Menus
                      ",1,CA,94707,restaurant
Jupiter,"2181 Shattuck Ave, Berkeley, CA 94704",Brewpub,Berkeley,A 2-story venue & beer garden that serves up wood-fired pizzas plus handcrafted beers & ales.,http://www.jupiterbeer.com/,http://www.jupiterbeer.com/food/,http://jupiter.securetree.com,http://www.jupiterbeer.com/contact,Gift Cards,Contact,1,CA,94704,restaurant
Comal,"2020 Shattuck Ave, Berkeley, CA 94704",Mexican,Berkeley,Modern design & Mexican cuisine meet at this eatery known for its cocktails & vibrant outdoor area.,http://www.comalberkeley.com/,http://places.singleplatform.com/comal/menu?ref=google,https://www.toasttab.com/comal/giftcards,,Gift Cards,,1,CA,94704,restaurant
Iyasare,"1830 Fourth St, Berkeley, CA 94710",Japanese,Berkeley,Inventive dishes from northeast Japan pair with classic nigiri & sashimi in a simple Zen-like space.,http://www.iyasare-berkeley.com/,https://iyasare-berkeley.com/takeout/,https://www.toasttab.com/iyasare/giftcards,,Gift Card,,1,CA,94710,restaurant
Skates On The Bay,"100 Seawall Dr, Berkeley, CA 94710",American,Berkeley,"This casual American eatery offers seafood, steaks, sushi & waterfront views.",https://skatesonthebay.com/,https://skatesonthebay.com/menu.php,https://skatesonthebay.com/giftcards.php,https://www.landrysinc.com/feedback/FeedbackForm_ms.asp?ConceptID=75,gift cards,contact us,1,CA,94710,restaurant
Saul's Restaurant & Delicatessen,"1475 Shattuck Ave, Berkeley, CA 94709",Jewish,Berkeley,Pastrami & other Jewish soul food staples bring the New York deli experience to the West Coast.,http://www.saulsdeli.com/,http://places.singleplatform.com/sauls-deli/menu?ref=google,https://www.toasttab.com/sauls-restaurant-and-delicatessen-shattuck-ave/giftcards,http://www.saulsdeli.com/info,"
Gift Cards
",Contact,1,CA,94709,restaurant
Kirala,"2100 Ward St, Berkeley, CA 94705",Japanese,Berkeley,"Crowds head to this comfortable Japanese eatery for its well-regarded sushi, udon & grilled items.",https://www.kiralaberkeley.com/,http://places.singleplatform.com/kirala-restaurant/menu?ref=google,https://www.kiralaberkeley.com/gift-card,,GIFT CARD,,1,CA,94705,restaurant
Zut,"1820 Fourth St, Berkeley, CA 94710",Mediterranean,Berkeley,"Mediterranean fare from local, organic ingredients, plus handcrafted cocktails, in a sunny space.",http://www.zutonfourth.com/,,https://zutonfourth.ackroo.net/en/gifts/new,,"
              Gift Card
            ",,1,CA,94710,restaurant
The Butcher's Son,"1954 University Ave, Berkeley, CA 94704",Vegan,Berkeley,"Charming, industrial-chic bakery & vegan deli for pastries, coffee & creative vegetable-based mains.",http://www.thebutchersveganson.com/,http://www.thebutchersveganson.com/menu,http://www.thebutchersveganson.com/gift-card,http://www.thebutchersveganson.com/where-to-find-us,GIFT CARDS,Where to find us,1,CA,94704,restaurant
Lalime's,"1329 Gilman St, Berkeley, CA 94706",Californian,Berkeley,Seasonal menu of Californian-Mediterranean cuisine & wines in a Craftsman-style bungalow.,https://lalimes.com/,https://lalimes.com/menus-all/,https://www.toasttab.com/lalime-s/giftcards,https://lalimes.com/contact/,GIFT CARD,CONTACT,1,CA,94706,restaurant
Donato & Co,"2635 Ashby Ave, Berkeley, CA 94705",Italian,Berkeley,"Housemade pastas, rotisserie items & regional Italian dishes offered in well-outfitted environs.",http://www.donatoandco.com/,http://donatoandco.com/menus/,http://www.donatoandco.com/gift-cards,,"
            Gift Cards
          ",,1,CA,94705,restaurant
Standard Fare,"2701 Eighth St #118, Berkeley, CA 94710",Organic,Berkeley,"Laid-back, counter-serve outlet serving an organic, daily-changing, seasonal breakfast & lunch menu.",http://www.standardfareberkeley.com/,https://www.standardfareberkeley.com/lunch,https://squareup.com/gift/3250E3BGEEB8Q/order,http://www.standardfareberkeley.com/#contact,Buy a Standard Fare Gift Card Here ,"

Contact
",1,CA,94710,restaurant
Creekwood Restaurant,"3121 Sacramento St, Berkeley, CA 94702",Restaurant,Berkeley,,http://creekwoodrestaurant.com/,,https://www.toasttab.com/creekwood-restaurant/giftcards,,Gift Cards,,1,CA,94702,restaurant
Hana Japan Steak and Seafood,"235 University Ave, Berkeley, CA 94710",Japanese,Berkeley,An interactive dining experience where seafood & Japanese-style dishes are made to order by chefs.,http://www.hanajapan.com/,,http://www.hanajapan.com/gift-card,,"
        
        Gift Card
      ",,1,CA,94710,restaurant
KoJa Kitchen,"2395 Telegraph Ave, Berkeley, CA 94704",Korean,Berkeley,Food truck team's stylish permanent space serving innovative Korean & Japanese fusion fare.,http://kojakitchen.com/,http://places.singleplatform.com/koja-kitchen/menu?ref=google,http://kojakitchen.com/gift-cards,http://kojakitchen.com/contact,order gift card no,CONTACT,1,CA,94704,restaurant
Three Stone Hearth  closed for renovation until early June,"1581 University Ave, Berkeley, CA 94703",Takeout Restaurant,Berkeley,"Community-supported kitchen offering health-focused, nutrient-dense food a couple of days a week.",http://www.threestonehearth.com/,http://threestonehearth.com/,http://www.threestonehearth.com/gift-certificates,http://www.threestonehearth.com/contactus,Give the Gift of Three Stone Hearth,Contact us,1,CA,94703,restaurant
Oliveto,"5655 College Ave, Oakland, CA 94618",Italian,Oakland,Rotating menus contain locally sourced ingredients for handcrafted pastas & other regional fare.,http://www.oliveto.com/,,http://www.oliveto.com/#giftcertificates,http://www.oliveto.com/#contactus,GIFT CERTIFICATES,FIND US,1,CA,94618,restaurant
Bobby G's Pizzeria,"2072 University Ave, Berkeley, CA 94704",Pizza,Berkeley,"Relaxed hangout matches local-sourced pizza with craft drafts, sports on TV & music & trivia nights.",https://bobbygspizzeria.com/,https://bobbygspizzeria.com/menu,https://bobbygspizzeria.com/schwag/gift-certificate,https://www.instagram.com/p/B-u9bHshx7j/,GIFT CERTIFICATE,"

",1,CA,94704,restaurant
Millennium,"5912 College Ave, Oakland, CA 94618",Vegan,Oakland,"Vegetarian restaurant for inventive, locally sourced dishes in a rustic-modern space with a patio.",http://www.millenniumrestaurant.com/,http://places.singleplatform.com/millennium-8/menu?ref=google,https://squareup.com/gift/A7S8SX4KGN864/,http://www.millenniumrestaurant.com/contact,"
Gift Cards
","
                Contact
              ",1,CA,94618,restaurant
Oasis Grill,"2114 Center St, Berkeley, CA 94704",Mediterranean,Berkeley,Narrow counter-serve destination features Mediterranean comfort eats prepared in an open kitchen.,https://oasisgrill.com/,https://oasisgrill.com/,https://catering.oasisgrill.com/#cat-g4q14yh424k5a,https://oasisgrill.com/contact-us/,BUY GIFT CARD,CONTACT US,1,CA,94704,restaurant
Gioia Pizzeria,"1586 Hopkins St, Berkeley, CA 94707",Pizza,Berkeley,"This spot serves up NY-style slices & tops them with innovative, Californian-style toppings.",https://www.gioiapizzeria.com/,https://www.gioiapizzeria.com/menus,https://squareup.com/gift/P6SG70AJ5NAXY/order,https://www.gioiapizzeria.com,GIFT CARDS,CONTACT US,1,CA,94707,restaurant
Fire Wings Berkeley,"64 Shattuck Square D, Berkeley, CA 94704",Chicken Wings,Berkeley,,https://www.firewings.com/,https://www.firewings.com/chicken-wings-menu,https://www.firewings.com/gift-cards,https://www.firewings.com/contact," GIFT CARDS

","  

CONTACT US
",1,CA,94704,restaurant
Sliver Pizzeria,"2174 Shattuck Ave, Berkeley, CA 94704",Restaurant,Berkeley,,http://sliverpizzeria.com/,,http://sliverpizzeria.com/gift-cards,http://sliverpizzeria.com/contact,Gift Cards,"
            Contact
          ",1,CA,94704,restaurant
Belotti Ristorante E Bottega,"5403 College Ave, Oakland, CA 94618",Italian,Oakland,Neighborhood bistro offering modern & classic Italian cuisine & wines served in a cozy space.,http://belottirb.com/,https://www.toasttab.com/belottirb,https://www.toasttab.com/belottirb/giftcards,http://belottirb.com/contact-us,Gift Cards,Contact,1,CA,94618,restaurant
Ramen Shop,"5812 College Ave, Oakland, CA 94618",Ramen,Oakland,Bustling Japanese joint presents creative takes on traditional noodle soups & appetizers.,http://www.ramenshop.com/,http://ramenshop.com/#menu-1-section,http://www.ramenshop.com/gift-certificates,,"
                Gift Certificates
              ",,1,CA,94618,restaurant
A Cote Restaurant,"5478 College Ave, Oakland, CA 94618",Modern European,Oakland,Charming Mediterranean spot serving seasonal tapas at indoor communal tables or out on the patio.,http://acoterestaurant.com/,http://places.singleplatform.com/a-cote/menu?ref=google,http://acoterestaurant.com/contact-us#gift,http://acoterestaurant.com/contact-us#gift,Gift cards,Gift cards,1,CA,94618,restaurant
Pizzaiolo,"5008 Telegraph Ave, Oakland, CA 94609",Italian,Oakland,Contemporary pizzeria earns fans with wood-fired pizzas & seasonal Italian eats in a lively setting.,http://www.pizzaiolooakland.com/,https://gecko-saxophone-xhxj.squarespace.com/menus-pizzaiolo-oakland,http://www.pizzaiolooakland.com/gift-cards,http://www.pizzaiolooakland.com/contact,"
            Gift Cards
          ","
            Contact
          ",1,CA,94609,restaurant
Red Door Eats,"2282 Fulton St, Berkeley, CA 94704",Sandwich,Berkeley,,http://reddooreats.com/,https://www.reddooreats.com/menu,https://www.reddooreats.com/gift-cards,https://www.reddooreats.com,GIFT CARDS,CONTACT,1,CA,94704,restaurant
Lawry's The Prime Rib,"100 La Cienega Blvd, Beverly Hills, CA 90211",Steak,Beverly Hills,Elegant chophouse presenting a high-end menu of hand-carved beef & seafood since 1938.,https://www.lawrysonline.com/,https://www.lawrysonline.com/lawrys-the-prime-rib-beverly-hills/menu,https://www.lawrysonline.com/gift-cards/,https://www.lawrysonline.com/contact/,Gift Cards,Contact Us,1,CA,90211,restaurant
Il Cielo,"9018 Burton Way, Beverly Hills, CA 90211",Restaurant,Beverly Hills,Traditional Italian cuisine with modern presentations in old-world digs & a romantic courtyard.,https://www.ilcielo.com/,http://www.ilcielo.com/menu/,https://www.ilcielo.com/store/gift-cards/,,Gift Cards,,1,CA,90211,restaurant
The Stinking Rose,"55 N La Cienega Blvd, Beverly Hills, CA 90211",Italian,Beverly Hills,Even desserts feature garlic at this unique Italian eatery with a menu highlighting that ingredient.,http://www.thestinkingrose.com/,http://www.thestinkingrose.com/bh/menu1.html,https://thestinkingrosestore.com/products/the-stinking-rose-gift-card-1,http://www.thestinkingrose.com/contact.html,BUY A GIFT CARD,CONTACT US,1,CA,90211,restaurant
Crustacean Beverly Hills,"468 N Bedford Dr, Beverly Hills, CA 90210",Asian Fusion,Beverly Hills,Renowned fish & creative Vietnamese fare dished up in chic digs with an attention-getting aquarium.,http://www.crustaceanbh.com/,http://www.crustaceanbh.com/pages/menu,http://www.crustaceanbh.com/mailto:GiftCertificatesCBH@Houseofan.com,http://www.crustaceanbh.com/pages/contact,"
            EMAIL US
          ",Contact,1,CA,90210,restaurant
Nozawa Bar,"212 N Canon Dr, Beverly Hills, CA 90210",Sushi,Beverly Hills,"Sugarfish Beverly Hill's spare, hidden private dining room offers a 20-course Japanese tasting menu.",http://www.nozawabar.com/,http://places.singleplatform.com/nozawa-bar/menu?ref=google,https://www.nozawabar.com/e-gift-cards/,,Gift Cards,,1,CA,90210,restaurant
Wally's Beverly Hills,"447 N Canon Dr, Beverly Hills, CA 90210",New American,Beverly Hills,This combination gourmet wine & cheese bar plus shop stocks bottles & accoutrements.,https://www.wallywine.com/,https://www.wallywine.com/beverly_hills_store,https://www.wallywine.com/gift-ideas/gift-cards.html,https://www.wallywine.com/contactus/,Gift Cards,"
                    Customer Care                ",1,CA,90210,restaurant
Viviane Restaurant,"9400 W Olympic Blvd, Beverly Hills, CA 90212",New American,Beverly Hills,Kelly Wearstler–designed eatery in the Avalon Hotel cooking continental fare with French techniques.,https://www.avalon-hotel.com/,https://www.avalon-hotel.com/beverly-hills/viviane/?utm_source=GMB&utm_medium=organic,https://properhospitality.egiftify.com/landingpage,https://www.avalon-hotel.com/contact/,Gift Cards,Contact,1,CA,90212,restaurant
La Dolce Vita,"9785 S Santa Monica Blvd, Beverly Hills, CA 90210",Northern Italian,Beverly Hills,"Longtime pick for Northern Italian dining & bar with intimate, old-world decor & red leather booths.",http://ladolcevitabeverlyhills.com/,https://www.ladolcevitabeverlyhills.com/menus/#dinner-menu,http://ladolcevitabeverlyhills.com/store/gift-cards/,http://ladolcevitabeverlyhills.com/contact-us/,Gift Cards,Contact Us,1,CA,90210,restaurant
Mr Chow,"344 N Camden Dr, Beverly Hills, CA 90210",Chinese,Beverly Hills,Bustling restaurant creating high-end Chinese cuisine in chic digs adorned with artwork by Warhol.,http://mrchow.com/,http://www.mrchow.com/sites/default/files/DineLA_MalibuANDBeverlyHillsmenu.pdf,https://www.giftrocker.com/MrChowBeverlyHills,http://mrchow.com/contact-mr-chow-restaurants,Gift Certificates,Contact Us,1,CA,90210,restaurant
CUT by Wolfgang Puck,"9500 Wilshire Blvd, Beverly Hills, CA 90212",Steak,Beverly Hills,,https://wolfgangpuck.com/,http://wolfgangpuck.com/dining/cut-beverly-hills/#menu,https://wolfgangpuck.com/gift-card-terms-conditions/,https://wolfgangpuck.com/contact/,Gift Card Terms,Contact,1,CA,90212,restaurant
Gracias Madre West Hollywood,"8905 Melrose Ave, West Hollywood, CA 90069",Mexican,West Hollywood,"Meatless Mexican fare, all vegan & organic, plus a big tequila & drink menu, in a chic space.",http://www.graciasmadre.co/,http://places.singleplatform.com/gracias-madre/menu?ref=google,https://cafegratitude.myguestaccount.com/guest/egift,http://www.graciasmadre.co/contact-general-inquiries,"
        GIFT CARDS
      ","
              General Inquiries
            ",1,CA,90069,restaurant
BOA Steakhouse,"9200 Sunset Blvd, West Hollywood, CA 90069",Restaurant,West Hollywood,"Sophisticated hot spot featuring upmarket prime beef & seafood dishes amid stylish, sleek decor.",https://www.boasteak.com/,https://www.boasteak.com/menus/west-hollywood,https://www.boasteak.com/gift-cards,https://www.boasteak.com/contact,Gift Cards,Contact,1,CA,90069,restaurant
Tagine,"132 N Robertson Blvd, Beverly Hills, CA 90211",Moroccan,Beverly Hills,Innovative Moroccan cuisine served in a cozy & romantic setting co-owned by actor Ryan Gosling.,http://www.taginebeverlyhills.com/,,http://www.taginebeverlyhills.com/gift-cards/,http://www.taginebeverlyhills.com/contact/,Gift Cards,Contact,1,CA,90211,restaurant
Caffe Roma,"350 N Canon Dr, Beverly Hills, CA 90210",Restaurant,Beverly Hills,"Upscale eatery with a patio & piano bar offering Northern Italian fare, plus happy hours & DJ sets.",http://www.cafferomabeverlyhills.com/,http://places.singleplatform.com/caffe-roma-4/menu?ref=google,http://www.cafferomabeverlyhills.com/beverly-hills-caffe-roma-gift-cards,https://www.twitter.com/CAFFE_ROMA,"
                              GIFT CARDS
                              
                          ",Twitter page,1,CA,90210,restaurant
The Penthouse at Mastro's,"246 N Canon Dr Floor 3, Beverly Hills, CA 90210",Fine Dining,Beverly Hills,,https://www.mastrosrestaurants.com/,,https://www.mastrosrestaurants.com/gift-cards/,https://www.landrysinc.com/contactUs/feedback.asp,Gift Cards,Feedback,1,CA,90210,restaurant
Locanda Veneta,"8638 W 3rd St, Los Angeles, CA 90048",Italian,Los Angeles,Charming white-tablecloth Italian restaurant specializing in Venetian foods like risotto & calamari.,http://locandaveneta.net/,http://places.singleplatform.com/locanda-veneta/menu?ref=google,http://locandaveneta.net/los-angeles-locanda-veneta-gift-cards,https://www.instagram.com/locandaveneta_la/,"
                                    Gift Cards                                ",Instagram page,1,CA,90048,restaurant
Pizzeria il Fico,"310 Robertson Blvd, Los Angeles, CA 90048",Southern Italian,Los Angeles,"Sleek, rustic-chic Italian eatery specializing in dishes from Puglia, with an extensive wine list.",http://pizzeriailfico.com/,https://mymozo.com/myrestaurant/default?CompanyId=1747,https://www.yelp.com/checkout/gc/H1rUyhte7eHd7K4eUQinGg?biz_id=dP37CRr-OfsAqFpt1VNcGw,http://www.pizzeriailfico.com/contact/,GIFT CERTIFICATES,CONTACT,1,CA,90048,restaurant
Craft,"10100 Constellation Blvd, Los Angeles, CA 90067",New American,Los Angeles,"Renowned chef Tom Colicchio's farm-to-table New American fare plated in a sleek, elegant setting.",http://www.craftlosangeles.com/,https://www.craftlosangeles.com/menus/,http://www.craftlosangeles.com/gift-cards/,http://www.craftlosangeles.com/contact/,Gift Cards,Contact,1,CA,90067,restaurant
Soom Soom Fresh Mediterranean  Beverly Hills,"9533 Santa Monica Blvd, Beverly Hills, CA 90210",Mediterranean,Beverly Hills,Falafel fiends flock to this Israeli counter-serve featuring seasonal toppings.,http://soomsoomfresh.com/,http://places.singleplatform.com/soom-soom-fresh-mediterranean-1/menu?ref=google,http://soomsoomfresh.com/gift-cards,,Gift Cards,,1,CA,90210,restaurant
Oliver Cafe  Lounge,"9601 Wilshire Blvd, Beverly Hills, CA 90212",Restaurant,Beverly Hills,"Health-conscious wraps, sandwiches, salads & smoothies in space-age, sports-club-adjacent digs.",https://www.olivercafe.com/,https://www.olivercafe.com/beverly-hills/lunch-dinner,https://www.olivercafe.com/locations,https://www.olivercafe.com/contact,Gift Cards,Email us,1,CA,90212,restaurant
Gourmando,"107 S Robertson Blvd, Beverly Hills, CA 90211",New American,Beverly Hills,,https://gourmandola.com/,https://gourmandola.com/,https://gourmandola.com/beverly-hills-beverly-hills-gourmando-gift-cards,https://www.twitter.com/GourmandoLA,"
                            GIFT CARDS                        ",Twitter page,1,CA,90211,restaurant
Urth Caffe Beverly Hills,"267 S Beverly Dr, Beverly Hills, CA 90212",Cafe,Beverly Hills,"Bustling cafe known for organic coffee, American eats & people-watching from its lively patio.",http://www.urthcaffe.com/,http://places.singleplatform.com/urth-caff/menu?ref=google,https://urthcaffe.myguestaccount.com/guest/nologin/account-balance,,Check Gift Card Balance,,1,CA,90212,restaurant
Catch LA,"8715 Melrose Ave, West Hollywood, CA 90069",Restaurant,West Hollywood,"Slick, rooftop space known for celebrity sightings, creative seafood-focused food & cocktails.",http://catchrestaurants.com/,https://www.winendine.com/catch-25/menu-official,https://catchhg.com/gift-cards/,https://catchrestaurants.com/catchla/#contact,Gift Cards,Contact,1,CA,90069,restaurant
The Little Door,"8164 W 3rd St, Los Angeles, CA 90048",Modern European,Los Angeles,"Parisian-style brasserie boasts seasonal French fare, pastries & fine wines, plus artisanal goods.",http://www.thelittledoor.com/,http://thelittledoor.com/menus/,http://thelittledoor.com/gift-cards/,,GIFT CARDS,,1,CA,90048,restaurant
Angler,"8500 Beverly Blvd Suite 117, Los Angeles, CA 90048",Seafood,Los Angeles,Refined seafood restaurant with premium wines & spirits located in the Beverly Center.,https://www.anglerrestaurants.com/,,https://ecommerce.custcon.com//Purchase/Select?c=651bbbed-0371-46c7-98ec-1400375bbb1d,https://www.anglerrestaurants.com/contact,"
Gift Card - SF
","
Contact
",1,CA,90048,restaurant
Toast Bakery Cafe,"8221 W 3rd St, Los Angeles, CA 90048",Traditional American,Los Angeles,Busy bistro offers ambitious takes on American breakfast-&-brunch fare & a trendy outdoor scene.,http://toastbakerycafe.net/,http://order.toastbakerycafe.net/,http://toastbakerycafe.net/los-angeles-mid-city-west-toast-bakery-cafe-gift-cards,https://www.instagram.com/toastbakerycafe/,"
                                    GIFT CARDS                                ",Instagram page,1,CA,90048,restaurant
Alfred Coffee Beverly Hills,"490 N Beverly Dr, Beverly Hills, CA 90210",Coffee shop,Beverly Hills,"Stylish yet whimsical coffee shop serving coffee & juice, plus salads, sandwiches & pastries.",http://alfred.la/,https://alfred-coffee.speedetab.com/venues/1972,http://alfred.la/products/alfred-digital-giftcard,http://alfred.la/pages/contact-1,"




 Alfred Digital Giftcard
 $25.00

",CONTACT,1,CA,90210,restaurant
RockSugar Southeast Asian Kitchen,"10250 Santa Monica Blvd, Los Angeles, CA 90067",Asian,Los Angeles,"Varied dishes from all over Asia offered in dramatic, elaborately decorated dining rooms.",http://www.rocksugarkitchen.com/,http://www.rocksugarkitchen.com/menu/,https://rocksugar.cashstar.com/gift-card/buy/?ref=rspa1,http://www.rocksugarkitchen.com/contact.aspx,Gift Cards,Contact Us,1,CA,90067,restaurant
Mels DriveIn,"8585 Sunset Blvd, West Hollywood, CA 90069",American,West Hollywood,"Family-friendly, 1950s-style spot for American comfort eats & cocktails served around the clock.",http://melsdrive-in.com/,http://melsdrive-in.com/menus,https://melsdrive-in.cardfoundry.com/giftcards.php,http://melsdrive-in.com/#,Gift Cards,"
            
            Contact Us
            
            ",1,CA,90069,restaurant
Olive Pit Grill  Brea,"240 S Brea Blvd, Brea, CA 92821",Mediterranean,Brea,Casual atmosphere for health-focussed Mediterranean quick eats including lamb kabob & roast chicken.,http://www.olivepitgrill.com/,http://places.singleplatform.com/olive-pit-brea/menu?ref=google,https://www.toasttab.com/the-olive-pit-brea/giftcards,https://olivepitgrill.com/contact/,GIFT CARDS,CONTACT,1,CA,92821,restaurant
Slapfish,"3405 E Imperial Hwy, Brea, CA 92823",Seafood,Brea,,http://www.slapfishrestaurant.com/,,https://www.slapfishrestaurant.com/gift-card,https://www.slapfishrestaurant.com/contact,"
Gift Cards
",Contact,1,CA,92823,restaurant
Tempo Urban Kitchen,"1060 E Imperial Hwy, Brea, CA 92821",New American,Brea,"New American & Mexican food, craft cocktails & weekend brunch in an upbeat, industrial-chic space.",https://tempourbankitchen.com/,http://places.singleplatform.com/tempo-urban-kitchen/menu?ref=google,https://www.toasttab.com/king-and-queen-cantina/giftcards,https://tempocantina.com/contact-us/,Gift Cards,Contact Us,1,CA,92821,restaurant
Summit House Restaurant,"2000 E Bastanchury Rd, Fullerton, CA 92835",Steak,Fullerton,"Hilltop manor restaurant turning out prime rib, yorkshire pudding & more with sweeping city views.",https://www.summithouse.com/,http://summithouse.com/menus.html,https://www.summithouse.com/gift_cards.html,https://www.summithouse.com/contact.html,,CONTACT,1,CA,92835,restaurant
The Cat & the Custard Cup,"800 E Whittier Blvd, La Habra, CA 90631",American,La Habra,Romantic restaurant & bar offers carefully sourced New American cuisine with Californian influence.,https://www.catandcustardcup.com/,https://www.catandcustardcup.com/menu,https://www.catandcustardcup.com/gift-cards,,GIFT CARDS,,1,CA,90631,restaurant
A'Roma Ristorante,"30 Centerpointe Dr STE 1, La Palma, CA 90623",Italian,La Palma,"Upscale eatery serving Italian classics, with an extensive wine list, in a romantic setting.",http://www.aromalapalma.com/,http://places.singleplatform.com/aroma-ristorante/menu?ref=google,http://www.aromalapalma.com/gift-cards.html,http://www.aromalapalma.com/contact-us.html,Gift cards,Contact Us,1,CA,90623,restaurant
Santa Maria BBQ and Catering,"8002 Orangethorpe Ave, Buena Park, CA 90621",Barbecue,Buena Park,Easygoing eatery offering grilled BBQ meats & sides in casual environs plus patio seating.,https://www.santamariabbqshack.com/,https://santamariabbqgrill.com/s/order,https://squareup.com/gift/3S3FYCAHK0XVC/order,,E-gift cards,,1,CA,90621,restaurant
Yoko,"4566 Beach Blvd, Buena Park, CA 90621",Restaurant,Buena Park,Petite Japanese restaurant featuring fried cutlet & noodle dishes in a casual environment.,http://yoko.cafes-usa.com/,,http://topmountainvillage.com/en/?utm_source=usa_restaurants,,"


",,1,CA,90621,restaurant
Fish In A Bottle,"10205 Valley View St, Cypress, CA 90630",Sushi,Cypress,"Contemporary eatery featuring creative sushi rolls, sashimi & Japanese entrees, plus beer & sake.",http://www.fishinabottle.net/,https://www.doordash.com/store/fish-in-a-bottle-cypress-29659/854251/?utm_campaign=29659&utm_medium=website&utm_source=partner-link,https://www.fishinabottle.net/shop,https://www.fishinabottle.net/find-or-contact-us,Gift Cards,Find/Contact Us,1,CA,90630,restaurant
Mr V's Bar & Grill,"14320 Valley View Ave, La Mirada, CA 90638",Grill,La Mirada,"Steaks, seafood & other American fare served in a dining room & bar with large draft beer selection.",https://www.mrvsbarandgrill.com/,https://www.mrvsbarandgrill.com/menu,https://www.mrvsbarandgrill.com/gift-cards,https://www.mrvsbarandgrill.com/contact,Gift Cards,Contact,1,CA,90638,restaurant
Los Amigos Bar & Grill,"2825 W Olive Ave, Burbank, CA 91505",Mexican,Burbank,"Vibrant Mexican restaurant offering happy-hour specials, karaoke nights & outdoor dining.",https://losamigosbargrill.com/,https://losamigosbargrill.com/,https://losamigosbargrill.com/gift-card,https://losamigosbargrill.com/#,Gift Card,contact-free options,1,CA,91505,restaurant
Kabuki Japanese Restaurant,"201 N San Fernando Blvd, Burbank, CA 91502",Japanese,Burbank,Family-friendly eatery with classic rolls along with American-style entrees in a low-key space.,http://www.kabukirestaurants.com/,http://kabukirestaurants.com/menu/,http://www.kabukirestaurants.com/gift-cards/,http://www.kabukirestaurants.com/contact/,Gift Cards,Contact,1,CA,91502,restaurant
Gindi Thai Restaurant  Sushi  Bar,"4017 W Riverside Dr, Burbank, CA 91505",Thai,Burbank,"Bright Thai find with pillow-strewn seating, turning out  noodles, stir-fry & creative sushi.",https://gindithai.com/,https://gindithai.com/menu/,https://squareup.com/gift/3YWXXD8Q4Y244/order,,ORDER EGIFT CARD,,1,CA,91505,restaurant
The New Deal,"3501 W Magnolia Blvd, Burbank, CA 91505",New American,Burbank,Eclectically decorated restaurant with a welcoming vibe & a menu of classic American dishes.,https://thenewdealrestaurant.com/,https://thenewdealrestaurant.com/menu,https://thenewdealrestaurant.com/gift-cards,,Gift Cards,,1,CA,91505,restaurant
Lancers Family Restaurant,"697 N Victory Blvd, Burbank, CA 91502",Familyfriendly,Burbank,"Spot with plush banquettes serving classic American fare such as meatloaf, chops & broasted chicken.",https://lancersfamilyrestaurant.com/,https://lancersfamilyrestaurant.com/menu,https://lancersfamilyrestaurant.com/gift-cards,,Gift Cards,,1,CA,91502,restaurant
Simmzy's Restaurant Burbank,"3000 W Olive Ave, Burbank, CA 91505",Gastropub,Burbank,"This buzzing pub serves up a wide range of craft beers, plus  burgers & wood-fired pizzas.",http://www.simmzys.com/,https://www.simmzys.com/menu/?location=burbank,https://www.simmsrestaurants.com/simmzys/gift-cards,http://www.simmzys.com/contact-us,Gift Cards,Contact Us,1,CA,91505,restaurant
Siri Thai Cuisine,"2730 W Burbank Blvd, Burbank, CA 91505",Thai,Burbank,Veteran strip-mall spot specialising in a menu of aromatic Thai cuisine.,http://www.siri-thaicuisine.com/,http://www.siri-thaicuisine.com/menu,http://www.siri-thaicuisine.com/gift-card,http://www.siri-thaicuisine.com/#,Gift Card,contact-free options,1,CA,91505,restaurant
The Backhouse Restaurant,"150 S San Fernando Blvd, Burbank, CA 91502",Sushi,Burbank,,http://backhouserestaurant.com/,,https://backhouserestaurant.com/giftcard/,https://backhouserestaurant.com/contact/,Gift Cards,Contact,1,CA,91502,restaurant
Ca Del Sole,"4100 Cahuenga Blvd, Toluca Lake, CA 91602",Italian,Toluca Lake,"Rustic, stylish restaurant offering traditional Italian antipasti, fresh pastas & a vast wine list.",http://www.cadelsole.com/,http://cadelsole.com/easter-menu/,http://cadelsole.com/giftcards/,http://cadelsole.com/contact-us/,Gift Cards to Ship,Contact Us,1,CA,91602,restaurant
Copenhagen Bakery & Cafe,"1216 Burlingame Ave, Burlingame, CA 94010",Bakery,Burlingame,"Casual spot for all-day American-European meals, plus baked goods, including Danish-style pastries.",http://www.copenhagenbakery.com/,http://www.copenhagenbakery.com/menu/lunch/,https://copenhagenbakery.com/product/gift-card/,https://copenhagenbakery.com/contact/,Gift Card,Contact,1,CA,94010,restaurant
Maverick Jack's,"1190 California Dr, Burlingame, CA 94010",Restaurant,Burlingame,"Upmarket burger joint with thoughtfully sourced ingredients, light fare & a family-friendly vibe.",http://www.maverickjacks.com/,http://www.maverickjacks.com/menus/,http://www.maverickjacks.com/store/gift-cards,http://www.maverickjacks.com/contact/,Gift Cards ,Contact,1,CA,94010,restaurant
I Prive  Sushi [?] Sake [?] Spirits,"1125 Burlingame Ave, Burlingame, CA 94010",Sushi,Burlingame,Hip Japanese sushi bar known for its elegantly plated tasting menus with pairings from the full bar.,https://iprivesake.com/,https://iprivesake.com/menu/,https://iprivesake.com/gift-cards,,Gift Cards,,1,CA,94010,restaurant
Coconut Bay Thai Restaurant,"1107 Howard Ave, Burlingame, CA 94010",Thai,Burlingame,"Contemporary Thai eatery with patio seating & private dining featuring noodles, rice & soups.",http://www.coconutbaythai.com/,http://www.coconutbaythai.com/,https://coconutbayca.smilegiftcard.com,,Order eGift Card,,1,CA,94010,restaurant
Que SeRaw SeRaw,"1160 Capuchino Ave, Burlingame, CA 94010",Gluten Free,Burlingame,"Cheery storefront specializing in organic, vegan takeout meals in colorful surrounds.",http://queserawseraw.com/,http://places.singleplatform.com/que-seraw-seraw-fresh-food-to-go/menu?ref=google,https://squareup.com/gift/13FY9PFRA7CX6/order,https://www.queserawseraw.com,Purchase eGift Cards,contact,1,CA,94010,restaurant
Stella Alpina Osteria,"401 Primrose Rd, Burlingame, CA 94010",Northern Italian,Burlingame,Sophisticated neighborhood osteria serves rustic Northern Italian cuisine in a romantic atmosphere.,http://www.stellaalpinaosteria.com/,http://www.stellaalpinaosteria.com/menus/,https://app.yiftee.com/gifts/egift_and_gift_cards/stella-alpina-osteria-burlingame,http://www.stellaalpinaosteria.com/contact/,GIFT CARDS,CONTACT,1,CA,94010,restaurant
Pizzeria Delfina,"1444 Burlingame Ave, Burlingame, CA 94010",Pizza,Burlingame,Locals line up for the Neapolitan-style pies at this farm-to-table outpost also serving wine & beer.,http://pizzeriadelfina.com/,http://pizzeriadelfina.com/burlingame,http://toasttab.com/pizzeria-delfina-burlingame/giftcards,,Gift Cards,,1,CA,94010,restaurant
Presto Pasta,"1701 E Daily Dr #6269, Camarillo, CA 93010",Italian,Camarillo,"Italian comfort food such as pizza, pasta & subs, dished in a contemporary counter-serve setting.",http://prestopasta.com/,http://prestopasta.com/menu,https://www.valutec.net/customers/balance.aspx,https://prestopasta.com/contact-us/,Gift Card Balance,Contact Us,1,CA,93010,restaurant
Cronies Sports Grill,"370 N Lantana St, Camarillo, CA 93010",Grill,Camarillo,"Bar offerings sports on big screens, brew on tap & a long menu of classic American pub grub.",http://www.cronies.com/,,http://instagram.com/eatatcronies,,"

",,1,CA,93010,restaurant
Sushi Confidential  Campbell,"247 E Campbell Ave, Campbell, CA 95008",Sushi,Campbell,Modern sushi house lures locals with its creative rolls & Japanese fare served in a warm atmosphere.,http://www.sushiconfidential.com/,http://www.sushiconfidential.com/mt-content/uploads/2019/02/sc-campbell-dinner-menu.pdf,https://sushiconfidentialcampbell.hrpos.heartland.us,,GIFT CARDS,,1,CA,95008,restaurant
Orchard City Kitchen,"1875 S Bascom Ave #190, Campbell, CA 95008",American,Campbell,This chef-owned eatery specializing in New American small plates has a full bar & weekend brunch.,http://www.orchardcitykitchen.com/,http://www.orchardcitykitchen.com/pdf/Cocktails.pdf,https://www.toasttab.com/orchard-city-kitchen/giftcards,http://www.orchardcitykitchen.com/mailto: contact@orchardcitykitchen.com,GIFT CARDS,,1,CA,95008,restaurant
Opa Campbell,"276 E Campbell Ave, Campbell, CA 95008",Greek,Campbell,"Festive haunt with patio seating offers hearty Greek classics, specialty drinks & happy-hour deals.",http://opaauthenticgreek.com/,http://www.opaauthenticgreek.com/menu.html,https://opaauthenticgreek.cardfoundry.com,http://opaauthenticgreek.com/contact.html,Gift cards,CONTACT,1,CA,95008,restaurant
Capers Eat & Drink,"1710 W Campbell Ave, Campbell, CA 95008",American,Campbell,"Cheery go-to offers a wide menu of eclectic American fare, creative drinks & live weekend music.",http://caperseatanddrink.com/,https://caperseatanddrink.com/menu/,https://caperseatanddrink.com/gift-certificates/,https://caperseatanddrink.com/reservations/,Gift Certificates,,1,CA,95008,restaurant
Mo's Campbell,"278 E Campbell Ave, Campbell, CA 95008",Breakfast,Campbell,Creative eats such as carrot cake waffles & hamburger with Brie served in a main-drag kitchen.,http://www.grubatmos.com/,http://www.grubatmos.com/burgers.html,https://moscampbell.cardfoundry.com,http://www.grubatmos.com/contact.html,Gift Cards,Contact Us,1,CA,95008,restaurant
The Garret of Campbell,"1777 S Bascom Ave Unit E, Campbell, CA 95008",Pizza,Campbell,"Neighborhood institution offering pizza, burgers & beer in a casual space with large-screen TVs.",http://thegarretrestaurant.com/,http://thegarretrestaurant.com/menu.html,http://onelink.quickgifts.com/merchant/the-garret-of-campbell/,,,,1,CA,95008,restaurant
Burger Lounge,"1875 S Bascom Ave, Campbell, CA 95008",Hamburger,Campbell,"Modern counter-serve burger spot serving grass-fed beef, free-range turkey & quinoa varieties.",https://www.burgerlounge.com/,https://www.burgerlounge.com/menus/menu,https://shop.burgerlounge.com,https://www.burgerlounge.com/../contact,Gift Cards,Contact,1,CA,95008,restaurant
Grill Em Steak House & Sports Bar,"2509 S Bascom Ave, Campbell, CA 95008",Restaurant,Campbell,A vibrant space with red walls & banquet seating offers a communal grill for handcrafted steaks.,https://www.ugrillem.com/,https://www.ugrillem.com/grill-em-steak-house-and-sports-bar-menu/,https://www.ugrillem.com/store/gift-cards/,https://www.ugrillem.com/contact/,Gift Cards,Contact,1,CA,95008,restaurant
Brew City Grill,"651 W Hamilton Ave Suite 1070, Campbell, CA 95008",Restaurant,Campbell,,http://brewcitygrill.com/,http://brewcitygrill.com/menus,https://www.toasttab.com/brew-city-grill/giftcards,,Click here to order,,1,CA,95008,restaurant
Tessora's Barra di Vino,"234 E Campbell Ave, Campbell, CA 95008",Restaurant,Campbell,Wines by the glass or by the bottle & eclectic eats in a relaxed cafe & shop with a patio.,http://www.tessoras.com/,http://places.singleplatform.com/tessoras-barra-di-vino/menu?ref=google,https://tessoras.com/gift-cards/,https://tessoras.com/contact-wine-bar/,Gift Cards,Contact,1,CA,95008,restaurant
Spread Deli & Bottles,"193 E Campbell Ave, Campbell, CA 95008",Sandwich,Campbell,Deli-style sandwich shop with a modern vibe featuring a huge selection of draft & bottled beer.,http://spreaddeli.com/,http://places.singleplatform.com/spread-deli--bottles/menu?ref=google,https://www.instagram.com/p/B6POAZLDPh6/,http://spreaddeli.com/contact-spread-campbell-deli-bottles,"

",Contact,1,CA,95008,restaurant
Dry Creek Grill,"1580 Hamilton Ave, San Jose, CA 95125",American,San Jose,"Upscale casual eatery featuring steaks, seafood, small-batch bourbons & a cozy outdoor fire pit.",http://www.drycreekgrill.com/,http://www.drycreekgrill.com/menu.html,https://drycreekgrill.cardfoundry.com/giftcards.php,http://www.drycreekgrill.com/contact.html,BUY ONLINE,,1,CA,95125,restaurant
The Garret Station,"14101 Winchester Blvd, Los Gatos, CA 95032",Pizza,Los Gatos,"Family-friendly find for brick-oven pizza & burgers with sports on TV, an enclosed patio & a bar.",http://www.garretstation.com/,http://www.garretstation.com/menu.html,http://onelink.quickgifts.com/merchant/the-garret-station-of-los-gatos/,,,,1,CA,95032,restaurant
Maya's Cafe,"2616 Union Ave, San Jose, CA 95124",Honduran,San Jose,"Traditional Honduran entrees, plus imported beer, served in a small, down-to-earth space.",http://mayas-cafe.cafes-city.com/,,http://topmountainvillage.com/en/?utm_source=usa_restaurants,,"


",,1,CA,95124,restaurant
LUNA Mexican Kitchen  The Pruneyard,"1875 S Bascom Ave Suite #570, Campbell, CA 95008",Mexican,Campbell,,http://lunamexicankitchen.com/,,https://www.toasttab.com/luna-mexican-kitchen/giftcards  ,http://lunamexicankitchen.com/contact/,Gift Cards,Contact,1,CA,95008,restaurant
Tomato Thyme,"1560 Hamilton Ave, San Jose, CA 95125",Italian,San Jose,"Neighborhood bar & eatery known for its wood-fired pizzas, pastas & weekend brunch.",http://www.tomato-thyme.com/,http://places.singleplatform.com/tomato-thyme/menu?ref=google,https://tomato-thyme.cardfoundry.com/giftcards.php,http://www.tomato-thyme.com/#1149143504,"  

Gift Cards
","  

Contact Us
",1,CA,95125,restaurant
Left Bank,"377 Santana Row #1100, San Jose, CA 95128",French,San Jose,"Bustling, family-friendly French brasserie with a seasonally changing menu & outdoor seating.",http://www.leftbank.com/,https://www.leftbank.com/pick-up-and-delivery/,http://leftbank.com/#front-page-4,,Gift Cards,,1,CA,95128,restaurant
LB Steak,"334 Santana Row Ste 1000, San Jose, CA 95128",Steak,San Jose,"This modern American steakhouse is set in a masculine space with cowhide chairs, wood trim & patio.",http://www.lbsteak.com/,https://www.lbsteak.com/pick-up-and-delivery/,https://lbsteak.com/#text-18,,Gift Cards,,1,CA,95128,restaurant
Campbell Liquors & Deli,"479 E Campbell Ave, Campbell, CA 95008",Liquor store,Campbell,,https://postmates.com/,https://postmates.com/drinks,https://postmates.com/gift,,Gift Cards,,1,CA,95008,restaurant
Mr Pickle's Sandwich Shop,"2080 S Bascom Ave, Campbell, CA 95008",Sandwich,Campbell,,https://www.mrpickles.com/,http://places.singleplatform.com/mr-pickles-sandwich-shop-41/menu?ref=google,https://www.mrpickles.com/gift-cards/,https://www.mrpickles.com/contact/,Gift Cards,Contact Mr. Pickles,1,CA,95008,restaurant
Super Duper Burgers,"5399 Prospect Rd, San Jose, CA 95129",Hamburger,San Jose,,http://superduperburgers.com/,http://superduperburgers.com/menu/,https://superduperburgers.cardfoundry.com/,http://superduperburgers.com/contact/,Gift Cards,Contact,1,CA,95129,restaurant
Enoteca La Storia,"416 N Santa Cruz Ave, Los Gatos, CA 95030",Italian,Los Gatos,"Italian wine bar & shop with fine vintages, specialty beers & small plates, savory or sweet.",http://www.enotecalastoria.com/,https://www.enotecalastoria.com/losgatos-menus,https://www.toasttab.com/enoteca-la-storia-los-gatos/giftcards,,"
              buy e-gift cards
            ",,1,CA,95030,restaurant
Blue Ocean Robata & Sushi Bar,"2958 Madison St #100, Carlsbad, CA 92008",Japanese,Carlsbad,Splashy Japanese eatery serving specialty rolls & grilled skewers with sake & creative cocktails.,http://www.blueoceanrobatasushi.com/,http://blueoceanrobatasushi.com/menu/dinner/,http://www.blueoceanrobatasushi.com/gift-cards,,Gift Cards,,1,CA,92008,restaurant
Tin Leaf Fresh Kitchen,"6985 El Camino Real UNIT 108, Carlsbad, CA 92009",New American,Carlsbad,"Casual eatery offers simple, California cuisine, including a popular family-style take-out option.",http://tinleafkitchen.com/,http://m.tinleafkitchen.com/,https://www.toasttab.com/tinleaf/giftcards,https://tinleafkitchen.com/contact,E-Gifts,Contact,1,CA,92009,restaurant
Beach Plum Kitchen,"6971 El Camino Real #201, Carlsbad, CA 92009",Breakfast,Carlsbad,"Low-key breakfast & lunch spot offering eggs, sandwiches & other American cafe items, plus a patio.",http://www.beachplumkitchen.com/,http://beachplumkitchen.com/,https://www.toasttab.com/beachplumkitchen/giftcards,https://beachplumkitchen.com/contact,E-Gifts,Contact,1,CA,92009,restaurant
Green Dragon Tavern & Museum,"6115 Paseo Del Norte, Carlsbad, CA 92011",American,Carlsbad,New England fare is served in a sprawling tavern that also serves as a Revolutionary War museum.,http://www.greendragontavernca.com/,https://greendragontavernca.com/dining/menu/,https://www.toasttab.com/green-dragon-tavern-museum/giftcards,https://greendragontavernca.com/contact/,Gift Cards,Contact,1,CA,92011,restaurant
The Compass,"300 Carlsbad Village Dr #202, Carlsbad, CA 92008",Grill,Carlsbad,Eatery with outdoor tables & red banquettes serving twists on classic American fare & unique drinks.,http://thecompasscarlsbad.com/,http://thecompasscarlsbad.com/the-compass-evening-menu/,http://thecompasscarlsbad.com/carlsbad-the-compass-gift-cards,https://www.instagram.com/thecompasscarlsbad/,"
                                    GIFT CARDS                                ",Instagram page,1,CA,92008,restaurant
Gregorio's Restaurant,"300 Carlsbad Village Dr Ste 208, Carlsbad, CA 92008",Italian,Carlsbad,Handmade pizzas & specialty pasta dishes along with meat & fish in a cozy Italian villa setting.,http://www.gregoriosrestaurant.com/,http://places.singleplatform.com/gregorios-italian-restaurant/menu?ref=google,https://www.toasttab.com/gregorios-restaurant-carlsbad-300-carlsbad-village-dr/giftcards,https://www.twitter.com/brandee_reeves,"
                              GIFT CARDS
                              
                          ",Twitter page,1,CA,92008,restaurant
Chandler's Restaurant & Lounge,"1 Ponto Rd, Carlsbad, CA 92011",Fine Dining,Carlsbad,Sophisticated eatery with an oceanfront patio offering coastal cuisine & an extensive wine list.,http://www.chandlerscarlsbad.com/,http://www.chandlerscarlsbad.com/menu.htm,https://cape-rey-carlsbad.egiftify.com/landingpage,https://www.chandlerscarlsbad.com/contact-us.htm,Learn More,Contact Us,1,CA,92011,restaurant
Jeune et Jolie,"2659 State St Suite 102, Carlsbad, CA 92008",Restaurant,Carlsbad,,http://jeune-jolie.com/,,https://www.toasttab.com/jeune-et-jolie/giftcards,,"
                gift card
              ",,1,CA,92008,restaurant
Wrench and Rodent Seabasstropub,"1815 S Coast Hwy, Oceanside, CA 92054",Sushi,Oceanside,"Cozy, eclectic space serving inventive sushi & seafood dishes made with local fish and produce.",http://www.seabasstropub.com/,http://places.singleplatform.com/t-and-t-nails-39/menu?ref=google,https://www.toasttab.com/wrench-rodent-seabasstropub-the-whet-noodle/giftcards,http://www.seabasstropub.com/locations,Gift Cards,CONTACT US,1,CA,92054,restaurant
Canyons Restaurant,"5800 The Crossings Dr, Carlsbad, CA 92008",Familyfriendly,Carlsbad,Castlelike venue at The Crossings with fine American eats & a patio overlooking the golf course.,http://thecrossingsatcarlsbad.com/,https://thecrossingsatcarlsbad.com/menus-packages/,http://thecrossingsatcarlsbad.com/gift-card-purchase-form/,https://thecrossingsatcarlsbad.com/contact/,Gift Card Purchase Form,Contact,1,CA,92008,restaurant
OAK  Elixir,"2917 State St, Carlsbad, CA 92008",Restaurant,Carlsbad,Inventive tapas & a notable selection of wine offered in a chill space with a buzzy atmosphere.,http://www.oakandelixir.com/,http://www.oakandelixir.com/#menu,https://squareup.com/gift/AK49C1Z8K0XD9/order,,GIFT CARDS,,1,CA,92008,restaurant
Shorehouse Kitchen Carlsbad,"2833 State St, Carlsbad, CA 92008",Restaurant,Carlsbad,,http://www.shorehousekitchen.com/,,http://www.shorehousekitchen.com/gift-cards,http://www.shorehousekitchen.com/contact-us,Gift Cards,Subscribe,1,CA,92008,restaurant
VUE,"2100 Costa del Mar Rd Clubhouse Building, Carlsbad, CA 92009",Restaurant,Carlsbad,,https://www.omnihotels.com/,https://www.omnihotels.com/-/media/images/hotels/sanrst/restaurants/menus/sanrst-omni-la-costa-resort-vue-breakfast.pdf,https://www.omnihotels.com/shop/gift-cards,https://www.omnihotels.com/#,Gift Cards,Contact Us,1,CA,92009,restaurant
Tommy V's Urban Kitchen & Bar,"2659 Gateway Rd, Carlsbad, CA 92010",Californian,Carlsbad,Eclectic American menu is served in a semi-formal space with patio seats & occasional live music.,http://www.tommyvsurbankitchencarlsbad.com/,,http://www.tommyvsurbankitchencarlsbad.com/products,,Gift Cards,,1,CA,92010,restaurant
Barrio Eat Mexican,"530 Grand Ave, Carlsbad, CA 92008",Mexican,Carlsbad,,http://www.barriocarlsbad.com/,https://www.barriocarlsbad.com/menu/,http://www.barriocarlsbad.com/gift-cards/,http://www.barriocarlsbad.com/party-menu-contact-us/,GIFT CARDS,PARTY MENU,1,CA,92008,restaurant
Mas Fina Cantina Inc,"2780 State St, Carlsbad, CA 92008",Grill,Carlsbad,"Casual American eatery & bar has burgers, nachos, pizza, beer, surf decor, a jukebox & patio seats.",http://masfinacantina.com/,http://places.singleplatform.com/mas-fina-cantina-inc/menu?ref=google,http://masfinacantina.com/carlsbad-carlsbad-village-mas-fina-cantina-gift-cards,https://www.twitter.com/MasFinaCantina,"
                              GIFT CARDS
                              
                          ",Twitter page,1,CA,92008,restaurant
Black Rail Kitchen  Bar,"6981 El Camino Real, Carlsbad, CA 92009",American,Carlsbad,,http://www.blackrailkitchen.com/,https://blackrailkitchen.com/menu,https://www.toasttab.com/black-rail-kitchen-bar/giftcards,https://blackrailkitchen.com/contact,E-Gifts,Contact,1,CA,92009,restaurant
Pure Burger,"2641 Gateway Rd #102, Carlsbad, CA 92009",Hamburger,Carlsbad,"Modern, minimalist counter-serve spot for organic, grass-fed burgers with locally sourced toppings.",http://www.pure-burger.com/,https://www.pure-burger.com/carlsbad-menu/,http://www.pure-burger.com/gift-cards,http://www.pure-burger.com/contact,"
                Gift Cards
              ",Contact,1,CA,92009,restaurant
Draft Republic Carlsbad,"5958 Avenida Encinas, Carlsbad, CA 92008",Sports bar,Carlsbad,"Fun hangout for craft brews, bar bites & sandwiches in a convivial space with games & sports TVs.",https://www.cohnrestaurants.com/,http://places.singleplatform.com/draft-republic-carlsbad/menu?ref=google,https://www.cohnrestaurants.com/giftcards?utm_source=mainmenu&utm_medium=global&utm_campaign=gift_cards,https://www.cohnrestaurants.com/about/contact?utm_source=footer&utm_medium=global&utm_campaign=contact_us,Gift Cards,Contact Us,1,CA,92008,restaurant
Casero Taqueria,"2674 Gateway Rd #195, Carlsbad, CA 92009",Restaurant,Carlsbad,,https://www.caserotaqueria.com/,https://www.caserotaqueria.com/menu,https://www.caserotaqueria.com/gift-cards,https://www.caserotaqueria.com/contact,"
            Gift Cards
          ","
              Contact
            ",1,CA,92009,restaurant
Hooked on Sushi,"2508 S El Camino Real A-B, Carlsbad, CA 92008",Sushi,Carlsbad,"Creative sushi rolls & other Japanese bites, plus sake, are served at this cozy, contemporary spot.",https://www.hookedonsushi.com/,,https://www.hookedonsushi.com/gift-cards,,"
                GIFT CARDS
              ",,1,CA,92008,restaurant
El Tejate Restaurant,"3050 Pio Pico Dr, Carlsbad, CA 92008",Restaurant,Carlsbad,,http://www.tejaterestaurant.com/,,http://www.tejaterestaurant.com/carlsbad-el-tejate-restaurant-gift-cards,https://www.facebook.com/122067687861952,"
                              GIFT CARDS
                              
                          ",Facebook page,1,CA,92008,restaurant
Toast Gastrobrunch,"5970 Avenida Encinas, Carlsbad, CA 92008",Brunch,Carlsbad,,http://www.toastgastrobrunch.com/,https://toastgastrobrunch.com/Menu,http://www.toastgastrobrunch.com/Gift-Cards,,Gift Cards,,1,CA,92008,restaurant
Wokcano Carlsbad,"2525 El Camino Real #200, Carlsbad, CA 92008",Asian,Carlsbad,,https://wokcanorestaurant.com/,https://wokcanorestaurant.com/carlsbad/,https://wokcanorestaurant.com/giftcard/,https://wokcanorestaurant.com/contact-us/,Gift Cards,Contact Us,1,CA,92008,restaurant
The Crossings at Carlsbad,"5800 The Crossings Dr, Carlsbad, CA 92008",Restaurant,Carlsbad,,http://www.thecrossingsatcarlsbad.com/,https://thecrossingsatcarlsbad.com/menus-packages/,http://www.thecrossingsatcarlsbad.com/gift-card-purchase-form/,https://thecrossingsatcarlsbad.com/contact/,Gift Card Purchase Form,Contact,1,CA,92008,restaurant
Cold Beers & Cheeseburgers,"660 Carlsbad Village Dr, Carlsbad, CA 92008",Restaurant,Carlsbad,,https://www.coldbeers.com/,https://www.coldbeers.com/carlsbad-menu/?utm_source=google&utm_medium=organic&utm_campaign=gmb,//coldbeers.cardfoundry.com/giftcards.php,https://www.coldbeers.com/contact/,Gift Cards,Contact,1,CA,92008,restaurant
Juice Stop Carlsbad,"5808 Van Allen Way STE 115, Carlsbad, CA 92008",Juice,Carlsbad,,http://www.juicestopencinitas.com/,http://places.singleplatform.com/juice-stop-carlsbad/menu?ref=google,https://squareup.com/gift/MY84NKCPK7X8D/order,https://www.juicestopencinitas.com,GIFT CARD,CONTACT US,1,CA,92008,restaurant
333 Pacific,"333 N Pacific St, Oceanside, CA 92054",Steak,Oceanside,A chic art deco design welcomes diners to this high-end seafood eatery with a lively bar scene.,http://www.cohnrestaurants.com/,http://places.singleplatform.com/333-pacific/menu?ref=google,https://www.cohnrestaurants.com/giftcards?utm_source=mainmenu&utm_medium=global&utm_campaign=gift_cards,https://www.cohnrestaurants.com/about/contact?utm_source=footer&utm_medium=global&utm_campaign=contact_us,Gift Cards,Contact Us,1,CA,92054,restaurant
Miss Kim's by That Boy Good,"207 N Coast Hwy, Oceanside, CA 92054",Soul,Oceanside,Rustic BBQ eatery with an upbeat vibe offering classic sides & a bar with cocktails & draft brews.,https://www.thatboygoodbbq.com/,https://www.thatboygoodbbq.com/tbgbbq/menu/,https://www.thatboygoodbbq.com/oceanside-miss-kims-by-that-boy-good-gift-cards,https://www.facebook.com/374569279271340,"
                              GIFT CARDS
                              
                          ",Facebook page,1,CA,92054,restaurant
Thai One On,"485 S Melrose Dr #108, Vista, CA 92081",Thai,Vista,"Casual sit-down restaurant for Thai noodle & rice dishes, curries & vegetable entrees.",http://www.thaioneoncuisine.com/,https://thaioneoncuisine.com/menu/vista/,https://www.thaioneoncuisine.com/gift-certificates/,https://www.thaioneoncuisine.com/contact-us/,Gift Certificates,Contact,1,CA,92081,restaurant
Hello Betty Fish House,"211 Mission Ave, Oceanside, CA 92054",Seafood,Oceanside,Sprawling space with a beachy vibe serves up SoCal staples such as fish tacos & oysters.,http://hellobettyoceanside.com/,http://hellobettyoceanside.com/food/,https://hellobettyoceanside.com/oceanside-restaurant-gift-cards/,"https://maps.google.com/maps?daddr=211%20Mission%20Avenue%20Oceanside,%20California%2092054&hl=en&mra=ls&t=m&z=17",Gift Cards, opens in a new window,1,CA,92054,restaurant
Harney Sushi,"301 Mission Ave, Oceanside, CA 92054",Sushi,Oceanside,"Japanese fare plus creative sushi rolls are served late at this modern, bustling establishment.",https://harneysushi.com/,http://harneysushi.com/oceanside-menu/,http://onelink.quickgifts.com/merchant/Harney-Sushi,https://harneysushi.com/contact-us/,Gift Cards,Contact Us,1,CA,92054,restaurant
Union Kitchen & Tap,"1108 S Coast Hwy 101, Encinitas, CA 92024",American,Encinitas,A rotating menu of craft beers paired with New American small plates in a modern-yet-rustic setting.,http://www.localunion101.com/,http://places.singleplatform.com/union-kitchen--tap/menu?ref=google,https://omghospitalitygroup.cardfoundry.com/giftcards.php,https://www.localunion101.com/contact/,Gift Cards,"1108 S Coast Hwy 101 Encinitas, CA 92024",1,CA,92024,restaurant
Rockin' Baja Lobster  Oceanside,"258 Harbor Dr, Oceanside, CA 92054",Mexican,Oceanside,"Inspired by the vibe & cuisine of Baja, this cantina serves up margaritas, lobster & other seafood.",http://rockinbaja.com/,http://rockinbaja.com/oceanside-harbor,https://rockinbaja.com/gift-cards/,https://rockinbaja.com/?page_id=6285,Gift Cards,Contact Us,1,CA,92054,restaurant
Azteca Restaurant,"22807 S Figueroa St, Carson, CA 90745",Salvadoran,Carson,,http://www.aztecamex.com/,,http://www.aztecamex.com/gift-cards/,http://www.aztecamex.com/contact-us/,Gift Cards,Contact Us,1,CA,90745,restaurant
Gaetano's Restaurant,"2731 Pacific Coast Hwy, Torrance, CA 90505",Italian,Torrance,Family-owned spot since 1999 for classic Italian fare & wine flights in romantic digs or on a patio.,http://www.gaetanosonline.com/,https://www.gaetanosonline.com/wp-content/uploads/2015/11/Menu.pdf,https://cardmall.quickgifts.com/gift-card/gaetanos-italian-restaurant/GaetanoCM10,,Gift Cards,,1,CA,90505,restaurant
Din Tai Fung,"Del Amo Fashion Center, 21540 Hawthorne Blvd #519, Torrance, CA 90503",Taiwanese,Torrance,,http://www.dintaifungusa.com/,,http://www.dintaifungusa.com/giftcards.html,http://www.dintaifungusa.com/contact-us.html,Gift Cards,Contact Us,1,CA,90503,restaurant
L'Opera Italian Restaurant,"101 Pine Ave, Long Beach, CA 90802",Northern Italian,Long Beach,"Handmade pastas, grilled meats & other Northern Italian fare served in a sophisticated atmosphere.",http://www.lopera.com/,http://www.lopera.com/menu_Banquet.pdf,https://lopera.com/cart/,http://www.lopera.com/#Contact-Section,Gift Cards,Contact,1,CA,90802,restaurant
Aliotta's Via Firenze,"4485 Torrance Blvd, Torrance, CA 90503",Italian,Torrance,"Upscale Italian restaurant offering classic dishes, plus a gluten-free menu & extensive wine list.",http://www.aliottas.com/,,https://gifts.opentable.com/buy/Aliottas-Via-Firenze?ref=1,http://www.aliottas.com/index-4.html,Purchase a Gift Certificate,Contacts,1,CA,90503,restaurant
Catalan Mediterranean Restaurant,"70026 CA-111, Rancho Mirage, CA 92270",Mediterranean,Rancho Mirage,Paella & tapas are served at this lively farm-to-table spot with a European-style decor & courtyard.,https://www.catalanrestaurant.com/,https://www.catalanrestaurant.com/pages/our-menus,https://www.catalanrestaurant.com/gift-cards,https://www.catalanrestaurant.com/pages/contact,Gift Cards,Contact,1,CA,92270,restaurant
JAX Bar  Dining,"68311 Paseo Real, Cathedral City, CA 92234",Grill,Cathedral City,,https://www.jcgolf.com/,https://www.jcgolf.com/wp-content/uploads/2019/10/2019-10-17-JAX-All-Day-Menu.pdf,https://www.jcgolf.com/san-diego-golf-gift-cards/,https://www.jcgolf.com/contact-our-san-diego-golf-course/,Gift Cards,Contact Us,1,CA,92234,restaurant
Enzo's Rancho Mirage,"70030 CA-111, Rancho Mirage, CA 92270",Italian,Rancho Mirage,,https://www.enzosbistroandbarranchomirage.com/,,https://www.enzosbistroandbar.com/pages/gift-cards,https://www.enzosbistroandbarranchomirage.com/#section-3772,Gift Cards,Contact Us,1,CA,92270,restaurant
Counter Reformation,"5230, 4200 E Palm Canyon Dr, Palm Springs, CA 92264",Restaurant,Palm Springs,Hidden hangout with a speakeasy feel for global wines & bites in Parker Palm Springs.,http://www.theparkerpalmsprings.com/,,http://www.secure-booker.com/palmsprings/ShopOnline/GiftCertificate.aspx,http://www.theparkerpalmsprings.com/contact-us,"
Purchase Gift Certificates","
Contact Us",1,CA,92264,restaurant
Jensen's Finest Foods,"69900 Frank Sinatra Dr, Rancho Mirage, CA 92270",Grocery store,Rancho Mirage,,http://jensensfoods.com/,,http://jensensfoods.com/cart/giftcards.php,http://jensensfoods.com/contact/,Gift Cards,Contact Us,1,CA,92270,restaurant
The Purple Room Supper Club,"1900 E Palm Canyon Dr, Palm Springs, CA 92264",Restaurant,Palm Springs,,http://purpleroompalmsprings.com/,https://www.purpleroompalmsprings.com/dining,https://www.purpleroompalmsprings.com/gift-cards,https://www.purpleroompalmsprings.com/contact,GIFT CARDS,CONTACT,1,CA,92264,restaurant
Elmer's Restaurant Palm Springs CA,"1030 E Palm Canyon Dr, Palm Springs, CA 92264",Breakfast,Palm Springs,,http://www.eatatelmers.com/,https://eatatelmers.com/menu/,https://eatatelmers.com/online-gift-cards/,https://eatatelmers.com/contact-us/,Gift Cards,Contact,1,CA,92264,restaurant
Manhattan in the Desert,"2665 E Palm Canyon Dr, Palm Springs, CA 92264",American,Palm Springs,"Classic deli & bakery with an old-school diner feel, serving NYC-style sandwiches, hot dogs & more.",https://www.manhattaninthedesert.com/,https://www.manhattaninthedesert.com/menu,https://www.manhattaninthedesert.com/gift-cards,https://www.manhattaninthedesert.com/contact,Gift Cards,Contact,1,CA,92264,restaurant
Spencer's Restaurant,"701 W Baristo Rd, Palm Springs, CA 92262",American,Palm Springs,"Set in the San Jacinto Mountains, this elegant spot serves upscale fare with occasional piano music.",http://www.spencersrestaurant.com/,,http://www.spencersrestaurant.com/about/gift-cards/,http://www.spencersrestaurant.com/contact-us/,Gift Cards, Map Us,1,CA,92262,restaurant
Melvyn's Restaurant & Lounge,"200 W Ramon Rd, Palm Springs, CA 92264",Traditional American,Palm Springs,"Ingleside Inn's longtime eatery has American fare, old Hollywood history & a lounge with live music.",https://inglesideinn.com/,https://inglesideinn.com/melvyns-restaurant/?utm_source=GMB&utm_medium=organic,https://properhospitality.egiftify.com/landingpage,,Gift Cards,,1,CA,92264,restaurant
Broken Yolk Cafe Palm Springs,"262 S Palm Canyon Dr, Palm Springs, CA 92262",Breakfast,Palm Springs,Daytime American eatery serving large portions of breakfast & lunch classics in low-key environs.,http://www.thebrokenyolkcafe.com/,,https://www.thebrokenyolkcafe.com/gift-cards/,,GiftCards,,1,CA,92262,restaurant
Eureka,"11167 183rd St, Cerritos, CA 90703",Restaurant,Cerritos,,http://www.eurekarestaurantgroup.com/,https://eurekarestaurantgroup.com/eat/,http://eurekarestaurantgroup.com/mobile/gift-cards-mobile,http://eurekarestaurantgroup.com/contact,GIFT CARDS,CONTACT,1,CA,90703,restaurant
The Halal Guys,"11435 South Street A9-B, Cerritos, CA 90703",Halal,Cerritos,,https://www.thehalalguys.com/,,https://thehalalguys.com/gift-cards/,https://thehalalguys.com/contact/,Gift Cards,Contact Us,1,CA,90703,restaurant
Dip Shabu Shabu,"11710 South St Suite 105, Artesia, CA 90701",Japanese,Artesia,Japanese hot pots & shabu-shabu are featured at this sleek art-gallery space with an urban vibe.,http://www.dipshabu.com/,,https://dipshabu.cardfoundry.com/giftcards.php,,,,1,CA,90701,restaurant
Izakaya Ichiban,"2000 Notre Dame Blvd Ste 100, Chico, CA 95928",Japanese,Chico,,https://www.chicoentreeexpress.com/,https://www.chicoentreeexpress.com/r/412/restaurants/delivery/Sushi-Japanese/Izakaya-Ichiban-342-8500-Chico,https://s604.securemenu.com/buyGiftCard.xsl?site=www.chicoentreeexpress.com,,Gift Cards,,1,CA,95928,restaurant
Woodstock's Pizza Chico,"240 Main St #100, Chico, CA 95928",Pizza,Chico,"Creative pizzas, salads & sandwiches, plus pitchers of beer, turned out in easygoing surrounds.",https://woodstockschico.com/,https://woodstocks-pizza-chico.securebrygid.com/zgrid/proc/site/sitep.jsp,https://woodstockschico.com/gift-cards/,https://woodstockschico.com/contact/,"GIVE THEM
SOME DOUGH

WOODSTOCK'S
GIFTCARDS
GET THEM NOW
",Contact,1,CA,95928,restaurant
La Cocina Economica,"905 Wall St, Chico, CA 95928",Mexican,Chico,,http://www.lacocinaeco.com/,,http://www.lacocinaeco.com/gift-cards,http://www.lacocinaeco.com/contact-us,Gift Cards,Contact Us,1,CA,95928,restaurant
Beatniks  Coffee House & Breakfast Joint,"1387 E 8th St, Chico, CA 95928",Restaurant,Chico,Breakfast cafe offering cooked & cold options served alongside a range of espresso-based drinks.,http://chicobeatniks.com/,,http://chicobeatniks.com/giftcards,http://chicobeatniks.com/contact-us,"
              Gift Cards
            ","
                Contact Us
              ",1,CA,95928,restaurant
Burrito Bandito,"2485 Notre Dame Blvd, Chico, CA 95928",Mexican,Chico,,http://www.juanmeanburrito.com/,http://places.singleplatform.com/burrito-bandito-6/menu?ref=google,https://www.juanmeanburrito.com/store/,,Gift Cards,,1,CA,95928,restaurant
Tender Loving Coffee,"365 E 6th St, Chico, CA 95928",Restaurant,Chico,,https://www.tenderlovingcoffee.com/,http://places.singleplatform.com/tender-loving-coffee/menu?ref=google,https://www.tenderlovingcoffee.com/collections/gift-cards,https://www.tenderlovingcoffee.com/pages/contact,GIFT CARDS ,CONTACT US ,1,CA,95928,restaurant
Riley's,"702 W 5th St, Chico, CA 95928",Grill,Chico,"Longtime sports-centric haunt with a collegial vibe & happy hours, plus finger foods & a pool table.",http://www.rileysbar.com/,,http://www.rileysbar.com/gift-cards,http://www.rileysbar.com/contact,,,1,CA,95928,restaurant
Parkside Tap House,"115 W 3rd St, Chico, CA 95928",Bar,Chico,Modern restaurant & bar with an ample patio emphasizing craft brews & creative comfort food.,http://www.parksidetaphouse.com/,https://www.parksidetaphouse.com/menu/,https://swipeit.com/product/1357/parkside-tap-house,http://www.parksidetaphouse.com/contact,Gift Cards,"
                Contact
              ",1,CA,95928,restaurant
Tropical Mexico Restaurant,"1371 S East End Ave, Pomona, CA 91766",Mexican,Pomona,Colorful spot offering traditional Mexican breakfast items & burritos as well as a full bar.,https://www.tropmex.com/,https://www.tropmex.com/menus/,https://www.tropmex.com/store/gift-cards/,https://www.tropmex.com/contact/,Gift Cards,Contact,1,CA,91766,restaurant
Jia Pon Bakery & Cafe,"12570 Central Ave, Chino, CA 91710",Bakery,Chino,,http://jia-pon-bakery-cafe.cafes-usa.com/,http://places.singleplatform.com/jia-pon-cafe--bakery/menu?ref=google,http://topmountainvillage.com/en/?utm_source=usa_restaurants,,"


",,1,CA,91710,restaurant
Tutti Mangia Italian Grill,"102 Harvard Ave N, Claremont, CA 91711",Italian,Claremont,"Upmarket Italian eatery serves steaks, seafood & more classic fare in a dimly lit, romantic space.",https://www.tuttimangia.com/,https://www.tuttimangia.com/dinner-menu,https://www.tuttimangia.com/gift-cards,,Gift Cards,,1,CA,91711,restaurant
Riverside Grill & Bar,"5258 Riverside Dr, Chino, CA 91710",Grill,Chino,"Compact restaurant with full bar & patio featuring a menu of salads, sandwiches & other casual fare.",https://www.riversidegrillchino.com/,https://www.riversidegrillchino.com/menu/,https://www.riversidegrillchino.com/store/gift-cards/,https://www.riversidegrillchino.com/contact/,GIFT CARDS,Contact,1,CA,91710,restaurant
Romesco Mexiterranean Bistro,"4346 Bonita Rd, Bonita, CA 91902",Mexican,Bonita,Mediterranean-Mexican fusion eatery serving inventive small plates & cocktails amid Spanish decor.,http://romescomexmed.com/,,https://www.giftrocker.com/secure/Order/?h=6d3a4614,,  Buy a Gift Card  ,,1,CA,91902,restaurant
La Bella Cafe & Games,"289 G St, Chula Vista, CA 91910",Pizza,Chula Vista,"Standby serving pizza & Italian food in an upbeat setting with a bar, pool tables & arcade games.",http://labellapizza.com/,,https://onelink.quickgifts.com/merchant/la-bella-pizza-garden-restaurant/,,Gift Cards,,1,CA,91910,restaurant
Ceviche Craft,"1610 Millenia Ave #102, Chula Vista, CA 91915",Restaurant,Chula Vista,,http://cevichecraft.com/,,https://www.toasttab.com/ceviche-craft-1610-millenia-ave-102/giftcards,http://cevichecraft.com/contact/,BUY GIFT CARDS,Contact,1,CA,91915,restaurant
Leatherby's Family Creamery,"7910 Antelope Rd, Citrus Heights, CA 95610",Ice Cream,Citrus Heights,"Family-run ice cream shop known for sundaes, also serving burgers, salads & other American fare.",http://www.leatherbys.net/,,https://swipeit.com/product/1819/leatherbys-family-creamery,http://leatherbys.net/contact/,Gift Cards,Contact,1,CA,95610,restaurant
Gus's BBQ,"500 W 1st St, Claremont, CA 91711",Barbecue,Claremont,,https://www.gussbbq.com/,https://www.gussbbq.com/claremont.html#anchor-u89489,https://www.gussbbq.com/gift-cards.html,,,,1,CA,91711,restaurant
Mad Duck Craft Brewing Co,"3085 E Campus Pointe Dr, Fresno, CA 93710",Brewery,Fresno,"Airy, brick-walled tavern featuring its own small-batch brews, burgers & New American bar bites.",http://madduckcraft.com/,,https://www.instagram.com/p/B97FbefgA6-/,,"

",,1,CA,93710,restaurant
Yosemite Ranch,"1520 E Champlain Dr, Fresno, CA 93720",Steak,Fresno,"Steaks, seafood & roasted dinners like prime rib served in a relaxed setting with weekly live music.",http://yosemiteranchssrh.com/,http://yosemiteranchssrh.com/menu/,http://yosemiteranchssrh.com/shop/,http://yosemiteranchssrh.com/contact-us/,Shop Gift Cards,Contact,1,CA,93720,restaurant
June Hill's Table,"51750 Polo Club Dr, Indio, CA 92201",American,Indio,,https://www.mytrilogylife.com/,https://3zoa0020louu3tgkp43rgmn3-wpengine.netdna-ssl.com/polo/wp-content/uploads/sites/9/2020/03/JuneHillsTable_Menu.pdf,https://www.mytrilogylife.com/#jump-1,https://www.mytrilogylife.com/#contacts,Gift Cards,Contact,1,CA,92201,restaurant
Cork & Fork,"47875 Caleo Bay Drive, La Quinta, CA 92253",Small Plates,La Quinta,"Casual, stylish spot offering clever, locally sourced small plates & a variety of unique wines.",http://www.corkandforkwinebar.com/,https://corkandforkwinebar.com/menu/,https://events.r20.constantcontact.com/register/eventReg?oeidk=a07egr57eneda190e74&oseq=&c=&ch=,https://corkandforkwinebar.com/contact-us/,Buy A Gift Certificate,Contact Us,1,CA,92253,restaurant
Okura Robata Grill & Sushi Bar,"78480 CA-111, La Quinta, CA 92253",Japanese,La Quinta,Plentiful rolls plus entrees like Kobe beef are accompanied by saketinis & other specialty drinks.,http://www.okurasushi.com/,,https://gifts.opentable.com/Okura-Robata-Grill-and-Sushi-Bar-2?ref=1,https://okurasushi.com/connect/,La Quinta Gift Card,Contact Us,1,CA,92253,restaurant
Milestones,"82485 Miles Ave, Indio, CA 92201",Restaurant,Indio,,http://www.milestonesrestaurants.com/,,http://www.milestonesrestaurants.com/en/giftcards.html,http://www.milestonesrestaurants.com/en/contactus.html,Gift Cards,Contact Us,1,CA,92201,restaurant
Misaki Sushi & Grill,"46600 Washington St #1, La Quinta, CA 92253",Japanese,La Quinta,"RelaxedJapanese restaurant in a strip-mall offers appetizers, sushi rolls & cooked fare plus sake.",http://www.misakisushiandgrill.com/,https://www.misakisushiandgrill.com/menus,https://www.misakisushiandgrill.com/gift-cards,https://www.misakisushiandgrill.com/contact,GIFT CARDS,HOURS,1,CA,92253,restaurant
Lavender Bistro,"78073 Cll Barcelona, La Quinta, CA 92253",New American,La Quinta,"Modern Californian dishes featuring pasta, meat & fish served indoors or on an elegant garden patio.",http://www.lavenderbistro.com/,http://www.lavenderbistro.com/dinner.html,http://www.lavenderbistro.com/gift-cards.html,http://visitor.r20.constantcontact.com/d.jsp?llr=clo55jiab&p=oi&m=1108436007266&sit=se9oysngb&f=19d4aeec-4eab-4e92-b0a1-a52eda9dfe85,"
				Gift Cards
			","
Receive Our Latest News Here
",1,CA,92253,restaurant
Heirloom Craft Kitchen,"49990 Jefferson St #100, Indio, CA 92201",Restaurant,Indio,,http://heirloomcraftkitchen.com/,http://heirloomcraftkitchen.com/menu-2/,https://www.instagram.com/p/B_niTWoDsN1/,https://heirloomcraftkitchen.com/contact/,"
Last chance to enter to win a $75 gift certificate

",Contact Us,1,CA,92201,restaurant
Jackalope Ranch,"80400 CA-111, Indio, CA 92201",Barbecue,Indio,Sprawling stone lodge offering Californian fare & BBQ meats as well as an outdoor bar & happy hour.,http://thejackaloperanch.com/,http://places.singleplatform.com/jackalope-ranch/menu?ref=google,https://www.restaurantsofpalmsprings.com/online-store,https://www.thejackaloperanch.com,Gift Cards,Find Us,1,CA,92201,restaurant
