name,address,type,place,description,website_url,menu_url,gift_card_website,contact_website,gift_card_txt,contact_txt,searched,state,zipcode,store_type
Indulgence Boutique,"18343 Outer Hwy 18 S # 2, Apple Valley, CA 92307",Women's clothing store,Apple Valley,,https://indulgencebtq.com/,,https://indulgencebtq.com/products/gift-card,https://indulgencebtq.com/pages/contact-us,Gift Cards,Contact Us,1,CA,92307,clothing_store
Mamawear Nursing Apparel,"1205 Lincoln Ave, Alameda, CA 94501",Women's clothing store,Alameda,,http://www.mamawear.com/,,https://mamawear.com/collections/gift-cards,http://www.mamawear.com/community/contact,Gift Cards,Contact Us,1,CA,94501,clothing_store
Oaklandish,"1444 Broadway, Oakland, CA 94612",Clothing store,Oakland,"Charitable organization showcasing stylish, artist-designed cotton basics & accessories.",http://www.oaklandish.com/,,http://www.oaklandish.com/collections/gift-card,http://www.oaklandish.com/pages/contact-us,Gift Cards,Contact Us,1,CA,94612,clothing_store
Field Day,"329 19th St, Oakland, CA 94612",Women's clothing store,Oakland,"Hip shop highlighting US-made & handcrafted clothing, crafts, body products & accessories.",http://www.fielddayapparel.com/,,http://www.fielddayapparel.com/products/gift-card,http://www.fielddayapparel.com/pages/contact-us,Gift Card,Contact,1,CA,94612,clothing_store
Le Petit Kids,"2459 Huntington Dr, San Marino, CA 91108",Children's clothing store,San Marino,,http://www.lepetitkids.com/,,http://www.lepetitkids.com/giftcertificates.php,https://lepetitkids.com/contact-us/,Gift Certificates,Contact Us,1,CA,91108,clothing_store
Marble FHB,"120 N San Gabriel Blvd ste g, San Gabriel, CA 91775",Women's clothing store,San Gabriel,,https://www.marblefhb.com/,,https://www.marblefhb.com/index.php?route=account/voucher,http://www.marblefhb.com/index.php?route=information/contact,Gift Certificates,Contact Us,1,CA,91775,clothing_store
CAllie Girl Boutique,"25350 Marguerite Pkwy, Mission Viejo, CA 92692",Women's clothing store,Mission Viejo,,http://calliegirloc.com/,,http://calliegirloc.com/products/gift-card,http://calliegirloc.com/pages/contact-us,GIFT CARD,Contact Us,1,CA,92692,clothing_store
Chynna Dolls,"2380 E Orangethorpe Ave, Anaheim, CA 92806",Swimwear store,Anaheim,,http://www.chynnadolls.com/,,http://www.chynnadolls.com/products/gift-card,http://www.chynnadolls.com/pages/contact-us,Gift Card,Contact Us,1,CA,92806,clothing_store
Masonicon,"174 W Lincoln Ave, Anaheim, CA 92805",Clothing store,Anaheim,,http://www.masonicon.com/,,http://www.masonicon.com/giftcertificates.php,http://www.masonicon.com/contact/,Gift Certificates,Contact,1,CA,92805,clothing_store
Miss Madison Couture Boutique,"4662 Goldcrest Way, Antioch, CA 94531",Women's clothing store,Antioch,,https://www.missmadisonphotoprops.com/,,https://www.missmadisonphotoprops.com/gift-card/,,Gift Card,,1,CA,94531,clothing_store
Plush Boutique,"2545 Sand Creek Rd Suite 146, Brentwood, CA 94513",Clothing store,Brentwood,,http://www.plushboutiquebrentwood.com/,,http://www.plushboutiquebrentwood.com/products/gift-card,http://www.plushboutiquebrentwood.com/pages/contact,Gift Card ,Contact,1,CA,94513,clothing_store
Paradise Clothing Co,"3807 Patton Way STE 100, Bakersfield, CA 93308",Clothing store,Bakersfield,,https://www.paradiseclothingco.com/,,https://www.paradiseclothingco.com/giftcards.asp,https://www.paradiseclothingco.com/contact.asp,Gift Cards,Contact Us,1,CA,93308,clothing_store
Emporium Western Store,"1031 19th St, Bakersfield, CA 93301",Western apparel store,Bakersfield,,http://www.emporiumwesternstore.com/,,http://www.emporiumwesternstore.com/gift-certificates,http://www.emporiumwesternstore.com/contact-us," Gift Certificates

"," Contact Us

",1,CA,93301,clothing_store
FLEXNFLEX,"10210 Seneca Falls Ave, Bakersfield, CA 93312",Clothing store,Bakersfield,,https://www.flexnflex.com/,,https://www.flexnflex.com/products/gift-card,https://www.flexnflex.com/pages/contact-us,Gift card,CONTACT US,1,CA,93312,clothing_store
Bella at the Marketplace,"9000 Ming Ave, Bakersfield, CA 93311",Women's clothing store,Bakersfield,"On-trend women’s boutique with apparel, shoes & accessories in a luxurious setting.",http://www.shopatbella.com/,,http://www.shopatbella.com/products/gift-card,http://www.shopatbella.com/pages/contact-us,Gift Cards,Contact Us,1,CA,93311,clothing_store
JLBBoutique,"1129 Olive Dr Suite M, Bakersfield, CA 93308",Women's clothing store,Bakersfield,,http://www.jlb-boutique.com/,,http://www.jlb-boutique.com/products/gift-card,http://www.jlb-boutique.com/pages/contact-us,Gift Cards,Return Policy/ Shipping,1,CA,93308,clothing_store
Throwback Junction,"1018 18th St, Bakersfield, CA 93301",Vintage clothing store,Bakersfield,,http://www.throwbackjunction.com/,,http://www.throwbackjunction.com/products/gift-card,http://www.throwbackjunction.com/pages/contact-us,"
            GIFT CARD
        ","
            CONTACT US
        ",1,CA,93301,clothing_store
Marc Jacobs Outlet,"48650 Seminole Dr STE 1036, Cabazon, CA 92230",Clothing store,Cabazon,"Stylish fashion designer brand whose products include clothing, accessories, fragrances & more.",http://marcjacobs.com/,,http://marcjacobs.com/help#faq-general-gift-card-sweepstakes,https://www.marcjacobs.com/corporate,Terms and Conditions,Corporate Contact,1,CA,92230,clothing_store
Karol B Clothing,"6025 Maywood Ave, Huntington Park, CA 90255",Clothing store,Huntington Park,,https://karolb.com/,,https://karolb.com/giftcertificates.php,https://karolb.com/contact-us/,Gift Certificates,Contact Us,1,CA,90255,clothing_store
Rue Atelier,"2981 College Ave, Berkeley, CA 94705",Women's clothing store,Berkeley,,http://rueatelier.com/,,http://rueatelier.com/collections/gift-certificate,http://rueatelier.com/pages/about,Gift Certificate,Contact,1,CA,94705,clothing_store
YAZA,"1535 Solano Ave, Berkeley, CA 94707",Women's clothing store,Berkeley,,http://www.shopyaza.com/,,http://www.shopyaza.com/?category=Gift+Certificates,http://www.shopyaza.com/contact,"
              Gift Certificates
            ","
        
        Contact
      ",1,CA,94707,clothing_store
Cotton Basics,"2907 College Ave, Berkeley, CA 94705",Clothing store,Berkeley,"Simple shop selling locally made casual knitwear staples for women, plus options for men & babies.",http://www.shopcottonbasics.com/,,http://www.shopcottonbasics.com/giftcertificates.php,https://shopcottonbasics.com/contact-us/,Gift Certificates,Contact Us,1,CA,94705,clothing_store
Siamese Dream,"1527 Shattuck Ave, Berkeley, CA 94709",Women's clothing store,Berkeley,,http://www.siamese-dream.com/,,https://www.siamese-dream.com/,,Gift Cards,,1,CA,94709,clothing_store
Molly B,"1811 Fourth St, Berkeley, CA 94710",Women's clothing store,Berkeley,This stalwart shop selling women's clothes & accessories is known for its whimsical window displays.,http://mollybfourthstreet.com/,,https://mollybfourthstreet.com/shop,http://mollybfourthstreet.com/contact,Purchase  a Gift Card,"
        
        Contact
      ",1,CA,94710,clothing_store
Therapy Stores,"2951 College Ave, Berkeley, CA 94705",Boutique,Berkeley,,http://www.shopattherapy.com/,,http://www.shopattherapy.com/products/gift-card,http://www.shopattherapy.com/pages/contact-us,"
GIFT CARDS
","
                          Contact Us
                        ",1,CA,94705,clothing_store
Brandy Melville  Berkeley,"2305 Telegraph Ave, Berkeley, CA 94704",Women's clothing store,Berkeley,,http://www.brandymelvilleusa.com/,,https://www.brandymelvilleusa.com/gift-cards/bm-gift-card.html,,Gift Cards,,1,CA,94704,clothing_store
Chloe's Closet,"1545 Solano Ave, Berkeley, CA 94707",Children's clothing store,Berkeley,,http://chloescloset.com/,,http://chloescloset.com/giftcert.php,http://chloescloset.com/help.php?section=contactus&mode=update,Gift certificates,Contact Us,1,CA,94707,clothing_store
Seasons,"2150 Center St, Berkeley, CA 94704",Women's clothing store,Berkeley,,http://www.seasonspizza.com/,,http://www.seasonspizza.com/giftcards/,http://www.seasonspizza.com/contact/,e-Gift Cards,Contact Us,1,CA,94704,clothing_store
Anto Distinctive Shirtmaker,"258 N Beverly Dr, Beverly Hills, CA 90210",Men's clothing store,Beverly Hills,Esteemed men’s retailer sells upscale custom-tailored suits & formalwear made with European fabrics.,http://www.antoshirt.com/,,http://www.antoshirt.com/gift-cards,https://www.antoshirt.com/inside-anto/contact,Gift Certificates,Contact,1,CA,90210,clothing_store
Leggiadro Beverly Hills,"432 N Canon Dr, Beverly Hills, CA 90210",Women's clothing store,Beverly Hills,,http://www.leggiadro.com/,,http://www.leggiadro.com/collections/gift-cards,,View Gift Cards,,1,CA,90210,clothing_store
Hope & Henry,"2055 Brea Mall, Brea, CA 92821",Children's clothing store,Brea,,https://hopeandhenry.com/,,https://hopeandhenry.com/products/giftwizard-giftcard,https://hopeandhenry.com/pages/contact-us,"

",Contact Us,1,CA,92821,clothing_store
Drenched Shop,"647 1st St, Brentwood, CA 94513",Women's clothing store,Brentwood,,http://www.drenchedshop.com/,,http://www.drenchedshop.com/products/gift-card,,Gift Cards,,1,CA,94513,clothing_store
Vixen by Micheline Pitt,"2317 W Magnolia Blvd, Burbank, CA 91506",Clothing store,Burbank,,http://www.michelinepitt.com/,,http://www.michelinepitt.com/collections/featured-products/products/gift-card,,"

",,1,CA,91506,clothing_store
Folter Clothing,"112 W Elm Ct, Burbank, CA 91502",Women's clothing store,Burbank,,http://www.folterclothing.com/,,http://www.folterclothing.com/products/gift-card,http://www.folterclothing.com/pages/contact,"

  

  @media screen and (min-width: 591px) { 
    .ProductImage-13821772595264 {
      max-width: 310px;
      max-height: 184.88935721812433px;
    }
    #ProductImageWrapper-13821772595264 {
      max-width: 310px;
    }
   } 

  
    
    @media screen and (max-width: 590px) {
      .ProductImage-13821772595264 {
        max-width: 590px;
      }
      #ProductImageWrapper-13821772595264 {
        max-width: 590px;
      }
    }
  









",Contact Us,1,CA,91502,clothing_store
Bettie Page,"3007 W Magnolia Blvd, Burbank, CA 91505",Women's clothing store,Burbank,,https://www.bettiepage.com/,,https://www.bettiepage.com/shop/gifts/bettie-page-gift-cards/,,Bettie Page Gift Cards,,1,CA,91505,clothing_store
The Mag Park,"3500 W Magnolia Blvd, Burbank, CA 91505",Shoe store,Burbank,"Contemporary retailer carrying brand-name sneakers for basketball, running & training, plus apparel.",http://themagpark.com/,,http://themagpark.com/products/gift-card,http://themagpark.com/pages/contact-us,GIFT CARDS,CONTACT ,1,CA,91505,clothing_store
Margaret O'Leary,"263 Primrose Rd, Burlingame, CA 94010",Clothing store,Burlingame,,http://margaretoleary.com/,,http://margaretoleary.com/products/gift-certificate,http://margaretoleary.com/pages/wholesale-contact,Gift Certificate,Wholesale Inquiries,1,CA,94010,clothing_store
Amiko Boutique,"1112 Burlingame Ave, Burlingame, CA 94010",Gift shop,Burlingame,,http://www.amikosf.com/,,http://www.amikosf.com/giftcertificates.php,https://www.amikosf.com/contact-us/,Gift Certificates,Contact,1,CA,94010,clothing_store
PotPourri,"1235 Broadway, Burlingame, CA 94010",Gift shop,Burlingame,,http://www.pot-pourri.com/,,http://www.pot-pourri.com/gift-cards,http://www.pot-pourri.com/contact,Gift Cards,Contact,1,CA,94010,clothing_store
Cubavera,"888 West 2nd Street Suite #F170, Calexico, CA 92231",Men's clothing store,Calexico,,http://www.cubavera.com/,,http://www.cubavera.com/pages/gift-cards,,Gift Cards,,1,CA,92231,clothing_store
The Uniform Outlet,"888 W 2nd St e150, Calexico, CA 92231",Uniform store,Calexico,"Retailer known for scrubs, uniforms, accessories & shoes for the medical & food industries.",http://www.theuniformoutlet.com/,,https://theuniformoutlet.com/product/gift-certificate/,https://theuniformoutlet.com/contact/, Gift Certificate $10.00 ,Contact,1,CA,92231,clothing_store
Jerusalem Sportswear,"328 E 2nd St, Calexico, CA 92231",Sportswear store,Calexico,,https://www.nncca.com/,,https://www.nncca.com/giftcert.php,https://www.nncca.com/contact_us.html,,Contact Us,1,CA,92231,clothing_store
AG Jeans,"740 Ventura Blvd #526, Camarillo, CA 93010",Clothing store,Camarillo,,http://www.agjeans.com/,,https://www.agjeans.com/on/demandware.store/Sites-AGJeans-Site/default/GiftCert-Purchase,https://www.agjeans.com/contact-us,Gift Cards,Contact Us,1,CA,93010,clothing_store
Sock District,"300 Carlsbad Village Dr #103, Carlsbad, CA 92008",Clothing store,Carlsbad,,http://sockdistrict.com/,,https://app.yiftee.com/gifts/egift_and_gift_cards/sock-district-carlsbad,,"
Gift Cards",,1,CA,92008,clothing_store
Captain's Helm,"1832 S Coast Hwy, Oceanside, CA 92054",Vintage clothing store,Oceanside,,http://www.captainshelm.com/,,http://www.captainshelm.com/gift-card,http://www.captainshelm.com/contact,GIFT CARD,Contact,1,CA,92054,clothing_store
ZOIC Clothing,"5611 Palmer Way suite f, Carlsbad, CA 92010",Clothing store,Carlsbad,,http://www.zoic.com/,,https://zoic.com/mens/gift-cards-men,https://zoic.com/contact,Gift Cards,Contact Us,1,CA,92010,clothing_store
Angels Grooming Apparel,"1007 E Dominguez St b, Carson, CA 90746",Clothing store,Carson,,http://angelsgroomingapparel.com/,,http://angelsgroomingapparel.com/giftcertificates.php,https://angelsgroomingapparel.com/contact-us/,Gift Certificates,Contact,1,CA,90746,clothing_store
Glam Envy Boutique,"910 S Los Angeles St Suite 501, Los Angeles, CA 90015",Women's clothing store,Los Angeles,,http://www.glamenvy.com/,,http://www.glamenvy.com/collections/gift-cards,http://www.glamenvy.com/pages/contact-us,GIFT CARDS,CONTACT US,1,CA,90015,clothing_store
Tres Elegant formerly Luan's Dress Shop,"11660 South St Suite 105, Artesia, CA 90701",Children's clothing store,Artesia,,http://www.treselegantonline.com/,,http://www.treselegantonline.com/pages/frontpage,http://www.treselegantonline.com/pages/contact,Gift Cards,Contact Us,1,CA,90701,clothing_store
Anika Burke,"211 Main St, Chico, CA 95928",Boutique,Chico,"Cozy women's boutique selling trendy apparel, from dresses to yogawear, plus jewelry & accessories.",http://anikaburke.com/,,http://anikaburke.com/giftcertificates.php,https://www.anikaburke.com/contact-us/,Gift Certificates,Contact Us,1,CA,95928,clothing_store
Hubbs & Co,"956 Mangrove Ave, Chico, CA 95926",Gift shop,Chico,,http://www.hubbsandcompany.com/,,http://www.hubbsandcompany.com/products/gift-card,http://www.hubbsandcompany.com/pages/contact-us,"
Hubbs & Co. Gift Card
","
Contact us
",1,CA,95926,clothing_store
The Roaming Runway,"809 Madrone Ave, Chico, CA 95926",Women's clothing store,Chico,,http://www.roamingrunway.com/,,http://www.roamingrunway.com/collections/gift-cards,http://www.roamingrunway.com/pages/contact,"
Gift Cards
","
                        Book a Party
                      ",1,CA,95926,clothing_store
Connies' Fashion Vault,"750 Otay Lakes Rd #248, Chula Vista, CA 91910",Clothing store,Chula Vista,,https://conniesfashionvault.com/,,https://conniesfashionvault.com/collections/calendars-and-giftcards,https://conniesfashionvault.com/pages/contact,"
              Photos/Gift Cards
            ","
              Contact
            ",1,CA,91910,clothing_store
SF KORU,"8660 Blue Jay Way, Citrus Heights, CA 95610",Clothing store,Citrus Heights,,http://sfkoru.com/,,http://sfkoru.com/giftcertificates.php,http://sfkoru.com/contact-us/,Gift Certificates,Contact Us,1,CA,95610,clothing_store
Debutante Clothing,"351 S Thomas St a2, Pomona, CA 91766",Vintage clothing store,Pomona,,http://debutanteclothing.com/,,http://debutanteclothing.com/products/gift-card-1,http://www.debutanteclothing.com/contact/,"



  

  #ProductImage-14603805392978 {
    max-width: 335px;
    max-height: 258.8636363636364px;
  }
  #ProductImageWrapper-14603805392978 {
    max-width: 335px;
  }











Gift Card

        
        
        
          From $ 10.00
        
      
",Contact,1,CA,91766,clothing_store
Ooh La La,"1305 N Willow Ave #140, Clovis, CA 93619",Boutique,Clovis,,http://iloveoohlala.com/,,http://iloveoohlala.com/collections/gift-cards,http://iloveoohlala.com/pages/location,"
            GIFT CARDS
          ",Contact Us,1,CA,93619,clothing_store
Nonnie's House Boutique,"724 Pollasky Ave, Clovis, CA 93612",Women's clothing store,Clovis,,http://www.nonnieshouseboutique.com/,,http://www.nonnieshouseboutique.com/blogs/news/nonnies-house-gift-cards-for-mothers-day,http://www.nonnieshouseboutique.com/pages/contact-us,Nonnie's House Gift Cards for Mother's Day!,Contact Us,1,CA,93612,clothing_store
Snowflake Designs,"2893 Larkin Ave, Clovis, CA 93612",Clothing store,Clovis,,https://www.snowflakedesigns.com/,,https://www.snowflakedesigns.com/the-gift-card.html,,Gift Card,,1,CA,93612,clothing_store
Valley Aquatic Supply,"850 San Jose Ave #110, Clovis, CA 93612",Swimwear store,Clovis,,http://www.swimvas.com/,,http://www.swimvas.com/gift-certificate/,https://www.swimvas.com/contact-us/,Gift Certificates,Contact Us,1,CA,93612,clothing_store
Alexandrite Active & Golf Wear,"78100 Main St #103, La Quinta, CA 92253",Clothing store,La Quinta,,http://www.shopalexandrite.com/,,https://www.shopalexandrite.com/gift-cards/,,Gift Cards,,1,CA,92253,clothing_store
The Fine Art of Design,"73717 CA-111, Palm Desert, CA 92260",Vintage clothing store,Palm Desert,,http://www.thefineartofdesign.com/,,http://www.thefineartofdesign.com/collections/tfaod-merchandise,http://www.thefineartofdesign.com/pages/contact-us,"
Merch & Gift Cards
","
Contact
",1,CA,92260,clothing_store
Katin,"2937 E Maria St #5801, Compton, CA 90221",Men's clothing store,Compton,,https://www.katinusa.com/,,https://www.katinusa.com/products/gift-card,https://www.katinusa.com/pages/contact-us,Gift Card,Contact Us,1,CA,90221,clothing_store
Capo Cycling Apparel,"1741 Clayton Rd A, Concord, CA 94520",Western apparel store,Concord,,http://capocycling.com/,,http://capocycling.com/products/gift-card,http://capocycling.com/pages/contact, Gift Cards ,Contact,1,CA,94520,clothing_store
Icing By Claire's,"470 Sun Valley Mall, Concord, CA 94520",Fashion accessories store,Concord,,http://icing.com/,,https://www.icing.com/us/giftcards.html,https://www.icing.com/us/customer-service-contact/,  Gift Cards,  Contact Us,1,CA,94520,clothing_store
bspoke Bespoke and Custom Suits Orange County,"3151 Airway Ave Q2, Costa Mesa, CA 92626",Men's clothing store,Costa Mesa,"Swanky, by-appointment studio featuring high-end, made-to-measure men's suits & sportswear.",http://www.bspokestyle.com/,,http://www.bspokestyle.com/products/gift-card,http://www.bspokestyle.com/pages/contact-us,"


",Contact Us,1,CA,92626,clothing_store
Jacadi,"SOUTH COAST PLAZA, 3333 Bristol St, Costa Mesa, CA 92626",Children's clothing store,Costa Mesa,"Upscale retail store selling Parisian-inspired clothing, shoes & accessories for babies & children.",http://www.jacadi.us/,,http://www.jacadi.us/gift-card,http://www.jacadi.us/contact,"
	The gift card
","




Customer Service
Find out more

",1,CA,92626,clothing_store
Stone Cold Fox,"1958 Placentia Ave, Costa Mesa, CA 92627",Women's clothing store,Costa Mesa,,https://thestonecoldfox.com/,,https://thestonecoldfox.com/collections/gift-card,https://thestonecoldfox.com/pages/contact,"
                                    Gift Card
                                  ",Contact,1,CA,92627,clothing_store
Landers Supply House,"2139 Harbor Blvd, Costa Mesa, CA 92627",Clothing store,Costa Mesa,,https://landerssupplyhouse.com/,,https://landerssupplyhouse.com/products/gift-card,,"


Quick View




Quick View



Gift Card

From $25.00
              
            
          
        

",,1,CA,92627,clothing_store
Beach Riot,"1727 Superior Ave, Costa Mesa, CA 92627",Clothing store,Costa Mesa,,https://beachriot.com/,,https://beachriot.com/products/gift-card,https://beachriot.com/pages/contact-us,Gift Cards,Contact Us,1,CA,92627,clothing_store
BYLT Basics,"1981 Placentia Ave, Costa Mesa, CA 92627",Clothing store,Costa Mesa,,https://byltbasics.com/,,https://byltbasics.com/products/gift-card,https://byltbasics.com/pages/contact-us,"
Gift Cards
","





Contact


For General Inquiries
",1,CA,92627,clothing_store
David August Inc,"3140 Airway Ave, Costa Mesa, CA 92626",Men's clothing store,Costa Mesa,,https://davidaugustinc.com/,,https://davidaugustinc.com/collections/gift-cards,https://davidaugustinc.com/pages/contact-us,Gift Cards,CONTACT,1,CA,92626,clothing_store
Xtra Fab Plus Size Boutique,"1189 E Arrow Hwy, Azusa, CA 91702",Plus size clothing store,Azusa,,https://xtrafab.shop/,,https://xtrafab.shop/collections/view-all/products/gift-card,https://xtrafab.shop/collections/contact-us,"

",Contact Us,1,CA,91702,clothing_store
Sheer Pleasure,"171 E College St, Covina, CA 91723",Lingerie store,Covina,,http://www.spboutique.com/,,http://www.spboutique.com/Sheer-Pleasure-Gift-Certificates.aspx,http://www.spboutique.com/Contact.aspx,Gift Certificates,Contact Us,1,CA,91723,clothing_store
J&Grey,"12118 Washington Blvd, Los Angeles, CA 90066",Clothing store,Los Angeles,,http://www.jandgrey.com/,,http://www.jandgrey.com/collections/gift-cards/gift-card,,Gift Cards ,,1,CA,90066,clothing_store
Shades of Grey by Micah Cohen,"8840 Washington Blvd, Culver City, CA 90232",Clothing store,Culver City,,http://shadesofgreyclothing.com/,,http://shadesofgreyclothing.com/products/g-i-f-t-c-a-r-d,http://shadesofgreyclothing.com/pages/contact-us,GIFT CARDS,CONTACT US,1,CA,90232,clothing_store
Crystal Rock Official Store,"8680 Hayden Pl, Culver City, CA 90232",Clothing store,Culver City,,http://www.shopcrystalrock.com/,,http://www.shopcrystalrock.com/Home/ProductInquiry.aspx?&Ct=Office+Supplies%5eEnvelopes+%26+Forms%5eForms+%26+Certificates%5eGift+Certificates,https://www.crystalrock.com/support.jsf,Gift Certificates,Contact Us,1,CA,90232,clothing_store
Modern Society,"8840 Washington Blvd, Culver City, CA 90232",Clothing store,Culver City,,http://www.themodernsociety.com/,,http://www.themodernsociety.com/products/gift-card,,Gift Cards,,1,CA,90232,clothing_store
Aldea Home & Baby,"3825 Main St, Culver City, CA 90232",Baby store,Culver City,,https://aldeahome.com/,,https://aldeahome.com/products/aldea-home-baby-gift-card,https://aldeahome.com/pages/contact-us,"












Gift Cards




","
                Contact Us
                
              ",1,CA,90232,clothing_store
Anonymous LA,"3305 Motor Ave, Los Angeles, CA 90034",Clothing store,Los Angeles,"Boutique offering funky & trendy graphic T-shirts, designer jeans, jewelry & other accessories.",http://www.anonymousla.com/,,http://www.anonymousla.com/products/anonymous-la-gift-card-1,http://www.anonymousla.com/pages/contact-us,GIFT CARD,Contact Us,1,CA,90034,clothing_store
Poketo,"8840 Washington Blvd #104, Culver City, CA 90232",Clothing store,Culver City,,http://www.poketo.com/,,http://www.poketo.com/products/gift-card,https://www.poketo.com/pages/wholesale-contact,"    Quick ShopOnline Gift Card    From  $20.00      
", Visit our wholesale site ,1,CA,90232,clothing_store
Kool Kids Couture,"14417 Big Basin Way, Saratoga, CA 95070",Children's clothing store,Saratoga,,http://koolkidscouture.com/,,https://www.koolkidscouture.com/gift-certificate/,https://www.koolkidscouture.com/contact/,GIFT CERTIFICATE,CONTACT,1,CA,95070,clothing_store
Mightyfist,"1072 S De Anza Blvd, San Jose, CA 95129",Uniform store,San Jose,,http://www.doboks.com/,,https://www.doboks.com/giftcertificates.php,,Gift Certificates,,1,CA,95129,clothing_store
Lana Ricca Cashmere Coats,"333 Gellert Blvd Suit #139, Daly City, CA 94015",Western apparel store,Daly City,,https://www.lanairicca.com/,,https://www.lanairicca.com/giftcertificates.php,https://www.lanairicca.com/contact-us/,Gift Certificates,Contact Us,1,CA,94015,clothing_store
Inspiration Boutique & Gallery,"101 W Avenida Vista Hermosa Suite 502, San Clemente, CA 92672",Women's clothing store,San Clemente,,http://shopibg.com/,,https://images.squarespace-cdn.com/content/v1/5cda2bb24d87117512db53cd/1584295916017-1UDJHC5XVCPEFRGFWVSR/ke17ZwdGBToddI8pDm48kEpVg-ILAPna1wRh-xAJ9fRZw-zPPgdn4jUwVcJE1ZvWQUxwkmyExglNqGp0IvTJZUJFbgE-7XRK3dMEBRBhUpwEv36x-EUL2-BSQ5feDhwGCbXuJBFqZ-erYzVouT8yOb9TwqchglLQOCYTRn7ZGxI/image-asset.jpeg,,"

",,1,CA,92672,clothing_store
Flaunt Boutique,"145 E Prospect Ave # 101, Danville, CA 94526",Boutique,Danville,,https://www.shopflaunt.com/,,https://www.shopflaunt.com/products/gift-card,https://www.shopflaunt.com/pages/visit-contact-us,Gift Cards,Visit/Contact Us,1,CA,94526,clothing_store
Beyond Active,"166 E Prospect Ave, Danville, CA 94526",Women's clothing store,Danville,,http://www.shopbeyondactive.com/,,http://www.shopbeyondactive.com/products/gift-card,http://www.shopbeyondactive.com/pages/contact,"






","
            Contact Us
          ",1,CA,94526,clothing_store
Lemon,"178 E Prospect Ave, Danville, CA 94526",Gift shop,Danville,,https://lemondanville.com/,,https://lemondanville.com/products/gift-card,https://www.lemongiftshop.com/pages/contact-page,Gift Cards,Contact Us,1,CA,94526,clothing_store
Roof Sportswear,"12138 1/2 Woodruff Ave, Downey, CA 90241",Sportswear store,Downey,,http://www.roofsportswear.com/,,https://www.roofsportswear.com/product/gift-certificates/,https://www.roofsportswear.com/home-2/contact/,Gift Certificates, roofsport@aol.com ,1,CA,90241,clothing_store
Cadiz Boutique,"7948 Florence Ave, Downey, CA 90240",Boutique,Downey,,http://shopcadiz.com/,,http://shopcadiz.com/giftcertificates.php,http://shopcadiz.com/pages/Contact-Us.html,Gift Certificates,Contact Us,1,CA,90240,clothing_store
Fleet Feet Elk Grove,"8238 Laguna Blvd #200, Elk Grove, CA 95758",Clothing store,Elk Grove,,http://www.fleetfeetsacramento.com/,,https://www.fleetfeet.com/shop/gift-cards,http://www.fleetfeetsacramento.com/s/sacramento/about/contact-us,Gift Cards,About Us,1,CA,95758,clothing_store
Thrill Seekers Collection,"164 E Main St, El Cajon, CA 92020",Clothing store,El Cajon,,https://www.thrillseekerscollection.com/,,https://www.thrillseekerscollection.com/products/gift-card,https://www.thrillseekerscollection.com/pages/faq-contact,Gift Cards,FAQ,1,CA,92020,clothing_store
Aloha Baby Clothing Company,"548 N Westwind Dr, El Cajon, CA 92020",Clothing store,El Cajon,,http://www.alohababy.com/,,https://www.alohababy.com/product/gift-certificate.html,https://www.alohababy.com/CTUS.html,"




Gift Certificate
",CONTACT,1,CA,92020,clothing_store
Global Link JC Inc,"2105 Central Ave, South El Monte, CA 91733",Clothing store,South El Monte,,https://slinkjeans.com/,,https://slinkjeans.com/products/gift-card,,GIFT CARD,,1,CA,91733,clothing_store
Athletic Stuff,"1615 Commerce Way Unit #C-2, Paso Robles, CA 93446",Sporting goods store,Paso Robles,,https://www.athleticstuff.com/,,https://www.athleticstuff.com/giftcertificates.php,https://www.athleticstuff.com/contact-us/,"
 Gift Certificates
",Contact Us,1,CA,93446,clothing_store
Siegel's Jewelry,"739 12th St, Paso Robles, CA 93446",Jewelry store,Paso Robles,,http://www.diamondsrforever.com/,,https://www.diamondsrforever.com/services/gift-certificates/,https://www.diamondsrforever.com/contact/,Gift Certificates,CONTACT,1,CA,93446,clothing_store
Birch Fabrics Home of Fabricwormcom,"1244 Pine Street, Suite D (corner of 13th &, Railroad St, Paso Robles, CA 93446",Fabric store,Paso Robles,Brick-&-mortar outpost of an online retailer carrying organic cotton fabrics with modern designs.,http://www.fabricworm.com/,,http://www.fabricworm.com/gi.html,http://www.fabricworm.com/contact.html,Gift Certificates,Contact Us,1,CA,93446,clothing_store
Farron Elizabeth,"5955 Entrada Ave, Atascadero, CA 93422",Women's clothing store,Atascadero,,http://www.farronelizabeth.com/,,http://www.farronelizabeth.com/giftcertificates.php,https://farronelizabeth.com/contact-us/,Gift Certificates,Contact Us,1,CA,93422,clothing_store
Well Suited,"146 N El Camino Real, Encinitas, CA 92024",Men's clothing store,Encinitas,,http://shopwellsuited.com/,,http://www.shopwellsuited.com/gift_cards/,http://www.shopwellsuited.com/contact/,Gift Cards,Contact,1,CA,92024,clothing_store
Lizatards,"2240 Encinitas Blvd D-161, Encinitas, CA 92024",Clothing store,Encinitas,,http://www.lizatards.com/,,http://www.lizatards.com/products/gift-card,http://www.lizatards.com/pages/contact-us,"




Gift Cards

","
              Contact Us
              
            ",1,CA,92024,clothing_store
Encinitas 101 MainStreet Association,"818 S Coast Hwy 101, Encinitas, CA 92024",Clothing store,Encinitas,,https://www.encinitas101.com/,,https://www.instagram.com/p/B-3AQjjDaZ9/,https://visitor.r20.constantcontact.com/manage/optin?v=001AF9pFLzP_tou6hgWMw1GygkmPA1Hm3e3Dgy3AVmgmGHlSCbFbeKmaJ0hyhOmGUntgUqqf8elxVDR-GL2Bvw7enIX33UVr6XqaJmf2XONyB6gaknCiaBHxyQW8G3X36nmznPTV2lQ80iDMNkDETjNwK_2qmvf6l2TE-xtMcP77XRXrATuWUt2_w%3D%3D,"
Encinitas was hit hard with flash floods yesterday


 
",Newsletter,1,CA,92024,clothing_store
Encinitas Surfboards,"107 N Coast Hwy 101, Encinitas, CA 92024",Clothing store,Encinitas,,http://www.encinitassurfboards.com/,,http://www.encinitassurfboards.com/collections/gift-certificate,,Gift Certificate,,1,CA,92024,clothing_store
BlackBook Bikini,"960 S Coast Hwy 101 Suite 101, Encinitas, CA 92024",Swimwear store,Encinitas,,http://www.blackbookbikini.com/,,https://www.blackbookbikini.com/gift-card/,,Gift Card,,1,CA,92024,clothing_store
Sea  Wander,"154 Aberdeen Dr, Cardiff, CA 92007",Boutique,Cardiff,,http://www.sea-and-wander.com/,,https://sea-and-wander.com/pages/gift-cards,https://sea-and-wander.com/pages/contact-us,GIFT CARDS | ,CONTACT US ,1,CA,92007,clothing_store
The Girl and The Water,"766 S Coast Hwy 101, Encinitas, CA 92024",Swimwear store,Encinitas,,http://www.thegirlandthewater.com/,,http://www.thegirlandthewater.com/products/gift-card,,"
                            GIFT CARDS
                          ",,1,CA,92024,clothing_store
Fowlers Boutique,"2029 San Elijo Ave, Cardiff, CA 92007",Boutique,Cardiff,,http://fowlers.bigcartel.com/,,http://fowlers.bigcartel.com/product/25-gift-certificate,http://fowlers.bigcartel.com/contact,"

$25 Gift Certificate 

$25.00




",Contact,1,CA,92007,clothing_store
JoeyRae,"677A Laurel St, San Carlos, CA 94070",Women's clothing store,San Carlos,,http://www.joeyrae.com/,,http://www.joeyrae.com/products/gift-card,http://www.joeyrae.com/pages/contact-us,Gift Cards,Contact Us,1,CA,94070,clothing_store
Evotique,"40784 Fremont Blvd, Fremont, CA 94538",Bridal shop,Fremont,,https://www.evotiqueworld.com/,,https://www.evotiqueworld.com/gift-cards,https://www.instagram.com/p/B_3vBAqFv--/,Gift Cards,"

",1,CA,94538,clothing_store
Ariat Brand Shop  Fresno,"714 W Shaw Ave, Fresno, CA 93704",Western apparel store,Fresno,,http://www.ariat.com/,,https://www.ariat.com/giftcard,https://ariat.service-now.com/acp?id=csp_registration,Gift Cards,Contact Us,1,CA,93704,clothing_store
Patrick James Inc,"7060 N Marks Ave UNIT 117, Fresno, CA 93711",Men's clothing store,Fresno,,https://patrickjames.com/,,https://patrickjames.com/SKU/GIFTCERT/Patrick-James-Gift-Certificate.aspx,https://home-c9.incontact.com/inContact/ChatClient/ChatClientPatron.aspx?poc=96e7a027-2ec0-4151-9b69-e128032f49d1&bu=4593858,Gift Certificates,  LIVE CHAT,1,CA,93711,clothing_store
Patrick James,"780 W Shaw Ave, Fresno, CA 93704",Clothing store,Fresno,,http://patrickjames.com/,,http://patrickjames.com/SKU/GIFTCERT/Patrick-James-Gift-Certificate.aspx,https://home-c9.incontact.com/inContact/ChatClient/ChatClientPatron.aspx?poc=96e7a027-2ec0-4151-9b69-e128032f49d1&bu=4593858,Gift Certificates,  LIVE CHAT,1,CA,93704,clothing_store
Metal Babe Mayhem,"1889 W Commonwealth Ave c, Fullerton, CA 92833",Clothing store,Fullerton,,http://metalbabemayhem.com/,,https://metalbabemayhem.com/category-previews/gift-certificates/,https://metalbabemayhem.com/contact/,Gift Certificates,Contact Us,1,CA,92833,clothing_store
e4Hatscom Hat and Cap Store,"701 S Harbor Blvd, Fullerton, CA 92832",Hat shop,Fullerton,"Casual store selling a variety of headgear, including ball caps, formal hats & costume pieces.",https://www.e4hats.com/,,https://www.e4hats.com/gift-card-all.html,https://www.e4hats.com/contact-by-email,Gift Card,CONTACT US,1,CA,92832,clothing_store
Tinkerella Creations,"130 E Chapman Ave, Fullerton, CA 92832",Dressmaker,Fullerton,,http://www.tinkerellacreations.etsy.com/,,https://www.etsy.com/giftcards?ref=ftr,https://www.etsy.com/messages/new?with_id=5324865&referring_id=5254109&referring_type=shop&recipient_id=5324865,"
Gift cards
","
 Contact
    
    
",1,CA,92832,clothing_store
Wicked Temptations,"1441 W 132nd St, Gardena, CA 90249",Lingerie store,Gardena,"Retailer carrying a large array of lingerie in exotic styles, along with bikinis & clubwear.",http://www.wickedtemptations.com/,,https://www.wickedtemptations.com/gift-card.html,https://www.wickedtemptations.com/contact/,,CONTACT US >,1,CA,90249,clothing_store
Nygard Fashion Ventures,"14421 San Pedro St, Gardena, CA 90248",Women's clothing store,Gardena,,http://www.nygard.com/,,http://www.nygard.com/en-ca/products/giftcard,,Gift cards,,1,CA,90248,clothing_store
Alynn Neckwear,"10372 Stanford Ave, Garden Grove, CA 92840",Clothing store,Garden Grove,,https://www.alynn.com/,,https://www.alynn.com/holiday-ties,https://www.alynn.com/contact-us,Holidays,Contact Us,1,CA,92840,clothing_store
Promotion and Beyond,"7221 Garden Grove Blvd H, Garden Grove, CA 92841",Uniform store,Garden Grove,,http://www.promotionandbeyond.com/,,http://www.promotionandbeyond.com/giftcertificates.php,http://www.promotionandbeyond.com/contact-us/,Gift Certificates,Contact Us,1,CA,92841,clothing_store
Ariat Outlet,"8300 Arroyo Cir b010, Gilroy, CA 95020",Western apparel store,Gilroy,,https://www.ariat.com/,,https://www.ariat.com/giftcard,https://ariat.service-now.com/acp?id=csp_registration,Gift Cards,Contact Us,1,CA,95020,clothing_store
Choupette Boutique,"1356 E Colorado St, Glendale, CA 91205",Clothing store,Glendale,,http://www.choupetteusa.com/,,http://www.choupetteusa.com/products/choupette-gift-card,http://www.choupetteusa.com/pages/contact-us,"
GIFT CARD
",Contact Us,1,CA,91205,clothing_store
April Snow,"100 W Broadway, Glendale, CA 91210",Women's clothing store,Glendale,,https://www.glendalegalleria.com/,,https://www.glendalegalleria.com/en/visit/gift-cards.html,https://www.glendalegalleria.com/en/contact-us.html,Gift Cards,"
                    Contact Us
                ",1,CA,91210,clothing_store
Dandelion Custom Tees,"444 Piedmont Ave UNIT 129, Glendale, CA 91206",Men's clothing store,Glendale,,http://dandelioncustomtees.etsy.com/,,https://www.etsy.com/giftcards?ref=ftr,https://www.etsy.com/messages/new?with_id=91814982&referring_id=13530479&referring_type=shop&recipient_id=91814982,"
Gift cards
","
 Contact
    
    
",1,CA,91206,clothing_store
Civilanaire Clothing  Montecito West,"1145 Coast Village Rd, Santa Barbara, CA 93108",Clothing store,Santa Barbara,,http://www.civilianaire.com/,,http://www.civilianaire.com/products/gift-card,http://www.civilianaire.com/pages/contact,Gift Card,Contact,1,CA,93108,clothing_store
Divinity Boutique,"115 W 7th St, Hanford, CA 93230",Women's clothing store,Hanford,,http://www.divinityboutique201.com/,,http://www.divinityboutique201.com/collections/gift-cards,,"

",,1,CA,93230,clothing_store
Nook Sleep Systems,"13020 Yukon Ave Unit P2, Hawthorne, CA 90250",Baby store,Hawthorne,,https://www.nooksleep.com/,,https://www.nooksleep.com/products/gift-card,https://www.nooksleep.com/pages/contact-us,Gift Cards,Contact,1,CA,90250,clothing_store
Jewelry By Nature,"21228 Gary Dr, Hayward, CA 94546",Jewelry store,Hayward,,http://www.jewelrybynature.etsy.com/,,https://www.etsy.com/giftcards?ref=ftr,https://www.etsy.com/messages/new?with_id=8153077&referring_id=5665508&referring_type=shop&recipient_id=8153077,"
Gift cards
","
 Contact
    
    
",1,CA,94546,clothing_store
Icing by Claire's,"2200 W Florida Ave # 325, Hemet, CA 92545",Fashion accessories store,Hemet,,https://www.claires.com/,,https://www.claires.com/us/gift-cards.html?utm_source=MobileLeftNav&utm_medium=GiftCards,https://www.claires.com/us/customer-service-contact/?utm_source=MobileLeftNav&utm_medium=ContactUs,  Gift Cards,  Contact Us,1,CA,92545,clothing_store
Huntington Surf & Sport,"300 Pacific Coast Hwy, Huntington Beach, CA 92648",Clothing store,Huntington Beach,,http://www.hsssurf.com/,,http://www.hsssurf.com/collections/gift-cards,http://www.hsssurf.com/pages/contact-us,"
            GIFT CARDS
          ",Contact Us,1,CA,92648,clothing_store
Cleobella,"16792 14th St, Huntington Beach, CA 92649",Women's clothing store,Huntington Beach,"Airy, contemporary boutique carrying on-trend women's apparel, plus bags, accessories & home goods.",http://shop.cleobella.com/,,http://shop.cleobella.com/collections/gift-cards,http://shop.cleobella.com/pages/contact-us,Gift Cards,Contact,1,CA,92649,clothing_store
THE WEARHOUSE,"21034 CA-1 c108, Huntington Beach, CA 92648",Women's clothing store,Huntington Beach,,http://www.shopwearhouse.com/,,http://www.shopwearhouse.com/products/gift-card,http://www.shopwearhouse.com/pages/contact,GIFT CARD,CONTACT US,1,CA,92648,clothing_store
The Mercantile at Springdale,"15802 Springdale St, Huntington Beach, CA 92649",Clothing store,Huntington Beach,,http://www.themercantilehb.com/,,https://www.themercantilehb.com/gift-cards,https://www.themercantilehb.com/contact,Gift Cards,Contact,1,CA,92649,clothing_store
Salt Therapy Brand,"17750 Gothard St, Huntington Beach, CA 92647",Clothing store,Huntington Beach,,http://www.salttherapybrand.com/,,http://www.salttherapybrand.com/collections/gift-cards,http://www.salttherapybrand.com/pages/contact-us,"
                          GIFT CARDS
                        ",Customer Service,1,CA,92647,clothing_store
Dainty Hooligan Boutique,"18192 Gothard St, Huntington Beach, CA 92648",Boutique,Huntington Beach,,http://www.daintyhooligan.com/,,http://www.daintyhooligan.com/products/gift-card,http://www.daintyhooligan.com/pages/contact-us,Gift Cards,"
  Questions
 Call (714) 655-1373
Text (714) 655-1373 or
Email

 customercare@daintyhooligan.com
",1,CA,92648,clothing_store
Merrilee's Swimwear,"120 5th St #110, Huntington Beach, CA 92648",Swimwear store,Huntington Beach,,http://www.merrilees.com/,,http://www.merrilees.com/collections/gift-cards,http://www.merrilees.com/pages/contact-us,Greeting Cards,Contact Us,1,CA,92648,clothing_store
Ward & Parish,"308 E Manchester Blvd, Inglewood, CA 90301",Clothing store,Inglewood,,http://www.wardandparish.com/,,http://www.wardandparish.com/products/gift-card?variant=4070048836,http://www.wardandparish.com/mailto:contactus@wardandparish.com,Ward & Parish Gift Card ,,1,CA,90301,clothing_store
Gap Factory Store,"village at century 3480, W Century Blvd, Inglewood, CA 90303",Clothing store,Inglewood,,http://www.gapfactory.com/,,http://www.gapfactory.com/profile/account_summary.do,http://www.gapfactory.com/customerService/info.do?cid=1037175,"
Gift Card Balances
",FIND US,1,CA,90303,clothing_store
Jasper Plum,"2425 Park Ave, Tustin, CA 92782",Women's clothing store,Tustin,,http://www.jasperplum.com/,,https://jasperplum.com/Gift-card-p178772018,http://www.jasperplum.com/javascript:void();,"








Gift card




",Contact us,1,CA,92782,clothing_store
Truffle Kids Inc,"17921 Sky Park Cir suite a, Irvine, CA 92614",Children's clothing store,Irvine,,http://www.tesababe.com/,,http://www.tesababe.com/products/gift-card,http://www.tesababe.com/pages/contact-tesa-babe,Gift Cards,Contact Tesa Babe,1,CA,92614,clothing_store
All Things By Faith,"17785 Sky Park Cir ste e, Irvine, CA 92614",Clothing store,Irvine,,https://www.allthingsbyfaith.com/,,https://www.allthingsbyfaith.com/product-category/christian-clothing-gift-card/,https://www.allthingsbyfaith.com/contact-us-christian-t-shirts,Gift Card,Contact Us,1,CA,92614,clothing_store
Baseballism Irvine,"862 Spectrum Center Dr, Irvine, CA 92618",Clothing store,Irvine,,http://baseballism.com/,,http://baseballism.com/collections/gift-cards,http://baseballism.com/pages/contact-us,"
                            Gift Cards
                          ",Contact,1,CA,92618,clothing_store
Dickies Tshirt Warehouse,"9931 Magnolia Ave, Riverside, CA 92503",Men's clothing store,Riverside,"Low-key shop carrying a wide range of t-shirts, including band apparel, plus men's workwear.",http://www.dickies.com/,,https://www.dickies.com/giftcertpurchase,https://www.dickies.com/contactus,e-Gift Cards,"



Help
",1,CA,92503,clothing_store
Nectar Clothing Laguna,"23952 Aliso Creek Rd, Laguna Niguel, CA 92677",Clothing store,Laguna Niguel,,https://nectarclothing.com/,,https://nectarclothing.com/products/gift-card,https://nectarclothing.com/pages/contact-us,"
              Gift Card
              
            ","




Find A Store Nearest You

",1,CA,92677,clothing_store
Medelita Lab Coats and Scrubs,"23456 S Pointe Dr, Laguna Hills, CA 92653",Uniform store,Laguna Hills,"Upscale retailer offering lab coats & scrubs for medical professionals, plus custom embroidery.",https://www.medelita.com/,,https://www.medelita.com/personalized-lab-coats-gifts.html,https://www.medelita.com/contact-us.html,Gift Cards,HELP,1,CA,92653,clothing_store
C J Rose Fashion Boutique,"384 Forest Ave suite 6, Laguna Beach, CA 92651",Women's clothing store,Laguna Beach,,http://www.cjrosefashionboutique.com/,,http://www.cjrosefashionboutique.com/browse/gift-cards,,Gift Cards,,1,CA,92651,clothing_store
Aviator Nation,"1143 S Coast Hwy, Laguna Beach, CA 92651",Clothing store,Laguna Beach,,http://www.aviatornation.com/,,http://www.aviatornation.com/products/aviator-nation-gift-card,,Gift Cards,,1,CA,92651,clothing_store
North Menswear,"380 Glenneyre St, Laguna Beach, CA 92651",Men's clothing store,Laguna Beach,,https://northmenswear.com/,,https://northmenswear.com/products/gift-card,https://northmenswear.com/pages/contact,"
GIFT CARD
",Contact,1,CA,92651,clothing_store
Laguna Supply,"210 Beach St, Laguna Beach, CA 92651",Women's clothing store,Laguna Beach,"Chic, quaint women's boutique specializing in fashion-forward apparel, shoes & designer accessories.",http://lagunasupply.com/,,http://lagunasupply.com/collections/gift-card,,"
Gift Card
",,1,CA,92651,clothing_store
The Soul Project,"1516 S Coast Hwy, Laguna Beach, CA 92651",Women's clothing store,Laguna Beach,,http://www.soulproject.com/,,http://www.soulproject.com/products/soul-project-gift-cards,,Gift Cards,,1,CA,92651,clothing_store
7 Roots,"1259 S Coast Hwy, Laguna Beach, CA 92651",Clothing store,Laguna Beach,,http://www.shop7roots.com/,,http://www.shop7roots.com/collections/gift-card,http://www.shop7roots.com/pages/contact-us,"







        
          GIFT CARD
        
      

","
            Contact Us
          ",1,CA,92651,clothing_store
The Vault Men,"361 Forest Ave, Laguna Beach, CA 92651",Men's clothing store,Laguna Beach,,http://www.thevaultmen.com/,,http://www.thevaultmen.com/products/gift-card-1,http://www.thevaultmen.com/pages/contact-us,Gift Cards,Contact Us,1,CA,92651,clothing_store
BOMBSHELLS,"31568 Railroad Canyon Rd #100, Canyon Lake, CA 92587",Clothing store,Canyon Lake,,http://bombshellsboutique.com/,,http://bombshellsboutique.com/collections/gift-card,,Gift Cards,,1,CA,92587,clothing_store
Lake Lyf Gear,"21707 Appaloosa Ct, Canyon Lake, CA 92587",Men's clothing store,Canyon Lake,,http://www.lakelyfgear.com/,,http://lakelyfgear.com/giftcertificates.php,http://lakelyfgear.com/contact-us/,Gift Certificates,CONTACT US,1,CA,92587,clothing_store
CBS Boardshop & Ski,"23635 El Toro Rd Unit C, Lake Forest, CA 92630",Sporting goods store,Lake Forest,,http://www.cbsboard.com/,,http://www.cbsboard.com/giftcertificates.php,http://www.cbsboard.com/contact-us/,Gift Certificates,Contact Us,1,CA,92630,clothing_store
Belle Forme,"1815 Hawthorne Blvd #371, Redondo Beach, CA 90278",Lingerie store,Redondo Beach,"Lingerie store offering bras, panties & other intimate apparel from upscale labels.",http://www.belleforme.com/,,http://www.belleforme.com/belle-forme-gift-card.html,http://www.belleforme.com/contact/,,Contact Us,1,CA,90278,clothing_store
InNOut Company Store,"13800 Francisquito Ave, Baldwin Park, CA 91706",Clothing store,Baldwin Park,,https://shop.in-n-out.com/,,https://shop.in-n-out.com/gift-cards.html,https://shop.in-n-out.com/contact,Gift Cards,Contact Us,1,CA,91706,clothing_store
Kandyshop Bikinis,"15423 Valley Blvd, City of Industry, CA 91746",Boutique,City of Industry,,http://www.kandyshopbikinis.com/,,http://www.kandyshopbikinis.com/products/gift-card,http://www.kandyshopbikinis.com/pages/contact-us,Gift Card,CONTACT,1,CA,91746,clothing_store
Til You Collapse,"4231 Pacific St #10, Rocklin, CA 95677",Clothing store,Rocklin,,https://tilyoucollapse.com/,,https://tilyoucollapse.com/products/gift-card,https://tilyoucollapse.com/pages/contact-us,Gift Card,Contact Us ,1,CA,95677,clothing_store
Volcom Retail Outlets,"3218 Livermore Outlets Dr, Livermore, CA 94551",Clothing store,Livermore,"Retailer of surf-, skate- & snowboard-inspired apparel, accessories & footwear.",http://volcom.com/,,http://volcom.com/blogs/announcement-bar/volcom-gift-cards,http://volcom.com/mailto:customerservice@volcom.com?subject=Contact Form,"GIFT 'EM THE STONE! SHOP GIFT CARDS
      
        Shop Now
        
      
",Contact Us,1,CA,94551,clothing_store
Joe's Jeans,"2958 Livermore Outlets Dr, Livermore, CA 94550",Clothing store,Livermore,,https://www.joesjeans.com/,,https://www.joesjeans.com/pages/gift-cards,https://www.joesjeans.com/pages/contact-us,GIFT CARDS,CONTACT US,1,CA,94550,clothing_store
Achievement House,"101 E Chestnut Ave, Lompoc, CA 93436",Thrift store,Lompoc,,http://www.achievementhouse.org/,,https://achievementhouse.org/our-businesses/gift-cards/,https://achievementhouse.org/contact/,Gift Cards, Contact Us,1,CA,93436,clothing_store
Far Outfit,"2020 E 4th St, Long Beach, CA 90814",Vintage clothing store,Long Beach,,http://www.faroutfit.com/,,http://www.faroutfit.com/products/gift-card,,GIFT CARD SALE - Click Here,,1,CA,90814,clothing_store
Port Long Beach,"402 St Louis Ave, Long Beach, CA 90814",Men's clothing store,Long Beach,Local boutique featuring stylish men's & women's apparel from independent labels in snug digs.,http://www.portlbc.com/,,http://www.portlbc.com/products/gift-card,http://www.portlbc.com/,Gift Card,Contact,1,CA,90814,clothing_store
Tattered,"5555 E Stearns St Suite 106, Long Beach, CA 90815",Used clothing store,Long Beach,,http://tatteredtrading.com/,,https://squareup.com/gift/7DEX5SJPRHFSE/order,https://www.tatteredtrading.com/contact,Buy Gift Card,Contact,1,CA,90815,clothing_store
DeadRockers,"1023 E 4th St, Long Beach, CA 90802",Clothing store,Long Beach,,http://www.deadrockers.net/,,http://www.deadrockers.net/collections/housewares/products/gift-card,http://www.deadrockers.net/pages/contact-us,"












Gift Card / Certificate - (Online Use Only)


Regular price
$ 1000
$ 10.00


",Contact Us,1,CA,90802,clothing_store
Snake Oil Provisions,"132 Linden Ave, Long Beach, CA 90802",Men's clothing store,Long Beach,,https://snakeoilprovisions.com/,,https://snakeoilprovisions.com/collections/gift-cards,https://snakeoilprovisions.com/pages/contact,Gift Cards,Contact,1,CA,90802,clothing_store
3 Women,"433 E 1st St, Long Beach, CA 90802",Vintage clothing store,Long Beach,,http://www.3womenco.com/,,http://www.3womenco.com/collections/frontpage/products/gift-card,,"
Gift Card
",,1,CA,90802,clothing_store
Butterscotch LBC,"509 E Broadway, Long Beach, CA 90802",Clothing store,Long Beach,,https://www.butterscotchlb.com/,,https://www.butterscotchlb.com/products/butterscotch-gift-card,https://www.butterscotchlb.com/pages/contact,"






                      BRICK & MORTAR CLOSED
                    

                      UNTIL FURTHER NOTICE DUE TO COVID-19
                    



","
              Contact
            ",1,CA,90802,clothing_store
The Hangout,"2122 E 4th St, Long Beach, CA 90814",Clothing store,Long Beach,,http://shopthehangout.com/,,http://shopthehangout.com/collections/gift-cards,,"
                Gift Cards
            ",,1,CA,90814,clothing_store
Coast Modern,"219 Main St, Seal Beach, CA 90740",Clothing store,Seal Beach,"Apparel & accessories shop carrying a unique array of clothing, jewelry, household items & gifts.",http://www.coastmodernstore.com/,,https://www.coastmodernstore.com/products/gift-card?_pos=1&_sid=d1b60eacd&_ss=r,http://www.coastmodernstore.com/pages/contact-us,"
              Shop
            ",Visit Us,1,CA,90740,clothing_store
Cranberry Scoop,"295 State St, Los Altos, CA 94022",Gift shop,Los Altos,"Charming shop offering a wide variety of seasonal home decor items, accessories, stationery & gifts.",http://www.thecranberryscoop.com/,,https://app.gifted.co//gift-card/250925,http://www.thecranberryscoop.com/contact,"  

Order a Gift Card
"," Contact
",1,CA,94022,clothing_store
BNKR,"901 S Broadway & W 9th St, Los Angeles, CA 90015",Women's clothing store,Los Angeles,"Chic shop stocking women's apparel, shoes & accessories from emerging Australian designers.",http://us.fashionbunker.com/,,https://us.fashionbunker.com/gift-cards,https://us.fashionbunker.com/contact-us,Gift Cards,Contact Us,1,CA,90015,clothing_store
WITTMORE Arts District,"300 S Santa Fe Ave Suite X, Los Angeles, CA 90013",Men's clothing store,Los Angeles,,http://shopwittmore.com/,,http://shopwittmore.com/products/gift-card-digital,http://shopwittmore.com/pages/contact-us,Gift Cards,Contact Us,1,CA,90013,clothing_store
Rave Wonderland,"408 W Pico Blvd, Los Angeles, CA 90015",Clothing store,Los Angeles,,http://www.ravewonderland.com/,,http://www.ravewonderland.com/collections/gift-cards-1,http://www.ravewonderland.com/pages/contact-us,Gift Cards,Contact Us,1,CA,90015,clothing_store
Topshop Topman,"189 The Grove Dr J10, Los Angeles, CA 90036",Women's clothing store,Los Angeles,"Hip British-born retailer for apparel, shoes, handbags & accessories.",http://us.topshop.com/,,http://us.topshop.com/en/tsus/category/topshop-gift-cards-70356/home?cat2=717510&intcmpid=W_FOOTER_MAIN_GIFT_CARDS,,Gift Cards,,1,CA,90036,clothing_store
Guido in LA,"112 W 9th St Suite #200, Los Angeles, CA 90015",Vintage clothing store,Los Angeles,,http://www.guidoinla.com/,,https://www.guidoinla.com/shop/28408506/gift-certificates,http://www.guidoinla.com/#,"
                            Gift Certificates
                        ","
                                Contact us
                            ",1,CA,90015,clothing_store
Christies Collection,"923 Santee St #7, Los Angeles, CA 90015",Women's clothing store,Los Angeles,Women's clothing boutique specializing in dresses for special occasions such as weddings & proms.,http://trendycollection.com/,,http://trendycollection.com/giftcertificates.php,,Gift Certificates,,1,CA,90015,clothing_store
Bridge & Burn,"1318 7th St #118, Los Angeles, CA 90021",Clothing store,Los Angeles,,http://www.bridgeandburn.com/,,http://www.bridgeandburn.com/products/gift-card,http://www.bridgeandburn.com/pages/contact-us,"
                                      Gift Certificate
                                    ",Contact Us,1,CA,90021,clothing_store
Bleu Clothing,"7378 Beverly Blvd, Los Angeles, CA 90036",Boutique,Los Angeles,"Women's boutique carrying clothing, shoes, bags & accessories from known designers.",http://www.bleuclothing.com/,,http://www.bleuclothing.com/giftcertificates.php,http://www.bleuclothing.com/contact-us/,Gift Certificates,Contact us,1,CA,90036,clothing_store
Romantiques lingerie,"51 University Ave, Los Gatos, CA 95030",Clothing store,Los Gatos,"Boutique featuring a wide selection of bras, unique loungewear & accessories from upscale brands.",http://www.shopromantiques.com/,,http://www.shopromantiques.com/products/gift-card,,Gift Cards,,1,CA,95030,clothing_store
Bebe au Lait,"400 Blossom Hill Rd, Los Gatos, CA 95032",Baby store,Los Gatos,,http://www.bebeaulait.com/,,http://www.bebeaulait.com/products/gift-card,http://www.bebeaulait.com/pages/contact,Gift Cards,Contact Us,1,CA,95032,clothing_store
The Beehive,"451 Manhattan Beach Blvd, Manhattan Beach, CA 90266",Women's clothing store,Manhattan Beach,,http://www.thebeehivemb.com/,,http://www.thebeehivemb.com/collections/gift-card,,"
          Gift Certificates

          
        ",,1,CA,90266,clothing_store
Bella Beach Kids,"225 Manhattan Beach Blvd, Manhattan Beach, CA 90266",Clothing store,Manhattan Beach,"Family-owned boutique offering fashionable apparel for infants & children, plus unique toys & gifts.",http://www.bellabeachkids.com/,,https://www.bellabeachkids.com/brands/bella-beach-kids-gift-card/,," 
",,1,CA,90266,clothing_store
Birdwell Beach Britches,"1300 Highland Ave, Manhattan Beach, CA 90266",Swimwear store,Manhattan Beach,,http://birdwell.com/,,http://birdwell.com/products/gift-card,http://birdwell.com/pages/contact-birdwell,Gift Cards,Contact Us,1,CA,90266,clothing_store
Go Gently Nation,"1201 Manhattan Ave, Manhattan Beach, CA 90266",Children's clothing store,Manhattan Beach,,http://www.gogentlynation.com/,,https://gogentlynation.com/collections/giftsandtoys-giftcards#collection-grid,http://www.gogentlynation.com/pages/contact-us,Gift Cards,Contact Us,1,CA,90266,clothing_store
Sol Baby,"124 Pier Ave, Hermosa Beach, CA 90254",Children's clothing store,Hermosa Beach,,http://www.sol-baby.com/,,http://www.sol-baby.com/collections/gift-certificates,,Gift Certificates,,1,CA,90254,clothing_store
legends,"5500 W Rosecrans Ave, Manhattan Beach, CA 90312",Sportswear store,Manhattan Beach,,http://thelegendsbrand.com/,,http://thelegendsbrand.com/collections/gift-cards,http://thelegendsbrand.com/pages/contact,Gift Cards,Contact,1,CA,90312,clothing_store
Collektive Boutique,"935 1st St, Benicia, CA 94510",Clothing store,Benicia,,https://www.calicollektive.com/,,https://www.calicollektive.com/products/gift-card,,Gift Cards,,1,CA,94510,clothing_store
Venture Quality Goods,"3571 Mt Diablo Blvd, Lafayette, CA 94549",Clothing store,Lafayette,"Cool store spotlighting brands of apparel, outerwear & accessories designed or made in California.",http://venturegoods.com/,,https://www.venturegoods.com/gift-cards-greeting-cards/,,Gift Cards & Greeting Cards,,1,CA,94549,clothing_store
Harper Greer,"979 Moraga Rd, Lafayette, CA 94549",Women's clothing store,Lafayette,"Store selling a curated selection of women's casualwear in sizes from 8 to 24, plus accessories.",https://www.harpergreer.com/,,https://www.harpergreer.com/collections/gift-cards-gift-certificates,https://www.harpergreer.com/pages/welcome-to-our-website,"
                Gift Cards & Certificates
            ",Contact Us,1,CA,94549,clothing_store
Amour Vert,"660 Stanford Shopping Center, Palo Alto, CA 94304",Clothing store,Palo Alto,,http://www.amourvert.com/,,http://www.amourvert.com/products/gift-card,,"

Buy Gift Cards
",,1,CA,94304,clothing_store
Wilkes Bashford,"450 Stanford Shopping Center, Palo Alto, CA 94304",Clothing store,Palo Alto,"Renowned boutique with high-end designer apparel & shoes for men & women, plus tailoring services.",http://www.wilkesbashford.com/,,https://shop.mitchellstores.com/products/giftcard,,Gift Cards,,1,CA,94304,clothing_store
Kicks,"1060 Evelyn St, Menlo Park, CA 94025",Shoe store,Menlo Park,"Compact, stylish shop showcasing a curated selection of shoes, clothing, accessories & gifts.",http://www.kicksmenlopark.com/,,http://www.kicksmenlopark.com/GiftCertificates,http://www.kicksmenlopark.com/tel://{{bizInfo.contact.phoneLocal}},"
          Gift Certificates","




",1,CA,94025,clothing_store
KELLI'S,"1777 Canal St, Merced, CA 95340",Boutique,Merced,,http://www.shopkelli.com/,,https://www.shopkelli.com/product/mothers-day-promo-gift-card/,,Purchase,,1,CA,95340,clothing_store
Torrid,"504 Great Mall Dr space # 200, Milpitas, CA 95035",Plus size clothing store,Milpitas,,https://www.torrid.com/,,https://www.torrid.com/giftcertpurchase,https://www.torrid.com/help/,Gift Cards,Contact Us,1,CA,95035,clothing_store
Sam's Tailoring,"27762 Vista Del Lago #8, Mission Viejo, CA 92692",Men's clothing store,Mission Viejo,,http://www.samstailoring.com/,,http://www.samstailoring.com/c-58-gift-certificates.aspx,http://www.samstailoring.com/t-contact.aspx,Gift Certificates,"Contact
Us",1,CA,92692,clothing_store
A Classic Paradise,"510 W Whittier Blvd, Montebello, CA 90640",Clothing store,Montebello,,http://www.aclassicparadise.com/,,http://www.aclassicparadise.com/collections/new-arrivals/products/gift-card,,"

",,1,CA,90640,clothing_store
Mint Fashion Exchange,"757 California Ave, Simi Valley, CA 93065",Clothing store,Simi Valley,,http://www.themintfashionexchange.com/,,http://www.themintfashionexchange.com/products/the-mint-fashion-exchange-gift-card,,"
Gift Card
",,1,CA,93065,clothing_store
Alas Boutique,"2290 Ventura Blvd, Camarillo, CA 93010",Clothing store,Camarillo,,http://alasboutique.com/,,https://alasboutique.com/product/gift-card/,,Gift Card,,1,CA,93010,clothing_store
Lemondrops Children's Boutique,"1030 Clinton St, Napa, CA 94559",Children's clothing store,Napa,,http://www.lemondropsonline.com/,,http://www.lemondropsonline.com/products/gift-cards,,"
        Gift Cards
      ",,1,CA,94559,clothing_store
Macbella,"1252 1st St, Napa, CA 94559",Women's clothing store,Napa,,https://www.macbella.com/,,https://macbella.com/product-category/cards/gift-cards/,https://macbella.com/contacts/,GIFT CARDS,,1,CA,94559,clothing_store
Navy Exchange Clothing Store,"2260 Callagan Hwy Building No. 3187A, San Diego, CA 92136",Clothing store,San Diego,,https://www.mynavyexchange.com/,,https://www.mynavyexchange.com/giftcards/browse/giftcard.jsp,https://www.mynavyexchange.com/customerservice/contactUs.jsp,Gift Cards,Contact Us,1,CA,92136,clothing_store
Designer's Needs Dupioni Silk Fabrics,"5795 Forbes Dr, Newark, CA 94560",Fabric store,Newark,,http://designersneeds.etsy.com/,,https://www.etsy.com/giftcards?ref=ftr,https://www.etsy.com/messages/new?with_id=9499751&referring_id=5830635&referring_type=shop&recipient_id=9499751,"
Gift cards
","
 Contact
    
    
",1,CA,94560,clothing_store
Jeanni Champagne,"21111 Newport Coast Dr, Newport Beach, CA 92657",Women's clothing store,Newport Beach,,http://www.shopjeanni.com/,,http://www.shopjeanni.com/pages/gift-card-policy,,Gift Cards,,1,CA,92657,clothing_store
Jack's Girls,"2727 Newport Blvd, Newport Beach, CA 92663",Clothing store,Newport Beach,,http://www.jackssurfboards.com/,,http://www.jackssurfboards.com/products/gift-cards,http://www.jackssurfboards.com/pages/contact-us-1,"




buy a gift card

","




Contact Us

",1,CA,92663,clothing_store
Jofit  Newport Beach,"932 Avocado Ave, Newport Beach, CA 92660",Women's clothing store,Newport Beach,,http://www.jofit.com/,,http://www.jofit.com/products/rise-ai-giftcard,http://www.jofit.com/pages/contact,Gift Cards,Contact Us,1,CA,92660,clothing_store
Bella & Brass,"3430 Via Lido, Newport Beach, CA 92663",Clothing store,Newport Beach,,http://www.bellaandbrass.com/,,https://www.bellaandbrass.com/gift-card,,Gift Card,,1,CA,92663,clothing_store
Huxley  Harper,"410 West Coast Hwy F, Newport Beach, CA 92663",Clothing store,Newport Beach,,http://www.huxleyandharper.com/,,http://www.huxleyandharper.com/products/gift-card,,Gift Cards,,1,CA,92663,clothing_store
Direct Clothiers,"352 Ignacio Blvd, Novato, CA 94949",Men's clothing store,Novato,,http://www.directclothiers.com/,,http://www.directclothiers.com/GiftCert_sendvia.asp,http://www.directclothiers.com/Articles.asp?ID=121,Gift Certificates,Contact Us,1,CA,94949,clothing_store
Viva Diva,"1327 4th St, San Rafael, CA 94901",Women's clothing store,San Rafael,Contemporary women's clothing boutique carrying bohemian & edgy fashions amid a warm vibe.,https://www.vivadivaboutique.com/,,https://www.vivadivaboutique.com/collections/viva-diva-gift-cards,https://www.vivadivaboutique.com/pages/contact,Viva Diva Gift Cards,Contact Us,1,CA,94901,clothing_store
Anatoly's,"3864 Piedmont Ave, Oakland, CA 94611",Men's clothing store,Oakland,"This shop, owned by a seasoned tailor, features casual & formal menswear, plus tailoring services.",http://www.anatolys.com/,,http://www.anatolys.com/collections/gift-cards,http://www.anatolys.com/pages/contact-1,"
                            Gift Cards
                          ","
                            Contact Us
                          ",1,CA,94611,clothing_store
LaliSimone,"3924 MacArthur Blvd, Oakland, CA 94619",Vintage clothing store,Oakland,,https://lalisimone.com/,,https://lalisimone.com/products/rise-ai-giftcard,https://lalisimone.com/pages/contact,Buy a Gift Card,call or email ,1,CA,94619,clothing_store
Lesley Evers,"5709 College Ave, Oakland, CA 94618",Women's clothing store,Oakland,,http://www.lesleyevers.com/,,http://www.lesleyevers.com/products/gift-card,http://www.lesleyevers.com/pages/contact-us,"
                    Gift Cards
                  ",Contact Us,1,CA,94618,clothing_store
Oakland Supply Co,"427 Water St, Oakland, CA 94607",Boutique,Oakland,Concept store stocking an eclectic array of jewelry & leather goods in an industrial warehouse.,http://oaksupply.co/,,http://oaksupply.co/collections/gift-card,http://oaksupply.co/pages/contact-us,Gift Cards,Contact Us,1,CA,94607,clothing_store
Bestaroo,"4747 Oceanside Blvd G, Oceanside, CA 92056",Baby clothing store,Oceanside,,http://www.bestaroo.com/,,http://www.bestaroo.com/products/rise-ai-giftcard,http://www.bestaroo.com/pages/contact-us,Purchase Gift Card,Contact Us,1,CA,92056,clothing_store
Burlington,"2425 Vista Way, Oceanside, CA 92054",Clothing store,Oceanside,,http://burlington.com/,,http://burlington.com/gift-cards,," 
buy gift cards
",,1,CA,92054,clothing_store
Surf Ride Boardshop,"1909 S Coast Hwy, Oceanside, CA 92054",Clothing store,Oceanside,,http://www.surfride.com/,,http://www.surfride.com/onlinestore,,"

",,1,CA,92054,clothing_store
Beautiful Disaster & Handsome Devil Inc,"1801 Holser Walk Ste 115, Oxnard, CA 93036",Clothing store,Oxnard,,http://www.bdrocks.com/,,http://www.bdrocks.com/products/gift-card-1,http://www.bdrocks.com/pages/contact-us,GIFT CARDS,"
                        CONTACT US
                      ",1,CA,93036,clothing_store
MILAH BOUTIQUE,"1355 W Channel Islands Blvd, Oxnard, CA 93033",Women's clothing store,Oxnard,,http://www.milahboutique.com/,,http://www.milahboutique.com/collections/gift-cards,,Gift Cards,,1,CA,93033,clothing_store
Cacique,"1233 W Rancho Vista Blvd, Palmdale, CA 93551",Clothing store,Palmdale,,https://www.lanebryant.com/,,https://www.lanebryant.com/lanebryant/account/giftcard-landing-page.jsp,,Gift Cards,,1,CA,93551,clothing_store
Benjamin Perdereau,"184 N Palm Canyon Dr, Palm Springs, CA 92262",Clothing store,Palm Springs,,http://www.benjaminperdereau.com/,,https://www.benjaminperdereau.com/product-page/50-gift-card,https://www.benjaminperdereau.com/contact,Quick View$50 gift cardPrice$50.00,CONTACT,1,CA,92262,clothing_store
Fraiche,"597 Emerson St, Palo Alto, CA 94301",Clothing store,Palo Alto,,http://fraiche.strikingly.com/,,https://app.yiftee.com/gifts/egift_and_gift_cards/fraiche-palo-alto,http://fraiche.strikingly.com/#find-us,Purchase♥Gift Cards ,Find us,1,CA,94301,clothing_store
Romi Sugar Partners LLC,"624 Emerson St, Palo Alto, CA 94301",Boutique,Palo Alto,Swanky fashion-forward boutique specializing in premium jeans & designer casual wear for women.,http://www.romiboutique.com/,,http://www.romiboutique.com/products/gift-card,http://www.romiboutique.com/pages/faq,GIFT CARDS,Contact Us,1,CA,94301,clothing_store
Hall Madden Custom Suits Shirts and More,"535 Ramona St Ste 3, Palo Alto, CA 94301",Men's clothing store,Palo Alto,,https://hallmadden.com/,,https://hallmadden.com/gift-card,,"
                  Gift Card
                ",,1,CA,94301,clothing_store
Sprout San Francisco,"855 El Camino Real #11, Palo Alto, CA 94301",Baby store,Palo Alto,,http://www.sproutsanfrancisco.com/,,https://www.sproutsanfrancisco.com/gifts/gift-certificates,,Gift Certificates,,1,CA,94301,clothing_store
Lingerie Republique,"547 Bryant St, Palo Alto, CA 94301",Lingerie store,Palo Alto,"Upscale boutique providing stylish European lingerie, undergarments & sleepwear in a relaxed space.",http://www.lingerierepublique.com/,,https://www.lingerierepublique.com/egift-card-1,http://www.lingerierepublique.com/contact-us,GET SPOILED,"
Contact
",1,CA,94301,clothing_store
Rodd & Gunn  Stanford,"660 Stanford Shopping Center shop 126, Palo Alto, CA 94304",Men's clothing store,Palo Alto,,http://www.roddandgunn.com/,,https://www.roddandgunn.com/us/gifts/egift-cards,https://www.roddandgunn.com/us/the-lodge-bar/contact-events,"
EGift Cards
","
Contact & Events
",1,CA,94304,clothing_store
Goorin Bros Hat Shop  Pasadena,"49 W Colorado Blvd, Pasadena, CA 91105",Hat shop,Pasadena,,http://www.goorin.com/,,http://www.goorin.com/products/gift-card-delivered-electronically,https://goorin.zendesk.com/hc/en-us/categories/360000874471-Contact-Us,"
                      Gift Cards
                    ","



",1,CA,91105,clothing_store
Passeggiata Shoes,"7 Western Ave, Petaluma, CA 94952",Clothing store,Petaluma,,http://www.passeggiatashoes.com/,,http://www.passeggiatashoes.com/giftcertificates.php,http://passeggiatashoes.com/contact-us/,Gift Certificates,"
    Contact Us 
",1,CA,94952,clothing_store
Miss Lola,"8350 Rex Rd Unit B, Pico Rivera, CA 90660",Shoe store,Pico Rivera,,https://www.misslola.com/,,https://www.misslola.com/products/gift-card,https://www.misslola.com/pages/contact-us,"
            Gift Certificates
          ",contact us,1,CA,90660,clothing_store
Belle Vie Boutique,"5624 E La Palma Ave suite b, Anaheim, CA 92807",Women's clothing store,Anaheim,,http://www.shopbellevie.com/,,http://www.shopbellevie.com/collections/gift-cards,,"
Gift Cards
",,1,CA,92807,clothing_store
Lacrosse Fanatic,"9500 Micron Ave # 122, Sacramento, CA 95827",Sporting goods store,Sacramento,,http://lacrossefanatic.com/,,http://lacrossefanatic.com/products/gift-card,http://lacrossefanatic.com/pages/contact-us, ,"
          Contact Us",1,CA,95827,clothing_store
LXRandCo Stein Mart Rancho Cucamonga,"10930 Foothill Blvd, Rancho Cucamonga, CA 91730",Vintage clothing store,Rancho Cucamonga,,http://lxrandco.com/,,http://lxrandco.com/products/gift-card,http://lxrandco.com/pages/contact-us,Gift,Help,1,CA,91730,clothing_store
Emmanya Graduation Gown,"7170 Turning Leaf Pl, Rancho Cucamonga, CA 91701",Used clothing store,Rancho Cucamonga,,http://ebay.com/,,https://www.ebay.com/b/Gift-Cards-Coupons/172008/bn_1858592,https://ocsnext.ebay.com/ocs/home,Gift Cards, Help & Contact,1,CA,91701,clothing_store
Dr Strange Records,"7136 Amethyst Ave, Alta Loma, CA 91701",Clothing store,Alta Loma,,http://drstrange.com/,,http://drstrange.com/index.php?route=product/category&path=154,http://drstrange.com/index.php?route=information/contact,GIFT CARDS,,1,CA,91701,clothing_store
Hollywood Suits,"23030 Hawthorne Blvd, Torrance, CA 90505",Men's clothing store,Torrance,"Menswear outfit specializing in suits & separates, plus outerwear, footwear & accessories.",http://www.hollywoodsuits.com/,,http://www.hollywoodsuits.com/hollywood-suits-online-gift-card.html/,https://www.hollywoodsuits.com/contact/,"
                                        Gift Cards                                    ",Contact Us,1,CA,90505,clothing_store
Boardmart Snow Surf & Skate,"1261 Market St, Redding, CA 96001",Clothing store,Redding,,http://www.boardmartredding.com/,,http://www.boardmartredding.com/collections/gift-cards,http://www.boardmartredding.com/pages/contact-hours,Gift cards,Contact Us,1,CA,96001,clothing_store
Pampered Tot,"339 Pacific Coast Hwy, Hermosa Beach, CA 90254",Baby store,Hermosa Beach,"Boutique providing a variety of baby gear, nursery furnishings, toys, safety supplies & decor.",http://www.pamperedtot.com/,,http://www.pamperedtot.com/articles.asp?ID=152,http://www.pamperedtot.com/articles.asp?ID=138,Gift Cards,Contact Us,1,CA,90254,clothing_store
Morningtide,"847 Cornell Ave, Albany, CA 94706",Clothing store,Albany,,http://www.morningtideshop.com/,,http://www.morningtideshop.com/collections/gift-cards,http://www.morningtideshop.com/pages/contact,Gift Cards,Contact,1,CA,94706,clothing_store
Mountain Hardwear Employee Store,"1414 Harbour Way S #1010, Richmond, CA 94804",Sporting goods store,Richmond,,https://www.mountainhardwear.com/,,https://www.mountainhardwear.com/giftcards,,Gift Cards,,1,CA,94804,clothing_store
Earthbound Trading Co,"2045 Galleria At Tyler, Riverside, CA 92503",Clothing store,Riverside,,http://www.earthboundtrading.com/,,http://www.earthboundtrading.com/home-gift/gift-cards,http://www.earthboundtrading.com/contact-us,Gift Cards,Contact Us,1,CA,92503,clothing_store
Burnout Vintage,"3750 Sunnyside Dr, Riverside, CA 92506",Vintage clothing store,Riverside,,http://burnoutvintage.com/,,http://burnoutvintage.com/products/gift-card,http://burnoutvintage.com/pages/contact-us,Gift Card,Contact,1,CA,92506,clothing_store
Funk & Flash,"200 S Main St, Sebastopol, CA 95472",Clothing store,Sebastopol,,http://www.funkandflash.com/,,http://www.funkandflash.com/products/gift-card,http://www.funkandflash.com/pages/contact,"












Gift Card

from $50
                
              
            



",Contact,1,CA,95472,clothing_store
Identity Boutique,"2600 J St, Sacramento, CA 95816",Boutique,Sacramento,,http://www.shopidentityboutique.com/,,http://www.shopidentityboutique.com/collections/gift-cards,http://www.shopidentityboutique.com/pages/contact-us,"





",Email Us,1,CA,95816,clothing_store
Wild Poppy & Co Boutique,"2315 J St, Sacramento, CA 95816",Women's clothing store,Sacramento,,http://www.shopwildpoppy.com/,,http://shopwildpoppy.com/t/gift-certificates,http://www.shopwildpoppy.com/contact,Gift Certificates,Contact Us,1,CA,95816,clothing_store
Jo Ann's Clothing,"333 Main St, Salinas, CA 93901",Western apparel store,Salinas,,http://www.joann.com/,,http://www.joann.com/gift-cards.html,https://www.joann.com/on/demandware.store/Sites-JoAnn-Site/default/Page-Show?cid=contactus,"
				Gift Cards
			",CONTACT US,1,CA,93901,clothing_store
Bliss Boutique,"266 Main St, Salinas, CA 93901",Boutique,Salinas,,https://www.bebeautifulinbliss.com/,,https://www.instagram.com/p/B_3Gf0zlfJw/,https://www.bebeautifulinbliss.com/contact-us,"

",Contact,1,CA,93901,clothing_store
GBG LOS ANGELES,"796 N Main St, Salinas, CA 93901",Clothing store,Salinas,,https://shop.guess.com/,,https://shop.guess.com/en/giftcard/,,Gift Cards,,1,CA,93901,clothing_store
SE7EN DEADLY LLC,"904 Civic Center Dr E, Santa Ana, CA 92701",Clothing store,Santa Ana,,https://www.se7endeadly.com/,,https://www.se7endeadly.com/products/gift-card,,Gift Cards,,1,CA,92701,clothing_store
Crown Jewel Brand,"3100 Warner Ave, Santa Ana, CA 92704",Women's clothing store,Santa Ana,,https://www.crownjewelbrand.com/,,https://www.crownjewelbrand.com/gift-card,https://www.crownjewelbrand.com,GIFT CARDS,CONTACT US,1,CA,92704,clothing_store
The Shopkeepers,"137 Anacapa St A, Santa Barbara, CA 93101",Clothing store,Santa Barbara,,https://www.theshopkeepers-sb.com/,,https://www.theshopkeepers-sb.com/gift-card,,Purchase a Gift Card,,1,CA,93101,clothing_store
Angel,"1221 Coast Village Rd, Santa Barbara, CA 93108",Women's clothing store,Santa Barbara,,http://www.wendyfoster.com/,,https://www.wendyfoster.com/shop,,WENDY FOSTER GIFT CARDS,,1,CA,93108,clothing_store
Miss Behavin',"322 Paseo Nuevo, Santa Barbara, CA 93101",Women's clothing store,Santa Barbara,,http://www.shopmissbehavin.com/,,http://www.shopmissbehavin.com/products/gift-card,http://www.shopmissbehavin.com/pages/contact-us,"
Gift Cards
","
Contact Us
",1,CA,93101,clothing_store
Mama Luma,"203 Paseo Nuevo, Santa Barbara, CA 93101",Children's clothing store,Santa Barbara,,http://www.mamaluma.com/,,http://www.mamaluma.com/collections/gift-card,http://www.mamaluma.com/pages/contact-us,Gift Card,Contact us,1,CA,93101,clothing_store
Ambiance Boutique Montecito,"1266 Coast Village Rd, Santa Barbara, CA 93108",Boutique,Santa Barbara,,http://www.shopambiance.com/,,http://www.shopambiance.com/collections/ambiance-gift-cards,http://www.shopambiance.com/pages/contact-us,Gift Cards,Contact,1,CA,93108,clothing_store
Wendy Foster Sportswear,"516 San Ysidro Rd, Montecito, CA 93108",Clothing store,Montecito,,https://www.wendyfoster.com/,,https://www.wendyfoster.com/shop,,WENDY FOSTER GIFT CARDS,,1,CA,93108,clothing_store
GoBreezie,"550 Moreland Way #1208, Santa Clara, CA 95054",Beach clothing store,Santa Clara,,http://www.gobreezie.com/,,http://www.gobreezie.com/products/gift-card,,Gift Card,,1,CA,95054,clothing_store
Claire's,"2285 Stevens Creek Blvd B-481, Santa Clara, CA 95050",Fashion accessories store,Santa Clara,,http://www.claires.com/,,https://www.claires.com/us/gift-cards.html?utm_source=MobileLeftNav&utm_medium=GiftCards,https://www.claires.com/us/customer-service-contact/?utm_source=MobileLeftNav&utm_medium=ContactUs,  Gift Cards,  Contact Us,1,CA,95050,clothing_store
Northridge Suits & Tux,"23630 Valencia Blvd Bldg H, Santa Clarita, CA 91355",Tuxedo shop,Santa Clarita,,http://www.northridgesuitoutlet.com/,,http://www.northridgesuitoutlet.com/giftcertificates.php,http://www.northridgesuitoutlet.com/contact-us/,Gift Certificates,"
Store Locator
",1,CA,91355,clothing_store
Leom Designs,"1013 Cedar St, Santa Cruz, CA 95060",Clothing store,Santa Cruz,,http://www.leomdesigns.com/,,http://www.leomdesigns.com/giftcertificates.php,https://www.leomdesigns.com/contact/,Gift Certificates,CONTACT ,1,CA,95060,clothing_store
Mr California,"2869 Mission St, Santa Cruz, CA 95060",Men's clothing store,Santa Cruz,,http://mistercal.com/,,http://mistercal.com/collections/mens-gift-cards,http://mistercal.com/pages/contact-us,Gift Cards,Contact Us,1,CA,95060,clothing_store
Dash Hemp,"303 Potrero St #47-101, Santa Cruz, CA 95060",Clothing store,Santa Cruz,,http://www.dashhemp.com/,,https://www.dashhemp.com/gift-certificates/,https://www.dashhemp.com/contact-us/,"


Gift Certificates


","


Contact Us


",1,CA,95060,clothing_store
Cameron Marks,"402 Ingalls St #21, Santa Cruz, CA 95060",Boutique,Santa Cruz,"Store featuring a chic, eclectic mix of home items, jewelry, clothes, greeting cards & gifts.",http://www.cameronmarks.com/,,https://www.cameronmarks.com/shop/gift-card/,https://www.cameronmarks.com/service/,Gift Card,Contact Us,1,CA,95060,clothing_store
Outdoor World Sporting Goods,"136 River St, Santa Cruz, CA 95060",Clothing store,Santa Cruz,,https://www.theoutdoorworld.com/,,https://www.theoutdoorworld.com/info/gift-cards,https://www.theoutdoorworld.com/info/contact-us,Gift Cards,CONTACT,1,CA,95060,clothing_store
Been There Caught That,"1010 Betteravia Rd # C, Santa Maria, CA 93455",Sporting goods store,Santa Maria,,http://www.beentherecaughtthat.com/,,http://www.beentherecaughtthat.com/products/gift-card,http://www.beentherecaughtthat.com/pages/contact-us,Gift Card,Contact,1,CA,93455,clothing_store
Pink Chicken,"1524 Montana Ave, Santa Monica, CA 90403",Children's clothing store,Santa Monica,,http://www.pinkchicken.com/,,https://www.pinkchicken.com/products/giftcard,http://www.pinkchicken.com/pages/contact-us,Gift Card,Contact Us,1,CA,90403,clothing_store
Varga Santa Monica Place Mall,"395 Santa Monica Pier unit 170, Santa Monica, CA 90401",Women's clothing store,Santa Monica,,https://www.vargastore.com/,,https://www.vargastore.com/collections/gift-cards,,Gift Cards,,1,CA,90401,clothing_store
Citron,"1615 Montana Ave, Santa Monica, CA 90403",Clothing store,Santa Monica,Modern flagship boutique for a designer of Asian- & European-inspired women’s shirts & tunics.,http://citronclothing.com/,,http://citronclothing.com/products/gift-card,http://citronclothing.com/pages/contact-us,Gift Cards,Contact us,1,CA,90403,clothing_store
Jill Roberts,"920 Montana Ave, Santa Monica, CA 90403",Women's clothing store,Santa Monica,,https://jillroberts.com/,,https://jillroberts.com/products/gift-card,https://jillroberts.com/pages/contact-us,Gift Cards,Contact Us,1,CA,90403,clothing_store
Vital Hemp,"2305 Main St, Santa Monica, CA 90405",Clothing store,Santa Monica,"Low-key shop focusing on a line of US-made, hemp-based clothing & accessories for men & women.",http://www.vitalhemp.com/,,http://www.vitalhemp.com/gift-card.html,http://www.vitalhemp.com/contacts, gift card , contact us ,1,CA,90405,clothing_store
Femelle,"1627 Montana Ave suite b, Santa Monica, CA 90403",Clothing store,Santa Monica,,http://shopfemelle.com/,,https://shopfemelle.com/giftcertificates.php,https://shopfemelle.com/contact-us/,"
Gift Card ","

    Contact Us
    
",1,CA,90403,clothing_store
Frankie's on the Park,"712 Montana Ave, Santa Monica, CA 90403",Children's clothing store,Santa Monica,,http://www.frankiesonthepark.com/,,http://www.frankiesonthepark.com/collections/gift-cards,http://www.frankiesonthepark.com/pages/contact-us-bottom,GIFT CARDS,Contact,1,CA,90403,clothing_store
Mohawk WEST,"2929 Main St, Santa Monica, CA 90405",Clothing store,Santa Monica,,http://www.mohawkgeneralstore.com/,,https://www.mohawkgeneralstore.com/products/gift-card,https://www.mohawkgeneralstore.com/pages/contact-us,Gift Cards,Contact Us,1,CA,90405,clothing_store
Evy's Tree,"3345 Industrial Dr #13, Santa Rosa, CA 95403",Women's clothing store,Santa Rosa,,http://evystree.com/,,http://evystree.com/collections/gift-cards,https://www.evystree.com/pages/contact,Gift Cards,Customer Service,1,CA,95403,clothing_store
Cupcake,"641 4th St, Santa Rosa, CA 95404",Clothing store,Santa Rosa,,http://www.shopcupcake.com/,,http://www.shopcupcake.com/collections/gift-cards-e-gift-cards,http://www.shopcupcake.com/pages/contact-us,"
            Gift Cards & E-Gift Cards
          ",CONTACT,1,CA,95404,clothing_store
Janice Langan  Independent Personal Stylist with J Hilburn Men's Clothiers,"1150 Coddingtown Center Suite 2, Santa Rosa, CA 95401",Men's clothing store,Santa Rosa,,http://www.janicelangan.jhilburn.com/,,http://www.janicelangan.jhilburn.com/cardbuilder,http://www.janicelangan.jhilburn.com/contactus,Gift Cards,Contact,1,CA,95401,clothing_store
Act II,"8321 La Mesa Blvd, La Mesa, CA 91942",Used clothing store,La Mesa,,http://myactii.com/,,http://myactii.com/gift-cards,,"
            Gift Cards
          ",,1,CA,91942,clothing_store
The Luxe Baby,"3004 Telegraph Rd, Ventura, CA 93003",Baby store,Ventura,,http://www.theluxebaby.com/,,https://squareup.com/gift/6YSZJYVJAEFFP/order,http://www.theluxebaby.com/contact,GIFT CARDS,CONTACT,1,CA,93003,clothing_store
Ventura Swimwear,"1559 Spinnaker Dr # 102, Ventura, CA 93001",Swimwear store,Ventura,,http://venturaswimwear.com/,,http://venturaswimwear.com/accessories/m5k9oeexhkzlf851bzw378opbp5p7e,http://venturaswimwear.com/contact,Ventura Swimwear Gift Certificate ,"
        
        Contact Us
      ",1,CA,93001,clothing_store
Heavyweight Collections,"3303 S El Camino Real, San Clemente, CA 92672",Men's clothing store,San Clemente,,https://www.heavytshirt.com/,,https://www.heavytshirt.com/giftcertificates.php,https://www.heavytshirt.com/contact-us/, Gift Certificates,Contact Us,1,CA,92672,clothing_store
Tiny Turnip,"420 N El Camino Real, San Clemente, CA 92672",Children's clothing store,San Clemente,,http://www.tinyturnip.com/,,http://www.tinyturnip.com/collections/the-gift-cards-collection,,"
                            Gift Cards
                          ",,1,CA,92672,clothing_store
COVE,"124 Avenida Del Mar, San Clemente, CA 92672",Women's clothing store,San Clemente,,http://www.covesanclemente.com/,,https://www.covesanclemente.com/gift-card/,https://www.covesanclemente.com/service/,GIFT CARD , Contact,1,CA,92672,clothing_store
Ambsn,"120 Calle Iglesia, San Clemente, CA 92672",Clothing store,San Clemente,,http://www.ambsn.com/,,http://www.ambsn.com/products/gift-card,http://www.ambsn.com/pages/contact-us,"
                      Gift Card
                    ",Contact Us,1,CA,92672,clothing_store
Swirl Boutique,"165 Avenida Del Mar # B, San Clemente, CA 92672",Women's clothing store,San Clemente,,http://swirlboutique.com/,,http://swirlboutique.com/collections/gift-cards,,GIFT CARDS,,1,CA,92672,clothing_store
GottaSoul,"2102 Via Pecana #3739, San Clemente, CA 92673",Women's clothing store,San Clemente,,https://gottasoul.com/,,https://gottasoul.com/products/gottasoul-gift-cards,,"
          🙏 Gift Cards",,1,CA,92673,clothing_store
Daisy Lane,"100 S El Camino Real, San Clemente, CA 92672",Clothing store,San Clemente,,https://shopdaisylane.com/,,https://shopdaisylane.com/products/gift-card,https://shopdaisylane.com/pages/contact-us,"
                  Gift Cards
                ",Contact Us,1,CA,92672,clothing_store
Catch Surf(r)  San Clemente Store,"128 Avenida Del Mar #1a, San Clemente, CA 92672",Clothing store,San Clemente,,http://www.catchsurf.com/,,http://www.catchsurf.com/products/gift-card,http://www.catchsurf.com/pages/contact-us,GIFT CARDS,Contact Us,1,CA,92672,clothing_store
Sun Diego Boardshops,"101 W Avenida Vista Hermosa #562, San Clemente, CA 92672",Clothing store,San Clemente,,http://www.sundiego.com/,,https://sundiego.com/collections/accessories-gift-cards/products/online-gift-card,http://www.sundiego.com/pages/contact-us,GIFT CARDS,Contact Us,1,CA,92672,clothing_store
Rascal's Ladies Boutique,"114 Avenida Del Mar #2, San Clemente, CA 92672",Boutique,San Clemente,,http://www.rascalsladies.com/,,http://www.rascalsladies.com/collections/give-the-gift-of-choice-with-an-e-gift-card,http://www.rascalsladies.com/pages/contact-us,"

",Contact Us,1,CA,92672,clothing_store
Feather 4 Arrow,"615 S El Camino Real, San Clemente, CA 92672",Clothing supplier,San Clemente,,https://www.feather4arrow.com/,,https://www.feather4arrow.com/products/rise-ai-giftcard,https://www.feather4arrow.com/pages/contact,Gift Cards,OUR STORY,1,CA,92672,clothing_store
Novella Royale,"1100 N El Camino Real, San Clemente, CA 92672",Fashion designer,San Clemente,,http://www.novellaroyale.com/,,http://www.novellaroyale.com/collections/gift-cards,http://www.novellaroyale.com/pages/contact,"
                    gift cards
                    
                  ","
                        contact
                      ",1,CA,92672,clothing_store
Isabelle's Cabinet,"141 Avenida Del Mar, San Clemente, CA 92672",Boutique,San Clemente,,http://www.isabellescabinet.com/,,https://isabellescabinet.com/clothes/gift-card.html/,http://www.isabellescabinet.com/contacts,Gift Card,Contact Us,1,CA,92672,clothing_store
The Fresh Yard  FY,"3774 30th St a, San Diego, CA 92104",Clothing store,San Diego,Swanky streetwear boutique carrying top-shelf apparel brands & accessories for men.,https://www.thefreshyard.com/,,https://www.thefreshyard.com/products/gift-card,https://www.thefreshyard.com/pages/contact,Gift Card,Contact,1,CA,92104,clothing_store
Graffiti Beach Boutique,"2220 Fern St, San Diego, CA 92104",Clothing store,San Diego,"Trendy, loft-like shop featuring clothing for men, women & kids, plus home decor items & gifts.",http://shopgraffitibeach.com/,,http://shopgraffitibeach.com/products/gift-card,http://shopgraffitibeach.com/pages/contact,"
          Gift Card
        ",CONTACT,1,CA,92104,clothing_store
Be Boutique,"1501 India St Ste. 120, San Diego, CA 92101",Boutique,San Diego,,https://be-boutique-sd.myshopify.com/,,https://be-boutique-sd.myshopify.com/products/gift-card,https://be-boutique-sd.myshopify.com/pages/contact,"
                    Gift Cards
                  ",Contact Us,1,CA,92101,clothing_store
Rufskin,"3944 30th St, San Diego, CA 92104",Men's clothing store,San Diego,High-end menswear store with clothes ranging from denim to sportswear & swimwear.,http://www.rufskin.com/,,http://www.rufskin.com/collections/gift-certificates,http://www.rufskin.com/pages/contacts,Gift Certificates,Contact Us,1,CA,92104,clothing_store
Stroll,"2360 India St, San Diego, CA 92101",Boutique,San Diego,Bright & airy boutique carrying bohemian-inspired women's apparel & accessories in a quaint setting.,http://shop.sdstroll.com/,,http://shop.sdstroll.com/collections/purchase-a-gift-card,http://shop.sdstroll.com/pages/contact-us,"












Stroll Gift Card
",CONTACT US,1,CA,92101,clothing_store
Cable Car Clothiers,"110 Sutter St, San Francisco, CA 94104",Men's clothing store,San Francisco,"Landmark upscale retailer features a range of classic menswear, plus an old-school barbershop.",http://cablecarclothiers.com/,,https://cablecarclothiers.com/product/gift-card/,https://cablecarclothiers.com/contact/,Gift Cards,Contact Us,1,CA,94104,clothing_store
Ceiba SF,"1364 Haight St, San Francisco, CA 94117",Clothing store,San Francisco,"Avant-garde boutique celebrating fashion, music, jewelry & art in a funky, gallerylike space.",http://www.ceibasf.com/,,http://www.ceibasf.com/gift-certificate,,Gift Certificate,,1,CA,94117,clothing_store
Curator,"1173 Valencia St, San Francisco, CA 94110",Women's clothing store,San Francisco,"Bright shop featuring its house line of stylish, often organic women's clothing & accessories.",http://www.curatorsf.com/,,https://curatorsf.com/gift-cards.html,,Gift Cards,,1,CA,94110,clothing_store
Modern Citizen,"2078 Union St, San Francisco, CA 94123",Women's clothing store,San Francisco,"Elegant showroom for a line of on-trend, minimalist women's styles & accessories.",http://www.moderncitizen.com/,,http://www.moderncitizen.com/collections/gift-cards?&view=all,,Gift Cards,,1,CA,94123,clothing_store
Club Monaco San Francisco  Women's,"865 Market St #110, San Francisco, CA 94103",Women's clothing store,San Francisco,"Source for a mix of modern & vintage-style fashions for men & women, plus accessories & handbags.",https://www.clubmonaco.com/,,https://www.clubmonaco.com/en/giftcertpurchase?virtualgc=true&webcat=footer,https://www.clubmonaco.com/en/contactus,Gift Card,Email Us,1,CA,94103,clothing_store
Alternative Apparel,"424 Hayes St, San Francisco, CA 94102",Clothing store,San Francisco,Stylish boutique carrying high-quality T-shirts & casualwear made from carefully sourced materials.,http://www.alternativeapparel.com/,,http://www.alternativeapparel.com/alternative-gift-card-zgiftcard,https://www.alternativeapparel.com/support/contact,Gift Cards,Contact,1,CA,94102,clothing_store
Industry of All Nations,"528 Hayes St, San Francisco, CA 94102",Clothing store,San Francisco,,http://www.industryofallnations.com/,,http://www.industryofallnations.com/collections/gift-card,http://www.industryofallnations.com/pages/contact-us,"
Gift Card
                      
",Contact Us,1,CA,94102,clothing_store
Topo Designs,"645 Divisadero St, San Francisco, CA 94117",Clothing store,San Francisco,,http://www.topodesigns.com/,,http://www.topodesigns.com/products/gift-card,http://www.topodesigns.com/pages/contact-us,Gift cards,Contact Us,1,CA,94117,clothing_store
Vacation,"704 Larkin St, San Francisco, CA 94109",Vintage clothing store,San Francisco,"Cool secondhand shop offers vintage apparel & accessories, plus occasional in-store shows.",http://vacation-sf.com/,,http://www.vacation-sf.com/shop-vacationsf,,BUY GIFT CARDS HERE,,1,CA,94109,clothing_store
Sui Generis Consignment  Women's,"2147 Union St, San Francisco, CA 94123",Clothing store,San Francisco,"Upscale consignment store stocking pre-owned designer garments, handbags & accessories for women.",https://suigenerisconsignment.com/,,https://suigenerisconsignment.com/products/1000-gift-card-save-20-off-use-anytime,https://suigenerisconsignment.com/pages/contact-us,"

","

                               Contact Us
                            
",1,CA,94123,clothing_store
Adapt,"2077 Edison Ave, San Leandro, CA 94577",Clothing store,San Leandro,,http://adaptclothing.com/,,http://adaptclothing.com/collections/gift-certificates,http://adaptclothing.com/pages/contact,GIFT CARDS,Contact,1,CA,94577,clothing_store
On the Runway Accessories,"600 E 14th St, San Leandro, CA 94577",Women's clothing store,San Leandro,,http://www.ontherunwayfashion.com/,,//www.facebook.com/sharer.php?u=https://ontherunwayfashion.com/products/gift-card-1,,"

Share
Share on Facebook
",,1,CA,94577,clothing_store
Rosies Workwear,"2899 McMillan Ave, San Luis Obispo, CA 93401",Women's clothing store,San Luis Obispo,,http://www.rosiesworkwear.com/,,http://www.rosiesworkwear.com/products/gift-certs/,http://www.rosiesworkwear.com/contact.php,Gift Certificates,Contact,1,CA,93401,clothing_store
Straight Down Corporate Office,"625 Clarion Ct, San Luis Obispo, CA 93401",Clothing store,San Luis Obispo,"Modern, designer establishment featuring upscale activewear, apparel & accessories for men & women.",http://www.straightdown.com/,,http://www.straightdown.com/giftcertificates.php,,"




 Gift Certificates",,1,CA,93401,clothing_store
Active Chick Inc,"265 Prado Rd, San Luis Obispo, CA 93401",Clothing store,San Luis Obispo,,https://activechick.com/,,https://activechick.com/gift-cards/,https://activechick.com/contact-2/,Gift Cards,Contact,1,CA,93401,clothing_store
Lulu Luxe,"864 Higuera St, San Luis Obispo, CA 93401",Boutique,San Luis Obispo,,https://www.facebook.com/,,https://www.facebook.com/lululuxeslo/photos/pb.140643209308328.-2207520000../2818416944864261/?type=3&eid=ARAQGpzeyxkCtKdq51RtkT8Ad4NrncJV7mX3bWYIr0vA8FbLJTH6aQK9YSZ0a1SL4dylOVGNihpbzDi7,,,,1,CA,93401,clothing_store
Eco Bambino Nursing Nook,"863 Monterey St, San Luis Obispo, CA 93401",Baby store,San Luis Obispo,,http://www.shopecobambino.com/,,https://www.shopecobambino.com/gift/gift-card/,,Gift Card,,1,CA,93401,clothing_store
Len Collective,"715 Higuera St, San Luis Obispo, CA 93401",Gift shop,San Luis Obispo,,http://lencollective.com/,,http://lencollective.com/collections/gift-certificates,http://lencollective.com/pages/contact,Gift Certificates,Contact / Policies,1,CA,93401,clothing_store
Atlas Skateboard Store,"209 2nd Ave, San Mateo, CA 94401",Clothing store,San Mateo,"Skateboard boutique stocking boards, clothing & footwear in bright, contemporary digs.",http://www.atlasskateboarding.com/,,https://shop.atlasskateboarding.com/products/gift-card,https://atlasskateboarding.com/contact/,Gift Cards,Contact,1,CA,94401,clothing_store
Perfect Details,"shoes on display at Nouvelle Vogue, 27 North San Mateo Drive, San Mateo, CA 94402",Bridal shop,San Mateo,"Boutique specializing in jewelry & accessories for brides, plus designer casual jewelry.",https://perfectdetails.com/,,https://perfectdetails.com/RGFT.htm,https://perfectdetails.com/CTUS.htm,Gift Certificates,CONTACT,1,CA,94402,clothing_store
Title Nine Distribution Center,"1414 Harbour Way S #1300, Richmond, CA 94804",Women's clothing store,Richmond,"Retailer selling sportswear & active apparel for women, plus swimsuits, shoes & athletic gear.",http://www.titlenine.com/,,http://www.titlenine.com/category/new-arrivals/title-nine-gift-cards.do,http://www.titlenine.com/category/customer-support/contact-us.do,Gift Cards,,1,CA,94804,clothing_store
Stella Carakasi Flagship Store,"1901 Fourth St #105, Berkeley, CA 94710",Women's clothing store,Berkeley,,https://www.stellacarakasi.com/,,https://www.stellacarakasi.com/products/gift-card,https://www.stellacarakasi.com/pages/customer-service-contact-us,Gift Cards,Contact Us,1,CA,94710,clothing_store
Pleasures of the Heart,"1310 4th St, San Rafael, CA 94901",Lingerie store,San Rafael,,https://pleasuresoftheheart.com/,,https://pleasuresoftheheart.com/collections/gift-card,https://pleasuresoftheheart.com/pages/contact-us,"
            Gift Card
          ",email us ,1,CA,94901,clothing_store
Proof Lab San Rafael PhoneWeb orders only,"907 4th St, San Rafael, CA 94901",Sporting goods store,San Rafael,"Hip skateboard shop with a DIY vibe stocking familiar apparel & shoe brands, plus decks & completes.",http://www.prooflab.com/,,http://www.prooflab.com/products/proof-lab-gift-card,http://www.prooflab.com/pages/contact,Gift Cards,Contact,1,CA,94901,clothing_store
Marin Outdoor Trading Co,"1407 4th St, San Rafael, CA 94901",Clothing store,San Rafael,,http://marinoutdoortradingco.com/,,https://www.marinoutdoortradingco.com/gift-card,https://www.marinoutdoortradingco.com/contact,Gift Card,Contact,1,CA,94901,clothing_store
neve & hawk,"641 San Anselmo Ave, San Anselmo, CA 94960",Clothing store,San Anselmo,,http://www.neveandhawk.com/,,http://www.neveandhawk.com/products/gift-card,http://www.neveandhawk.com/pages/contact-neve-hawk,Gift Card,Contact,1,CA,94960,clothing_store
Louis Thomas Fine Men's Apparel,"212 Corte Madera Town Center, Corte Madera, CA 94925",Men's clothing store,Corte Madera,Longstanding men's apparel shop featuring name-brand shirts & slacks plus tuxedo & suit rentals.,http://louisthomas.com/,,http://louisthomas.com/gift-certificates,http://louisthomas.com/contact,Gift Certificates,Contact,1,CA,94925,clothing_store
Sports Basement San Ramon,"1041 Market Pl, San Ramon, CA 94583",Shoe store,San Ramon,,http://www.sportsbasement.com/,,http://www.sportsbasement.com/products/gift-card-25,http://www.sportsbasement.com/pages/contact-us,SHOP GIFT CARDS,Contact Us,1,CA,94583,clothing_store
Boot Barn,"425 Cochran St, Simi Valley, CA 93065",Clothing store,Simi Valley,,http://www.bootbarn.com/,,https://www.bootbarn.com/gifts-home/gifts/gift-cards/,https://www.bootbarn.com/cs-contact-us.html,Gift Cards,Contact Us,1,CA,93065,clothing_store
Skate America,"41 Moreland Rd, Simi Valley, CA 93065",Shoe store,Simi Valley,,http://www.skateamerica.com/,,https://www.skateamerica.com/products/gift-card,https://www.skateamerica.com/pages/contact-us,Send Gift Cards,Contact Us,1,CA,93065,clothing_store
Infiniti Boutique,"28522 Old Town Front St, Temecula, CA 92590",Women's clothing store,Temecula,,https://infinitiboutiquesocal.com/,,https://infinitiboutiquesocal.com/collections/gift-cards,,"

E~Gift Cards
View all




",,1,CA,92590,clothing_store
Wild Cowgirl Boutique,"28677 Old Town Front St ste j, Temecula, CA 92590",Western apparel store,Temecula,,http://www.wildcowgirlboutique.com/,,https://www.wildcowgirlboutique.com/gift-card,,Gift Card,,1,CA,92590,clothing_store
Fleet Feet Sports,"982 S Westlake Blvd, Thousand Oaks, CA 91362",Sportswear store,Thousand Oaks,,http://www.fleetfeetencino.com/,,https://www.fleetfeet.com/shop/gift-cards,https://www.fleetfeet.com/contact,Gift Cards,Contact Us,1,CA,91362,clothing_store
Vibe Wines,"3625 Thousand Oaks Blvd Suite 271, Westlake Village, CA 91362",Gift shop,Westlake Village,,http://www.vibewines.com/,,http://www.vibewines.com/Sexy-Stuff/Vibe-Wines-Gift-Card,http://www.vibewines.com/Contact-Us,Gift Cards,Contact Us,1,CA,91362,clothing_store
Val Surf,"3055 Thousand Oaks Blvd, Thousand Oaks, CA 91362",Clothing store,Thousand Oaks,,https://valsurf.com/,,https://valsurf.com/in-store-gift-cards/,https://valsurf.com/contact-us/,in-store gift cards,Contact Us,1,CA,91362,clothing_store
Mijah,"21540 Hawthorne Blvd, Torrance, CA 90503",Women's clothing store,Torrance,,http://mijahfashion.com/,,https://shop-mijah.myshopify.com/admin/themes/33964851243/editor#/products/gift-cards,,Gift Card,,1,CA,90503,clothing_store
Pacific Rink,"2535 W 237th St UNIT 113, Torrance, CA 90505",Clothing store,Torrance,,https://www.pacificrink.com/,,https://www.pacificrink.com/products/gift-card-1,https://www.pacificrink.com/pages/contact-us,"
                            Gift Card
                          ","
                        Contact Us
                      ",1,CA,90505,clothing_store
Blair Associates,"2785 Pacific Coast Hwy, Torrance, CA 90505",Clothing store,Torrance,,https://www.blair.com/,,https://www.blair.com/p/blair-gift-card/54059.uts,https://www.blair.com/custserv/custserv.jsp?pageName=ContactUs,Buy Gift Cards,Email Us,1,CA,90505,clothing_store
Nectar Clothing Claremont,"319 W 1st St, Claremont, CA 91711",Women's clothing store,Claremont,,http://www.nectarclothing.com/,,http://www.nectarclothing.com/products/gift-card,http://www.nectarclothing.com/pages/contact-us,"
              Gift Card
              
            ","




Find A Store Nearest You

",1,CA,91711,clothing_store
Island Stylez,"311 Nut Tree Rd, Vacaville, CA 95687",Clothing store,Vacaville,,http://www.islandstylez.com/,,http://www.islandstylez.com/gift-certificates.aspx,http://www.islandstylez.com/contact-us.aspx,Gift Certificates,CONTACT US,1,CA,95687,clothing_store
Kool Kids,"311 Nut Tree Rd Suite E, Vacaville, CA 95687",Boutique,Vacaville,"Upbeat store with a range of toys, gifts & apparel for babies & kids, including a custom-made line.",http://www.koolkidsonline.com/,,http://www.koolkidsonline.com/giftcertificates.php,https://koolkidsonline.com/contact-us/,"
              Gift Certificates
            ",Contact Us,1,CA,95687,clothing_store
Kinsley James,"1623 Mt Diablo Blvd, Walnut Creek, CA 94596",Bridal shop,Walnut Creek,"Set in a bright, loft-like space, this shop carries upscale designer wedding gowns & accessories.",http://www.kinsleyjames.com/,,http://www.kinsleyjames.com/gift-cards,,Gift Cards,,1,CA,94596,clothing_store
FunkyPaircom,"14632 Beach Blvd, Westminster, CA 92683",Shoe store,Westminster,"Retailer of lingerie, shoes & adult costumes for women, plus related accessories.",https://www.funkypair.com/,,https://www.funkypair.com/giftcertificates.php,https://www.funkypair.com/contact-us/,Gift Certificates,"
Contact Us
",1,CA,92683,clothing_store
EmazingLights  iHeartRaves  INTO THE AM  Rave Store,"220 S Glendora Ave, West Covina, CA 91790",Fashion accessories store,West Covina,,https://www.iheartraves.com/,,https://www.iheartraves.com/products/gift-card,https://help.iheartraves.com/,Gift Cards,Contact Us,1,CA,91790,clothing_store
Sielian Vintage Apparel,"6109 Melrose Ave, Los Angeles, CA 90038",Vintage clothing store,Los Angeles,"Stylish destination for vintage fashions, designer clothing & chic jewelry for women.",http://www.regenerationvintage.com/,,http://www.regenerationvintage.com/pages/gift-certificates,http://www.regenerationvintage.com/pages/store-location,GIFT CERTIFICATES,"
            
              Contact Us
            
          ",1,CA,90038,clothing_store
Klein Epstein & Parker,"302 N Robertson Blvd, West Hollywood, CA 90048",Men's clothing store,West Hollywood,,http://www.kleinepsteinparker.com/,,http://www.kleinepsteinparker.com/giftcard,http://www.kleinepsteinparker.com/contact,"
            Gift Card
          ",Contact,1,CA,90048,clothing_store
Acne Studios West Hollywood,"8920 Melrose Ave, West Hollywood, CA 90069",Clothing store,West Hollywood,"Stockholm-based fashion house's high-end apparel, footwear & accessories for men & women.",https://www.acnestudios.com/,,https://www.acnestudios.com/us/en/gift-cards?category=woman-giftcert,https://www.acnestudios.com/us/en/contact/careers.html,"


Gift cards

",Careers,1,CA,90069,clothing_store
ZIMMERMANN,"8468 Melrose Pl, Los Angeles, CA 90069",Women's clothing store,Los Angeles,,http://www.zimmermannwear.com/,,https://www.zimmermannwear.com/us/gift-card.html,https://www.zimmermannwear.com/us/contactus/,"
Gift Card
","



",1,CA,90069,clothing_store
CARIOCA Sunga Co,"8155 Santa Monica Blvd #201, West Hollywood, CA 90046",Men's clothing store,West Hollywood,Men's clothing store specializing in Brazilian swimwear & shorts in different styles & lengths.,http://www.cariocawear.com/,,http://www.cariocawear.com/products/ca-rio-ca-sunga-co-gift-card,http://www.cariocawear.com/pages/contact-us,Gift Cards,Contact Us,1,CA,90046,clothing_store
Fred Segal,"8500 Sunset Blvd, Los Angeles, CA 90069",Clothing store,Los Angeles,,https://www.fredsegal.com/,,https://www.fredsegal.com/account,https://www.fredsegal.com/pages/contact-us,Gift Cards,Contact Us,1,CA,90069,clothing_store
Badgley Mischka,"8619 Sunset Blvd, West Hollywood, CA 90069",Fashion accessories store,West Hollywood,"Flagship store for the namesake designer's bridal wear & couture fashion, plus shoes & accessories.",http://badgleymischka.com/,,https://www.badgleymischka.com/accessories/gift-card/,http://badgleymischka.com/contact-us/,Gift Card,Contact,1,CA,90069,clothing_store
Decades,"8214 Melrose Ave, Los Angeles, CA 90046",Fashion accessories store,Los Angeles,Celebrated consignment shop curates a range of vintage couture & designer finds in a chic interior.,http://www.decadesinc.com/,,http://www.decadesinc.com/collections/decades-gift-card,http://www.decadesinc.com/pages/contact-us,"
                    Gift Card
                  ","
            Contact Us
            

+



-

",1,CA,90046,clothing_store
Calleen Cordero  West Hollywood Store,"8659 Sunset Blvd, West Hollywood, CA 90069",Clothing store,West Hollywood,,http://calleencordero.com/,,https://calleencordero.com/products/gift-card,http://calleencordero.com/pages/contact-support,SHOP GIFT CARDS,Contact & Support,1,CA,90069,clothing_store
Couture Kids On Robertson,"464 N Robertson Blvd, West Hollywood, CA 90048",Baby store,West Hollywood,"Upscale baby shop lures locals with its stylish apparel, eco-friendly toys, modern furniture & gear.",https://www.couturekidsonrobertson.com/,,https://couturekidsonrobertson.com/toys/gift-cards.html,https://couturekidsonrobertson.com/contacts/,Gifts,Stores & Hours,1,CA,90048,clothing_store
Isabella Corsetry  Lush Life Apparel,"2311 S St, Sacramento, CA 95816",Lingerie store,Sacramento,,http://www.corsetmaker.com/,,http://www.corsetmaker.com/shop/index.php?cPath=38&osCsid=g1i23m2tc0doinmtden0snshg3,http://www.corsetmaker.com/shop/contact_us.php?osCsid=g1i23m2tc0doinmtden0snshg3,Gift Certificates,Contact Us,1,CA,95816,clothing_store
Sock City,"123 K St, Sacramento, CA 95814",Boutique,Sacramento,,http://www.funsockcity.com/,,http://www.funsockcity.com/products/gift-card,http://www.funsockcity.com/pages/contact-us,Gift Cards,Contact Us,1,CA,95814,clothing_store
Local Fixture,"6728 Bright Ave, Whittier, CA 90601",Gift shop,Whittier,,http://www.localfixture.com/,,https://www.localfixture.com/products/gift-card?_pos=1&_sid=9cd09c2a6&_ss=r,,"

",,1,CA,90601,clothing_store
Grange Coop Yuba City,"1262 Stabler Ln, Yuba City, CA 95993",Clothing store,Yuba City,,https://www.grangecoop.com/,,https://shop.grangecoop.com/products/assorted-gift-card-designs-63319.html,,Grange Gift Cards,,1,CA,95993,clothing_store
