name,address,type,place,description,website_url,menu_url,gift_card_website,contact_website,gift_card_txt,contact_txt,searched,state,zipcode,store_type
PizZing's Pizza & Wings,"1035 Bedford St, Abington, MA 02351",Pizza,Abington,,http://www.pizzingspizza.com/,,https://pizzingspizza.com/gift-cards/,https://pizzingspizza.com/contact/,Gift Cards,Contact,1,MA,02351,restaurant
Greek House Of Pizza,"343 Centre Ave, Rockland, MA 02370",Pizza,Rockland,,https://www.greekpizzarockland.com/,http://www.greekpizzarockland.com/Menus,https://www.greekpizzarockland.com/Gift,https://www.greekpizzarockland.com/Contact,Gift Certificate ,Contact Us ,1,MA,02370,restaurant
Stockholders,"1073 Main St, South Weymouth, MA 02190",Steak,South Weymouth,"Steaks, chops & seafood are served in a refined, classic setting with dark wood, plus a lounge.",http://www.stockholderssteakhouse.com/,http://places.singleplatform.com/stockholders/menu?ref=google,http://www.stockholderssteakhouse.com/gift-cards,http://www.stockholderssteakhouse.com/contact-us,Gift Cards,Contact,1,MA,02190,restaurant
JJ's Caffe,"610 N Main St, Brockton, MA 02301",American,Brockton,Chef-owned joint serving modernized breakfast & lunch classics in an easygoing environment.,http://www.jjscaffe.com/,http://www.jjscaffe.com/#menu-section,https://www.jjscaffe.com/shop/giftcard,http://www.jjscaffe.com/contact,"
              Gift Cards
            ","
                Contact
              ",1,MA,02301,restaurant
Orange Door Kitchen,"251 Arlington St, Acton, MA 01720",Coworking space,Acton,,http://www.orangedoorkitchen.com/,,http://www.orangedoorkitchen.com/odkgiftcards,http://www.orangedoorkitchen.com/contact-us,buy a gift card to hang with us when we open back up!,CONTACT US,1,MA,01720,restaurant
Woods Hill Table,"24 Commonwealth Ave, Concord, MA 01742",Organic,Concord,This comfy New American spot with a patio sources ingredients from its own New Hampshire farm.,http://www.woodshilltable.com/,https://www.woodshilltable.com/menu,http://www.woodshilltable.com/giftcards,,"
Gift Cards
",,1,MA,01742,restaurant
Fathoms Bar & Grille,"255 Popes Island, New Bedford, MA 02740",Seafood,New Bedford,"Fresh seafood, cocktails & live music nights in a waterfront hangout with a boat dock for customers.",http://www.fathomsbarandgrille.com/,https://www.fathomsbarandgrille.com/menu/,https://www.fathomsbarandgrille.com/gift-cards/,https://www.fathomsbarandgrille.com/contact/,Gift Cards,Contact Us,1,MA,02740,restaurant
Ice House Bar & Grill,"136 Huttleston Ave, Fairhaven, MA 02719",Grill,Fairhaven,"Casual haunt featuring a rectangular bar, comfort food, big-screen TVs for sports & a seasonal deck.",http://www.icehousebargrill.com/,http://www.icehousebarangrill.com/our-menus,https://www.toasttab.com/ice-house-bar-grill/giftcards,https://icehousebargrill.com/contact/,Buy a Gift Card,Contact Us,1,MA,02719,restaurant
Spice Root,"23 Spring St, Williamstown, MA 01267",Indian,Williamstown,"Fresh-baked bread, tandoori dishes & more in open dining room, plus student specials & lunch buffet.",http://www.spiceroot.com/,https://www.spiceroot.com/menus.htm,http://www.spiceroot.com/../Mumbai%20Times%20NEW%202/ws_online_ordering.htm,http://www.spiceroot.com/contact.htm,"
												We Have Gift Certificates For 
												Sale","
",1,MA,01267,restaurant
Pera Bistro,"60 Spring St, Williamstown, MA 01267",Bistro,Williamstown,,http://www.perabistro.com/,http://www.perabistro.com/gluten-free-menu/,https://www.perabistro.com/pera-gift-cards/,https://www.perabistro.com/contact-us/,GIFT CARDS,CONTACT,1,MA,01267,restaurant
Kaptain Jimmy's,"916 Suffield St, Agawam, MA 01001",American,Agawam,Micro-distillery & family-friendly spot for American classics in a pirate-themed dining room.,http://kaptainjimmys.com/,http://www.kaptainjimmys.com/wp-content/uploads/2016/01/Take_Out_Menu_2015.pdf,http://www.kaptainjimmys.com/gift-cards/,http://www.kaptainjimmys.com/contact/,Gift Cards,Find us,1,MA,01001,restaurant
Partners  the Cup,"240 Westfield St, West Springfield, MA 01089",Breakfast,West Springfield,,http://www.partnersrestaurant.com/,,http://www.partnersrestaurant.com/GiftBaskets/BasketDetails.aspx?BasketID=1,http://www.partnersrestaurant.com/Catering,Gift Certificates,Menus + Contact,1,MA,01089,restaurant
Liquori's Pizza,"659 Westfield St, West Springfield, MA 01089",Pizza,West Springfield,"Established counter serve with funky decor turning out massive pies & calzones, plus sub sandwiches.",https://springfield.deliveryexpress.com/,http://places.singleplatform.com/liquoris-pizza/menu?ref=google,https://s867.securemenu.com/buyGiftCard.xsl?site=springfield.deliveryexpress.com,,Gift Cards,,1,MA,01089,restaurant
Mamma Mia's Pizza,"60 Park St, West Springfield, MA 01089",Pizza,West Springfield,"Family-run pizzeria serving pies, hearty pasta dishes & subs in a modest space with booths & tables.",http://www.mammamiaspizzama.com/,http://www.mammamiaspizzama.com/Menus,http://www.mammamiaspizzama.com/Gift,http://www.mammamiaspizzama.com/Contact,Gift Certificate ,Contact Us ,1,MA,01089,restaurant
Cantina 229,"229 Hartsville-New Marlborough Rd, New Marlborough, MA 01230",American,New Marlborough,"A charming, rustic destination for daily changing menus of inventive New American cuisine.",http://cantina229.com/,,https://squareup.com/gift/2KVHN1BJ8KRB4/order,,Order Gift Card,,1,MA,01230,restaurant
Ozzie's Steak & Eggs,"26 Maple St, Hinsdale, MA 01235",American,Hinsdale,,http://www.ozziessteakandeggs.com/,http://ozziessteakandeggs.com/dinner.html,http://www.ozziessteakandeggs.com/gc.html,http://www.ozziessteakandeggs.com/contact.html,Gift Cards,Contact Us,1,MA,01235,restaurant
Chez Nous Bistro,"150 Main St, Lee, MA 01238",Bistro,Lee,"Charming bistro pairs French country classics with a big wine list in a cozy, romantic setting.",http://cheznousbistro.com/,https://cheznousbistro.com/menus/dinner-menu,http://cheznousbistro.com/gift-certificates/,https://cheznousbistro.com/location-directions,Learn more...,Contact Us,1,MA,01238,restaurant
Famous Pizza Newburyport,"2 Storey Ave, Newburyport, MA 01950",Pizza,Newburyport,"Locals rely on this long-standing casual counter-serve for pizzas, gyros & burgers, plus delivery.",http://www.famouspizzeria.com/,https://wp1.foodtecsolutions.com/famouspizzeria/fts-content/uploads/sites/63/2018/02/1-FINAL-Famous-Pizza-Design-Menu.pdf,http://www.famouspizzeria.com/#wp_foodtec_page_widget-5,http://www.famouspizzeria.com/#wp_foodtec_map_widget-3,Gift Cards,Find Us,1,MA,01950,restaurant
Mission Oak Grill,"26 Green St, Newburyport, MA 01950",American,Newburyport,High-end steakhouse whose offerings include seafood specialties & an extensive wine selection.,http://www.missionoakgrill.com/,http://www.missionoakgrill.com/dinner-menu/,http://www.missionoakgrill.com/product/gift-card/,https://missionoakgrill.com/contact/,Gift Cards,Contact,1,MA,01950,restaurant
Michael's Harborside,"1 Tournament Wharf, Newburyport, MA 01950",Seafood,Newburyport,"Easygoing riverfront spot for steak, seafood & cocktails also features 3 outdoor decks & live music.",https://www.michaelsharborside.com/,,https://www.michaelsharborside.com/gift-cards/,https://www.michaelsharborside.com/contact-us/,Gift Cards,Contact Us,1,MA,01950,restaurant
Lexie's,"88 State St, Newburyport, MA 01950",Hamburger,Newburyport,"Snug counter serve providing specialty burgers with creative toppings in a colorful, modern space.",http://peaceloveburgers.com/,,http://peaceloveburgers.com/shop/gift-card,http://peaceloveburgers.com/#contact-us-section,gift cards,"
                        Contact Us
                      ",1,MA,01950,restaurant
Brick & Ash,"10 Center St, Newburyport, MA 01950",American,Newburyport,Elevated American comfort food in a brick & fireplace-filled setting with seasonal patio.,https://www.brickandash.com/,https://www.brickandash.com/?utm_source=google&utm_medium=organic&utm_campaign=gmb#menus,https://www.toasttab.com/brick-ash/giftcards,,BUY A GIFT CARD,,1,MA,01950,restaurant
Johnny's Roadside Diner,"458 Russell St, Hadley, MA 01035",Diner,Hadley,,http://www.johnnysroadside.com/,http://places.singleplatform.com/johnnys-roadside-diner-0/menu?ref=google,https://www.beanrg.com/shop/,http://www.johnnysroadside.com/contact-1,"
              Gift Cards
            ","
            Contact
          ",1,MA,01035,restaurant
Elm Square Oyster Co,"2 Elm Ct, Andover, MA 01810",New American,Andover,"Sleek oyster bar with a patio serving bivalves, seafood & American spirits & beers.",https://www.elmsquareoysterco.com/,https://www.elmsquareoysterco.com/menus,https://www.elmsquareoysterco.com/gift-cards,https://www.elmsquareoysterco.com/contact,,CONTACT,1,MA,01810,restaurant
Sauce Wings Ribs and Burgers,"19 Essex St, Andover, MA 01810",Hamburger,Andover,"A menu specializing in classic & creative burgers, ribs, & wings in a relaxed setting with a patio.",http://saucewings.com/,https://www.toasttab.com/sauce/v3,http://saucewings.com/gift-cards/,http://saucewings.com/location-and-contact-information/,Sauce Gift Cards,Location and Contact Information,1,MA,01810,restaurant
Menotomy Grill & Tavern,"25 Massachusetts Ave #8602, Arlington, MA 02474",Gastropub,Arlington,"Comfort food, draft beers & a full bar housed in a warm setting with a floor-to-ceiling hearth.",http://www.menotomygrill.com/,http://www.menotomygrill.com/food-menu/,https://swipeit.com/product/553/menotomy-grill--tavern,http://www.menotomygrill.com/contact/,Gift Cards,Contact,1,MA,02474,restaurant
Jimmy's Steer House,"1111 Massachusetts Ave, Arlington, MA 02476",Steak,Arlington,"Classic steakhouse serving up ample portions of meaty standards in a warm, busy setting.",http://www.jimmysarlington.com/,http://www.jimmysarlington.com/wp-content/uploads/2015/08/Jimmys-Dinner-4.25-V2.pdf,https://www.jimmysarlington.com/product/gift-card/,https://www.jimmysarlington.com/feedback/,Gift Cards,Contact Us,1,MA,02476,restaurant
Adventure Pub,"190 Massachusetts Ave, Arlington, MA 02474",Gastropub,Arlington,,http://theadventurepub.com/,http://theadventurepub.com/menu/,https://squareup.com/gift/Q807TYW91TY4M/order,https://theadventurepub.com/contact/,Gift Cards,Contact Us,1,MA,02474,restaurant
Common Ground Bar & Grill,"319 Broadway, Arlington, MA 02474",Gastropub,Arlington,"Casual American eatery offering comfort fare & craft beer, plus live music & trivia nights.",http://www.commongroundarlington.com/,http://commongroundarlington.com/menu/,https://www.toasttab.com/commonground/giftcards,http://commongroundarlington.com/make-a-reservation/question-or-comment/,GIFT CARDS,CONTACT US,1,MA,02474,restaurant
Bistro 5,"5 Playstead Rd, Medford, MA 02155",Italian,Medford,Intimate Italian bistro showcasing seasonal fare & international wines in an art-filled space.,http://www.bistro5.com/,,https://www.bistro5.com/gift-cards,,GIFT CARDS,,1,MA,02155,restaurant
Creative Connections,"56 Main St #1242, Ashburnham, MA 01430",Gift shop,Ashburnham,,http://www.ccgiftgallery.com/,,http://www.ccgiftgallery.com/giftcertificates.php,http://www.ccgiftgallery.com/contact-us/,Gift Certificates,Contact Us,1,MA,01430,restaurant
Bourbon's Kitchen & Cocktails,"47 Beacon St, Framingham, MA 01701",Restaurant,Framingham,"Casual, popular spot featuring craft cocktails & a clever pub menu that includes sharable plates.",http://www.bourbonsframingham.com/,,http://www.bourbonsframingham.com/store/,http://www.bourbonsframingham.com/contact/,Gift Cards,Contact,1,MA,01701,restaurant
Samba Steak & Sushi,"1138 Worcester Rd, Framingham, MA 01702",Asian,Framingham,"Hibachi-grilled steaks, chicken & seafood (plus sushi & Pan-Asian fare) served in a low-key setting.",https://www.sambaframingham.com/,https://www.sambaframingham.com/,https://www.sambaframingham.com/gift-card/,https://www.sambaframingham.com/contact-2/,Gift Card,Contact 2,1,MA,01702,restaurant
Red Stone Grill,"120 Chestnut St, North Attleborough, MA 02760",Grill,North Attleborough,"A lengthy pub menu & pizza are served in a casual setting of polished wood & windows, plus a bar.",http://red-stone-grill.com/,http://red-stone-grill.com/menus/RSG-FUNCTION-MENU.pdf,https://swipeit.com/product/509/red-stone-grill,http://red-stone-grill.com/contact/,,Contact,1,MA,02760,restaurant
Peppercorn's Grille & Tavern,"455 Park Ave, Worcester, MA 01610",Restaurant,Worcester,Family-friendly Italian eatery & bar featuring thin-crust pizzas & Wormtown beers brewed next door.,https://www.epeppercorns.com/,http://places.singleplatform.com/peppercorns-grill-and-bar-2/menu?ref=google,https://epeppercorns.instagift.com/,,Gift Cards,,1,MA,01610,restaurant
District 118 Kitchen & Bar,"118 Needham St, Newton, MA 02464",Grill,Newton,Modern rustic bar & kitchen preparing a menu of American classics with a twist from scratch.,http://districtkitchenandbar.com/,https://www.districtkitchenandbar.com/menus/,https://swipeit.com/product/1620/district-118,http://districtkitchenandbar.com/contact/,Gift Cards,Contact,1,MA,02464,restaurant
The Brook Kitchen & Tap,"200 S Franklin St, Holbrook, MA 02343",Grill,Holbrook,,http://www.brookkitchenandtap.com/,,https://swipeit.com/product/1023/the-brook-kitchen-and-tap,http://www.brookkitchenandtap.com/#section-five,Gift Cards,Contact Us,1,MA,02343,restaurant
Randolph Famous Pizza,"408 Center St, Randolph, MA 02368",Pizza,Randolph,,http://www.randolphfamouspizza.com/,http://www.randolphfamouspizza.com/Menus,http://www.randolphfamouspizza.com/Gift,http://www.randolphfamouspizza.com/Contact,Gift Certificate ,Contact Us ,1,MA,02368,restaurant
Gibbet Hill Grill,"61 Lowell Rd, Groton, MA 01450",Restaurant,Groton,Elegant spot in a converted barn grows the produce featured in its menu of refined New England eats.,http://www.gibbethillgrill.com/,http://www.gibbethillgrill.com/,http://www.gibbethillgrill.com/#giftcard,http://www.gibbethillgrill.com/#contact,Buy a Gift Card,Contact,1,MA,01450,restaurant
Bull Run Restaurant,"215 Great Rd, Shirley, MA 01464",American,Shirley,Cozy tavern & music venue in a 1740 building serves up hefty plates of farm-fresh American fare.,http://www.bullrunrestaurant.com/,http://www.bullrunrestaurant.com/menus,https://www.bullrunrestaurant.com/gift-cards,https://www.bullrunrestaurant.com/contact-us,GIFT CARDS,HERE,1,MA,01464,restaurant
Forge & Vine,"128R Main St, Groton, MA 01450",Restaurant,Groton,,http://www.forgeandvine.com/,,http://www.forgeandvine.com/#giftcard,,Gift Cards,,1,MA,01450,restaurant
Red Tail Golf Club,"15 Bulge Rd, Devens, MA 01434",Restaurant,Devens,,http://redtailgolf.net/,https://www.redtailgolf.net/dining/red-tail-tavern/lunch-and-dinner-menus,https://secure.east.prophetservices.com/RedTailWebstoreV3/,http://redtailgolf.net/contact/signup,Advance Sales/Gift Cards,Join Our Email Club,1,MA,01434,restaurant
Salt & Light Cafe Bistro,"159 Main St, Groton, MA 01450",Bistro,Groton,"Fair-trade coffee & teas, breakfast plates & gourmet sandwiches in cozy, contemporary surrounds.",http://saltandlight.cafe/,http://places.singleplatform.com/salt--light-cafe-bistro/menu?ref=google,https://www.toasttab.com/salt-light-cafe-bistro/giftcards,,"
        Buy A Gift Card
      ",,1,MA,01450,restaurant
Ken's Steak House,"95 Worcester Rd, Framingham, MA 01701",Steak,Framingham,"The birthplace of the famous Ken’s Dressing, this longtime restaurant features steaks & seafood.",http://www.kenssteakhouse.com/,https://www.kenssteakhouse.com/menus/fall-menu/,https://www.kenssteakhouse.com/gift-cards/,https://www.kenssteakhouse.com/contact/,GIFT CARDS,Join the Ken's team,1,MA,01701,restaurant
Alberto's Ristorante,"360 Main St, Hyannis, MA 02601",Italian,Hyannis,"Longtime, year-round Northern Italian go-to with numerous fireplaces & sidewalk seating.",http://www.albertos.net/,http://places.singleplatform.com/albertos-ristorante-3/menu?ref=google,https://www.comminternet.com/websites/albertos.net/store/gift_cards.php,http://www.albertos.net/customerservice/contact.php,Gift Cards,Contact,1,MA,02601,restaurant
Spanky's Clam Shack and Seaside Saloon,"138 Ocean St, Hyannis, MA 02601",Seafood,Hyannis,"Casual haunt with harbor views, known for New England seafood staples, especially clam chowder.",http://www.spankysclamshack.com/,http://places.singleplatform.com/spankys-clam-shack/menu?ref=google,https://www.comminternet.com/websites/capecodrestaurant.com/gift_certificates/purchase.php?customer=54,http://spankysclamshack.com/contact/,Gift Card,Contact,1,MA,02601,restaurant
Old King's Coffeehouse,"44 MA-28, West Yarmouth, MA 02673",Restaurant,West Yarmouth,,http://www.oldkingscoffeehouse.com/,,https://www.toasttab.com/old-kings-coffeehouse/v2/online-order#!/,http://www.oldkingscoffeehouse.com/contact.html,"
GIFT CARDS AVAILABLE HERE!
","
										CONTACT
									",1,MA,02673,restaurant
Colombo's Cafe & Pastries,"544 Main St, Hyannis, MA 02601",Italian,Hyannis,"Stylish space offering Italian fare, an on-site bakery & a gelato bar, plus outdoor dining.",https://www.colomboscafe.com/,https://www.colomboscafe.com/menus/dinner-menu/,https://www.comminternet.com/websites/capecodrestaurant.com/gift_certificates/purchase.php?customer=6,https://www.colomboscafe.com/contact/,Gift Cards,Book,1,MA,02601,restaurant
Barrington Brewery & Restaurant,"420 Stockbridge Rd, Great Barrington, MA 01230",Brewpub,Great Barrington,"Cheery, rustic hangout pairs its solar-brewed beer with carefully sourced American comfort grub.",http://www.barringtonbrewery.net/,http://www.barringtonbrewery.net/,http://www.barringtonbrewery.net/gift-certificates,http://www.barringtonbrewery.net/contact,Gift Certificates,Info,1,MA,01230,restaurant
Patrick's Pub,"26 Bank Row, Pittsfield, MA 01201",Restaurant,Pittsfield,"Irish-style bar offering hearty American pub eats & brews on tap in a cozy, wood-&-brick setting.",http://patrickspubpittsfield.com/,http://places.singleplatform.com/patricks-pub-17/menu?ref=google,http://patrickspubpittsfield.com/gift-cards/,http://patrickspubpittsfield.com/contact-us/,Gift Cards,Contact Us,1,MA,01201,restaurant
Rouge Restaurant,"3 Center St, West Stockbridge, MA 01266",Restaurant,West Stockbridge,"Popular bistro bringing together classic French dishes, a global tapas menu & a bustling bar scene.",http://www.rougerestaurant.com/,http://www.rougerestaurant.com/menu,https://www.rougerestaurant.com/giftcards,,GIFT CARDS,,1,MA,01266,restaurant
Minuteman Diner,"363 Great Rd, Bedford, MA 01730",Restaurant,Bedford,,http://www.minutemandiner.com/,http://www.minutemandiner.com/,https://www.toasttab.com/minuteman-diner/giftcards,http://www.minutemandiner.com/contactminutemandiner,"
        PURCHASE GIFT CARDS
      ","
            Contact
          ",1,MA,01730,restaurant
Kings Dining & Entertainment,"52 Second Ave, Burlington, MA 01803",American,Burlington,,https://www.kings-de.com/,http://places.singleplatform.com/kings-burlington/menu?ref=google,https://www.kings-de.com/promotions-all-venues/gift-cards,https://www.kings-de.com/contact-us/employment, Gift Cards,Careers,1,MA,01803,restaurant
Posto Bedford,"158 Great Rd, Bedford, MA 01730",Restaurant,Bedford,,http://www.postoboston.com/,https://www.postoboston.com/bedford-menus/,https://swipeit.com/product/608/alpine-restaurant-group,http://www.postoboston.com/find-us/,Gift Cards,Find Us,1,MA,01730,restaurant
Redstone American Grill,"20 3rd Ave, Burlington, MA 01803",Grill,Burlington,"Slick modern grill house with a diverse wine list, serving wood-fired steaks, seafood & sandwiches.",http://www.redstonegrill.com/,https://redstonegrill.alohaorderonline.com/,http://www.redstonegrill.com/gift-cards/select.html,http://www.redstonegrill.com/contact/,Gift Cards,Contact,1,MA,01803,restaurant
Town Pizza And Cafe,"15 Mechanic St, Bellingham, MA 02019",Pizza,Bellingham,,http://www.townpizzas.com/,https://www.townpizzas.com/Menus,http://www.townpizzas.com/Gift,http://www.townpizzas.com/Contact,Gift Certificate ,Contact Us ,1,MA,02019,restaurant
Depot Street Tavern,"45 Depot St, Milford, MA 01757",Grill,Milford,"Snug, homey venue for pub grub with a modern, global spin & a wide selection of craft beer.",http://www.depotsttavern.com/,,https://www.toasttab.com/depot-st-tavern-milford-ma/giftcards,https://depotsttavern.com/contact/,"
",CONTACT,1,MA,01757,restaurant
Maria's Pizza & Subs,"156 Hartford Ave, Hopedale, MA 01747",Pizza,Hopedale,,https://mariahopedale.com/,http://mypizza.com/restaurants/ma/hopedale/01747/maria-s-pizza-hopedale/menu,https://mariahopedale.com/Gift,https://mariahopedale.com/Contact,Gift Certificate ,Contact Us ,1,MA,01747,restaurant
Restaurant 45,"45 Milford St, Medway, MA 02053",American,Medway,"Casual go-to with a huge menu of American standards, plus a spacious, airy lounge & large patio.",http://www.45restaurant.com/,https://45restaurant.com/dinner-menu/,https://www.toasttab.com/restaurant-45/giftcards,https://45restaurant.com/contact/,,CONTACT US,1,MA,02053,restaurant
City Streets,"411 Waverley Oaks Rd, Waltham, MA 02452",American,Waltham,"Relaxed eatery serving up stuffed burgers, pot pie & other American favorites in a dark-wood space.",http://www.citystreetsrestaurant.com/,,http://www.citystreetsrestaurant.com/store,http://www.citystreetsrestaurant.com/contact-us,Gift Cards,Contact Us,1,MA,02452,restaurant
Green Peapod,"557 Mt Auburn St, Watertown, MA 02472",Restaurant,Watertown,"Basic storefront restaurant serving a big menu of Chinese & Thai dishes, including lunch specials.",http://www.greenpeapodma.com/,http://www.greenpeapodma.com/menu,https://www.greenpeapodma.com/order/main/gift-certificate,https://www.greenpeapodma.com/contact,"Gift Certificate													(2)
",Contact,1,MA,02472,restaurant
La Bodega,"21 Nichols Ave, Watertown, MA 02472",Restaurant,Watertown,Uruguayan & Spanish Basque cooking in a charming space with fine wines & craft cocktails.,https://www.facebook.com/,,https://www.facebook.com/LaBodegabySalts/photos/pb.636446926506427.-2207520000../1770581739759601/?type=3&eid=ARDST0aIsK8f4P4iaSiGI8qckEUawNRCYbqwt6kpwBoRdHta2ISdll6SLdYOsc3YWefyIRr0HyCfzEJR,https://www.facebook.com/LaBodegabySalts/photos/pb.636446926506427.-2207520000../1770581739759601/?type=3&eid=ARDST0aIsK8f4P4iaSiGI8qckEUawNRCYbqwt6kpwBoRdHta2ISdll6SLdYOsc3YWefyIRr0HyCfzEJR,,,1,MA,02472,restaurant
Porcini's,"68 School St, Watertown, MA 02472",Italian,Watertown,"Local fixture crafting Italian & Mediterranean plates, with a winter fireplace & warm-weather patio.",http://www.porcinis.com/,https://www.porcinis.com/menu,https://www.porcinis.com/gift-cards,https://www.porcinis.com/contact,Gift Cards,Contact,1,MA,02472,restaurant
Aladdin's Pizza,"4171 N Main St #3, Fall River, MA 02720",Pizza,Fall River,,http://aladdinpizzafallriver.com/,http://aladdinpizzafallriver.com/Menus,http://aladdinpizzafallriver.com/Gift,http://aladdinpizzafallriver.com/Contact,Gift Certificate ,Contact Us ,1,MA,02720,restaurant
Stoneforge Tavern & Publick House,"90 Paramount Dr, Raynham, MA 02767",American,Raynham,"Hearty American fare with New England flair served in the warm eatery, laid-back pub or the patio.",http://www.stoneforgerestaurants.com/,,https://katalystos.com/restaurant/stoneforge_tavern#gift-card,http://www.stoneforgerestaurants.com/contact-us,Gift Cards,Contact Us,1,MA,02767,restaurant
J's Restaurant At the Winery,"100 Wattaquadock Hill Rd, Bolton, MA 01740",American,Bolton,Locally sourced American fare pairs with fruit wines in a cozy farmhouse setting with orchard views.,http://www.nashobawinery.com/,https://nashobawinery.com/restaurant/menu/dinner/,https://nashobawinery.com/faq/gift-certificates/,https://nashobawinery.com/order/,Gift Cards,"No Contact Store for Pick UP – Wine, Spirits, Beer and More",1,MA,01740,restaurant
Clintons Bar & Grille,"27 High St, Clinton, MA 01510",Grill,Clinton,Familiar American eats with a twist are featured at this choice venue with a comfortable atmosphere.,http://www.clintonsbargrille.com/,http://places.singleplatform.com/clintons-bar-and-grille/menu?ref=google,https://clintonsbargrille.cardfoundry.com/giftcards.php,http://www.clintonsbargrille.com/contact.html,Gift Cards,Contact,1,MA,01510,restaurant
Evviva Trattoria,"142 Apex Dr, Marlborough, MA 01752",Italian,Marlborough,"Family-friendly restaurant offering Italian appetizers, entrees & pizza in a festive atmosphere.",https://evvivatrattoria.com/,https://www.evvivatrattoria.com/,https://110grill.cardfoundry.com/giftcards.php,https://evvivatrattoria.com/contact/, Purchase Gift Cards ,Contact,1,MA,01752,restaurant
CJ's Gourmet Pizzeria,"205 Washington St, Hudson, MA 01749",Pizza,Hudson,,https://cjspizzagrill.com/,https://slicelife.com/restaurants/ma/hudson/01749/cj-s-pizzeria-inc/menu,https://cjspizzagrill.com/gift-cards/,,Gift Cards,,1,MA,01749,restaurant
Magpie,"21 Bank Row, Greenfield, MA 01301",Pizza,Greenfield,Cozy kitchen with wood-fired pizzas & Italian standards with a twist such as cod cake puttanesca.,https://magpiepizza.com/,,https://www.toasttab.com/magpie/giftcards,,Gift Cards,,1,MA,01301,restaurant
Townline creamy,"39 Bernardston Rd, Bernardston, MA 01337",Ice Cream,Bernardston,,http://www.townlineicecream.com/,,http://www.townlineicecream.com/gallery/3/0/Gift-Certificates,http://www.townlineicecream.com/contact,Gift Certificates,Contact,1,MA,01337,restaurant
The Alvah Stone,"440 Greenfield Rd, Montague, MA 01351",American,Montague,,http://www.thealvahstone.com/,https://www.thealvahstone.com/,http://www.thealvahstone.com/gift-cards,http://www.thealvahstone.com/contact,"
            Gift Cards
          ","
            Hours & Contact
          ",1,MA,01351,restaurant
Bonefish Harry's,"218 Cabot St, Beverly, MA 01915",Seafood,Beverly,,https://www.bonefishharrys.com/,,https://www.bonefishharrys.com/gift-cards,https://www.bonefishharrys.com/contact,GIFT CARDS,CONTACT,1,MA,01915,restaurant
Hale Street,"717 Hale St, Beverly, MA 01915",Oyster Bar,Beverly,"Relaxed tavern offering classic pub fare plus sushi & an oyster bar, plus beer, wine & cocktails.",http://www.hale-street.com/,https://hale-street.com/take-out-only,https://serenitee.myguestaccount.com/login/web_card_sale/selectcards.srv,http://www.hale-street.com/contact,"Serenitee Gift Card
",Contact,1,MA,01915,restaurant
Wrapture,"284 Cabot St, Beverly, MA 01915",American,Beverly,"A petite takeout nook offering wraps, stir fries, burritos, tacos, soups & salads in global flavors.",http://www.wrapturebeverly.com/,http://www.wrapturebeverly.com/menu.html,http://www.wrapturebeverly.com/gift-cards-1,http://www.wrapturebeverly.com/contact-us,Gift Cards! ,"
            Contact Us
          ",1,MA,01915,restaurant
Nick's Roast Beef,"139 Dodge St, Beverly, MA 01915",Sandwich,Beverly,"Open since 1975, this counter-serve eatery specializes in hot roast beef sandwiches.",http://www.nicksfamousroastbeef.com/,http://www.nicksfamousroastbeef.com/menu/,http://nicksfamousroastbeef.com/gift-certificates-available/,http://nicksfamousroastbeef.com/contact-us/,"
November 1, 2012
Gift Certificates Available
								Gift Certificates are available in any interval and can only... more »",Contact Us,1,MA,01915,restaurant
Jon Ryan's Pub,"56 Chelmsford Rd, North Billerica, MA 01862",Restaurant,North Billerica,"Pub fare, craft beers on tap & cocktails at a family-run joint with bicycle decor & sports on TV.",http://www.jonryanspubs.com/,,https://jonryanspubs.com/gift-cards/,https://jonryanspubs.com/contact-us/,Gift Cards,Contact Us,1,MA,01862,restaurant
L'Andana,"86 Cambridge St, Burlington, MA 01803",Italian,Burlington,"Industrial-chic spot offering steaks & Tuscan-inspired Italian plates, with prix fixe menus & wine.",http://landanagrill.com/,http://landanagrill.com/menus,https://www.landanagrill.com/gift-cards,https://www.landanagrill.com/contact,Gift cards,Contact,1,MA,01803,restaurant
Bobby & Jack's Memphis Barbeque,"1777 Main St, Tewksbury, MA 01876",Restaurant,Tewksbury,,https://memphispit.com/,https://memphispit.com/#menu,https://memphispit.com/product/gift-cards/,https://memphispit.com/#contact,Gift Cards,Give Us a Holla’,1,MA,01876,restaurant
Fishbones,"34 Central Square, Chelmsford, MA 01824",Restaurant,Chelmsford,Rollicking seafood eatery & fish market featuring dishes such as lobster topped filet & a small bar.,http://fishbonesofchelmsford.com/,http://www.fishbonesofchelmsford.com/menu.pdf,https://fishbonesofchelmsford.com/wp/shop/,https://fishbonesofchelmsford.com/wp/contact-us/,Gift Cards,CONTACT US,1,MA,01824,restaurant
Galliford's Restaurant & Tavern,"5 Southwick St, Mendon, MA 01756",American,Mendon,,https://www.gallifords.com/,http://gallifords.com/lunch-dinner-menu/,https://www.toasttab.com/southwicks-zoo/giftcards,https://www.gallifords.com/contact-us,Gift Card,Contact Us ,1,MA,01756,restaurant
Ostra,"1 Charles St S, Boston, MA 02116",Seafood,Boston,"Sophisticated venue serving fish-focused Mediterranean fare, plus a bar with occasional piano music.",http://ostraboston.com/,http://ostraboston.com/menus,http://ostraboston.com/gift-cards,http://ostraboston.com/contact,Gift cards,Contact,1,MA,02116,restaurant
Saltie Girl,"281 Dartmouth St, Boston, MA 02116",Seafood,Boston,"Seafood is served every which way, including dishes made with tinned fish, at this charming raw bar.",http://www.saltiegirl.com/,https://www.saltiegirl.com/menu/,https://metrestaurantgroup.cardfoundry.com/,http://www.saltiegirl.com/contact/,Gift Cards,Contact,1,MA,02116,restaurant
Atlantic Fish Co,"761 Boylston St, Boston, MA 02116",Seafood,Boston,Longtime favorite for fine seafood dining in a wood-lined interior or on the sidewalk patio.,http://www.atlanticfish.com/,http://www.atlanticfish.com/menus/?utm_source=gmb&utm_medium=social&utm_campaign=Social_Profiles&utm_content=menu,https://www.atlanticfish.com/gift-cards/,https://www.atlanticfish.com/contact/,Gift Cards,Contact Us,1,MA,02116,restaurant
Bella Luna & The Milky Way,"284 Amory St, Jamaica Plain, MA 02130",Pizza,Jamaica Plain,"Established local spot known for made-to-order pizzas, craft beer & live entertainment.",https://www.milkywayjp.com/,https://www.milkywayjp.com/dinner/,https://swipeit.com/product/1239/bella-luna--the-milky-way,https://visitor.r20.constantcontact.com/manage/optin?v=001eGoVMtmIZbuYuSOk7H4r-qz-LJrwgUeYUwbcpg1GEwctgKKVg2AlSBFoRaDXGuhMw60_8PZi5RsN5nlU-c1bwIXHsQlo0u_MzJ1M-XmUSmwlxdy3lkJu4IZR0gko8meFSWJXuxhev9CT0C21KIOpEEPr7lToOQWUsSviv3eKSLY%3D,Gift Cards,"

",1,MA,02130,restaurant
Bucatino Restaurant and Wine Bar,"7 Nathan Ellis Hwy, North Falmouth, MA 02556",Restaurant,North Falmouth,,https://www.bucawinebar.com/,https://www.bucawinebar.com/menus,https://www.bucawinebar.com/gift-cards,https://www.bucawinebar.com/contact,Gift Cards,Contact ,1,MA,02556,restaurant
Daily Brew Coffee House,"1370 MA-28A, Cataumet, MA 02534",Restaurant,Cataumet,"Neighborhood coffee shop serving java, sandwiches & smoothies in quaint digs with a laid–back vibe.",http://www.thedailybrewcoffeehouse.com/,http://www.thedailybrewcoffeehouse.com/DailyBrewMenu_14.pdf,https://www.toasttab.com/the-daily-brew/giftcards,http://thedailybrewcoffeehouse.com/contact/,Gift Cards,Contact,1,MA,02534,restaurant
The Blueberry Muffin Restaurant,"2240 State Rd, Plymouth, MA 02360",Breakfast,Plymouth,,https://bluebmuffin.com/,http://places.singleplatform.com/the-blueberry-muffin-plymouth/menu?ref=google,https://www.toasttab.com/the-blueberry-muffin-plymouth/giftcards,https://bluebmuffin.com/contact,"
Purchase

",Contact,1,MA,02360,restaurant
Pilot House Restaurant and Lounge,"14 Gallo Rd, Sandwich, MA 02563",Seafood,Sandwich,"Warm, relaxed fixture with seafood & steak dishes, plus a raw bar, daily specials & outdoor seating.",http://www.pilothousecapecod.com/,https://www.pilothousecapecod.com/menus,http://www.pilothousecapecod.com/gift-cards,http://www.pilothousecapecod.com/contact,Gift Cards,Contact Us ,1,MA,02563,restaurant
Bailey's Surf N Turf,"3056 Cranberry Hwy, East Wareham, MA 02538",Seafood,East Wareham,"Surf ’n’ turf plates, chicken & burgers in a laid-back dining room with a pub & karaoke nights.",https://baileyswareham.com/,http://baileyswareham.com/,https://baileyswareham.com/gift-cards/,https://baileyswareham.com/contact/,Gift Cards,Contact,1,MA,02538,restaurant
Wildwood Steakhouse,"189 Boston Post Rd E, Marlborough, MA 01752",Steak,Marlborough,"Relaxed steakhouse featuring select meats & seafood mains, plus a full bar with a notable wine list.",http://www.wildwoodsteakhouse.com/,http://places.singleplatform.com/wildwood-steakhouse/menu?ref=google,https://wildwoodsteakhouse.com/gift-cards/,,Gift Cards,,1,MA,01752,restaurant
Shadi's Restaurant and Lounge,"585 Chickering Rd, North Andover, MA 01845",Mediterranean,North Andover,"Airy, stone-walled eatery offers traditional Middle Eastern fare & American options, plus cocktails.",http://www.shadisrestaurant.com/,http://www.shadisrestaurant.com/index.php?link=menu,https://www.egiftcardexpress.com/live/22/,http://www.shadisrestaurant.com/contact.html,Gift Cards,Contact,1,MA,01845,restaurant
Maggie's Farm,"119 S Main St, Middleton, MA 01949",American,Middleton,"Globally influenced American fare, plus cocktails & craft beers, in upbeat digs with live music.",http://maggiesfarmmiddleton.com/,https://maggiesfarmmiddleton.com/take-out-menu,http://sereniteerestaurants.com/about/the-card-store.php,http://maggiesfarmmiddleton.com/contact,"Serenitee Gift Card
                                    ",Contact,1,MA,01949,restaurant
LaRosa's,"7 Barnard St, Andover, MA 01810",Italian,Andover,"Charming cafe with handcrafted sandwiches, pasta dishes, sweets & Italian coffee in a cozy setting.",http://www.larosasofandover.com/,,https://www.toasttab.com/larosa-s/giftcards,http://www.larosasofandover.com/contact,GIFT CARDS,"
        
        CONTACT
      ",1,MA,01810,restaurant
Captain Linnell House,"137 Skaket Beach Rd, Orleans, MA 02653",Wedding venue,Orleans,High-end American cuisine served in a stately historic house with fireplaces & surrounding gardens.,http://www.linnell.com/,http://www.linnell.com/dining,https://www.comminternet.com/websites/capecodrestaurant.com/gift_certificates/purchase.php?customer=20,http://www.linnell.com/contact,Gift Cards,Contact,1,MA,02653,restaurant
Mahoney's Atlantic Bar & Grill,"28 Main St, Orleans, MA 02653",Restaurant,Orleans,"Chic go-to in a converted dry goods store serves New England fare, especially seafood, & cocktails.",http://mahoneysatlantic.com/,http://mahoneysatlantic.com/menus/,https://swipeit.com/product/1436/mahoneys-atlantic,http://mahoneysatlantic.com/contact,GIFT CARDS,,1,MA,02653,restaurant
Apt Cape Cod,"2149 Main St, Brewster, MA 02631",Restaurant,Brewster,Storied nook with outdoor seating & a surfing motif preparing American dishes for breakfast & lunch.,http://aptcapecod.com/,https://www.aptcapecod.com/menu,https://www.aptcapecod.com/egift-cards,https://www.aptcapecod.com/contact,eGift Cards,Reservations,1,MA,02631,restaurant
Guapo's Tortilla Shack,"136 MA-6A, Orleans, MA 02653",Mexican,Orleans,Tacos are the specialty of this casual Mexican stand making charitable donations to the community.,http://www.guaposcapecod.com/,http://www.guaposcapecod.com/menu_fall_2014/,https://www.guaposcapecod.com/gift-cards/,https://www.guaposcapecod.com/contact-us/,Gift Cards,Contact Us,1,MA,02653,restaurant
Edi's Pizzeria,"955 Pleasant St, Bridgewater, MA 02324",Restaurant,Bridgewater,,http://edispizzeria.com/,https://edispizzeria.com/Menus,http://edispizzeria.com/Gift,http://edispizzeria.com/Contact,Gift Certificate ,Contact Us ,1,MA,02324,restaurant
Harry's Bar & Grille,"407 W Grove St, Middleborough, MA 02346",Grill,Middleborough,"From Southwestern dishes to BBQ & pizza in tavernlike, family-friendly, aviation-themed environs.",http://www.harrysbarandgrille.com/,,https://swipeit.com/product/1117/harrys-bar--grille ,http://www.harrysbarandgrille.com/contact,"
GIFT CARDS
","
CONTACT
",1,MA,02346,restaurant
Cape Cod Cafe Pizza,"995 Broadway, Raynham, MA 02767",Pizza,Raynham,,http://www.capecodcafepizza.com/,http://places.singleplatform.com/cape-cod-cafe-3/menu?ref=google,https://capecodcafepizza.cardfoundry.com/,http://capecodcafepizza.com/contact-us/,Gift Cards,Contact Us,1,MA,02767,restaurant
Baba Sushi Sturbridge,"309 Park Ave, Worcester, MA 01609",Sushi,Worcester,Sophisticated sushi & sashimi creations served in a hip atmosphere with mod decor.,http://www.babasushi.com/,,https://babasushi.com/gift-cards/,http://www.babasushi.com/#,Gift Cards,Contact Us,1,MA,01609,restaurant
The Vanilla Bean Cafe,"450 Deerfield Rd, Pomfret Center, CT 06259",American,Pomfret Center,"Charming, chill haunt for locavore American staples, plus live music & open-mike nights, since 1989.",http://www.thevanillabeancafe.com/,http://www.thevanillabeancafe.com/breakfast/,http://www.thevanillabeancafe.com/store/,,Buy a Gift Card,,1,CT,06259,restaurant
Teresa's Restaurant,"315 Palmer Rd, Ware, MA 01082",Italian,Ware,,http://www.teresasrestaurantware.com/,http://teresasrestaurantware.com/wp-content/uploads/2016/10/TeresasLunchMenu.pdf,http://teresasrestaurantware.com/about/gift-certificates/,http://teresasrestaurantware.com/contact/,Gift Certificates,Contact,1,MA,01082,restaurant
Taberna De Haro,"999 Beacon St, Brookline, MA 02446",Spanish,Brookline,Corner taverna offering a massive Spanish wine menu plus tapas in a warm space with sidewalk seats.,http://www.tabernaboston.com/,http://places.singleplatform.com/taberna-de-haro/menu?ref=google,http://www.tabernaboston.com/giftcertificates,http://www.tabernaboston.com/contact,Gift Certificates,Contact Us,1,MA,02446,restaurant
Bar 'Cino,"1032 Beacon St, Brookline, MA 02446",Restaurant,Brookline,,https://barcino.com/,https://barcino.com/brookline/brookline-menu,https://www.newportrestaurantgroup.com/purchase-gift-cards,,Purchase Gift Cards,,1,MA,02446,restaurant
Parlour,"308 Harvard St, Brookline, MA 02446",Restaurant,Brookline,,http://www.parlourbrookline.com/,https://parlourbrookline.com/wp-content/uploads/2020/01/Dinner-Menu-Winter-2020-Final.pdf,https://www.toasttab.com/parlour/giftcards,,Click here if you would like buy an eGift Card!,,1,MA,02446,restaurant
Paris Creperie,"278 Harvard St, Brookline, MA 02446",French,Brookline,"Parisian-style bistro turning out sweet & savory crêpes, plus smoothies & caffeinated drinks.",https://pariscreperie.com/,http://places.singleplatform.com/paris-creperie/menu?ref=google,https://pariscreperie.com/shop/,https://pariscreperie.com/contact/,Gift Cards,Contact,1,MA,02446,restaurant
Cafe Escadrille,"26 Cambridge St, Burlington, MA 01803",Restaurant,Burlington,Refined setting for American & Continental cuisine with an elegant mahogany bar & an outdoor patio.,https://www.cafeescadrille.com/,http://cafeescadrille.com/menus/,https://www.cafeescadrille.com/gift-cards/cafe-escadrille-gift-card/gift-card-1,https://www.cafeescadrille.com/contact-us,"
        GIFT CARDS
      ","
            CONTACT US
          ",1,MA,01803,restaurant
Feng Shui,"2200 District Ave, Burlington, MA 01803",Sushi,Burlington,"Sushi house with signature rolls & hibachi-grilled Japanese & Chinese fare, plus a lunchtime buffet.",https://www.gofengshui.com/,https://gofengshui.com/locations/burlington/menu/,https://gofengshui.com/gift-cards/,,Gift Cards,,1,MA,01803,restaurant
Catalyst,"300 Technology Square, Cambridge, MA 02139",American,Cambridge,Locally focused fare with classic roots served in an airy dining room & on the patio.,http://www.catalystrestaurant.com/,http://www.catalystrestaurant.com/,http://www.catalystrestaurant.com/#catalystgiftcards-section,,"
                        Gift Cards
                      ",,1,MA,02139,restaurant
The Red House Restaurant,"98 Winthrop St, Cambridge, MA 02138",Seafood,Cambridge,"Refined, diverse farm-to-table menu offered in warm, wood-lined dining rooms or the seasonal patio.",http://www.theredhouse.com/,http://www.theredhouse.com/wine-list/,https://www.toasttab.com/the-red-house-restaurant/giftcards,http://www.theredhouse.com/email,Gift Cards,Contact Us,1,MA,02138,restaurant
Cafe Luna,"612 Main St, Cambridge, MA 02139",Gastropub,Cambridge,"Cozy & relaxed cafe offering a vast menu of sandwiches & salads, plus a busy brunch.",http://www.cafeluna-centralsq.com/,http://www.cafeluna-centralsq.com/catering/,https://www.toasttab.com/cafe-luna-main-street/giftcards,http://www.cafeluna-centralsq.com/mailto:contact@cafeluna-centralsq.com,"
                Buy E Gift Cards
              ",contact@cafeluna-centralsq.com,1,MA,02139,restaurant
Moona,"243 Hampshire St, Cambridge, MA 02139",Mediterranean,Cambridge,"Eastern Mediterranean & Arabic bites in an intimate, mosaic-tiled space selling house spices & jams.",http://www.moonarestaurant.com/,https://www.moonarestaurant.com/menu,http://www.moonarestaurant.com/gift-cards,https://visitor.r20.constantcontact.com/manage/optin?v=001_qDhS0QJDlssM2JamXef9CWN3-ZTQ2s2fuyzIsCWfJiqOn2BjTlSUXBQ-v2Grg1Fw_gJSFS8xspUbOkSgiuSwzXHQrkXCgsS8jhJJjbC0nQ%3D,Gift Cards,Sign UP Now,1,MA,02139,restaurant
One Bistro,"1125 Boston-Providence Turnpike, Norwood, MA 02062",American,Norwood,"Upscale casual dining featuring a mix of French, American & New England bites & extensive beer list.",http://www.onebistro.com/,,https://www.onebistro.com/gift-cards-rewards/,https://www.onebistro.com/about-us/contact-us/,Gift Cards & Rewards,Contact Us,1,MA,02062,restaurant
Flatbread Company,"213 Burlington Rd, Bedford, MA 01730",Pizza,Bedford,"Wood-fired pizzas with organic ingredients & free-range meats, made in traditional clay ovens.",http://www.flatbreadcompany.com/,,http://www.flatbreadcompany.com/giftcards,http://www.flatbreadcompany.com/contact,Gift Cards,Contact,1,MA,01730,restaurant
Haute Coffee,"12 Walden St, Concord, MA 01742",Cafe,Concord,"Urban nook offering seasonal, select sandwiches & soups, plus baked goods & premium, organic coffee.",http://myhautecoffee.com/,,https://squareup.com/gift/1W8W668W7KHY3/order,,Gift Cards,,1,MA,01742,restaurant
Wee Forest Folk Inc,"887 Bedford Rd, Carlisle, MA 01741",Handicrafts wholesaler,Carlisle,,http://www.weeforestfolk.com/,,http://www.weeforestfolk.com/products/gift-card,http://www.weeforestfolk.com/collections/new/products/ruby-red-cap,Gift Card,"





Ruby Red Cap






Contact a Retailer


New
",1,MA,01741,restaurant
Saltbox Farm,"CONC-1550-2, Concord, MA 01742",Wedding venue,Concord,,http://www.saltboxfarmconcord.com/,,https://www.toasttab.com/saltbox-kitchen-concord/giftcards,http://www.saltboxfarmconcord.com/contact,PURCHASE GIFT CARDS*,"
              CONTACT
            ",1,MA,01742,restaurant
The Beach House at Chatham Bars Inn,"CHAT-16E 11 F1, Chatham, MA 02633",Bar,Chatham,,https://www.chathambarsinn.com/,,https://wwws-usa2.givex.com/cws4.0/chathambarsinn/,https://www.chathambarsinn.com/#,"
									Gift Cards								",Contact Us,1,MA,02633,restaurant
Kream 'n Kone,"961 Main St, West Dennis, MA 02670",Seafood,West Dennis,"Counter-serve stalwart, with a riverfront deck, famed for fried clams, sandwiches & other fish fare.",https://www.kreamnkone.com/,http://www.kreamnkone.com/our-seafood-menu/,https://www.kreamnkone.com/product/gift-cards/,,Gift Cards,,1,MA,02670,restaurant
Red Nun Bar & Grill  Dennisport,"673 Main St, Dennis Port, MA 02639",Grill,Dennis Port,,https://rednun.wordpress.com/,http://places.singleplatform.com/red-nun-bar--grill-dennis-port/menu?ref=google,https://rednungiftcard.square.site/s/order,https://rednun.wordpress.com/contact/,Click here,Contact,1,MA,02639,restaurant
The Barley Neck Inn,"5 Beach Rd, Orleans, MA 02653",Restaurant,Orleans,"Posh fare in four laid-back yet elegant, romantic rooms & a pub in a historic sea captain's house.",https://barleyneck.com/,https://barleyneck.com/dinner-menu/,https://barleyneck.com/gift-cards/,https://barleyneck.com/contact/,Gift Cards,Visit Us,1,MA,02653,restaurant
Cobblestones of Lowell,"91 Dutton St, Lowell, MA 01852",Steak,Lowell,"Historic gentlemen's club converted into this comfy venue, featuring American classics & craft beer.",http://www.cobblestonesoflowell.com/,https://cobblestonesoflowell.com/wp-content/uploads/2019/10/Dinner-Menu.pdf,https://cobblestonesoflowell.com/gift-cards/,https://cobblestonesoflowell.com/contact/,Gift Cards,Contact,1,MA,01852,restaurant
Brewer's Fork,"7 Moulton St, Charlestown, MA 02129",Pizza,Charlestown,"Craft draft beers, cider, cocktails & wood-fired chow is served at this rustic, atmospheric hangout.",http://www.brewersfork.com/,,https://www.toasttab.com/brewers-fork/giftcards,,PURCHASE GIFT CARD,,1,MA,02129,restaurant
Mystic Station,"139 Pleasant St, Malden, MA 02148",American,Malden,"From-scratch, upscale pub grub is offered at this American restaurant & bar with unique cocktails.",http://www.mysticstationmalden.com/,http://www.mysticstationmalden.com/craft-beer/,http://www.toasttab.com/mystic-station/giftcards,,"
              Gift Cards
            ",,1,MA,02148,restaurant
Harrington's Pub,"17 Water St, Wakefield, MA 01880",Restaurant,Wakefield,"Classic tavern with weekend live music, a full bar & a mix of homestyle Irish eats & pub grub.",https://www.harringtonspub.com/,https://www.harringtonspub.com/menus/,https://www.harringtonspub.com/store/gift-cards/,https://www.harringtonspub.com/contact/,Gift Cards,Contact,1,MA,01880,restaurant
Casa del Barco  Chesterfield Towne Center,"11500 Midlothian Turnpike #2021, Richmond, VA 23235",Mexican,Richmond,,https://www.casadelbarcova.com/,https://www.casadelbarcova.com/locations/canal-walk/,https://www.casadelbarcova.com/giftcard/,https://www.casadelbarcova.com/contact/,Purchase,Contact,1,VA,23235,restaurant
Brothers Pizza,"653 Grattan St, Chicopee, MA 01020",Pizza,Chicopee,"Unpretentious counter-serve stop for whole pies & slices, Italian dinners, salads & sandwiches.",http://brotherspizzachicopee.com/,http://brotherspizzachicopee.com/Menus,http://brotherspizzachicopee.com/Gift,http://brotherspizzachicopee.com/Contact,Gift Certificate ,Contact Us ,1,MA,01020,restaurant
A1 Pizza,"345b Chicopee St, Chicopee, MA 01013",Pizza,Chicopee,,https://a1pizzeriachicopee.com/,https://a1pizzeriachicopee.com/Menus,https://a1pizzeriachicopee.com/Gift,https://a1pizzeriachicopee.com/Contact,Gift Certificate ,Contact Us ,1,MA,01013,restaurant
Town Bar and Grill MV,"227 Upper Main St, Edgartown, MA 02539",Grill,Edgartown,,https://www.townbarmv.com/,,https://www.toasttab.com/town-bar-and-grill-mv/giftcards,https://www.townbarmv.com/contact/,Click Here,Contact,1,MA,02539,restaurant
Mikado Asian Bistro,"76 Main St, Vineyard Haven, MA 02568",Asian Fusion,Vineyard Haven,,http://www.mikadomv.com/,,http://www.mikadomv.com/gift-cards?olsPage=search&keywords=,http://www.mikadomv.com/tel:5083387096,,(508)338-7096,1,MA,02568,restaurant
Dilly's Taqueria,"12 Circuit Ave, Oak Bluffs, MA 02557",Mexican,Oak Bluffs,,http://www.dillystaqueria.com/,,http://www.dillystaqueria.com/store/gift-cards/,http://www.dillystaqueria.com/contact/,Gift Cards,Contact,1,MA,02557,restaurant
Barker Tavern,"21 Barker Rd, Scituate, MA 02066",Restaurant,Scituate,,http://www.barkertavern.com/,https://www.barkertavern.com/menu.html,https://www.barkertavern.com/pages/gift-cards,http://www.barkertavern.com/contact-us,Gift Cards,Contact Us,1,MA,02066,restaurant
Riva Restaurant,"116 Front St, Scituate, MA 02066",Italian,Scituate,"Seasonal, area-sourced Italian dishes in a cozy dining room or on an umbrella-shaded outdoor patio.",http://www.rivarestaurant.com/,http://places.singleplatform.com/riva-restaurant/menu?ref=google,http://www.rivarestaurant.com/gift-cards-1,http://www.rivarestaurant.com/contact,"
            Gift Cards
          ","
            Contact
          ",1,MA,02066,restaurant
The Greenside Grille Restaurant,"274 South St, Hingham, MA 02043",Italian,Hingham,Upscale Italian-influenced cuisine & a pub menu in a a scenic spot with a patio & golf-course views.,http://www.greensidegrille.com/,http://www.greensidegrille.com/menu/,https://www.greensidegrille.com/giftcards/,https://www.greensidegrille.com/contact/,Giftcards,Contact,1,MA,02043,restaurant
The Tinker's Son,"707 Main St, Norwell, MA 02061",Restaurant,Norwell,"Snug, homey Irish tavern with bar bites & weekend brunch, plus live entertainment & outdoor seating.",http://www.tinkersson.com/,http://www.tinkersson.com/,http://www.tinkersson.com/special-events/,http://www.tinkersson.com/contact/,Gift Cards,Contact,1,MA,02061,restaurant
Hope & Olive,"44 Hope St, Greenfield, MA 01301",American,Greenfield,"Imaginative, globally inspired seasonal fare & creative cocktails in warm, relaxed surrounds.",http://www.hopeandolive.com/,http://www.hopeandolive.com/dinner,https://www.toasttab.com/hope-olive/giftcards,https://hopeandolive.com/find-us,GIFTS,FIND US,1,MA,01301,restaurant
Blue Heron Restaurant,"112 N Main St, Sunderland, MA 01375",American,Sunderland,"Eclectic, locavore New American food served in the warm surrounds of the restored Old Town Hall.",http://www.blueherondining.com/,http://blueherondining.com/menus/,https://www.blueherondining.com/giftcards/,https://www.blueherondining.com/contact/,Gift cards,Contact,1,MA,01375,restaurant
3 Restaurant,"461 W Central St, Franklin, MA 02038",Diner,Franklin,"Upmarket American bistro featuring creative fare, a cocktail lounge & warm, contemporary decor.",https://3-restaurant.com/,http://3-restaurant.com/,https://3-restaurant.com/gift-cards/,https://3-restaurant.com/directions-and-contact/,Gift Cards,Directions & Contact,1,MA,02038,restaurant
Grazie,"26 Marshall St, North Adams, MA 01247",Italian,North Adams,"Relaxed, wood-clad outpost serving traditional Italian fare alongside a full bar with cocktails.",http://www.graziena.com/,http://www.graziena.com/our-menu/,http://www.graziena.com/store/gift-cards,http://www.graziena.com/contact/,Gift Cards ,Contact,1,MA,01247,restaurant
Judie's Restaurant,"51 N Pleasant St, Amherst, MA 01002",American,Amherst,Casual spot with bright decor & an extensive American menu featuring signature popovers.,http://www.judiesrestaurant.com/,,https://judiesrestaurant.com/gift-cards/,https://judiesrestaurant.com/contact/,GIFT CARDS,CONTACT,1,MA,01002,restaurant
The Lantern Bar and Grill,"455 North St, Pittsfield, MA 01201",Restaurant,Pittsfield,,http://thelanternbarandgrill.com/,http://thelanternbarandgrill.com/,https://squareup.com/gift/MWRZTZSVGA63Y/order,https://thelanternbarandgrill.com/location-hours-contact/,Gift Cards,Location & Hours,1,MA,01201,restaurant
Pizza Works,"804 Tyler St, Pittsfield, MA 01201",Pizza,Pittsfield,,http://pizzaworkspittsfield.net/,http://pizzaworkspittsfield.net/Menus,http://pizzaworkspittsfield.net/Gift,http://pizzaworkspittsfield.net/Contact,Gift Certificate ,Contact Us ,1,MA,01201,restaurant
Sylvan Street Grille,"12 Sylvan St, Peabody, MA 01960",Grill,Peabody,All-American neighborhood joint with seasonal beers & comfort fare served in tavern digs with TVs.,http://www.sylvanstreetgrille.com/,http://places.singleplatform.com/sylvan-street-grille-0/menu?ref=google,https://www.sylvanstreetgrille.com/gift-cards/,https://www.sylvanstreetgrille.com/contact/,Gift Cards,Contact,1,MA,01960,restaurant
Blue Fin Japanese Restaurant,"260 S Main St, Middleton, MA 01949",Japanese,Middleton,"Relaxed, open strip-mall eatery offering sushi & a wide range of more exotic Japanese specialties.",http://www.bluefinmiddletonma.com/,http://www.bluefinmiddletonma.com/menu/,http://squareup.com/gift/7NT7DG5Q2774B/order,https://www.bluefinmiddletonma.com/contact/,Gift Cards,Contact,1,MA,01949,restaurant
Horse Thieves Tavern,"585 High St, Dedham, MA 02026",Restaurant,Dedham,,http://www.horsethievestavern.com/,https://www.horsethievestavern.com/menu,https://www.toasttab.com/horse-thieves-tavern/giftcards,http://www.horsethievestavern.com/contact,"
        Gift Cards
      ","
        Contact
      ",1,MA,02026,restaurant
Riverside Pizza,"7 Needham St, Dedham, MA 02026",Pizza,Dedham,"Local resource for an array of pies from margherita to Greek & Texas BBQ, plus subs & pasta.",http://www.riversidepizzeria.com/,,https://riversidepizza.foodtecsolutions.com/giftcard,https://riversidepizza.foodtecsolutions.com/contact,Check Giftcard,Contact Us,1,MA,02026,restaurant
Three Fins Coffee Roasters,"581 Main St #2239, West Dennis, MA 02670",Cafe,West Dennis,,http://www.threefinscoffee.com/,https://www.threefinscoffee.com/menu/,http://www.threefinscoffee.com/gift-cards,http://www.threefinscoffee.com/contact,"
            Gift Cards
          ",Contact,1,MA,02670,restaurant
Hangar B Eatery,"240 George Ryder Rd, Chatham, MA 02633",American,Chatham,Popular Chatham Airport cafe dishing up thoughtfully sourced gourmet breakfast & lunch fare.,http://www.hangarbchatham.com/,,http://www.hangarbchatham.com/products/gift-card-1,,"

  

  @media screen and (min-width: 591px) { 
    .ProductImage-14346532192292 {
      max-width: 270.0px;
      max-height: 270px;
    }
    #ProductImageWrapper-14346532192292 {
      max-width: 270.0px;
    }
   } 

  
    
    @media screen and (max-width: 590px) {
      .ProductImage-14346532192292 {
        max-width: 295.0px;
      }
      #ProductImageWrapper-14346532192292 {
        max-width: 295.0px;
      }
    }
  









",,1,MA,02633,restaurant
Sakana Hibachi Sushi and Bar,"275 New State Hwy, Raynham, MA 02767",Sushi,Raynham,"Flaming grills, a sushi bar, lunch specials, sake & cocktails are highlights of this modern spot.",http://www.sakanahibachi.com/,,https://www.instagram.com/p/Brs0lFQjq8f/,http://sakanahibachi.com/contact/,"
Instagram post 1940156786175553311_7695319991

",Contact Us,1,MA,02767,restaurant
Kretchman's Craft Bar & Beer Garden,"9 Frederick St Unit 1, Webster, MA 01570",Bar,Webster,,https://www.kretchmans.com/,,https://squareup.com/gift/A6YA2PCVPR32W/order,,GIFT CARDS,,1,MA,01570,restaurant
Nosh & Grog,"21 North St, Medfield, MA 02052",New American,Medfield,Cool spot for New American menu in a hip dining room or craft beers around a big U-shaped bar.,http://noshandgrog.com/,https://eat.9fold.me/index.html#/11022,http://noshandgrog.com/gift-cards/,http://noshandgrog.com/directions-contact/,Gift Cards,Directions / Contact,1,MA,02052,restaurant
French Press Bakery & Cafe,"74 Chapel St, Needham, MA 02492",Cafe,Needham,Coffees & fresh baking from a stylish contemporary space with neutral shades & metro tiles.,http://www.frenchpressbakery.com/,https://shopfrenchpressbakery.com/,https://www.frenchpressbakery.com/store/,https://www.frenchpressbakery.com/contact-2/,Order Gift Cards,Contact,1,MA,02492,restaurant
Dudley's Restaurant & Bar,"19 Merrimack St, Lowell, MA 01852",Grill,Lowell,"Classic American eats, draft microbrews & live music are the draw at this casual bar with a patio.",http://www.dudleysoflowell.com/,,https://dudleysoflowell.com/category/gift-cards/,https://dudleysoflowell.com/contact-us/,Gift Cards,Contact Us,1,MA,01852,restaurant
Broadway Pizza,"651 Broadway St, Lowell, MA 01854",Restaurant,Lowell,,http://www.broadwaypizzeria.com/,,http://www.broadwaypizzeria.com/gift-cards.html,http://www.broadwaypizzeria.com/contact-us.php,Gift Cards,Contact Us,1,MA,01854,restaurant
Coffee and Cotton,"250 Jackson St 4th floor, Lowell, MA 01852",Restaurant,Lowell,"Cool, contemporary coffeehouse with rustic-chic decor turning out elevated drinks & light fare.",https://millno5.com/,https://millno5.com/cocomenu/,https://scontent-iad3-1.xx.fbcdn.net/v/t51.2885-15/90091298_2906687899352547_8938526281292065363_n.jpg?_nc_cat=107&_nc_sid=8ae9d6&_nc_ohc=zBILOhi7gUoAX9djzec&_nc_ht=scontent-iad3-1.xx&oh=e50383ebb9ac0c82a7678ff92949fcd4&oe=5ECC789A,https://millno5.com/contact/,"
Open
",Contact Us,1,MA,01852,restaurant
Lui Lui,"259 Daniel Webster Hwy, Nashua, NH 03060",Italian,Nashua,"Easygoing, family-friendly Italian restaurant & bar featuring wood-fired pizza, pasta & kids' menu.",https://www.luilui.com/,,https://www.luilui.com/pages/gift-cards#!/Gift-Card/p/136697178/category=0,https://www.luilui.com/contact,SEND BY MAIL ,Contact ,1,NH,03060,restaurant
PIZZICO NASHUA Italian Restaurant Bar,"7 Harold Dr, Nashua, NH 03060",Pizza,Nashua,"Easygoing choice for classic Italian fare, including pizza & panini, plus martinis & other drinks.",http://www.pizzicotogo.com/,http://www.pizzicotogo.com/,https://orders.imenu360.us/PIZZICO/GiftCards/,http://www.pizzicotogo.com/#contact,Purchase Gift Cards,Click Here,1,NH,03060,restaurant
The Blueberry Muffin Restaurant Kingston MA,"164 Summer St, Kingston, MA 02364",Breakfast,Kingston,,http://www.bluebmuffin.com/,http://places.singleplatform.com/the-blueberry-muffin-kingston/menu?ref=google,https://www.toasttab.com/the-blueberry-muffin-plymouth/giftcards,http://www.bluebmuffin.com/contact,"
Purchase

",Contact,1,MA,02364,restaurant
Abbondanza Pizzeria,"808 Washington St, Pembroke, MA 02359",Pizza,Pembroke,,http://abbondanzapizza.com/,http://places.singleplatform.com/abbondanza-pizzeria-3/menu?ref=google,http://abbondanzapizza.com/giftCards.jsp,https://abbondanzapizzeria.foodtecsolutions.com/contact,Gift Cards,Contact,1,MA,02359,restaurant
Mia Regazza of Marshfield,"1 Proprietors Dr, Marshfield, MA 02050",Italian,Marshfield,"Steak, pasta & pizza offered in a polished, sit-down venue with spacious, patio seating.",http://www.miaregazzamarshfield.com/,,http://miaregazzamarshfield.com/gift-certificates/,http://miaregazzamarshfield.com/contact/,GIFT CERTIFICATES,CONTACT US,1,MA,02050,restaurant
Mamma Mia's of Kingston,"134 Main St, Kingston, MA 02364",Pizza,Kingston,,http://www.mammamias.net/,https://mammamias.net/kingston-menu/,http://www.mammamias.net/product/gift-card/,,MAMMA MIA’S GIFT CARD,,1,MA,02364,restaurant
Rio Brazilian Steakhouse,"318 Court St, Plymouth, MA 02360",Grill,Plymouth,"Humble Brazilian steakhouse pairing its cuts with a salad bar, drinks & more in a colorful setting.",https://www.riosteakhouserestaurant.com/,https://riosteakhouserestaurant.com/menu/,https://riosteakhouserestaurant.giftcardsuite.com/giftcard/128,https://riosteakhouserestaurant.com/contact/,GIFT CARDS,CONTACT,1,MA,02360,restaurant
Dillon's Local,"21 S Park Ave, Plymouth, MA 02360",American,Plymouth,"Internationally inspired comfort classics with brunch, specialty cocktails & catering options.",http://dillonslocalplymouth.com/,https://www.dillonslocalplymouth.com/menu,https://www.toasttab.com/dillon-s-local-21-s-park-ave/giftcards,,ORDER E GIFT CARD,,1,MA,02360,restaurant
Frigo Foods,"159 Shaker Rd, East Longmeadow, MA 01028",Caterer,East Longmeadow,,http://www.frigofoods.com/,http://places.singleplatform.com/frigo-foods/menu?ref=google,https://www.frigofoods.com/gift-shop/gift-card/,,Gift Card,,1,MA,01028,restaurant
Gio's Pizzeria Inc,"9 Allen St, Hampden, MA 01036",Restaurant,Hampden,,https://www.giospizzeria.com/,,https://giospizzahampden.foodtecsolutions.com/giftcards/,https://www.giospizzeria.com/contact,Gift Cards,Contact,1,MA,01036,restaurant
The Greenhouse At La Cucina De Hampden House,"1 Allen St, Hampden, MA 01036",Italian,Hampden,,http://www.lacucinahampden.com/,,http://www.lacucinahampden.com/gift-card,http://www.lacucinahampden.com/contact,Buy Now,Contact Us ,1,MA,01036,restaurant
Slainte,"80 Jarvis Ave, Holyoke, MA 01040",American,Holyoke,,https://slainteholyoke.com/,http://slainteholyoke.com/main-menu/,https://www.slainteholyoke.com/shop/slainte-gift-card/,,Gift Cards,,1,MA,01040,restaurant
Belly of the Beast,"159 Main St, Northampton, MA 01060",Restaurant,Northampton,"Seasonal American fare including breakfast all day with craft beer, wine & low-alcohol cocktails.",http://www.bellyofthebeastma.com/,,http://www.bellyofthebeastma.com/ https://www.toasttab.com/belly-of-the-beast-northampton/giftcards ,http://www.bellyofthebeastma.com/contact-us,"
        Buy eGift Cards
      ","
            Contact Us
          ",1,MA,01060,restaurant
Roberto's Restaurant,"223 Pleasant St, Northampton, MA 01060",Italian,Northampton,Long-standing family-friendly pick serving thin-crust pizza plus pasta & other hearty Italian fare.,http://robertosnorthampton.com/,,http://robertosnorthampton.com/gift-card,http://robertosnorthampton.com/contact-us,,contact us,1,MA,01060,restaurant
Nourish Wellness Cafe and Juice Bar,"10 Bridge St, Northampton, MA 01060",Vegetarian,Northampton,"Organic ingredients go into the health-focused, vegan fare & fresh-pressed juices at this hip cafe.",http://www.nourishnoho.com/,http://nourishnoho.com/menu/,https://squareup.com/gift/FGDJM2ADN7HVD/order,,BUY GIFT CARDS,,1,MA,01060,restaurant
Eastside Grill,"19 Strong Ave, Northampton, MA 01060",American,Northampton,"Steaks, seafood & American eats served in the comfy dining room, clubby bar or on the outdoor patio.",http://eastsidegrill.com/,http://places.singleplatform.com/eastside-grill-11/menu?ref=google,http://eastsidegrill.com/gift-certificates,http://eastsidegrill.com/contact,"
                Gift Cards
              ","
                Contact
              ",1,MA,01060,restaurant
Dobra Tea,"186 Main St, Northampton, MA 01060",Tea house,Northampton,Quaint tearoom with a peaceful vibe offering 100+ exotic loose leaf teas & health-conscious bites.,http://www.dobrateama.com/,,https://squareup.com/gift/8Y5Z5Y7QCRAXB/order,http://dobrateama.com/contact-us/,Gift Cards,Contact Us,1,MA,01060,restaurant
Martha's,"281 Main St, Falmouth, MA 02540",Sandwich,Falmouth,,https://www.marthascapecod.com/,http://places.singleplatform.com/marthas-125/menu?ref=google,https://www.toasttab.com/marthas/giftcards,https://www.marthascapecod.com,PURCHASE GIFT CARDS,LOCATION & CONTACT,1,MA,02540,restaurant
Seafood Sam's,"356 Palmer Ave, Falmouth, MA 02540",Seafood,Falmouth,"Casual indoor-outdoor veteran plates vast menu of seafood staples, including lobster rolls & bisque.",http://www.seafoodsams.com/,,http://www.seafoodsams.com/gift-cards,http://www.seafoodsams.com/contact-us,Gift Cards,Contact Us,1,MA,02540,restaurant
Wicked Restaurant and Wine Bar,"35 South St, Mashpee, MA 02649",Pizza,Mashpee,"Vibrant, casual space for creative, Neapolitan-style pizzas, plus New American bites & a wine bar.",http://www.wickedrestaurant.com/,https://www.wickedrestaurant.com/menu,http://www.wickedrestaurant.com/gift-cards,http://www.wickedrestaurant.com/contact,Gift Cards ,Contact Us ,1,MA,02649,restaurant
Bear in Boots,"285 Main St, Falmouth, MA 02540",Restaurant,Falmouth,"Family-friendly restaurant offering globally inspired dishes, a big beer list & live entertainment.",http://www.bearinboots.com/,,https://squareup.com/gift/80SWZJ6HRHK98/order?external_source=giveandgetlocal,,Purchase Gift Cards,,1,MA,02540,restaurant
Lobster Trap Pub,"125 Main St, Essex, MA 01929",Pub,Essex,,http://www.woodmans.com/,,https://www.woodmans.com/product-category/online-gift-certificates/,https://www.woodmans.com/contact-us/directions/,Online Gift Certificates,Directions,1,MA,01929,restaurant
Ipswich Shellfish Fish Market,"8 Hayward St, Ipswich, MA 01938",Restaurant,Ipswich,,http://www.ipswichfishmarket.com/,https://www.ipswichfishmarket.com/CafeMenu.pdf,http://www.ipswichfishmarket.com/more.aspx#certificates,http://www.ipswichfishmarket.com/contact.aspx,GIFT CERTIFICATES,CONTACT,1,MA,01938,restaurant
Franklin Cafe Cape Ann,"118 Main St, Gloucester, MA 01930",American,Gloucester,"Boisterous gastropub pairs inventive New American eats with craft cocktails in a sharp, dark space.",http://www.franklincapeann.com/,http://places.singleplatform.com/franklin-cafe-cape-ann/menu?ref=google,http://www.franklincapeann.com/store/gift-cards/,http://www.franklincapeann.com/contact/,Gift Cards,Contact,1,MA,01930,restaurant
Seaport Grille,"6 Rowe Square, Gloucester, MA 01930",Seafood,Gloucester,"Airy waterfront eatery offers a wide menu of surf ’n’ turf, plus pizza, burgers & signature drinks.",https://seaportgrillegloucester.com/,https://seaportgrillegloucester.com/seaport-grille-menu/,https://beauporthotel.cardfoundry.com/giftcards.php?action=store,https://visitor.r20.constantcontact.com/manage/optin?v=001c5Zc9ukCtXb_KVzR9Mci0ltf1dph_bo3I5DJUXYrG5xjX7tiGApUVNNfUtrwnorDMIayUgEZUKf_qgaveVCvNo2SttLWdmqm-bAn-bin5uKQopRWX9u-6ENVyebU75fd69WLeSbYlx-Wg9R-viIMYGMNvc80ifUH5dswQFboi1Q%3D,Gift Cards,Join Our Email List,1,MA,01930,restaurant
Fuji at Assembly,"320 Canal St, Somerville, MA 02145",Asian,Somerville,"A huge Asian eatery with sushi & scotch, handsomely turned out with wood, slate and stone accents.",http://fujiatassembly.com/,https://www.fujiatassembly.com/food-menu/,http://fujiatassembly.com/gift-cards/,http://fujiatassembly.com/contact/,Gift Cards,Contact,1,MA,02145,restaurant
Tony C's Sports Bar and Grill,"699 Assembly Row, Somerville, MA 02145",American,Somerville,"Beer, sports & American chow unite at this gigantic eatery that pays homage to Tony Conigliaro.",http://www.tonycssportsbar.com/,,https://www.tonycssportsbar.com/gift-cards,http://www.tonycssportsbar.com/contact/,gift cards,Contact,1,MA,02145,restaurant
Pie in the Sky Bakery & Cafe,"10 Water St, Woods Hole, MA 02543",Restaurant,Woods Hole,"Open 364 days a year, the local option for homemade pies & baked goods within a coffeehouse setting.",http://www.piecoffee.com/,https://piecoffee.com/menu,https://piecoffee.com/shop/gift-cards,https://piecoffee.com/contact,Gift Cards,Contact,1,MA,02543,restaurant
Steve's Pizzeria & More,"374 Main St, Falmouth, MA 02540",Pizza,Falmouth,"Straightforward counter serving up Greek-style pies & grinders for dine in, to go or delivery.",http://www.stevespizzeriaandmore.com/,http://places.singleplatform.com/steves-pizzeria-and-more/menu?ref=google,https://stevespizzeriaandmore.com/25-2/,https://stevespizzeriaandmore.com?storeUrl=https://falmouth.stevespizzeriaandmore.com/contact,Gift Cards,Contact,1,MA,02540,restaurant
The Black Dog Heights CafeCLOSED FOR SEASON,"465 Grand Ave, Falmouth, MA 02540",Restaurant,Falmouth,"Retailer selling casualwear, accessories & gifts with its signature dog logo for men, women & kids.",http://www.theblackdog.com/,https://cdn.shopify.com/s/files/1/1296/0139/files/MENU_HEIGHTS_9_5.19.pdf?3523,http://www.theblackdog.com/pages/gift-card-balance,http://www.theblackdog.com/pages/contact-us,Gift Card Balance,Contact Us,1,MA,02540,restaurant
Falmouth Cinema Pub,"137 Teaticket Hwy, Teaticket, MA 02536",Restaurant,Teaticket,"Cinephiles watch new release movies while dining on burgers & other American chow, plus wine & beer.",http://www.entertainmentcinemas.com/,,http://www.entertainmentcinemas.com/gift-certificates,http://www.entertainmentcinemas.com/contact,,Contact Us,1,MA,02536,restaurant
Blueprint,"10 Village Square, Westminster, MA 01473",Grill,Westminster,,http://blueprintamerican.com/,http://www.blueprintamerican.com/Pages/Menu.aspx?DeptID=0,https://www.toasttab.com/blueprint/giftcards,,Gift Cards,,1,MA,01473,restaurant
Arturo's Ristorante,"54 E Main St, Westborough, MA 01581",Italian,Westborough,"Casual eatery serves classic Italian dishes, including pizza, & wines from an open kitchen.",http://www.arturosristorante.com/,https://www.arturosristorante.com/,https://swipeit.com/product/932/arturos-ristorante,http://www.arturosristorante.com/contact/,Gift Cards,Contact,1,MA,01581,restaurant
Studio 3,"24 Patriot Pl, Foxborough, MA 02035",American,Foxborough,,https://www.showcasecinemas.com/,http://places.singleplatform.com/studio-3-3/menu?ref=google,https://showcasecinemas.ourgiftcards.com/,https://www.showcasecinemas.com/contact-us/,Gift Cards,Contact Us,1,MA,02035,restaurant
The Charred Oak Tavern,"57 Center St, Middleborough, MA 02346",Restaurant,Middleborough,"Easygoing, family-friendly restaurant offering grilled seafood & meats, plus cocktails, beer & wine.",https://thecharredoaktavern.com/,http://thecharredoaktavern.com/menu/,https://thecharredoaktavern.cardfoundry.com/giftcards.php,https://thecharredoaktavern.com/contact/,Gift Cards,Contact,1,MA,02346,restaurant
Timo's Pizza,"151 State Rd, Westport, MA 02790",Pizza,Westport,,https://timospizza.com/,https://timospizza.com/Menus,https://timospizza.com/Gift,https://timospizza.com/Contact,Gift Certificate ,Contact Us ,1,MA,02790,restaurant
Fireside Grille,"30 Bedford St, Middleborough, MA 02346",Restaurant,Middleborough,This easygoing eatery dishes up hefty portions of American classics & has a sizable banquet hall.,http://www.firesidegrille.com/,http://www.firesidegrille.com/menu/,http://www.firesidegrille.com/gift-cards,http://www.firesidegrille.com/contact,Gift Cards,Contact,1,MA,02346,restaurant
The Peddler's Daughter Irish Restaurant & Pub,"45 Wingate St, Haverhill, MA 01832",Restaurant,Haverhill,"Upbeat Irish go-to with live music dispenses draft beer & a vast menu of Irish cuisine, plus patio.",http://www.thepeddlersdaughter.com/,http://www.thepeddlersdaughter.com/,https://onelink.quickgifts.com/merchant/the-peddlers-daughter/,http://www.thepeddlersdaughter.com/contact/,Gift Cards,Contact,1,MA,01832,restaurant
The Hidden Pig,"130 Washington St, Haverhill, MA 01832",Gastropub,Haverhill,,http://thehiddenpighaverhill.com/,https://www.thehiddenpighaverhill.com/restaurant,http://thehiddenpighaverhill.com/giftcardsrewards,http://thehiddenpighaverhill.com/mailto:contact@thehiddenpighaverhill.com,"
                Gift Cards+Rewards
              ",contact@thehiddenpighaverhill.com,1,MA,01832,restaurant
Scottish Bakehouse,"977 State Rd, Vineyard Haven, MA 02568",Bakery,Vineyard Haven,"Locally run bakery serving light fare, sweets & gluten-free snacks in cozy digs with outside tables.",http://scottishbakehousemv.com/,http://scottishbakehousemv.com/wp-content/uploads/2017/04/SBH-Sweet-Treats-Spring-2017.pdf,http://vow.custcon.com/sco/vow_default.asp,,GiftCard Balance,,1,MA,02568,restaurant
Nancy's Restaurant,"29 Lake Ave, Oak Bluffs, MA 02557",Familyfriendly,Oak Bluffs,Seafood classics & frozen cocktails for casual harbor-view deck dining or more formal indoor meals.,http://nancysrestaurant.com/,https://www.nancysrestaurant.com/menus,https://www.toasttab.com/nancys/giftcards,http://nancysrestaurant.com/contact,"
              Buy a Gift Card
            ","
                Contact
              ",1,MA,02557,restaurant
First bite cafe,"156 Main St, South Grafton, MA 01560",Restaurant,South Grafton,,https://firstbitecafe.com/,https://firstbitecafe.com/Menus,https://firstbitecafe.com/Gift,https://firstbitecafe.com/Contact,Gift Certificate ,Contact Us ,1,MA,01560,restaurant
Brickstone Kitchen,"4 Worcester-Providence Turnpike, Sutton, MA 01590",American,Sutton,,http://brickstonekitchen.com/,http://brickstonekitchen.com/menu/,https://www.toasttab.com/brickstone-kitchen/giftcards,https://brickstonekitchen.com/contact/,"
","CONTACT US

",1,MA,01590,restaurant
The Coop,"110 Elm St #2641, Millbury, MA 01527",Chicken,Millbury,,http://www.thecoopmillbury.com/,,http://www.thecoopmillbury.com/#wp_foodtec_page_widget-7,http://www.thecoopmillbury.com/#wp_foodtec_map_widget-3,Gift Cards,Find Us,1,MA,01527,restaurant
Nudel Restaurant,"37 Church St, Lenox, MA 01240",American,Lenox,"Cozy, casual place serving a seasonally inspired New American menu that changes nightly.",http://nudelrestaurant.com/,http://places.singleplatform.com/nudel/menu?ref=google,https://nudelrestaurant.com/gift-certificates/,http://nudelrestaurant.com/#,Gift Certificates, Navigation • Contact info ,1,MA,01240,restaurant
The Farm Table at Kringle Candle,"219 South St, Bernardston, MA 01337",Fine Dining,Bernardston,"Upscale, seasonal local eats served in homey, comfortable dining rooms with fireplaces.",http://www.kringlefarmtable.com/,http://www.kringlefarmtable.com/menu/,https://www.kringlecandle.com/products/farm-table-gift-card,http://www.kringlefarmtable.com/contact,Gift Cards,Contact ,1,MA,01337,restaurant
Oxfords Casual Dining,"2 Millbury Blvd, Oxford, MA 01540",Italian,Oxford,,http://www.oxfordscasualdining.com/,https://www.oxfordscasualdining.com/menu,http://www.oxfordscasualdining.com/giftcards,http://www.oxfordscasualdining.com/contact,Gift Cards,Contact,1,MA,01540,restaurant
308 Lakeside,"308 E Main St, East Brookfield, MA 01515",American,East Brookfield,"Overlooking Lake Lashaway, this casual restaurant offers diverse American fare & a waterside deck.",http://308lakeside.com/,http://308lakeside.com/menu/,http://308lakeside.com/product/gift-certificate/,https://308lakeside.com/contact/,Purchase a Gift Certificate!,Contact,1,MA,01515,restaurant
Herrell's Ice Cream & Bakery,"8 Old S St, Northampton, MA 01060",Ice Cream,Northampton,"Longtime ice cream specialist with handcrafted flavors, plus homemade hot fudge & other toppings.",http://www.herrells.com/,http://www.herrells.com/frozen-treats/gourmet-premium-ice-cream,http://www.herrells.com/shop/herrells-gift-certificates,http://www.herrells.com/company/contact-us,Herrell's® Gift Certificates,Contact Us,1,MA,01060,restaurant
Northampton Brewery,"11 Brewster Ct, Northampton, MA 01060",Brewery,Northampton,Rotating brew selection & hearty pub grub in a spacious spot with a rooftop beer garden & sunroom.,http://www.northamptonbrewery.com/,http://www.northamptonbrewery.com/our-to-go-menu/,http://northamptonbrewery.com/brewery-merchandise#brewgc,http://northamptonbrewery.com/find-us/,Gift Cards,Find Us,1,MA,01060,restaurant
John T Cataldi Restaurant Inc,"63 Summer St, Kingston, MA 02364",Restaurant,Kingston,,http://www.restaurantsolstice.com/,,https://solstice-restaurant.myshopify.com/products/gift-card,,purchasing a gift cards online,,1,MA,02364,restaurant
Lorenzo's,"500 W Grove St, Middleborough, MA 02346",Restaurant,Middleborough,"Old-school spot serving hearty portions of pasta, pizza & other Italian classics since 1950.",http://www.lorenzos.net/,,https://lorenzos.net/gift-cards/,https://lorenzos.net/contact/,Gift Cards,Contact,1,MA,02346,restaurant
Summer Street Cafe,"10 Summer St, Bridgewater, MA 02324",Restaurant,Bridgewater,,https://summerstreetcafe.com/,https://summerstreetcafe.com/Menus,https://summerstreetcafe.com/Gift,https://summerstreetcafe.com/Contact,Gift Certificate ,Contact Us ,1,MA,02324,restaurant
Beverly Depot Restaurant,"10 Park St, Beverly, MA 01915",Steak,Beverly,"Rustic mainstay offers an array of seafood, steaks & a salad bar in a historic 1890s train station.",http://www.beverlydepot.com/,,http://www5.myicard.net/,http://www.beverlydepot.com/contact.html,Check Gift Card Balance,,1,MA,01915,restaurant
Sea Lion Sushi,"100 Independence Way STE B10, Danvers, MA 01923",Japanese,Danvers,,http://sealionsushi.net/,,http://sealionsushi.net/Gift,http://sealionsushi.net/Contact,Gift Certificate ,Contact Us ,1,MA,01923,restaurant
Liberty Pizza,"308 North St, Pittsfield, MA 01201",Pizza,Pittsfield,,https://eatlibertypizza.com/,https://eatlibertypizza.com/Menus,https://eatlibertypizza.com/Gift,https://eatlibertypizza.com/Contact,Gift Certificate ,Contact Us ,1,MA,01201,restaurant
Wyndhurst,"55 Lee Rd, Lenox, MA 01240",American,Lenox,,http://www.cranwell.com/,,https://miravalstore.myshopify.com/,http://www.cranwell.com/mailto:reservations@miravalresorts.com,Giftcards,Contact Us,1,MA,01240,restaurant
Bistro at Blantyre,"16 Blantyre Rd, Lenox, MA 01240",Restaurant,Lenox,,http://www.blantyre.com/,,https://blantyre.com/spa/gift/,https://blantyre.com/about-blantyre/media-contact/,Gift Certificates,Press Center,1,MA,01240,restaurant
Harvest,"44 Brattle St, Cambridge, MA 02138",American,Cambridge,"Venerable, welcoming mainstay for contemporary New England seasonal dishes & a garden courtyard.",http://www.harvestcambridge.com/,https://harvestcambridge.com/food-and-wine/philosophy/,http://www.harvestcambridge.com/gift-cards/,http://www.harvestcambridge.com/contact-us/hours-and-info/,Gift Cards,Contact Us,1,MA,02138,restaurant
The Hourly Oyster House,"15 Dunster St, Cambridge, MA 02138",Seafood,Cambridge,"Cozy but airy spot serving seafood, from raw bar options to lobsters, plus eclectic wines & spirits.",http://thehourlycambridge.com/,https://www.thehourlycambridge.com/menus/#dinner,https://swipeit.com/product/194/harvard-square-dining,https://www.thehourlycambridge.com/contact/,Gift Cards,Contact,1,MA,02138,restaurant
Orinoco Harvard Square,"56 John F. Kennedy St, Cambridge, MA 02138",Latin American,Cambridge,"No-reservations Venezuelan eatery known for smoky arepas, served in a cozy, Latin-accented space.",https://www.orinocokitchen.com/,http://places.singleplatform.com/orinoco-3/menu?ref=google,https://www.orinocokitchen.com/orinoco-gift-cards,https://www.orinocokitchen.com/orinoco-contact,Gift Cards,Contact,1,MA,02138,restaurant
PARK Restaurant & Bar,"59 John F. Kennedy St, Cambridge, MA 02138",New American,Cambridge,Unfussy American fare & creative cocktails star at this eatery & bar in a living room-like setting.,http://www.parkcambridge.com/,http://parkcambridge.com/menus/,https://swipeit.com/product/194/harvard-square-dining,https://parkcambridge.com/contact/,GIFT CARDS,CONTACT,1,MA,02138,restaurant
HBM Healthy Kitchen,"612 Broadway, Haverhill, MA 01832",Health Food,Haverhill,,http://www.hardbodymeals.com/,,https://hardbodymeals.com/giftcard,https://hardbodymeals.com/pages/contacts,Gift Card,"
																				Contacts																			",1,MA,01832,restaurant
Chicken Connection Plaistow NH,"37 Plaistow Rd #11, Plaistow, NH 03865",American,Plaistow,,http://thechickenconnection.com/,http://thechickenconnection.com/menu,https://www.thechickenconnection.com/gift-cards,https://www.thechickenconnection.com/contact-directions,Gift Cards,Directions,1,NH,03865,restaurant
Turner's Seafood Grill & Market,"506 Main St, Melrose, MA 02176",Seafood,Melrose,"Nautical-themed family-owned seafood outpost with old-school oyster bar, plus fish market.",http://www.turners-seafood.com/,http://places.singleplatform.com/turners-seafood/menu?ref=google,http://www.turners-seafood.com/gift-cards,https://www.turners-seafood.com/contact/,"
gift card
purchase gift cards
",Contact,1,MA,02176,restaurant
Metropolis,"584 Tremont St, Boston, MA 02118",Mediterranean,Boston,"Relaxed, romantic neighborhood bistro presenting creative, Mediterranean-inspired eclectic menus.",http://www.metropolisboston.com/,http://www.metropolisboston.com/menu/,https://aquitainegroup.cardfoundry.com/giftcards.php,,gift card,,1,MA,02118,restaurant
O Ya,"9 East St, Boston, MA 02111",Authentic Japanese,Boston,"Acclaimed, inventive sushi, Japanese small plates & tasting menus crafted in elegant surrounds.",http://o-ya.restaurant/,,http://o-ya.restaurant/gift-cards,http://o-ya.restaurant/contacto-mexico/,Gift Cards,Contáctanos,1,MA,02111,restaurant
Sky Restaurant,"1369 Boston-Providence Turnpike, Norwood, MA 02062",New American,Norwood,"Contemporary eatery offering New American cuisine, plus a lounge, large wine list & Sunday brunch.",http://www.sky-restaurant.com/,http://skynorwood.restaurant/wp-content/uploads/2017/04/SKY-Mitzvah-Package-2017-04-11.pdf,http://skynorwood.restaurant/gift-cards/,http://visitor.r20.constantcontact.com/d.jsp?llr=hdvg5kcab&p=oi&m=1102026331239&sit=dgvmdwddb&f=de87ab79-2ddc-406b-93df-a3d8bbb6032e,Gift Cards & Rewards,Join Our Mailing List,1,MA,02062,restaurant
Village Restaurant,"55 Main St, Essex, MA 01929",Seafood,Essex,"Established area resource for seafood stews, fried clams, raw oysters, lobster rolls & more.",http://www.wedigclams.com/,https://wedigclams.com/menu-list/,https://wedigclams.com/gift-certificates/,https://wedigclams.com/contact-5/,Gift Certificates,Contact,1,MA,01929,restaurant
Crab Apple Whitewater Inc,"2056 Mohawk Trail, Charlemont, MA 01339",Raft trip outfitter,Charlemont,Family-owned company offering whitewater rafting adventures on various rivers in 3 different states.,http://www.crabapplewhitewater.com/,,https://www.crabapplewhitewater.com/gift-certificates/,https://www.crabapplewhitewater.com/contact/,Gift Certificates,Contact,1,MA,01339,restaurant
Bay Pointe Waterfront Restaurant,"64 Washington Ct, Quincy, MA 02169",Seafood,Quincy,"Waterfront seafood restaurant & lounge featuring a clever menu, Sunday brunch & an upscale ambiance.",https://www.baypointewaterfrontrestaurant.com/,,https://www.baypointewaterfrontrestaurant.com/gift-card,https://www.baypointewaterfrontrestaurant.com/contact,Gift Card,Contact,1,MA,02169,restaurant
Tennessees Real BBQ Braintree,"173 Pearl St, Braintree, MA 02184",Barbecue,Braintree,"Ribs, pulled pork & other BBQ favorites are served on disposable tableware at this spartan spot.",http://tennesseesbbq.com/,,http://tennesseesbbq.com/gift-cards,,Gift Cards,,1,MA,02184,restaurant
Bonez Brothers BBQ,"657 Southern Artery, Quincy, MA 02169",Barbecue,Quincy,,http://bonezbrothers.com/,http://www.bonezbrothers.com/menu,http://bonezbrothers.com/gift-cards,,Gift Cards,,1,MA,02169,restaurant
Flying Rhino Cafe,"278 Shrewsbury St, Worcester, MA 01604",Eclectic,Worcester,Airy haunt with an outdoor patio pairs internationally inspired dishes with house cocktails & beer.,https://www.flyingrhinocafe.com/,http://places.singleplatform.com/flying-rhino-cafe/menu?ref=google,https://www.flyingrhinocafe.com/gift-card/,https://www.flyingrhinocafe.com/contact-us/,Gift Cards,Contact Us,1,MA,01604,restaurant
Lock 50,"50 Water St, Worcester, MA 01604",New American,Worcester,"Casual cafe with gourmet coffee by day, by dinner a hip option for New American small plates.",http://lock50.com/,http://lock50.com/menu/,https://lock50.com/gift-cards/buy-gift-card/,,Buy A Gift Card,,1,MA,01604,restaurant
Mezcal Tequila Cantina,"30 Major Taylor Blvd, Worcester, MA 01608",Mexican,Worcester,"Upmarket Mexican restaurant offering made-to-order guacamole, brunch & an extensive tequila list.",http://mezcalcantina.com/,http://www.mezcalcantina.com/mezcal-worcester-menu/,https://www.nichehospitality.com/gift-cards/,http://mezcalcantina.com/contact-us,"
        Gift Cards
      ","
            Contact Us
          ",1,MA,01608,restaurant
110 Grill  Worcester,"123 Front St, Worcester, MA 01608",American,Worcester,"Casual restaurant with contemporary American dishes, including vegetarian options, plus a full bar.",https://www.110grill.com/,https://www.110grill.com/,https://110grill.cardfoundry.com/,https://www.110grill.com/contact-us,Gift Cards,General Contact ,1,MA,01608,restaurant
Medway Village Pizza & Subs,"135 Village St, Medway, MA 02053",Pizza Delivery,Medway,,https://villagepizzamedway.com/,https://villagepizzamedway.com/Menus,https://villagepizzamedway.com/Gift,https://villagepizzamedway.com/Contact,Gift Certificate ,Contact Us ,1,MA,02053,restaurant
9 Elm,"9 Elm St, Danvers, MA 01923",American,Danvers,Upscale-casual option presenting a focused American menu plus wine & dessert in a cozy dining room.,http://www.9elm.com/,http://9elm.com/dinner/,http://www.9elm.com/tel://9787749436,http://9elm.com/contact/,Gift Cards,HOURS & LOCATION,1,MA,01923,restaurant
Organic Garden Cafe,"294 Cabot St, Beverly, MA 01915",Organic,Beverly,"Restaurant offering an array of vegan, health-minded entrees, salads, wraps & snacks.",https://www.organicgardencafe.com/,https://www.toasttab.com/organic-garden-cafe,https://www.e-junkie.com/marketplace/127434,https://www.organicgardencafe.com/contact,Buy Gift Cards,Contact,1,MA,01915,restaurant
La Victoria Taqueria,"6 Wallis St, Beverly, MA 01915",Mexican,Beverly,,http://www.victoriataqueria.com/,,https://www.toasttab.com/la-victoria/giftcards,,Buy Gift Card,Contact Us,1,MA,01915,restaurant
Cape Ann Brewing Co,"11 Rogers St, Gloucester, MA 01930",Brewery,Gloucester,"Family-owned brewery/eatery offers craft ales & pub fare plus tours, concerts & a waterfront deck.",http://www.capeannbrewing.com/,https://business.facebook.com/capeannbrewing/app/113645212312588/,https://www.toasttab.com/cape-ann-brewing-company/giftcards,https://www.capeannbrewing.com/contact/,Gift Certificates,Contact,1,MA,01930,restaurant
Tavern on the Wharf,"6 Town Wharf, Plymouth, MA 02360",American,Plymouth,"Casual restaurant with a seafood-centric menu, plus harbor views, patio seating & craft cocktails.",http://www.tavernonthewharf.com/,http://www.tavernonthewharf.com/menus/,http://www.toasttab.com/tavern-on-the-wharf/giftcards,http://www.tavernonthewharf.com/contact/,Gift Cards,Contact,1,MA,02360,restaurant
Rye & Thyme American Tavern,"14 Monument Square, Leominster, MA 01453",American,Leominster,"Hip tavern offering wood-grilled American entrees, a raw bar & an array of spirits in historic digs.",http://www.ryeandthyme.com/,https://www.ryeandthyme.com/menu,https://www.nichehospitality.com/gift-cards/,http://www.ryeandthyme.com/contact-us,"
        Gift Cards
      ","
            Contact us
          ",1,MA,01453,restaurant
Mezcal Cantina,"20 Central St, Leominster, MA 01453",Mexican,Leominster,"Trendy spot offering upscale Southwestern & Mexican fare, margaritas & a long list of tequilas.",http://www.mezcalcantina.com/,http://www.mezcalcantina.com/mezcal-leominster-menu/,https://www.nichehospitality.com/gift-cards/,http://www.mezcalcantina.com/contact-us,"
        Gift Cards
      ","
            Contact Us
          ",1,MA,01453,restaurant
Comeketo,"23 Sack Blvd, Leominster, MA 01453",Brazilian,Leominster,"Modestly appointed strip-mall restaurant serving Brazilian platters, sandwiches & burgers.",http://www.comeketo.com/,https://www.foodbooking.com/ordering/restaurant/menu?restaurant_uid=394eedf2-adaf-41ba-b0f9-68d4405d4560&client_is_mobile=true&glfa_cid=145614815.1553229066&glfa_t=1553229090562,https://www.itson.me/widget/74-2374-comeketo-brazilian-steakhouse#/merchant/2374,http://www.comeketo.com/contact,Gift Card,Contact,1,MA,01453,restaurant
Aroma Joe's Coffee,"200 New Lancaster Rd, Leominster, MA 01453",Coffee shop,Leominster,,http://www.aromajoes.com/,https://aromajoes.com/menu/,https://www.mercury-gift.com/,https://aromajoes.com/contact-us/,Check Gift Card Balance,Contact Us,1,MA,01453,restaurant
Chill Kitchen and Bar,"416 Boston Post Rd E, Marlborough, MA 01752",New American,Marlborough,"Relaxed, contemporary restaurant featuring pizza, New American fare, craft cocktails & a patio.",http://www.chillkitchenandbar.com/,http://www.chillkitchenandbar.com/catering-menu/,https://swipeit.com/product/1011/chill-kitchen-and-bar,http://www.chillkitchenandbar.com/contact-us,"
              Gift Card
            ","
                Contact Us
              ",1,MA,01752,restaurant
Alta,"34 Church St, Lenox, MA 01240",Mediterranean,Lenox,Buzzing eatery/wine bar offering a Mediterranean menu & a covered porch for outdoor dining.,http://www.altawinebar.com/,http://places.singleplatform.com/alta-15/menu?ref=google,https://altawinebar.com/gift-certificate/,https://altawinebar.com/contact/,Gift Certificates,Contact,1,MA,01240,restaurant
Brady's,"37 Mechanic St, Leominster, MA 01453",Restaurant,Leominster,,https://chefbradys.com/,https://www.chefbradys.com/bradys-food-menus.html,https://chefbradys.com/buy-give-gift-cards.html,https://chefbradys.com/contact-bradys.html,Gift Cards,Contact,1,MA,01453,restaurant
Blueberry Haus,"809 Guilford Center Rd, Guilford, VT 05301",Ice Cream,Guilford,,http://www.blueberryhaus.com/,,https://squareup.com/gift/3WMF7AJMS3K9V/order,,,,1,VT,05301,restaurant
Wayland Pizza House,"336 Boston Post Rd, Wayland, MA 01778",Pizza,Wayland,,http://www.waylandpizzahouse.com/,http://www.waylandpizzahouse.com/Menus,http://www.waylandpizzahouse.com/Gift,http://www.waylandpizzahouse.com/Contact,Gift Certificate ,Contact Us ,1,MA,01778,restaurant
ipho,"113 Vermont St, Springfield, MA 01108",Vietnamese,Springfield,,http://vietnamesegourmet.com/,http://vietnamesegourmet.com/Menus,http://vietnamesegourmet.com/Gift,http://vietnamesegourmet.com/Contact,Gift Certificate ,Contact Us ,1,MA,01108,restaurant
Best Pizza,"306 Pasco Rd, Springfield, MA 01151",Pizza,Springfield,"Informal joint serving basic pizzas, calzones & pita sandwiches, plus American eats such as burgers.",http://mybestpizza.net/,http://mybestpizza.net/Menus,http://mybestpizza.net/Gift,http://mybestpizza.net/Contact,Gift Certificate ,Contact Us ,1,MA,01151,restaurant
Tides Restaurants & Pub,"2 Wilson Rd, Nahant, MA 01908",American,Nahant,"Casual beachside American restaurant with deck seating, great views & a take-out window.",http://tidesnahant.com/,http://www.tidesnahant.com/the_menu.html,http://tidesnahant.com/gift_certificates.html,http://tidesnahant.com/contact_us.html,          Gift Certificates      ,          Contact Us      ,1,MA,01908,restaurant
Anthony's Pier 4 Cafe,"153 Humphrey St, Swampscott, MA 01907",Seafood,Swampscott,,http://pier4.com/,,http://pier4.com/gift-card/,http://pier4.com/contact/,Gift Card,Contact,1,MA,01907,restaurant
anoush'ella,"1205 Market St, Lynnfield, MA 01940",Middle Eastern,Lynnfield,,http://www.anoushella.com/,http://places.singleplatform.com/anoushella-0/menu?ref=google,https://www.giftrocker.com/anoushella/,http://www.anoushella.com/index.php#contact,Gift Cards,Contact Us,1,MA,01940,restaurant
Polcari's,"92 Broadway, Saugus, MA 01906",Italian,Saugus,Old-school Italian eatery serves generous plates of classic Italian fare in a down-to-earth setting.,http://www.reginapizzeria.com/,http://places.singleplatform.com/polcaris-restaurant-2/menu?ref=google,https://shop.reginapizzeria.com,http://www.reginapizzeria.com/contact.html,GIFT CARDS,CONTACT,1,MA,01906,restaurant
Kung Fu Tea,"3 Pleasant St, Malden, MA 02148",Bubble Tea,Malden,"Bubble tea specialist with a selection of other hot & cold drinks, including coffee & slushes.",https://kungfutea.com/,,https://www.thelevelup.com/gift_cards/purchases/new?micro_site_name=kung_fu_tea,https://kungfutea.com/contact-us,"
              Digital Drink Gift Card
            ",Contact Us,1,MA,02148,restaurant
J J Grimsby & Co,"301 WEST WYOMING AVENUE Corner, Lynn Fells Pkwy, Stoneham, MA 02180",Restaurant,Stoneham,"Unpretentious hangout featuring familiar American eats, cocktails & multiple TVs for sports fans.",http://jjgrimsbys.com/,https://www.toasttab.com/jj%20grimsby's,https://www.toasttab.com/jj grimsby's/giftcards,http://jjgrimsbys.com/tel:7816651123,Buy Now,(781) 665-1123,1,MA,02180,restaurant
GuluGulu Cafe,"247 Essex St, Salem, MA 01970",Restaurant,Salem,"Cozy, unpretentious coffeehouse offering an eclectic global menu of small bites, plus live music.",http://www.gulugulucafe.com/,https://www.gulugulucafe.com/menu/,https://www.toasttab.com/gulu-gulu-cafe/giftcards,http://www.gulugulucafe.com/new-page,"



","
                Contact Us
              ",1,MA,01970,restaurant
Hawthorne ByTheSea,"153 Humphrey St, Swampscott, MA 01907",Seafood,Swampscott,,http://www.pier4.com/,,http://pier4.com/gift-card/,http://pier4.com/contact/,Gift Card,Contact,1,MA,01907,restaurant
Settler,"2 Lynde St, Salem, MA 01970",New American,Salem,,https://www.settlersalem.com/,http://www.toasttab.com/settlersalem,https://www.toasttab.com/settlersalem/giftcards,,GIFT CARDS,,1,MA,01970,restaurant
The Fix Burger Bar,"139 Lakeside Ave, Marlborough, MA 01752",Restaurant,Marlborough,,http://www.thefixburgerbar.com/,,https://www.nichehospitality.com/gift-cards/,http://www.thefixburgerbar.com/contact-us,"
        Gift Cards
      ","
            Contact Us
          ",1,MA,01752,restaurant
Mia Regazza,"268 Washington St, Abington, MA 02351",Italian,Abington,"Buzzy restaurant with a fireplace & patio dishing up Italian-American eats, from lasagna to risotto.",http://www.miaregazza.com/,http://www.miaregazza.com/menu.pdf,http://miaregazza.com/gift-certificates/,http://miaregazza.com/contact/,GIFT CERTIFICATES,CONTACT US,1,MA,02351,restaurant
Jake's Seafood Restaurant,"50 George Washington Blvd, Hull, MA 02045",Seafood,Hull,"Seafood standards from a seasonal dockside eatery with nautical decor & a deck, plus a fish market.",http://jakesseafoods.com/,,http://jakesseafoods.com/gift-certificates,http://jakesseafoods.com/contact," Gift Certificates
"," Contact
",1,MA,02045,restaurant
White Lion Baking Company,"439 Nathan Ellis Hwy #1, Mashpee, MA 02649",Bakery,Mashpee,,http://www.whitelionbaking.com/,http://www.whitelionbaking.com/shop/,https://www.whitelionbaking.com/product-category/white-lion-gift-certificates/,https://www.whitelionbaking.com/where-to-find-us/,Gift Cards,Where to find us,1,MA,02649,restaurant
Tavern at the Inn,"149 Main St #3, Sandwich, MA 02563",American,Sandwich,,https://www.danlwebsterinn.com/,https://www.danlwebsterinn.com/dining/dining-sandwich-ma,https://www.danlwebsterinn.com/gift-cards,https://www.danlwebsterinn.com/contact,Gift Cards,Contact,1,MA,02563,restaurant
Buttercup,"13 W Central St, Natick, MA 01760",American,Natick,,https://www.eatbuttercup.com/,https://www.eatbuttercup.com/menus,https://www.eatbuttercup.com/gift-cards,https://www.eatbuttercup.com/contact,Gift Cards,Contact,1,MA,01760,restaurant
Juniper,"13 Central St, Wellesley, MA 02482",Mediterranean,Wellesley,Eastern Mediterranean dishes with exotic spices in cork-floored digs with flea-market–sourced decor.,http://www.juniperwellesley.com/,http://places.singleplatform.com/juniper-33/menu?ref=google,http://www.juniperwellesley.com/#gift-cards,,Gift Cards,,1,MA,02482,restaurant
AC Lounge at AC Hotel Boston North,"95 Station Landing, Medford, MA 02155",Lounge,Medford,,http://www.achotelbostonnorth.com/,,https://gifts.marriott.com,http://www.achotelbostonnorth.com/tel:+1 781-819-2090, Gift Cards ,  +1 781-819-2090  ,1,MA,02155,restaurant
Cobblestone Cafe,"227 Hanover St, Boston, MA 02113",American,Boston,Relaxed eatery & coffee shop offering diner-style specialties like American breakfasts & burgers.,https://www.cobblestonene.com/,https://www.cobblestonene.com/menu/,https://squareup.com/gift/H2GV0ZMQYDQF9/order,https://www.cobblestonene.com/contacts/,,Contact,1,MA,02113,restaurant
Peaceful Meadows Ice Cream,"109 W Grove St, Middleborough, MA 02346",Ice Cream,Middleborough,"Standby for locally made ice cream in a variety of flavors, plus shakes, cakes & other desserts.",http://www.peacefulmeadows.com/,,http://www.peacefulmeadows.com/products/gift-certificates-merchandise/,http://www.peacefulmeadows.com/contact-us/,Gift Certificates & Merchandise,Contact Us,1,MA,02346,restaurant
Dough Licious Pizza,"539 Berkley St, Berkley, MA 02779",Pizza Delivery,Berkley,,http://www.doughliciouspizzabk.com/,http://doughliciouspizzabk.com/menu/,http://doughliciouspizzabk.com/wp-content/uploads/2015/01/gift_black.png,http://doughliciouspizzabk.com/contact-us/,Gift Cards Available ,CONTACT US,1,MA,02779,restaurant
Blissful Meadows Golf Club,"801 Chocolog Rd, Uxbridge, MA 01569",Golf course,Uxbridge,,http://www.blissfulmeadows.com/,http://www.blissfulmeadows.com/meadowview,http://www.blissfulmeadows.com/gifts,http://visitor.constantcontact.com/email.jsp?m=1101322084616,Buy Gift Cards,Join Our E-Club,1,MA,01569,restaurant
Indian Ranch,"200 Gore Rd Building #1, Webster, MA 01570",Live Music,Webster,"This bucolic outdoor music venue with campgrounds is equipped with a bar, grills & picnic tables.",http://www.indianranch.com/,,https://rhpindian18.wpengine.com/gift-cards/,https://indianranch.com/contact/,"

",CONTACT US,1,MA,01570,restaurant
Tavolo Ristorante,"1918 Dorchester Ave, Dorchester, MA 02124",Italian,Dorchester,Inspired cuisine exploring several areas of Italy plus rotating specials meet a lively bar scene.,http://tavolopizza.com/,,http://tavolopizza.com/?product=tavolo-gift-cards,,GIFT CARDS,,1,MA,02124,restaurant
David's Pizza,"218 W Squantum St, Quincy, MA 02171",Pizza,Quincy,,https://www.davidspizza.net/,https://www.davidspizza.net/Menus,https://www.davidspizza.net/Gift,https://www.davidspizza.net/Contact,Gift Certificate ,Contact Us ,1,MA,02171,restaurant
Lucy's American Tavern,"13 Granite Ave, Dorchester, MA 02124",Bar,Dorchester,"Rustic-chic hangout featuring elevated tavern grub with seasonal ingredients, plus unique cocktails.",http://lucysamericantavern.com/,http://lucysamericantavern.com/dinner-menu/,http://lucysamericantavern.com/store/gift-cards/,,Gift Cards,,1,MA,02124,restaurant
Molinari's,"789 Adams St, Dorchester, MA 02124",Pizza,Dorchester,"Small, rustic spot for wood-fired brick-oven pizzas, old world–style pasta & Italian sandwiches.",http://molinarispizzeria.com/,,https://www.toasttab.com/molinari-s/giftcards,,Gift Cards,,1,MA,02124,restaurant
Roka Akor  San Francisco,"Roka Akor Basement, 801 Montgomery St, San Francisco, CA 94133",Steak,San Francisco,"Sleek downstairs hangout serving wine, beer & sake to go with Japanese small bites.",https://www.rokaakor.com/,http://places.singleplatform.com/roka-akor-1/menu?ref=google,https://onelink.quickgifts.com/merchant/roka-akor/,https://www.rokaakor.com/san-francisco/location-information/,Gift Card,Contact,1,CA,94133,restaurant
Galley Beach,"54 Jefferson Ave, Nantucket, MA 02554",Seafood,Nantucket,"Refined New American menus & craft cocktails in polished surrounds, plus a beach bar & lounge.",http://www.galleybeach.net/,https://www.galleybeach.net/menus,http://galleybeach.net/gift-card/,http://galleybeach.net/contact/,Gift Card,Contact,1,MA,02554,restaurant
BACK Yard BBQ,"20 Straight Wharf, Nantucket, MA 02554",Barbecue,Nantucket,"Chill sports bar offering housemade BBQ plates & sides, plus Tennessee whiskeys & ample craft beers.",http://ackbackyard.com/,,https://www.toasttab.com/b-ack-yard-bbq-nantucket/giftcards,http://ackbackyard.com/contact-2/,Gift Cards,Contact,1,MA,02554,restaurant
Brotherhood of Thieves,"23 Broad St, Nantucket, MA 02554",Grill,Nantucket,"Family-friendly pick featuring hearty eats, craft beers, a patio & a cozy fireplace.",http://www.brotherhoodofthieves.com/,http://places.singleplatform.com/brotherhood-of-thieves/menu?ref=google,http://www.brotherhoodofthieves.com/product/the-brotherhood-gift-cards/,,"
Purchase Brotherhood Gift Certificates",,1,MA,02554,restaurant
Brant Point Grill,"White Elephant Hotel, 50 Easton St, Nantucket, MA 02554",Seafood,Nantucket,,http://www.whiteelephanthotel.com/,,https://www.nantucketislandresorts.com/gift-cards,https://www.whiteelephantnantucket.com/contact,Gift Cards,contact us,1,MA,02554,restaurant
Breeze Restaurant,"77 Easton St, Nantucket, MA 02554",Seafood,Nantucket,"Fashionable seafood choice at the Nantucket Hotel with nautical accents, a cozy bar & patio seating.",http://www.thenantuckethotel.com/,,https://www.thenantuckethotel.com/gift-certificates/,https://www.thenantuckethotel.com/contact-us/,Gift Certificates,Contact Us,1,MA,02554,restaurant
The Pearl,"12 Federal St, Nantucket, MA 02554",Seafood,Nantucket,"Splashy spot for creative cocktails & inventive Asian-inspired seafood, including wok-fried lobster.",http://www.thepearlnantucket.com/,,http://thepearlnantucket.com/gift-cards/,,Gift Cards,,1,MA,02554,restaurant
Hungry Coyote,"1185 Highland Ave, Needham, MA 02492",Restaurant,Needham,,http://www.hungry-coyote.com/,,https://www.toasttab.com/hungry-coyote/giftcards,,"
        Gift Cards
      ",,1,MA,02492,restaurant
Walnut Grille,"1203 Walnut St, Newton Highlands, MA 02461",Vegetarian,Newton Highlands,"Small eatery presents locally sourced vegetarian & vegan dishes in a bright, contemporary setting.",http://walnutgrille.com/,https://www.orderwalnutgrille.com/#menu,http://walnutgrille.com/giftcard,http://walnutgrille.com/contact,Gift Card,Hours,1,MA,02461,restaurant
Pressed Cafe,"300 Needham St, Newton, MA 02459",Restaurant,Newton,,http://www.pressedcafe.com/,http://pressedcafe.com/,https://www.instagram.com/p/B-o6aFqggKW/,http://www.pressedcafe.com/contact,"

","
                Contact
              ",1,MA,02459,restaurant
Ghost Pepper Taco  Tequila Bar,"120 Savin Hill Ave, Dorchester, MA 02125",Mexican,Dorchester,,http://www.ghostpepperboston.com/,https://www.ghostpepperboston.com/menu,http://www.ghostpepperboston.com/gift-cards,,"
            Gift Cards
          ",,1,MA,02125,restaurant
Kaiju,"30 Boltwood Walk, Amherst, MA 01002",Ramen,Amherst,,http://kaiju-amherst.com/,http://kaiju-amherst.com/menu,https://www.giftfly.com/shop/kaiju,,Gift Cards,,1,MA,01002,restaurant
Five Eyed Fox,"37 3rd St, Turners Falls, MA 01376",Restaurant,Turners Falls,,http://www.fiveeyedfox.com/,http://www.fiveeyedfox.com/food-menu/,https://www.instagram.com/p/B-7_nTshXbz/,http://www.fiveeyedfox.com/contact,"

",Contact,1,MA,01376,restaurant
Asia Gourmet,"144 Market Dr, Athol, MA 01331",Restaurant,Athol,,https://www.asiagourmetathol.com/,,https://www.asiagourmetathol.com/gift-cards/,,Gift Cards,,1,MA,01331,restaurant
Jen Ju Boba Tea,"12 State St, Newburyport, MA 01950",Restaurant,Newburyport,,http://jenjuboba.com/,,https://www.instagram.com/p/B6JNgYKJms4/,http://jenjuboba.com/#contact-section,"

","
                        Visit
                      ",1,MA,01950,restaurant
Capri Seaside Italian Grille & Bar,"3 Central Ave, Salisbury, MA 01952",Italian,Salisbury,"Stylish, warmly-lit Italian eatery with cozy fireplaces, weekend accordion music & a kids' menu.",http://www.capriseaside.com/,,http://www.capriseaside.com/capri_gift-certificates.html,http://www.capriseaside.com/contact-capri.html,,Contact Us,1,MA,01952,restaurant
SurfSide,"25 Broadway, Salisbury, MA 01952",Restaurant,Salisbury,"Seafood, hot dogs & jumbo cocktails in a festive locale with live music & a big beachfront deck.",http://www.surfsidesalisbury.com/,http://www.surfsidesalisbury.com/restaurant-menu.html,http://www.surfsidesalisbury.com/surfside_gift-certificates.html,http://www.surfsidesalisbury.com/surfside-contact.html,,Contact & Hours,1,MA,01952,restaurant
Sea Glass,"4 Ocean Front N, Salisbury, MA 01952",Restaurant,Salisbury,Refined beachfront dining room with a huge fireplace offers carefully sourced New American seafood.,http://www.seaglassoceanside.com/,http://www.seaglassoceanside.com/dining_menus.html,http://www.seaglassoceanside.com/seaglass_gift-certificates.html,http://www.seaglassoceanside.com/contact-seaglass.html,,Contact Us,1,MA,01952,restaurant
Commune,"33 Pleasant St, Newburyport, MA 01950",Coffee shop,Newburyport,,https://www.communenewburyport.com/,https://www.communenewburyport.com/menu.html,https://www.toasttab.com/communecafe/giftcards,https://www.communenewburyport.com/contact.html,Purchase Card,Contact,1,MA,01950,restaurant
Newtonville Pizza,"322 Walnut St, Newton, MA 02460",Pizza,Newton,,https://newtonvillepizza.com/,https://newtonvillepizza.com/Menus,https://newtonvillepizza.com/Gift,https://newtonvillepizza.com/Contact,Gift Certificate ,Contact Us ,1,MA,02460,restaurant
Depasquale's At Night Caps Corner,"339 River St, Newton, MA 02465",Restaurant,Newton,,http://www.depasqualesdeli.com/,http://places.singleplatform.com/depasquales-at-night-caps-corner/menu?ref=google,https://www.toasttab.com/depasquales-at-night-caps-corner/giftcards,,https://www.toasttab.com/depasquales-at-night-caps-corner/giftcards,,1,MA,02465,restaurant
Baramor  Bar & Restaurant,"45 Union St, Newton Centre, MA 02459",Restaurant,Newton Centre,,https://www.baramornewton.com/,https://www.baramornewton.com/menus/,https://www.baramornewton.com/store/gift-cards,https://www.baramornewton.com/contact/,Gift Cards,Contact,1,MA,02459,restaurant
North Bowl Lanes,"71 E Washington St, North Attleborough, MA 02760",Bowling alley,North Attleborough,Family bowling complex with American grill & bar morphs into DJ-fueled club on weekend evenings.,http://www.eatdrinkbowl.com/,,http://www.eatdrinkbowl.com/buy-gift-cards,http://www.eatdrinkbowl.com/contact,"
Buy Gift Cards
","
                  CONTACT US
                ",1,MA,02760,restaurant
An Unlikely Story,"111 South St, Plainville, MA 02762",Cafe,Plainville,,http://www.anunlikelystory.com/,,http://www.anunlikelystory.com/an-unlikely-gift-card,http://www.anunlikelystory.com/contact-us,Gift Cards,Store Info,1,MA,02762,restaurant
Dos Lobos,"303 Main St, North Reading, MA 01864",Restaurant,North Reading,,http://dos-lobos.com/,,https://www.dos-lobos.com/giftcards,https://www.dos-lobos.com/contact,GiftCards,Contact,1,MA,01864,restaurant
Lalajava,"290 W Main St #12, Northborough, MA 01532",Coffee shop,Northborough,,http://www.lalajava.com/,http://lalajava.com/lalajava-menu.html,http://www.lalajava.com/store/p3/Lalaloot_Gift_Certificate.html,http://www.lalajava.com/directions-contact-employment.html,LALALOOT   GIFT   CERTIFICATES,"
				Directions, Contact, Employment
			",1,MA,01532,restaurant
Northshore Mall,"210 Andover St, Peabody, MA 01960",Shopping mall,Peabody,,https://www.simon.com/,,https://www.simon.com/giftcard,https://www.simon.com/contact?mallId=338,Simon Giftcard®,CONTACT,1,MA,01960,restaurant
Epicurean Shoppe,"241 Andover St, Peabody, MA 01960",Butcher shop deli,Peabody,,http://www.centuryhousepeabody.com/,,https://centuryhousepeabody.com/gift-card-order-form/,https://centuryhousepeabody.com/contact/,Gift Cards,Contact,1,MA,01960,restaurant
Arooga's,"1250 Route 22, East Dr, North Plainfield, NJ 07060",Restaurant,North Plainfield,"Sports bar & grill featuring a variety of classic bar eats, free WiFi, trivia games & more.",http://aroogas.com/,http://www.aroogas.com/food/Route-22-North-Plainfield/,https://aroogas.myguestaccount.com/guest/egift,https://aroogas.com/faq-contact-us/,E-Gift Cards,FAQ/Contact Us,1,NJ,07060,restaurant
Craft'd,"16031 S Lincoln Hwy, Plainfield, IL 60586",American,Plainfield,"Lively, modern tavern offering burgers & other pub eats, cocktails & draft beer, plus a large patio.",https://www.thecraftdlife.com/,http://places.singleplatform.com/craftd/menu?ref=google,https://www.thecraftdlife.com/store/gift-cards/,https://www.thecraftdlife.com/contact/,Gift Cards,Contact,1,IL,60586,restaurant
Station One Smokehouse,"15025 S Des Plaines St #1a, Plainfield, IL 60544",Restaurant,Plainfield,"Relaxed, counter-serve outpost serving Texas-style BBQ smoked meats, poultry & hearty sides.",https://www.stationonesmokehouse.com/,https://www.stationonesmokehouse.com/menu,https://www.stationonesmokehouse.com/gift-cards/,https://www.stationonesmokehouse.com/contact/,Gift Cards,Contact,1,IL,60544,restaurant
Iguana's Mexican Restaurant,"271 Main St, Northampton, MA 01060",Mexican,Northampton,Familiar Mexican fare & a big tequila menu are highlighted at this casual joint with colorful decor.,http://www.spoletorestaurants.com/,http://places.singleplatform.com/mama-iguanas-2/menu?ref=google,http://swipeit.com/product/401/spoleto-group,,Order Gift Cards Online Here,,1,MA,01060,restaurant
Moe Joe's,"24033 Lockport St, Plainfield, IL 60544",Cajun,Plainfield,Cajun-Caribbean cooking & craft beers served in a New Orleans-themed space with a horseshoe bar.,https://www.eatmoejoes.com/,https://www.eatmoejoes.com/menu.php?category=11,https://www.eatmoejoes.com/giftcard.php,,Gift Card,,1,IL,60544,restaurant
1620 Wine Bar,"170 Water St #25, Plymouth, MA 02360",Winery,Plymouth,,http://1620winery.com/,,https://1620winery.com/1620-wine-bar-gift-certificates/,https://1620winery.com/contact/,Buy Gift Certificates,Contact Information/Hours,1,MA,02360,restaurant
The Garden Bar,"35 Landmark Dr, Plymouth, MA 02360",Restaurant,Plymouth,,http://plymouth.mirbeau.com/,,http://mirbeaugifts.com/,http://plymouth.mirbeau.com/contact,Gift Cards,Contact,1,MA,02360,restaurant
Spindler's,"386 Commercial St, Provincetown, MA 02657",French,Provincetown,Chef Barbara Lynch designed the French-Italian inspired New England menu for this hotel eatery.,http://spindlersptown.com/,http://spindlersptown.com/,https://www.toasttab.com/spindlers/giftcards,https://www.instagram.com/p/B9r16TZhK7f/,Gift Cards,"

",1,MA,02657,restaurant
Joe Coffee & Cafe,"170 Commercial St, Provincetown, MA 02657",Coffee shop,Provincetown,"A menu featuring classic coffee shop beverages, sandwiches, & baked goods with outdoor seating.",http://joecoffeeptown.com/,,https://www.toasttab.com/joe-coffee-cafe/giftcards,http://joecoffeeptown.com/contact,https://www.toasttab.com/joe-coffee-cafe/giftcards,Contact,1,MA,02657,restaurant
Reelhouse Marina Bay,"552 Victory Rd, Quincy, MA 02171",Restaurant,Quincy,,https://www.reelhousemarinabay.com/,,https://reelhousemarinabay.bigcartel.com/,https://www.reelhousemarinabay.com,GIFT CARDS,FIND US,1,MA,02171,restaurant
The Fours,"15 Cottage Ave, Quincy, MA 02169",Bar,Quincy,"Offshoot of a Boston icon, this family-friendly sports bar features ample TVs, drafts, & pub grub.",http://www.thefours.com/,http://places.singleplatform.com/fours-restauran/menu?ref=google,http://www.thefours.com/gift-cards,http://www.thefours.com/contact,"
            Gift Cards
          ","
            Contact
          ",1,MA,02169,restaurant
JP Fuji Group,"696 Hancock St, Quincy, MA 02170",Restaurant,Quincy,,https://www.jpfujigroup.com/,,https://www.toasttab.com/fuji-at-assembly/giftcards,https://www.jpfujigroup.com/contact/,Fuji at Assembly,Contact,1,MA,02170,restaurant
Town Spa Pizza,"1119 Washington St, Stoughton, MA 02072",Pizza,Stoughton,"Easygoing eatery offering a variety of classic pies, plus salads, sandwiches, wings & draft beers.",http://www.townspapizza.com/,http://townspapizza.com/dine-in/,http://townspapizza.com/gift-shop/ ,http://townspapizza.com/contact-us/," 
Gift Shop

Check out your Gift Shop for Apparel, gift cards and more!

",Contact Us!,1,MA,02072,restaurant
Sweet And Earthy,"5448, 407 New State Hwy #9, Raynham, MA 02767",Cafe,Raynham,,http://www.sweetandearthy.com/,http://www.sweetandearthy.com/menu,http://www.sweetandearthy.com/egift-cards,http://www.sweetandearthy.com/contact," eGift Cards

"," Contact

",1,MA,02767,restaurant
Nonni's Pizza,"750 Washington Ave, Revere, MA 02151",Restaurant,Revere,"Neighborhood pizzeria preparing pies, wings & breadsticks; popular for takeout or delivery.",http://www.nonnispizza.com/,,https://nonnispizza.com/gift-cards/,https://nonnispizza.com/contact/,Gift Cards,Contact,1,MA,02151,restaurant
Orfano,"1391 Boylston St, Boston, MA 02215",Italian,Boston,,https://www.orfanoboston.com/,,https://www.orfanoboston.com/#giftcards,https://www.orfanoboston.com/#contact,"

Gift Cards
","

Contact
",1,MA,02215,restaurant
Tresca,"233 Hanover St, Boston, MA 02113",Restaurant,Boston,Boisterous Tuscan-inspired setting for high-end Italian dishes including tasting menu options.,https://trescanorthend.com/,https://trescanorthend.com/menu/,https://trescanorthend.com/gift-cards/,,GIFT CARDS,,1,MA,02113,restaurant
The Halal Guys New Brunswick,"37 Easton Ave, New Brunswick, NJ 08901",Halal,New Brunswick,,https://thehalalguys.com/,https://thehalalguys.com/menu/,https://thehalalguys.com/gift-cards/,https://thehalalguys.com/contact/,Gift Cards,Contact Us,1,NJ,08901,restaurant
The Savory Grain,"2043 W Broad St, Richmond, VA 23220",Familyfriendly,Richmond,Farm-fresh eats & local craft beers are the draw at this New American spot with weekly blues music.,http://www.thesavorygrain.com/,http://places.singleplatform.com/the-savory-grain/menu?ref=google,http://www.thesavorygrain.com/GiftBaskets/BasketDetails.aspx?BasketID=5757,,Gift Cards,,1,VA,23220,restaurant
Julep's New Southern Cuisine,"420 E Grace St, Richmond, VA 23219",Southern,Richmond,Southern dining with cocktails & wine in an upscale tavern setting with wood-&-brick accents.,http://www.juleps.net/,http://juleps.net/menu,http://www.giftfly.com/shop/juleps-new-southern-cuisine,https://juleps.net/contact,Gift Certificates,Contact,1,VA,23219,restaurant
James Hook & Co,"440 Atlantic Ave, Boston, MA 02210",Seafood,Boston,Waterfront shanty offering live lobsters plus prepared shellfish fare for takeout.,http://www.jameshooklobster.com/,http://places.singleplatform.com/james-hook--co/menu?ref=google,http://www.jameshooklobster.com/index.php?main_page=product_info&cPath=254&products_id=16241,https://www.jameshooklobster.com/index.php?main_page=page&id=7&zenid=qae745he903g4roq3gud94o252,,"

",1,MA,02210,restaurant
Oak  Rowan,"321 A St, Boston, MA 02210",New American,Boston,"Chic, loftlike eatery for upscale New American fare, decadent desserts & tableside cocktails.",http://oakandrowan.com/,http://oakandrowan.com/food/,https://swipeit.com/product/1026/oak--rowan,http://oakandrowan.com/contact/,Gift Cards,Contact,1,MA,02210,restaurant
Area Four,"500 Technology Square, Cambridge, MA 02139",Pizza,Cambridge,"Trendy cafe & bakery offering gourmet pizzas made from dough fermented for 30 hours, plus espresso.",http://www.areafour.com/,http://places.singleplatform.com/area-four/menu?ref=google,http://www.areafour.com/store/gift-cards/,http://www.areafour.com/contact/,Gift Cards,Contact,1,MA,02139,restaurant
Opus,"87 Washington St, Salem, MA 01970",New American,Salem,"Hip haunt featuring New American small plates, sushi, cocktails & live events amid whimsical decor.",http://salemopus.com/,http://salemopus.com/,https://serenitee.myguestaccount.com/login/web_card_sale/selectcards.srv,http://salemopus.com/contact.php,"Serenitee Gift Card
",Contact,1,MA,01970,restaurant
Esselon Cafe and Coffee Roasting,"99 Russell St, Hadley, MA 01035",Restaurant,Hadley,"Independent coffeehouse offering breakfast & global lunch/dinner fare, plus patio seating.",http://www.esselon.com/,https://www.esselon.com/cafe/,https://www.esselon.com/cafe/gift-cards/,https://www.esselon.com/contact-us/,Gift Cards,Contact,1,MA,01035,restaurant
Wildwood Barbeque,"235 Russell St, Hadley, MA 01035",Barbecue,Hadley,"This inviting smokehouse provides hefty plates of barbecued meat, plus craft beer & outdoor seating.",http://www.wildwoodque.com/,https://www.wildwoodque.com/lunch-dinner.html,http://www.wildwoodque.com/gift-certificates.html,http://www.wildwoodque.com/contact-us.html,"

			Gift Certificates
		>
","
									Contact Us
								",1,MA,01035,restaurant
A & J King Artisan Bakers,"48 Central St, Salem, MA 01970",Bakery,Salem,"Homey bakery offering daily housemade loaves, pastries & tarts, as well as sandwiches & granola.",http://ajkingbakery.com/,,http://ajkingbakery.com/pages/gift-cards,,"
              
                ONLINE ORDERING PORTAL / GIFT CARDS
              
            ",,1,MA,01970,restaurant
MidiCi  Italian Kitchen,"75 Highland Ave, East Providence, RI 02914",Italian,East Providence,,https://www.mymidicieastprovidence.com/,https://www.mymidicieastprovidence.com/,https://squareup.com/gift/VW7TM3JS113QF/order,,e-Gift Card ,,1,RI,02914,restaurant
Volturno Pizza Napoletana,"72 Shrewsbury St, Worcester, MA 01604",Pizza,Worcester,"Neapolitan pies, pasta & creative cocktails served in an industrial-chic pizzeria with a patio.",http://volturnopizza.com/,,http://volturnopizza.com/store/gift-cards,http://volturnopizza.com/contact/,Gift Cards,Contact,1,MA,01604,restaurant
Brew City Grill & Brew House,"104 Shrewsbury St, Worcester, MA 01604",American,Worcester,"Bar/eatery with industrial vibe, build-your-own burgers, cocktails & changing menu of 155+ beers.",http://www.brew-city.com/,http://www.brew-city.com/images/Brew_City_Dinner_Menu.pdf,https://brew-city.com/gift-cards/,https://brew-city.com/contact-3/,Gift Cards,Contact,1,MA,01604,restaurant
Chomp Kitchen and Drinks,"440 Child St, Warren, RI 02885",American,Warren,"Rustic-chic nook with inventive burgers & sandwiches, plus a variety of rotating craft brews on tap.",http://www.chompri.com/,,https://www.toasttab.com/chomp-kitchen-and-drinks-warren/giftcards,,Digital Gift Cards,,1,RI,02885,restaurant
Saus at Bow Market,"1 Bow Market Way #12, Somerville, MA 02143",Restaurant,Somerville,,http://www.sausboston.com/,,http://www.sausboston.com/giftcards,,"
                Gift Cards
              ",,1,MA,02143,restaurant
Elm Street Taproom,"256 Elm St, Somerville, MA 02144",Restaurant,Somerville,,http://elmstreettaproom.com/,http://places.singleplatform.com/elm-street-tap-room/menu?ref=google,https://swipeit.com/product/1683/elm-street-taproom,http://elmstreettaproom.com/contact/,Gift Cards,Contact,1,MA,02144,restaurant
Cana Korean Restaurant,"159 Grove St, Chicopee, MA 01020",Korean,Chicopee,"Traditional noodle, rice & hot pot dishes plus grill-your-own BBQ offered in simple, cheery digs.",http://www.canakoreanrestaurant.com/,http://www.canakoreanrestaurant.com/Menus,http://www.canakoreanrestaurant.com/Gift,http://www.canakoreanrestaurant.com/Contact,Gift Certificate ,Contact Us ,1,MA,01020,restaurant
MJ's Pizza,"955 Worthington St, Springfield, MA 01105",Pizza,Springfield,,https://mjspizza.net/,https://mjspizza.net/Menus,https://mjspizza.net/Gift,https://mjspizza.net/Contact,Gift Certificate ,Contact Us ,1,MA,01105,restaurant
MVP Pub,"1 Monarch Pl, Springfield, MA 01144",Bar,Springfield,,https://www.marriott.com/,,https://gifts.marriott.com,https://www.marriott.com/tel:+1 413-781-1010, Gift Cards ,  +1 413-781-1010  ,1,MA,01144,restaurant
Uptown Food & Spirits,"437 Main St, Warren, RI 02885",Restaurant,Warren,,https://www.uptownfoodandspirits.com/,,https://uptownfoodandspirits.com/product/digital-gift-card/,,Digital Gift Card,,1,RI,02885,restaurant
Bagels Etc,"259 County Rd, Barrington, RI 02806",Sandwich,Barrington,,http://bagelsetcbarrington.com/,http://bagelsetcbarrington.com/menu/,https://swipeit.com/product/1265/bagels-etc,http://bagelsetcbarrington.com/contact-us/,"
											NEW – Bagels Etc Gift Cards!										",Contact Us,1,RI,02806,restaurant
Bristol Oyster Bar,"448 Hope St, Bristol, RI 02809",Oyster Bar,Bristol,Relaxed watering hole & oyster bar serving local seafood & happy hour specials in calm surrounds.,http://www.bristoloysterbar.com/,http://bristoloysterbar.com/#feature,https://swipeit.com/product/749/bristol-oyster-bar,http://bristoloysterbar.com/#contact,GIFT CARDS,CATERING,1,RI,02809,restaurant
Quito's Restaurant,"411 Thames St, Bristol, RI 02809",Seafood,Bristol,Family-friendly seafood eatery & raw bar with a fireplace indoors & dock seating outside.,http://www.quitosrestaurant.com/,https://quitosrestaurant.com/menu/,https://www.toasttab.com/quitos-restaurant-takeout.com/giftcards,https://quitosrestaurant.com/contact/, ,Contact,1,RI,02809,restaurant
Fisher's Pub,"360 Wareham St #3222, Middleborough, MA 02346",Grill,Middleborough,,http://fisherspub.com/,,https://swipeit.com/product/1118/fishers-pub,http://fisherspub.com/contact,"
GIFT CARDS
","
CONTACT
",1,MA,02346,restaurant
Lisa's Crown & Hammer Restaurant & Pub,"3 Depot St, Collinsville, CT 06019",Restaurant,Collinsville,"Gourmet pub fare, live music & trivia nights offered in a former train depot with historic decor.",https://www.crownandhammer.com/,http://crownandhammer.com/dinner.html,https://www.crownandhammer.com/store/gift-cards/#digital-gift-cards,,digital gift cards,,1,CT,06019,restaurant
The Mill on the River,"989 Ellington Rd, South Windsor, CT 06074",American,South Windsor,Special-occasion spot in a rustic former grist mill serving Continental fare plus a popular brunch.,https://www.themillontheriver.com/,,https://millrestaurantgroup.com/giftCert/start-gift-card.html,"https://www.google.com/maps/place/989+Ellington+Rd,+South+Windsor,+CT+06074/@41.8217188,-72.5882178,17z/data=!3m1!4b1!4m2!3m1!1s0x89e6563e81e7b629:0x1dd20a0d47ce8ab4","



				Gift Card
			

", FIND US,1,CT,06074,restaurant
Article 24,"458 Western Ave, Brighton, MA 02135",New American,Brighton,"Lively two-floor restaurant & rock bar with funky American eats, craft beer & live music.",https://article24boston.com/,https://article24boston.com/menu/,https://www.toasttab.com/article-24/giftcards,https://article24boston.com/contact/,Gift Cards,Contact,1,MA,02135,restaurant
Pizzi Farm Ice Cream,"495 Lincoln St, Waltham, MA 02451",Ice Cream,Waltham,,http://www.pizzifarm.com/,,https://squareup.com/gift/5ZE6J2VPQYT8J/order,http://www.pizzifarm.com/index.php?id=27,,Contact Us,1,MA,02451,restaurant
Mamma Mia's of Plymouth Pinehills,"3 Village Green N #312, Plymouth, MA 02360",Italian,Plymouth,,https://mammamias.net/,https://mammamias.net/pinehills-menu/,https://mammamias.net/product/gift-card/,,MAMMA MIA’S GIFT CARD,,1,MA,02360,restaurant
Top of the Bay,"898 Oakland Beach Ave, Warwick, RI 02889",Seafood,Warwick,"Classic New England eatery serving seafood, steaks, wine & beer in a casual setting with bay views.",http://topofthebayrestaurant.com/,http://topofthebayrestaurant.com/menu/,http://topofthebayrestaurant.com/gift-cards/,http://topofthebayrestaurant.com/contact/,GIFT CARDS,CONTACT,1,RI,02889,restaurant
Cantina del Rio Mexican Restaurant,"1705 W Shore Rd, Warwick, RI 02889",Mexican,Warwick,,http://cantinadelriomexri.com/,,http://cantinadelriomexri.com/store/gift-cards/,http://cantinadelriomexri.com/contact/,Gift Cards,Contact,1,RI,02889,restaurant
Bistro Cacao,"316 Massachusetts Ave NE, Washington, DC 20002",French,Washington,Antique decor & curtained booths plus French bistro fare make this townhouse a romantic destination.,http://bistrocacao.com/,https://bistrocacao.com/#menu,https://www.toasttab.com/onlineordering/giftcards,http://bistrocacao.com/#eluid120d9cef,Gift Cards,Contact,1,DC,20002,restaurant
Cafe Berlin,"322 Massachusetts Ave NE, Washington, DC 20002",Fine Dining,Washington,German eatery with an elegant dining room on the ground floor of 3 joined townhouses & a patio.,http://www.cafeberlin-dc.com/,http://www.cafeberlin-dc.com/beverages/,http://www.cafeberlin-dc.com/gift-cards/,http://www.cafeberlin-dc.com/contact/,Gift Cards,Contact,1,DC,20002,restaurant
Farmers & Distillers,"600 Massachusetts Ave NW, Washington, DC 20001",American,Washington,Distillery & eatery with wide-ranging international menu & drinks mixed with housemade spirits.,https://farmersanddistillers.com/,http://farmersanddistillers.com/menus/,https://farmersrestaurantgroup.cardfoundry.com/giftcards.php,https://farmersanddistillers.com/contact/,Gift cards,Contact,1,DC,20001,restaurant
Vietnamese Gourmet,"113 Vermont St, Springfield, MA 01108",Vietnamese,Springfield,,https://vietnamesegourmet.com/,,https://vietnamesegourmet.com/Gift,https://vietnamesegourmet.com/Contact,Gift Certificate ,Contact Us ,1,MA,01108,restaurant
Majestic Theater,"131 Elm St, West Springfield, MA 01089",Performing arts theater,West Springfield,Community performance-art theater hosting local drama & musical productions.,http://www.majestictheater.com/,,http://www.majestictheater.com/boxoffice.html#giftcertificates,http://www.majestictheater.com/contactandfind.html,Gift Certificates,Contact & Find Us,1,MA,01089,restaurant
Delivery Express,"11 Pleasant St # 2, West Springfield, MA 01089",Delivery Restaurant,West Springfield,,https://www.deliveryexpress.com/,,https://deliveryexpress.com/giftcards/,https://deliveryexpress.com/contact/,Gift Cards,Contact Us,1,MA,01089,restaurant
West Springfield 15,"864 Riverdale St, West Springfield, MA 01089",Movie theater,West Springfield,"Modern multiscreen cinema with digital projection and sound equipment, plus a custom party service.",https://www.cinemark.com/,,https://www.cinemark.com/gift-cards,https://cinemark.com/contact-us,Gift Cards ,Contact Us,1,MA,01089,restaurant
Firehouse Pizza,"196 Montauk Hwy, Westhampton Beach, NY 11978",Pizza,Westhampton Beach,,http://www.thepizzaweb.com/,,http://www.thepizzaweb.com/page/page/7454847.htm,http://www.thepizzaweb.com/contactus.html,The Gift Certificates Web,Contact,1,NY,11978,restaurant
Stone Creek Inn,"405 Montauk Hwy, East Quogue, NY 11942",French,East Quogue,Destination for elite French-Med cuisine in a grand Victorian with simple yet striking white decor.,http://www.stonecreekinn.com/,http://www.stonecreekinn.com/index-montauk/#/appetizers/,http://www.stonecreekinn.com/new-page-2,http://www.stonecreekinn.com/contact-montauk,Gift Cards,Catering,1,NY,11942,restaurant
East Hampton Grill,"99 N Main St, East Hampton, NY 11937",American,East Hampton,American standards such as steak & ribs in an airy bistro with an open kitchen & bustling bar.,http://www.easthamptongrill.com/,http://easthamptongrill.com/menu/,http://www.easthamptongrill.com/giftcards/,http://www.easthamptongrill.com/contact/,gift cards,contact,1,NY,11937,restaurant
Salt and Loft,"145 Main St, Westhampton Beach, NY 11978",New American,Westhampton Beach,,http://www.saltandloft.com/,,https://www.saltandloft.com/gift-certificate,https://www.saltandloft.com/contact-us,"
									Gift Certificate
								","
Contact us
",1,NY,11978,restaurant
Cooperage Inn,"2218 Sound Ave, Baiting Hollow, NY 11933",American,Baiting Hollow,Quaint American-Continental eatery using local produce & set in a country-style dining room.,http://www.cooperageinn.com/,http://www.cooperageinn.com/Menu.html,https://www.cooperageinn.com/store/,http://www.cooperageinn.com/#contact,Gift Cards,Contact,1,NY,11933,restaurant
Gray's Daily Grind,"638 Adamsville Rd, Westport, MA 02790",Coffee shop,Westport,,http://www.graysdailygrind.com/,https://www.graysdailygrind.com/menus,https://squareup.com/gift/44JAHJFBF7EVQ/order,https://www.graysdailygrind.com/find-us,Buy Gift Cards,FIND US,1,MA,02790,restaurant
Partners Village Store,"865 Main Rd, Westport, MA 02790",Book store,Westport,,http://www.partnersvillagestore.com/,,http://www.partnersvillagestore.com/gift-cards,http://www.partnersvillagestore.com/contact-us,"
            Gift Cards
          ","
            Contact Us
          ",1,MA,02790,restaurant
Taste Buds Kitchen,"14 High St, North Andover, MA 01845",Event venue,North Andover,,http://tastebudskitchen.com/,,https://tastebudskitchen.com/northandover/gift-cards/,http://#,, Contact,1,MA,01845,restaurant
Sakura Garden,"Evergreen Way, South Windsor, CT 06074",Restaurant,South Windsor,"Sprawling Japanese steakhouse at the Promenade Shops with tableside hibachi, sushi & a bustling bar.",http://sakuragardenct.com/,,http://sakuragardenct.com/gift-cards/,http://sakuragardenct.com/contact-us/,,Contact Us,1,CT,06074,restaurant
Shojo,"9 Tyler St, Boston, MA 02111",Asian Fusion,Boston,"Trendy, late-night gastropub with elaborate murals dishing up offbeat takes on modern Asian fare.",http://shojoboston.com/,http://places.singleplatform.com/shojo-boston/menu?ref=google,https://www.shojoboston.com/reservations,https://www.shojoboston.com/contact-us,RESERVATIONS & GIFT CARDS,CONTACT US,1,MA,02111,restaurant
Spinelli's Pasta And Pastries,"282 Bennington St, Boston, MA 02128",Italian,Boston,,http://spinellis.com/,,http://www.spinellis.com/gift-cards/,http://www.spinellis.com/contact/,Gift Cards,"
Contact UsLet us know about your next event and we’ll let you know how we can help!




",1,MA,02128,restaurant
Wahlburgers,"Boston Logan International Airport, Terminal C, 300 Terminal Dr, Boston, MA 02128",Hamburger,Boston,,https://wahlburgers.com/,https://wahlburgers.com/logan-airport,https://swipeit.com/product/676/wahlburgers,https://wahlburgers.com/logan-airport,Gift cards,Contact,1,MA,02128,restaurant
BirchTree Bread Company,"138 Green St #5, Worcester, MA 01604",Cafe,Worcester,"Bakery & cafe serving breads, pastries, sandwiches & coffee in a spacious, light-filled venue.",http://www.birchtreebreadcompany.com/,http://www.birchtreebreadcompany.com/menu/,http://www.birchtreebreadcompany.com/gift-cards,,Gift Cards,,1,MA,01604,restaurant
Escape Games Worcester,"108 Grove St, Worcester, MA 01605",Escape room center,Worcester,Interactive escape game attraction for groups featuring different rooms & themes.,http://www.escapegamesworcester.com/,,http://www.escapegamesworcester.com/gift-cards,,"
                Gift Cards
              ",,1,MA,01605,restaurant
Red Face Jack's,"585 Main St, West Yarmouth, MA 02673",Sports bar,West Yarmouth,"Lots of TVs, including several big screens, draw fans to this hopping sports bar, serving pub grub.",http://redfacejacks.com/,http://www.redfacejacks.com/menu/,https://swipeit.com/product/1021/red-face-jacks-pub,http://redfacejacks.com/contact-us,Gift Cards,Contact Us ,1,MA,02673,restaurant
The Naked Oyster,"410 Main St, Hyannis, MA 02601",Restaurant,Hyannis,"Oysters from the bistro's own farm, creative seafood dishes & big wine list star in a modern space.",http://nakedoyster.com/,http://places.singleplatform.com/naked-oyster-bistro--raw-bar/menu?ref=google,https://www.nakedoyster.com/product/gift-card/,https://www.nakedoyster.com/contact-us/,shop,contact us,1,MA,02601,restaurant
Yarmouth Restaurant Association,"834 MA-28, South Yarmouth, MA 02664",Internet marketing service,South Yarmouth,,https://www.yarmouthrestaurants.com/,,https://www.yarmouthrestaurants.com/info/winadinner.php,https://www.yarmouthrestaurants.com/customerservice/contact.php,Win a Gift Card,Contact Us,1,MA,02664,restaurant
