name,address,type,place,website_url,menu_url,description,gift_card_txt,gift_card_website,contact_website,contact_txt,searched,state,zipcode,store_type
Salon Esprit,"225 Bedford St, East Bridgewater, MA 02333",Beauty salon,East Bridgewater,https://salon-esprit.com/,,,,,https://salon-esprit.com/tel:5083781530,508.378.1530,1,MA,02333,beauty_salon
Plumbhunneez Naturalistic Unisex Hair Care Salon,"80 Franklin St, Brockton, MA 02301",Hair salon,Brockton,http://plumbhunneez.com/,,,,,http://plumbhunneez.com/#contact,Appointment,1,MA,02301,beauty_salon
Alba Med Spa,"1221 Main St Suite 203B, South Weymouth, MA 02190",Medical spa,South Weymouth,https://www.kirbysaesthetic.bar/,,,,,https://www.kirbysaesthetic.bar/tel:7742575155,(774) 257-5155,1,MA,02190,beauty_salon
Passion Nails Studio,"263 Washington St # 5, Norwell, MA 02061",Nail salon,Norwell,https://passionnailsstudio.com/,,,,,https://passionnailsstudio.com/contact,Contact,1,MA,02061,beauty_salon
Eyedol Beauty,"270 Centre St UNIT E, Holbrook, MA 02343",Beauty salon,Holbrook,https://www.eyedolbeauty.com/,,,,,https://eyedolbeauty.com/contact-us-2/,Contact Us,1,MA,02343,beauty_salon
The Hair After Salon,"40 Thoreau St, Concord, MA 01742",Beauty salon,Concord,http://www.thehairaftersalon.com/,,,,,http://www.thehairaftersalon.com/contact,Contact,1,MA,01742,beauty_salon
Lyla Beauty Bar,"75 Great Rd Suite 203, Acton, MA 01720",Medical spa,Acton,https://lylabeautybar.com/,,,,,https://lylabeautybar.com/contact.html,Contact,1,MA,01720,beauty_salon
DT Nails & Spa,"1204 Main St, Concord, MA 01742",Nail salon,Concord,http://dtnailsconcord.com/,,,,,http://dtnailsconcord.com/#contact,Contact,1,MA,01742,beauty_salon
Salon At Newbury Court,"80 Deaconess Rd, Concord, MA 01742",Beauty salon,Concord,http://www.newburycourt.org/,,,,,https://www.facebook.com/NewburyCourt,"



",1,MA,01742,beauty_salon
Essentially Bare,"777 Concord Turnpike, Concord, MA 02138",Skin care clinic,Concord,http://www.essentiallybare.com/,,,,,http://essentiallybare.com/contact/appointment-request/,Request an Appointment,1,MA,02138,beauty_salon
Divine Hair Salon,"708 Ashley Blvd, New Bedford, MA 02745",Hair salon,New Bedford,http://divinehairsalon.org/,,,,,http://divinehairsalon.org/contact-us.php,Contact & Book Now,1,MA,02745,beauty_salon
Beauty Nails & Spa,"1 Chace Rd, East Freetown, MA 02717",Nail salon,East Freetown,http://www.beautynailsandspafreetown.com/,,,,,http://www.beautynailsandspafreetown.com/contact.php,Contact Us,1,MA,02717,beauty_salon
Green Grotto Beauty,"100 State Rd, Dartmouth, MA 02747",Beauty salon,Dartmouth,http://www.greengrottobeauty.com/,,,,,https://www.greengrottobeauty.com/contact,Book,1,MA,02747,beauty_salon
Cozy Nails & Spa,"1244 Kempton St, New Bedford, MA 02740",Beauty salon,New Bedford,http://cozynailspa.com/,,,,,https://www.cozynailspa.com/contact,Contact,1,MA,02740,beauty_salon
South Coast Hair Options,"2082 Acushnet Ave, New Bedford, MA 02745",Hair salon,New Bedford,http://southcoasthairoptions.com/,,,,,https://southcoasthairoptions.com/contact/,Contact,1,MA,02745,beauty_salon
Glow Co Skincare,"216 Myrtle St, New Bedford, MA 02746",Beauty salon,New Bedford,https://glow-co-skincare.ueniweb.com/,,,,,https://glow-co-skincare.ueniweb.com/#contact_us,Contact Us,1,MA,02746,beauty_salon
The Glossarie Dry Bar,"33 County Rd, Mattapoisett, MA 02739",Beauty salon,Mattapoisett,https://www.glossariedrybar.com/,,,,,https://www.glossariedrybar.com/contact,CONTACT,1,MA,02739,beauty_salon
Advanced Electrolysis & Medical Laser,"862 Ashley Blvd, New Bedford, MA 02745",Laser hair removal service,New Bedford,https://www.advancedelectrolysisandmedicallaser.com/,,,,,https://www.advancedelectrolysisandmedicallaser.com/form,CONTACT US,1,MA,02745,beauty_salon
Rituals Salon & Day Spa,"403 Main St, Fairhaven, MA 02719",Day spa,Fairhaven,https://www.ritualssalonanddayspa.com/,,,,,https://www.ritualssalonanddayspa.com/contact,"
            Contact
          ",1,MA,02719,beauty_salon
V's Hair and Beauty Supply,"1543 Acushnet Ave, New Bedford, MA 02746",Beauty supply store,New Bedford,http://richmarketingma.wix.com/,,,,,https://richmarketingma.wixsite.com/vshairandbeauty/contact,Contact,1,MA,02746,beauty_salon
Salon Gigi,"42 Hathaway Rd, Dartmouth, MA 02747",Hair salon,Dartmouth,http://www.hairgigi.com/,,,,,https://www.hairgigi.com,CONTACT,1,MA,02747,beauty_salon
Prestige Nails & Spa,"37 Rockdale Ave Unit 2, New Bedford, MA 02740",Nail salon,New Bedford,http://prestigenailsspane.wixsite.com/,,,,,https://prestigenailsspane.wixsite.com/salon/contact-us-1,CONTACT US,1,MA,02740,beauty_salon
Seven Salon Spa,"7 South St, Stockbridge, MA 01262",Beauty salon,Stockbridge,http://sevensalonspa.com/,,,,,//sevensalonspa.com/contact,Contact,1,MA,01262,beauty_salon
Cheryl Nina Salon & Day Spa,"35 University Dr, Amherst, MA 01002",Beauty salon,Amherst,http://www.cherylninasalon.com/,,,,,http://www.cherylninasalon.com/contact-us.html,Contact Us,1,MA,01002,beauty_salon
Salon 180 East,"180 Pleasant St #210, Easthampton, MA 01027",Beauty salon,Easthampton,http://www.salon180east.com/,,"Beauty salon offering hair styling & coloring, plus face waxing, mani-pedis, spray tans & more.",,,https://www.salon180east.com/contact,Book an appointment,1,MA,01027,beauty_salon
David Gavin Salon,"274 Main St, Great Barrington, MA 01230",Beauty salon,Great Barrington,http://www.davidgavinberkshires.com/,,,,,https://www.davidgavinberkshires.com/contact,Contact,1,MA,01230,beauty_salon
Makeup Artistry by Liz,"609 Northampton St, Holyoke, MA 01040",Beauty salon,Holyoke,http://www.bridalbyliz.com/,,,,,https://www.bridalbyliz.com/contact/,Contact,1,MA,01040,beauty_salon
Skin Envy,"60 Roberts Dr Suite 314, North Adams, MA 01247",Skin care clinic,North Adams,https://www.myskinenvy.com/,,,,,https://www.myskinenvy.com/contact-1,"
        
        Contact Us
      ",1,MA,01247,beauty_salon
Deluxe Nail & Spa,"505 Beale St, Quincy, MA 02169",Nail salon,Quincy,http://www.deluxespanail.com/,,,,,http://www.deluxespanail.com/contact-us,Contact  Us,1,MA,02169,beauty_salon
Oksana Salon & Spa,"702 Bliss Rd, Longmeadow, MA 01106",Beauty salon,Longmeadow,http://www.oksanasalonspa.com/,,,,,http://oksanasalonspa.com/contact/,Contact,1,MA,01106,beauty_salon
Touch of NYC Hair Boutique LLC,"Touch Of NYC Hair Boutique, 803 Belmont Ave, Springfield, MA 01108",Beauty salon,Springfield,http://www.touchofnychairboutique.com/,,,,,http://www.touchofnychairboutique.com/tel:4133620008,(413)362-0008,1,MA,01108,beauty_salon
ProLase Laser Clinic,"25 Duclos Dr, Feeding Hills, MA 01030",Laser hair removal service,Feeding Hills,http://www.prolase.net/,,,,,http://www.prolase.net/#,"Contact Us
                                                    Locations ",1,MA,01030,beauty_salon
Advanced Aesthetics Med Spa,"120 Westfield St, West Springfield, MA 01089",Medical spa,West Springfield,http://advancedaestheticsmedispa.com/,,,,,https://advancedaestheticsmedispa.com/contact-or-book-appointment/,Contact or Book Appointment,1,MA,01089,beauty_salon
Beauty Gate Salon & Day Spa,"1646 Riverdale St, West Springfield, MA 01089",Beauty salon,West Springfield,http://www.beautygatesalonspa.com/,,,,,https://www.beautygatesalonspa.com/contact,Contact,1,MA,01089,beauty_salon
Baked Beauty Bar,"94 Island Pond Rd, Springfield, MA 01108",Beauty salon,Springfield,https://www.bakedbeautybar.com/,,,,,https://www.brandrep.com/contact,BrandRep,1,MA,01108,beauty_salon
Modern Designs Salon,"29 Babbs Rd, West Suffield, CT 06093",Hair salon,West Suffield,http://www.moderndesignssalon.com/,,,,,http://www.moderndesignssalon.com/#contact-scroll,Contact Us,1,CT,06093,beauty_salon
VIP Nails Spa,"475 Breckwood Blvd, Springfield, MA 01119",Nail salon,Springfield,http://vipnailsspaspringfield.com/,,,,,http://vipnailsspaspringfield.com/contact,Contact,1,MA,01119,beauty_salon
Complete Aesthetics,"1111 Elm St #25a, West Springfield, MA 01089",Medical spa,West Springfield,http://completeaesthetics.com/,,,,,http://completeaesthetics.com/contact-us/,Contact Us,1,MA,01089,beauty_salon
JayLynn Salon & Spa,"23 E Main St, Canaan, CT 06018",Hair salon,Canaan,http://www.jaylynnsalon.com/,,,,,https://www.jaylynnsalon.com,CONTACT,1,CT,06018,beauty_salon
Talk of the Town Beauty Parlor,"49 Main St, Leominster, MA 01453",Beauty salon,Leominster,http://www.talkofthetownbeautyparlor.com/,,,,,http://www.talkofthetownbeautyparlor.com/contact.html,"





Contact Us


",1,MA,01453,beauty_salon
Blink Skincare And Lash Studio,"253 Low St, Newburyport, MA 01950",Beauty salon,Newburyport,http://www.blinklashstudios.com/,,,,,http://www.blinklashstudios.com/contact,Contact,1,MA,01950,beauty_salon
Glow Personalized Skin Care,"77 Macy St, Amesbury, MA 01913",Day spa,Amesbury,http://www.glowpersonalizedskincare.com/,,,,,http://www.glowpersonalizedskincare.com/Contact_Us.html,Contact Us,1,MA,01913,beauty_salon
Hair We Go Weddings,"73 Main St, Amesbury, MA 01913",Hairdresser,Amesbury,http://hairwegoweddings.com/,,,,,https://www.hairwegoweddings.com,CONTACT,1,MA,01913,beauty_salon
Hair Company K,"134 Main St, Amesbury, MA 01913",Hair salon,Amesbury,http://www.haircompanyk.com/,,"Hair salon for men's, women's & kids' cuts, plus coloring, styling, blowouts & bridal services.",,,http://www.haircompanyk.com/contact-us,"
            Contact Us
          ",1,MA,01913,beauty_salon
Shadowbox Salon,"44 Elm St, Amesbury, MA 01913",Hair salon,Amesbury,http://www.shadowboxsalon.com/,,,,,https://www.shadowboxsalon.com/contact,CONTACT,1,MA,01913,beauty_salon
Liz Kidder Studio,"48 Market St, Amesbury, MA 01913",Hair salon,Amesbury,http://www.lizkidderstudio.com/,,,,,http://www.lizkidderstudio.com/contact-us,Contact Us,1,MA,01913,beauty_salon
Laser Smooth,"110 Haverhill Rd Bldg C, Suite 330, Amesbury, MA 01913",Laser hair removal service,Amesbury,http://lasersmooth.net/,,,,,http://lasersmooth.net/tel:153,153,1,MA,01913,beauty_salon
Salon 4270,"165 Bridge Rd, Salisbury, MA 01952",Hair salon,Salisbury,http://www.salon4270.com/,,,,,http://www.salon4270.com/contact,Contact,1,MA,01952,beauty_salon
Salon Bellisimo and Barbershop,"113 Merrimac St, Newburyport, MA 01950",Beauty salon,Newburyport,http://www.salonbellisimo.net/,,,,,http://www.salonbellisimo.net/tel:9784630004,(978) 463-0004,1,MA,01950,beauty_salon
Art of Hair,"135 Main St, Lenox, MA 01240",Beauty salon,Lenox,http://www.daniellepiercebeauty.com/,,,,,https://www.daniellepiercebeauty.com/contact,CONTACT,1,MA,01240,beauty_salon
Subtle Perfection,"Carriage Mills, 21 Water St, Amesbury, MA 01913",Permanent makeup clinic,Amesbury,http://subtleperfection.ink/,,,,,http://subtleperfection.ink/tel:9783603616,(978) 360-3616,1,MA,01913,beauty_salon
Diane's Hair Removal and Skin Care,"10 Prince Pl, Newburyport, MA 01950",Beauty salon,Newburyport,http://dianeshairremovalandskin.com/,,,,,http://dianeshairremovalandskin.com/contact-us.html,"
							Contact Us
						",1,MA,01950,beauty_salon
Wisteria Salon,"50 Water St, Newburyport, MA 01950",Beauty salon,Newburyport,http://www.wisteria-salon.com/,,"Charming boutique offering haircuts & coloring for women, plus eyebrow waxing & shaping.",,,https://www.wisteria-salon.com/contact-us,Contact Us,1,MA,01950,beauty_salon
Capelli Chic Salon,"38 Washington St, Newburyport, MA 01950",Beauty salon,Newburyport,http://www.capellichicsalon.com/,,,,,http://www.capellichicsalon.com/contact/,Contact,1,MA,01950,beauty_salon
Meraki Spa,"25 Storey Ave #6, Newburyport, MA 01950",Spa,Newburyport,http://merakispainc.com/,,,,,https://www.merakispainc.com/contact,CONTACT,1,MA,01950,beauty_salon
SKYY Salon,"97 Water St, Newburyport, MA 01950",Hair salon,Newburyport,http://www.skyysalon.net/,,,,,http://www.skyysalon.net/Contact.php,Contact,1,MA,01950,beauty_salon
Hair Styles by Michele,"114 Elm St, Salisbury, MA 01952",Hair salon,Salisbury,http://hairstylesbymichele.com/,,,,,http://hairstylesbymichele.com/tel:9789922179,978-992-2179,1,MA,01952,beauty_salon
Waxele  waxing center & spa,"138 Russell St, Hadley, MA 01035",Beauty salon,Hadley,http://www.waxele.com/,,,,,http://www.purelesalon.com/contact.html,,1,MA,01035,beauty_salon
Salon Herdis,"231 Main St, Northampton, MA 01060",Hair salon,Northampton,http://www.salonherdis.com/,,,,,https://www.salonherdis.com/contact/,Book Online,1,MA,01060,beauty_salon
Vallon Medispa,"163 Conz St, Northampton, MA 01060",Beauty salon,Northampton,http://www.vallonmedispa.com/,,,,,http://www.vallonmedispa.com/home/contact-us/,Contact Us,1,MA,01060,beauty_salon
panacea Salon,"28 Pleasant St, Northampton, MA 01060",Beauty salon,Northampton,https://www.panacea-salon.com/,,,,,https://www.panacea-salon.com/contact,Contact,1,MA,01060,beauty_salon
JoiaBeauty,"6 Crafts Ave #3479, Northampton, MA 01060",Beauty salon,Northampton,http://www.joiabeauty.com/,,,,,http://joiabeauty.com/contact/,Contact Us,1,MA,01060,beauty_salon
Olivia's Hair Studio,"22 New Ludlow Rd, Granby, MA 01033",Beauty salon,Granby,http://oliviashairstudio.com/,,,,,http://oliviashairstudio.com/contact-us-2/,Contact Us,1,MA,01033,beauty_salon
Hair by Patrick,"56 Main St Suite 220, Northampton, MA 01060",Beauty salon,Northampton,http://hairbypatrick.com/,,,,,http://hairbypatrick.com/contact,contact,1,MA,01060,beauty_salon
Shear Xtreme,"4 Old S St, Northampton, MA 01060",Beauty salon,Northampton,http://www.shearxtreme.com/,,,,,http://www.shearxtreme.com/tel:4135631906,413.563.1906,1,MA,01060,beauty_salon
T 5 Nails Salon & Spa,"572 Newton St, South Hadley, MA 01075",Nail salon,South Hadley,http://t5nailssalonandspama.com/,,,,,http://t5nailssalonandspama.com/contact-us.html,Contact,1,MA,01075,beauty_salon
Continuous Creations Hair Salon,"30 N Maple St, Florence, MA 01062",Beauty salon,Florence,https://www.continuouscreationshairsalon.com/,,,,,https://www.continuouscreationshairsalon.com/contact-form/,Contact,1,MA,01062,beauty_salon
Andover Nail Spa,"166 N Main St, Andover, MA 01810",Nail salon,Andover,http://www.andovernailspa.com/,,,,,http://www.andovernailspa.com/contact.htm,"

",1,MA,01810,beauty_salon
Andover Hair Removal Center Inc,"13 Main St #3, Andover, MA 01810",Hair removal service,Andover,http://www.andoverhairremoval.com/,,,,,http://www.andoverhairremoval.com/contact-us.html,Contact Us,1,MA,01810,beauty_salon
The Robert Jason Salon Beauty Bar,"96 Main St, Andover, MA 01810",Nail salon,Andover,http://robertjasonsalon.com/,,,,,http://robertjasonsalon.com/#contact,Appointments & Contact,1,MA,01810,beauty_salon
Starlet Studio,"77 Main St #1, Andover, MA 01810",Waxing hair removal service,Andover,http://starlet.studio/,,,,,https://starlet.studio/contact/,Contact,1,MA,01810,beauty_salon
Mint Studio at Sola Salons,"Sola Salons, 27 Main St Studio 18, Andover, MA 01810",Nail salon,Andover,http://mintstudio15.glossgenius.com/,,,,,http://mintstudio15.glossgenius.com/contact,Contact,1,MA,01810,beauty_salon
Andover MA Professional Hair Stylist,"68 Park St, Andover, MA 01810",Hair salon,Andover,http://www.reginaweldonhairandmakeup.com/,,,,,http://www.reginaweldonhairandmakeup.com/contact-regina-weldon-hair-and-makeup-artistry-andover-ma.html?dm_device=desktop,Contact,1,MA,01810,beauty_salon
The Cosmic Beauty Bar,"1 Dundee Park Dr #4, Andover, MA 01810",Beauty salon,Andover,http://cosmicbeautybar.com/,,,,,https://www.cosmicbeautybar.com/contact/,Contact Us,1,MA,01810,beauty_salon
Sport Clips Haircuts of Andover,"209 N Main St, Andover, MA 01810",Hair salon,Andover,https://haircutmenandoverma.com/,,,,,https://www.sportclips.com/about-us/contact-us,Contact Us,1,MA,01810,beauty_salon
Salon Vergados,"350 Winthrop Ave Suite 9A, North Andover, MA 01845",Beauty salon,North Andover,http://salonvergados.com/,,,,,https://www.salonvergados.com,Contact,1,MA,01845,beauty_salon
White Lotus Nail & Spa,"1111 Riverside Dr, Methuen, MA 01844",Nail salon,Methuen,http://whitelotusmethuen.com/,,,,,http://whitelotusmethuen.com/contact.html,Contact,1,MA,01844,beauty_salon
De Anza Salon & Spa,"1820 Turnpike St #101, North Andover, MA 01845",Nail salon,North Andover,http://www.deanzasalon.com/,,,,,https://deanzasalon.com/contact/,Book Now,1,MA,01845,beauty_salon
Relaxation SPA,"236 Edgartown-Vineyard Haven Rd, Edgartown, MA 02539",Day spa,Edgartown,http://relaxationspamv.com/,,"Resource for various types of massage as well as manicures, facials, scrubs & other spa services.",,,http://relaxationspamv.com/contact.html,Contact,1,MA,02539,beauty_salon
Arlington SkinMED,"22 Mill St STE 101, Arlington, MA 02476",Skin care clinic,Arlington,http://arlingtonskinmed.com/,,,,,https://arlingtonskinmed.com/contact-us-medical-aesthetics/,CONTACT,1,MA,02476,beauty_salon
Salon Marcello,"20 Massachusetts Ave, Lexington, MA 02420",Hair salon,Lexington,http://www.salonmarcello.com/,,,,,https://salonmarcello.com/contact-us/,Contact Us,1,MA,02420,beauty_salon
Maria Ferry Salon,"1152 Broadway, Somerville, MA 02144",Beauty salon,Somerville,http://www.mariaferrysalon.com/,,,,,http://www.mariaferrysalon.com/contact.html,Contact,1,MA,02144,beauty_salon
Lex Spa,"363 Massachusetts Ave, Lexington, MA 02420",Beauty salon,Lexington,http://thelexspa.com/,,,,,https://www.thelexspa.com/contact-us-1,CONTACT US,1,MA,02420,beauty_salon
IVY Hair Loft,"446 Massachusetts Ave, Arlington, MA 02474",Hair salon,Arlington,http://www.ivyhairloft.com/,,,,,http://www.ivyhairloft.com/info-location,Contact,1,MA,02474,beauty_salon
Classy Nail & Hair Salon,"241 Boston Ave, Medford, MA 02155",Hair salon,Medford,http://classynailhairsalon.com/,,,,,http://classynailhairsalon.com/contact,Contact,1,MA,02155,beauty_salon
Salon Femia,"43 Holland St, Somerville, MA 02144",Hair salon,Somerville,http://www.salonfemia.com/,,,,,http://www.salonfemia.com/contact.html,"
				Contact
			",1,MA,02144,beauty_salon
Salon Glo,"154 Main St, Medford, MA 02155",Beauty salon,Medford,http://www.salonglomedford.com/,,,,,http://www.salonglomedford.com/tel:7818740339,(781) 874-0339,1,MA,02155,beauty_salon
Faron Salon,"1784 Massachusetts Ave, Cambridge, MA 02140",Beauty salon,Cambridge,http://www.faronsalon.com/,,,,,https://faronsalon.com/contact-us/,Contact Us,1,MA,02140,beauty_salon
Luzia's Beauty Salon,"142 Slade St, Belmont, MA 02478",Beauty salon,Belmont,http://www.luziasbeautysalon.com/,,,,,http://www.luziasbeautysalon.com/contact/2717066,CONTACT,1,MA,02478,beauty_salon
AILISH & ASTON SALON AND SPA,"411 Waverley Oaks Rd # 134, Waltham, MA 02452",Beauty salon,Waltham,https://www.ailishandaston.com/,,,,,https://www.ailishandaston.com/contact,Contact,1,MA,02452,beauty_salon
Belmont Beauty Salon,"195 Belmont St, Belmont, MA 02478",Beauty salon,Belmont,http://belmontbeautysalon.webs.com/,,,,,https://belmontbeautysalon.webs.com/contactus.htm,Contact Us,1,MA,02478,beauty_salon
TN Beauty Salon,"384 Trapelo Rd, Belmont, MA 02478",Beauty salon,Belmont,http://www.tnbeautysalon.com/,,,,,http://www.tnbeautysalon.com/Contact-Us/,Contact Us,1,MA,02478,beauty_salon
Hair Exchange,"199 Mystic Ave, Medford, MA 02155",Beauty salon,Medford,http://hair-exchange.com/,,,,,http://hair-exchange.com/contact/,Contact,1,MA,02155,beauty_salon
Star Salon & Style,"275 Mystic Ave, Medford, MA 02155",Beauty salon,Medford,http://www.starsalonandstyle.com/,,"Contemporary beauty salon in a strip mall offering haircuts, color & skincare treatments.",,,http://www.starsalonandstyle.com/contact.html,Contact,1,MA,02155,beauty_salon
Hair Co,"1815 Massachusetts Ave, Cambridge, MA 02140",Beauty salon,Cambridge,http://www.hair-co.com/,,,,,http://www.hair-co.com/contact.html,"
										Contact
									",1,MA,02140,beauty_salon
Back Bay Hair Designs,"595 Somerville Ave, Somerville, MA 02143",Beauty salon,Somerville,http://www.backbayhairdesigns.com/,,,,,http://www.backbayhairdesigns.com/contact.html,find us,1,MA,02143,beauty_salon
Somerville Threading,"278 Elm St #229, Somerville, MA 02144",Beauty salon,Somerville,http://www.theperfectthreadingspa.com/,,,,,http://www.theperfectthreadingspa.com/#,New Contact Us 1,1,MA,02144,beauty_salon
C & N Beauty Supply Salon & Services,"380 Main St, Medford, MA 02155",Beauty salon,Medford,http://cnbeautysupply.net/,,,,,http://cnbeautysupply.net/contact," Contact

",1,MA,02155,beauty_salon
Rituals Salon and SpaLeominster,"646 Central St, Leominster, MA 01453",Hair salon,Leominster,http://ritualsspa.com/,,,,,https://ritualsspa.com/hours-directions-contact/,Hours/Directions/Contact,1,MA,01453,beauty_salon
Delali Hair Braiding,"4 Summer St, Fitchburg, MA 01420",Hair salon,Fitchburg,https://www.delalihairbraiding.com/,,,,,https://www.delalihairbraiding.com/contact-us,Contact Us,1,MA,01420,beauty_salon
Wink Beauty  Hair Studio LLC,"195 Main St B, Groton, MA 01450",Beauty salon,Groton,http://www.winkgroton.com/,,,,,https://www.winkgroton.com,Contact,1,MA,01450,beauty_salon
K Porter & Co,"32 Main St, Ayer, MA 01432",Beauty salon,Ayer,http://www.kporterandcompany.com/,,,,,https://www.kporterandcompany.com/contact-1,Contact,1,MA,01432,beauty_salon
Sherri's Designs,"1085 Main St, Holden, MA 01520",Beauty salon,Holden,https://www.sherrisdesignsholden.com/,,,,,https://www.sherrisdesignsholden.com/contact," Contact
",1,MA,01520,beauty_salon
Lu Lu Beauty Co,"45 Sterling St #10, West Boylston, MA 01583",Beauty salon,West Boylston,http://www.iwantlulu.com/,,,,,http://www.iwantlulu.com/contact-us,"
            contact us

",1,MA,01583,beauty_salon
Isabelle Francis Salon,"135 Turnpike Rd, Westborough, MA 01581",Beauty salon,Westborough,http://www.ifsalon.com/,,,,,https://ifsalon.com/contact-us/,Contact Us,1,MA,01581,beauty_salon
Seasons Hair Salon & Day Spa,"350 E Main St, Milford, MA 01757",Beauty salon,Milford,http://www.theseasonssalon.com/,,,,,https://www.salonbuilder.com/website/160393/contact.asp,Contact,1,MA,01757,beauty_salon
Beauty Atelier,"220 Howard St #8311, Framingham, MA 01702",Beauty salon,Framingham,http://bit.ly/,http://bit.ly/beatyatelier,,,,https://www.whatsapp.com/contact/,Get in touch,1,MA,01702,beauty_salon
Sassafrass Hair Salon Inc,"2390 Mendon Rd, Cumberland, RI 02864",Hair salon,Cumberland,http://www.sassafrasshairsalon.com/,,,,,http://www.sassafrasshairsalon.com/contact,"
              Contact
            ",1,RI,02864,beauty_salon
Nails2000nspa,"419 Worcester Rd, Framingham, MA 01701",Nail salon,Framingham,http://nails2000nspa.com/,,,,,http://nails2000nspa.com/contact.php,Contacts,1,MA,01701,beauty_salon
Laser Centers of New England,"77 Turnpike Rd, Southborough, MA 01772",Laser hair removal service,Southborough,http://www.hairgone.net/,,,,,http://www.hairgone.net/id4.html,Contact Us,1,MA,01772,beauty_salon
Electrolysis Etc,"118 Washington St, Holliston, MA 01746",Electrolysis hair removal service,Holliston,http://electrolysisetc.com/,,,,,http://electrolysisetc.com/default.aspx?matrix=5,Contact Us,1,MA,01746,beauty_salon
Hopkinton Electrology,"7 Main St, Hopkinton, MA 01748",Hair removal service,Hopkinton,http://ihatebodyhair.com/,,,,,http://ihatebodyhair.com/contact,Contact Us,1,MA,01748,beauty_salon
Meini Spa,"136 Pond St, Ashland, MA 01721",Massage spa,Ashland,http://meinispa.wix.com/,,,,,https://meinispa.wixsite.com/01721/contact,Contact,1,MA,01721,beauty_salon
Origins of Hair Studio,"300 Eliot St, Ashland, MA 01721",Beauty salon,Ashland,http://www.thesweetwatersalon.com/,,,,,http://www.thesweetwatersalon.com/tel:5088815332,(508) 881-5332,1,MA,01721,beauty_salon
Electrology by Lynn Laser and Electrolysis,"35 Hemlock Dr, Attleboro, MA 02703",Electrolysis hair removal service,Attleboro,http://www.electrologybylynn.com/,,,,,http://www.electrologybylynn.com/contact.html,Contact,1,MA,02703,beauty_salon
Studio 7,"287 Washington St, Attleboro, MA 02703",Hair salon,Attleboro,http://studio7.glossgenius.com/,,,,,http://studio7.glossgenius.com/contact,Contact,1,MA,02703,beauty_salon
Lavish Wax & Beauty Bar,"287 Washington St Suite 9, Attleboro, MA 02703",Waxing hair removal service,Attleboro,http://lavishwax.glossgenius.com/,,,,,http://lavishwax.glossgenius.com/contact,Contact,1,MA,02703,beauty_salon
Salon Seven Studio Inc dba New Identity Hair Salon,"580 Kelley Blvd # 2, North Attleborough, MA 02760",Beauty salon,North Attleborough,http://www.newidentityhairsalon.com/,,,,,http://www.newidentityhairsalon.com/#contact,Contact,1,MA,02760,beauty_salon
Positive Images,"540 Kelley Blvd, North Attleborough, MA 02760",Beauty salon,North Attleborough,http://www.salon-positiveimages.com/,,,,,https://www.salon-positiveimages.com,CONTACT,1,MA,02760,beauty_salon
Blade'z,"500 E Washington St, North Attleborough, MA 02760",Hair salon,North Attleborough,http://bladezhairdesigns.com/,,,,,http://bladezhairdesigns.com/contact-us/2792364,Contact Us,1,MA,02760,beauty_salon
Salon Rouge,"44 Washington St, Plainville, MA 02762",Beauty salon,Plainville,https://www.salonrougepro.com/,,,,,https://www.salonrougepro.com/contact," Contact

",1,MA,02762,beauty_salon
PARADISE NAILS AND SPA,"319 Tremont St #5, Rehoboth, MA 02769",Nail salon,Rehoboth,https://paradisenailssparehoboth.com/,,,,,https://paradisenailssparehoboth.com/contact,Contact Us,1,MA,02769,beauty_salon
T & H Nail Spa,"570 Kelley Blvd, North Attleborough, MA 02760",Beauty salon,North Attleborough,http://tandhnailsspa.com/,,,,,http://tandhnailsspa.com/contact.php, Contact Us,1,MA,02760,beauty_salon
Salon Marcel,"5 Man-Mar Dr UNIT 5, Plainville, MA 02762",Hair salon,Plainville,http://www.marcelnelsonblain.com/,,,,,http://www.marcelnelsonblain.com/contact-us/,Contact Us,1,MA,02762,beauty_salon
Trish Trowbridge Hair Design,"287 Washington St Suite #16, Attleboro, MA 02703",Hair salon,Attleboro,http://trishtrowbridge.glossgenius.com/,,,,,http://trishtrowbridge.glossgenius.com/contact,Contact,1,MA,02703,beauty_salon
Exotic Nails Salon,"687 Millbury St, Worcester, MA 01607",Nail salon,Worcester,http://www.exoticnailsalon.com/,,,,,https://exoticnailsalon.co/?page_id=183,Contact Us,1,MA,01607,beauty_salon
South Beach Tanning Salon,"489 Washington St, Auburn, MA 01501",Tanning salon,Auburn,http://www.southbeachauburn.com/,,,,,http://www.southbeachauburn.com/pages/contact-form,Contact Us,1,MA,01501,beauty_salon
Bharti Eyebrow Threading & Tinting & Waxing & Facial & Heena,"18 Pond St, Sharon, MA 02067",Hair removal service,Sharon,http://bhartieyebrowthreading.com/,,,,,https://bhartieyebrowthreading.com/contact-us/,CONTACT US,1,MA,02067,beauty_salon
Laser MD MedSpa,"400 Franklin St, Braintree, MA 02184",Laser hair removal service,Braintree,http://www.lasermdmedspa.com/,,,,,http://www.lasermdmedspa.com/contact-laser-md-med-spa-boston/#boston,Boston Clinic,1,MA,02184,beauty_salon
Salon Pisano,"156 Church St, Pembroke, MA 02359",Beauty salon,Pembroke,http://salonpisano.com/,,,,,http://salonpisano.com/contact-us," Contact Us

",1,MA,02359,beauty_salon
Belle Visage,"564 Adams St, Milton, MA 02186",Beauty salon,Milton,http://www.bvdayspa.com/,,,,,http://www.bvdayspa.com/contact.html,Contact,1,MA,02186,beauty_salon
Permenent Makeup,"155 Main St, Avon, MA 02322",Cosmetic dentist,Avon,http://www.eddagarcia.com/,,,,,http://www.eddagarcia.com/contact.php,Contact,1,MA,02322,beauty_salon
Debrons Full Services Salon,"242 Westfield St, West Springfield, MA 01089",Beauty salon,West Springfield,http://www.debronssalon.com/,,,,,http://www.debronssalon.com/contactus.html,Contact us,1,MA,01089,beauty_salon
Rashdas Beauty Salon & Beauty Academy School,"110 Daniel Webster Hwy, Nashua, NH 03060",Beauty salon,Nashua,http://www.rashdassalon.com/,,,,,http://www.rashdassalon.com/contact.html,Contact,1,NH,03060,beauty_salon
Moodz Spa Salon & Boutique,"19 Pelham Island Rd, Wayland, MA 01778",Beauty salon,Wayland,http://moodz.com/,,,,,http://moodz.com/Contact.html,"





Contact


",1,MA,01778,beauty_salon
Salon Forza,"26 Essex St, Andover, MA 01810",Beauty salon,Andover,http://www.salonforza.com/,,,,,http://www.salonforza.com/connect.html#a,contact,1,MA,01810,beauty_salon
Hair & Now Salon LLC,"215B Boston Post Rd, Sudbury, MA 01776",Beauty salon,Sudbury,http://hairandnowsudbury.com/,,,,,https://hairandnowsudbury.com/contact/,Contact,1,MA,01776,beauty_salon
Balance Nails,"142 Littleton Rd #10, Westford, MA 01886",Nail salon,Westford,http://balancenails.com/,,,,,http://balancenails.com/contact-us.shtml,Contact Us,1,MA,01886,beauty_salon
Salon D'Elegance,"231 Boston Post Rd STE 4, Wayland, MA 01778",Nail salon,Wayland,http://xandaro.com/,,,,,http://xandaro.com/en/page/contact,Contact,1,MA,01778,beauty_salon
Hair Solutions by Helso,"36 Langley Rd, Newton, MA 02459",Beauty salon,Newton,http://www.helsohair.com/,,,,,http://www.helsohair.com/contact-us," Contact Us

",1,MA,02459,beauty_salon
Hyannis Nails,"376 Main St, Hyannis, MA 02601",Nail salon,Hyannis,http://www.hyannismainstreet.org/,,,,,http://www.hyannismainstreet.com/contact-us/,Contact Us,1,MA,02601,beauty_salon
Innovations Hair Skin & Nails,"1650 Falmouth Rd, Centerville, MA 02632",Nail salon,Centerville,https://innovationssalon.webs.com/,,"Long-running salon offering hair styling & coloring, plus mani-pedis & facial waxing.",,,https://innovationssalon.webs.com/contactus.htm,Contact Us,1,MA,02632,beauty_salon
Hello Gorgeous Hair Salon,"29 North St, Hyannis, MA 02601",Hair salon,Hyannis,http://hellogorgeoushyannis.com/,,,,,http://hellogorgeoushyannis.com/contact-us,Contact Us,1,MA,02601,beauty_salon
Eden Skin Care & Makeup,"874 Main St, Osterville, MA 02655",Beauty salon,Osterville,http://www.edenskincareandmakeup.com/,,,,,http://www.edenskincareandmakeup.com/#contact-section,"
                        Contact
                      ",1,MA,02655,beauty_salon
Salon In The Mills,"171 MA-149 unit a, Marstons Mills, MA 02648",Hair salon,Marstons Mills,http://www.saloninthemills.com/,,"Quaint salon in an intimate setting focused on glamorous cuts, highlights & bridal hair.",,,http://www.saloninthemills.com/contact,Contact,1,MA,02648,beauty_salon
In Nature Hair Studio,"3224 Main St, Barnstable, MA 02630",Hair salon,Barnstable,http://capecodorganicsalon.com/,,,,,http://capecodorganicsalon.com/contact.php,Contact Us,1,MA,02630,beauty_salon
Salon Raffaele Nina's,"11 Enterprise Rd, Hyannis, MA 02601",Hair salon,Hyannis,https://salonraffaelenina.com/,,,,,https://salonraffaelenina.com/tel:5087711686,(508) 771-1686,1,MA,02601,beauty_salon
Ego  Essence of Beauty,"411 MA-6A, Yarmouth Port, MA 02675",Beauty salon,Yarmouth Port,http://egoessenceofbeauty.com/,,,,,http://egoessenceofbeauty.com/contact.html,Contact,1,MA,02675,beauty_salon
Ancient Eyebrows,"793 Iyannough Rd W103, Hyannis, MA 02601",Hair removal service,Hyannis,http://www.hyanniseyebrowthreading.com/,,,,,http://www.hyanniseyebrowthreading.com/contact,Contact Us,1,MA,02601,beauty_salon
Hair by Jess,"344 Main St 2nd Floor, Hyannis, MA 02601",Hair salon,Hyannis,https://hairbyjess.org/,,,,,https://hairbyjess.org/tel:5083642990,508-364-2990,1,MA,02601,beauty_salon
Cape Cod Skin Care Co Inc,"4650 Falmouth Rd, Cotuit, MA 02635",Medical spa,Cotuit,http://capecodskincare.com/,,,,,http://capecodskincare.com/mailto:contact@capecodskincare.com,contact@capecodskincare.com,1,MA,02635,beauty_salon
Pura Vida Salon,"347 Washington St, Braintree, MA 02184",Hair salon,Braintree,http://www.puravidahairsalon.com/,,,,,http://www.puravidahairsalon.com/contact.htm,Contact,1,MA,02184,beauty_salon
STUDIO 27 Hair Salon,"780 Tremont St, Boston, MA 02118",Hair salon,Boston,http://studio27hairsalon.com/,,,,,https://www.studio27hairsalon.com/contact/,Contact,1,MA,02118,beauty_salon
Jupiter Beauty Academy,"95 Freeport St, Boston, MA 02122",Beauty salon,Boston,http://www.jupiterbeautyacademy.com/,,,,,http://www.jupiterbeautyacademy.com/contact-us/,Contact us,1,MA,02122,beauty_salon
DiGrigoli School of Cosmetology,"1578 Riverdale St, West Springfield, MA 01089",Beauty school,West Springfield,http://www.digrigoli.com/,,,,,http://www.digrigoli.com/school/contact,Contact School,1,MA,01089,beauty_salon
Salon Execution,"3 Revere St, Lexington, MA 02420",Beauty salon,Lexington,http://salonexecution.com/,,,,,http://salonexecution.com/contact-us/,Contact US,1,MA,02420,beauty_salon
Superior Styles,"791 Boston Rd, Billerica, MA 01821",Beauty salon,Billerica,http://www.superiorstyles.org/,,,,,https://www.salonbuilder.com/website/167713/contact.asp,Contact,1,MA,01821,beauty_salon
Paul Mammola Salon and Spa,"1787 Massachusetts Ave, Lexington, MA 02420",Beauty salon,Lexington,https://www.paulmammolasalonandspa.com/,,,,,https://www.paulmammolasalonandspa.com/contact,"
            Contact Us
          ",1,MA,02420,beauty_salon
Socias Hair Salon,"264 Cambridge St #1, Burlington, MA 01803",Beauty salon,Burlington,http://sociashairsalon.com/,,,,,https://sociashairsalon.com/contact/,Contact,1,MA,01803,beauty_salon
New Image Hair Salon,"187 Cambridge St, Burlington, MA 01803",Beauty salon,Burlington,http://newimagesalonburlington.com/,,"Long-running, down-to-earth salon for haircuts & coloring services, plus texturing treatments.",,,https://www.salonbuilder.com/website/169655/contact.asp,Contact,1,MA,01803,beauty_salon
The Polished Loft,"884 Boston Rd, Billerica, MA 01821",Nail salon,Billerica,http://www.thepolishedloft.com/,,,,,https://www.thepolishedloft.com,Contact,1,MA,01821,beauty_salon
Liatris Hair Design,"6 Muzzey St, Lexington, MA 02421",Beauty salon,Lexington,https://liatrishair.com/,,,,,https://liatrishair.com/contact-us-2/,Contact Us,1,MA,02421,beauty_salon
J P's Hair & Sun Inc,"574 Boston Rd, Billerica, MA 01821",Beauty salon,Billerica,https://sites.google.com/site/jpshairsalonbillerica/,,,,,https://sites.google.com/site/jpshairsalonbillerica/contact,Staff,1,MA,01821,beauty_salon
Stephanie Louis Salon,"1740 Massachusetts Ave, Lexington, MA 02420",Beauty salon,Lexington,http://www.stephanielouissalon.com/,,,,,http://www.stephanielouissalon.com/Contact.htm,Contact Us,1,MA,02420,beauty_salon
A Beauty In Bloom,"5 Fred St, Burlington, MA 01803",Beauty salon,Burlington,http://www.abeautyinbloom.com/,,,,,http://abeautyinbloom.com/contact/,Contact,1,MA,01803,beauty_salon
Anthony David Salon,"120 Cambridge St, Burlington, MA 01803",Beauty salon,Burlington,https://anthonydavidburlington.com/,,,,,https://anthonydavidburlington.com/contact.html," CONTACT

",1,MA,01803,beauty_salon
Hair by Kaitlyn Rose,"Bella Mia Hair Salon, 446 Boston Road, Billerica, MA 01821",Beauty salon,Billerica,http://bellamiahairsalon.com/,,,,,http://bellamiahairsalon.com/bella-mia-salon-boston-road-billerica-contact-us.html,,1,MA,01821,beauty_salon
Beleza Studio,"420 Boston Rd, Billerica, MA 01821",Beauty salon,Billerica,http://www.beleza-studio.com/,,,,,https://beleza-studio.com/contact-us/,Contact Us,1,MA,01821,beauty_salon
Salon T Daigle,"64-66 Dilla St, Milford, MA 01757",Beauty salon,Milford,http://www.salontdaigle.com/,,,,,http://salontdaigle.com/contact/,Contact,1,MA,01757,beauty_salon
A Cut Above Hair & Nails,"20 Main St, Franklin, MA 02038",Beauty salon,Franklin,http://www.acutabovehairandnails.com/,,,,,http://www.acutabovehairandnails.com/contact-a-cut-above-hair-and-nails-franklin-ma.html,Contact,1,MA,02038,beauty_salon
Lovely Nails,"227 Main St, Milford, MA 01757",Nail salon,Milford,http://dannyandthoan.com/,,,,,http://dannyandthoan.com/contact-us.html,  Contact us  ,1,MA,01757,beauty_salon
CiaoBella Beauty Bar,"178 E Main St, Milford, MA 01757",Beauty salon,Milford,http://www.theciaobellabeautybar.com/,,,,,http://theciaobellabeautybar.com/contact-us/,Contact,1,MA,01757,beauty_salon
Smile & Skin Aesthetics,"131 Main St, Waltham, MA 02453",Spa,Waltham,http://www.smileandskin.com/,,,,,http://www.smileandskin.com/contact/,Contact Us,1,MA,02453,beauty_salon
Gervasi & Co,"646 Adams St, Quincy, MA 02169",Hair salon,Quincy,http://www.gco-milton.com/,,,,,http://www.gco-milton.com/#contact,Contact,1,MA,02169,beauty_salon
Vibrant Beauty Salon,"585 Massachusetts Ave, Boston, MA 02118",Nail salon,Boston,http://vibrantbeautysalon.com/,,,,,https://vibrantbeautysalon.com/contact-us/,Contact Us,1,MA,02118,beauty_salon
Valentina Day Spa LLC,"93 Concord Ave Suite 2, Belmont, MA 02478",Spa,Belmont,http://valentinadayspa.com/,,,,,https://www.valentinadayspa.com/contact-us,Contact Us,1,MA,02478,beauty_salon
Michael Scott Salon,"660 East St #2, Mansfield, MA 02048",Beauty salon,Mansfield,http://www.michaelscottsalon.com/,,,,,http://www.michaelscottsalon.com/contact/,Contact,1,MA,02048,beauty_salon
Michael's Hair Salon,"473 S St W #7, Raynham, MA 02767",Hair salon,Raynham,http://michaelshairsalonplus.com/,,,,,http://michaelshairsalonplus.com/contact-us,CONTACT US,1,MA,02767,beauty_salon
Jennerations Salon,"112 N Main St, Mansfield, MA 02048",Beauty salon,Mansfield,http://www.jennerationssalon.com/,,,,,http://www.jennerationssalon.com/contact/,Contact,1,MA,02048,beauty_salon
Raquels Beauty Salon,"539 Berkley St, Berkley, MA 02779",Beauty salon,Berkley,http://www.alteregosalonandspa.com/,,,,,https://www.alteregosalonandspa.com/contact,Contact,1,MA,02779,beauty_salon
La Migliore Aveda Concept Salon,"644 Santa Cruz Ave, Menlo Park, CA 94025",Beauty salon,Menlo Park,http://lamiglioresalon.com/,,,,,http://lamiglioresalon.com/contact/,Contact,1,CA,94025,beauty_salon
Beverly Nails & Spa Boutique,"2 Enon St, Beverly, MA 01915",Nail salon,Beverly,http://beverlynailspa.com/,,,,,https://www.beverlynailspa.com/contact,CONTACT,1,MA,01915,beauty_salon
Nails & Co Spa,"45 Enon St, Beverly, MA 01915",Nail salon,Beverly,https://www.nailsandcospa.com/,,,,,https://www.nailsandcospa.com/contact/,Contact,1,MA,01915,beauty_salon
Modern Nails Spa,"Inside North Beverly Plaza, 55 Dodge St, Beverly, MA 01915",Nail salon,Beverly,http://www.modernnailsspabeverly.com/,,,,,https://www.modernnailsspabeverly.com/contact-us,CONTACT US,1,MA,01915,beauty_salon
Classic Touch Hair Salon,"173 Elliott St, Danvers, MA 01923",Beauty salon,Danvers,http://www.classictouchhairstudio.com/,,,,,https://www.salonbuilder.com/website/172618/contact.asp,Contact,1,MA,01923,beauty_salon
Empower Beauty Co,"283B Cabot St, Beverly, MA 01915",Beauty salon,Beverly,http://empowerbeautyco.com/,,,,,http://empowerbeautyco.com/contact,"
            Contact
          ",1,MA,01915,beauty_salon
Renew Hair and MakeUp,"800 Cummings Center suite 166-t, Beverly, MA 01915",Hair salon,Beverly,https://www.renewhairandmakeup.com/,,,,,https://www.renewhairandmakeup.com,CONTACT,1,MA,01915,beauty_salon
Phenix Salon Suites Beverly,"55 Dodge St, Beverly, MA 01915",Beauty salon,Beverly,http://phenixsalonsuitesma.com/,,,,,http://phenixsalonsuitesma.com/contact/,LOCATION,1,MA,01915,beauty_salon
Nancy St Laurent Hair Design,"138 Dodge St, Beverly, MA 01915",Hair salon,Beverly,http://www.nancystlaurenthair.com/,,,,,http://www.nancystlaurenthair.com/../contact.html,Contact,1,MA,01915,beauty_salon
Salon Couture Llc,"114 Water St, Danvers, MA 01923",Beauty salon,Danvers,http://www.saloncouture.net/,,,,,http://www.saloncouture.net/contact.htm,Contact,1,MA,01923,beauty_salon
Beauty Boutique,"40 Franklin St, Danvers, MA 01923",Beauty salon,Danvers,http://www.beautyboutiquedanvers.com/,,,,,https://www.beautyboutiquedanvers.com/contact-us,CONTACT US,1,MA,01923,beauty_salon
Salon D'Amore,"7 Page St, Danvers, MA 01923",Beauty salon,Danvers,http://salon-damore.net/,,,,,http://salon-damore.net/index.html#footer2-2,"
                        
                        CONTACT",1,MA,01923,beauty_salon
Six Bay Road Salon,"6 Bay Rd, South Hamilton, MA 01982",Beauty salon,South Hamilton,http://www.sixbayroadsalon.com/,,,,,https://www.sixbayroadsalon.com/contact,CONTACT,1,MA,01982,beauty_salon
G2 Salon,"100 Independence Way, Danvers, MA 01923",Beauty salon,Danvers,http://gentianasalon.com/,,,,,http://gentianasalon.com/contact/3142069,Contact,1,MA,01923,beauty_salon
Maria Francesco Salon & Spa,"130 Sylvan St #3, Danvers, MA 01923",Beauty salon,Danvers,http://mariafrancescosalonspa.com/,,,,,http://mariafrancescosalonspa.com/#contact,Contact Us,1,MA,01923,beauty_salon
Zagara Boutique Salon,"164 Lafayette St, Salem, MA 01970",Beauty salon,Salem,http://www.zagarahair.com/,,,,,http://www.zagarahair.com/home/#contact,"
        contact
      ",1,MA,01970,beauty_salon
Vivid Salon,"1095R Lakeview Ave unit 5, Dracut, MA 01826",Beauty salon,Dracut,http://www.vividbeautysalon.com/,,,,,https://vividbeautysalon.com/?page_id=16,Contact,1,MA,01826,beauty_salon
Salon Karma,"1487 Main St #4, Tewksbury, MA 01876",Hair salon,Tewksbury,http://www.salonkarmatewksbury.com/,,,,,http://www.salonkarmatewksbury.com/contactus.html,Contact Us,1,MA,01876,beauty_salon
Amore Salon,"246 Main St, North Reading, MA 01864",Beauty salon,North Reading,http://www.amoresalon246.com/,,,,,http://www.amoresalon246.com/Contact-Form.html,Contact Form,1,MA,01864,beauty_salon
Salon Laura Michaels,"1321 Main St, Reading, MA 01867",Beauty salon,Reading,http://salonlauramichaels.com/,,,,,http://salonlauramichaels.com/contact/,CONTACT,1,MA,01867,beauty_salon
Salon KrySTYLE,"211 Chelmsford St 1st floor, Chelmsford, MA 01824",Hair salon,Chelmsford,http://www.salonkrystyle.com/,,,,,https://www.salonkrystyle.com/contact,Contact,1,MA,01824,beauty_salon
Electrology Institute of NE,"1501 Main St STE 50, Tewksbury, MA 01876",Laser hair removal service,Tewksbury,http://www.electrologyinstitute.com/,,,,,http://www.electrologyinstitute.com/contact.html,Contact,1,MA,01876,beauty_salon
Cassin Deborah Electrologist,"14 Fletcher St, Chelmsford, MA 01824",Hair removal service,Chelmsford,http://www.debcassin.com/,,,,,http://www.debcassin.com/contact-us.html,Contact,1,MA,01824,beauty_salon
TTC Nails & Spa,"27 S Bolton St, Marlborough, MA 01752",Nail salon,Marlborough,http://ttcnailsspamarlborough.com/,,,,,http://ttcnailsspamarlborough.com/contact,Contact Us,1,MA,01752,beauty_salon
Chez Bella Nails & Spa,"416 Boston Post Rd E #9, Marlborough, MA 01752",Beauty salon,Marlborough,http://www.chezbellaspa.com/,,,,,http://www.chezbellaspa.com/Contact-Us.html,Contact Us,1,MA,01752,beauty_salon
The Beauty Lounge,"53 Boston Post Rd E, Marlborough, MA 01752",Beauty salon,Marlborough,http://www.theroombeautylounge.com/,,,,,https://www.theroombeautylounge.com/contact-us,CONTACT US,1,MA,01752,beauty_salon
Sport Clips Haircuts of Northborough,"10010-C, Shops Way, Northborough, MA 01532",Hair salon,Northborough,https://haircutmennorthboroughma.com/,,,,,https://www.sportclips.com/about-us/contact-us,Contact Us,1,MA,01532,beauty_salon
Sport Clips Haircuts of Framingham,"235 Old Connecticut Path, Framingham, MA 01701",Hair salon,Framingham,https://haircutmenframinghamma.com/,,,,,https://www.sportclips.com/about-us/contact-us,Contact Us,1,MA,01701,beauty_salon
Sport Clips Haircuts of Milford MA,"196 E Main St, Milford, MA 01757",Hair salon,Milford,https://www.haircutmenmilfordma.com/,,,,,https://www.sportclips.com/about-us/contact-us,Contact Us,1,MA,01757,beauty_salon
Boston Medical Aesthetics,"21 Merchants Row #3a, Boston, MA 02109",Medical spa,Boston,http://www.bostonmedicalaesthetics.net/,,,,,https://www.bostonmedicalaesthetics.net,,1,MA,02109,beauty_salon
Sassoon Academy  Santa Monica,"321 Santa Monica Blvd, Santa Monica, CA 90401",Beauty school,Santa Monica,https://www.sassoon-academy.com/,,,,,https://pgconsumersupport.secure.force.com/ContactUs?brand=Vidal+Sassoon&country=United+States+of+America&language=English-US,Contacts,1,CA,90401,beauty_salon
Hair Trendz,"1703 Boston Turnpike, Coventry, CT 06238",Hair salon,Coventry,http://www.hairtrendz.org/,,,,,http://www.hairtrendz.org/tel:8607428017,(860) 742-8017,1,CT,06238,beauty_salon
Will Charles Salon,"11 Newbury St, Boston, MA 02116",Beauty salon,Boston,http://www.willcharlessalon.com/,,,,,http://www.willcharlessalon.com/contact,Contact,1,MA,02116,beauty_salon
Boston Hair Extension,"168 Newbury St 2nd floor, Boston, MA 02116",Beauty salon,Boston,http://hairsalonmonet.com/,,,,,http://hairsalonmonet.com/contact-us/,Contact Us,1,MA,02116,beauty_salon
Mitchell John Salon,"67 Broad St, Boston, MA 02109",Beauty salon,Boston,http://mjsalon.com/,,,,,https://mjsalon.com/contact/,Contact,1,MA,02109,beauty_salon
House of Colour Salon,"125 Broad St #1, Boston, MA 02110",Beauty salon,Boston,http://houseofcoloursalon.com/,,,,,https://houseofcoloursalon.com/contact-us/,Contact,1,MA,02110,beauty_salon
Natural Image Boston,"100 Federal St # 1B, Boston, MA 02110",Beauty salon,Boston,https://www.naturalimagesalon.com/,,,,,https://www.naturalimagesalon.com/contact/,Contact,1,MA,02110,beauty_salon
Koukla Salon,"62 Salem St, Boston, MA 02113",Beauty salon,Boston,http://www.kouklasalon.com/,,,,,https://www.kouklasalon.com/contact,Get in Touch,1,MA,02113,beauty_salon
Vogo Salon,"224 Harrison Ave, Boston, MA 02111",Beauty salon,Boston,http://www.vogosalon.com/,,,,,http://www.vogosalon.com/contact-vogo-salon-boston-chinatown-ma.php,Contact,1,MA,02111,beauty_salon
Tribe  Boston,"52 High St, Boston, MA 02110",Beauty salon,Boston,http://tribeforhair.com/,,,,,http://tribeforhair.com/contact-us/,Contact Us,1,MA,02110,beauty_salon
Salon George De Mello,"123 Newbury St, Boston, MA 02116",Beauty salon,Boston,http://salongeorgedemello.com/,,,,,http://salongeorgedemello.com/Contact,Contact,1,MA,02116,beauty_salon
Bradley & Diegel Salon,"77 Newbury St, Boston, MA 02116",Beauty salon,Boston,http://www.bradleyanddiegel.com/,,,,,https://www.bradleyanddiegel.com/contact-your-stylist,,1,MA,02116,beauty_salon
Salon Forty Four,"44 Main St, Boston, MA 02129",Beauty salon,Boston,http://salonfortyfour.com/,,,,,https://salonfortyfour.com/contact-us/,Contact Us,1,MA,02129,beauty_salon
Haute Coiffure Salon,"52 High St, Boston, MA 02110",Beauty salon,Boston,http://www.hautecoiffureonhigh.com/,,,,,https://www.hautecoiffureonhigh.com/contact,Contact,1,MA,02110,beauty_salon
LA ORCHID nails & spa,"370 N Falmouth Hwy, North Falmouth, MA 02556",Nail salon,North Falmouth,http://laorchidnailsspa.com/,,,,,http://laorchidnailsspa.com/contact,"
Contact Us
",1,MA,02556,beauty_salon
A Mirage Hair Salon,"681 Falmouth Rd, Mashpee, MA 02649",Beauty salon,Mashpee,http://amiragehairsalon.com/,,,,,http://amiragehairsalon.com/#contact,Contact,1,MA,02649,beauty_salon
Nice & Natural,"194 Teaticket Hwy, East Falmouth, MA 02536",Hair salon,East Falmouth,http://www.niceandnaturalhair.com/,,,,,http://www.niceandnaturalhair.com/contactus.html,Contact Us,1,MA,02536,beauty_salon
Hair ReflectionsSunSeekers Inc,"633 Main St, Falmouth, MA 02540",Beauty salon,Falmouth,http://www.hairsuninc.com/,,,,,http://www.hairsuninc.com/contact/,Contact,1,MA,02540,beauty_salon
Hair Essentials By Christine,"236 Teaticket Hwy, East Falmouth, MA 02536",Beauty salon,East Falmouth,http://hairessentialsfalmouth.com/,,,,,https://hairessentialsfalmouth.com/contact-us/,Contact Us,1,MA,02536,beauty_salon
Salon Avie,"300 Newburyport Turnpike, Rowley, MA 01969",Hair salon,Rowley,http://www.salonavie.com/,,,,,http://www.salonavie.com/contact,Contact,1,MA,01969,beauty_salon
Beauty Secrets Lash Extensions Microblading & Permanent Cosmetics,"152D S Main St, Middleton, MA 01949",Beauty salon,Middleton,http://www.beautysecretstudio.com/,,,,,http://www.beautysecretstudio.com/tel:9788049436,978.804.9436,1,MA,01949,beauty_salon
Laura's Locks,"77 Turnpike Rd, Ipswich, MA 01938",Beauty salon,Ipswich,http://lauraslocks.net/,,,,,http://lauraslocks.net/findcontact.html,Find*Contact,1,MA,01938,beauty_salon
helloGORGEOUS,"110 Newbury St, Danvers, MA 01923",Beauty salon,Danvers,http://hellogorgeous.us/,,,,,https://www.salonbuilder.com/website/172891/contact.asp,Appointments,1,MA,01923,beauty_salon
North Shore Hair and Wigs,"110 Newbury St, Danvers, MA 01923",Beauty salon,Danvers,http://www.northshorehairandwigs.com/,,,,,http://www.northshorehairandwigs.com/contact/,Contact,1,MA,01923,beauty_salon
5 Elements Skin & Nails Spa,"126 Merrimack St, Methuen, MA 01844",Beauty salon,Methuen,http://5elementsmethuen.com/,,,,,http://5elementsmethuen.com/#contact,Contact,1,MA,01844,beauty_salon
Angeli Hair Studio,"35 Elm St, Danvers, MA 01923",Beauty salon,Danvers,http://angelihairstudio.net/,,,,,https://www.angelihairstudio.net/contact-us,CONTACT US,1,MA,01923,beauty_salon
Deluxe Nails & Spa Middleton,"170 S Main St, Middleton, MA 01949",Nail salon,Middleton,https://www.deluxenailspama.com/,,,,,https://www.deluxenailspama.com/contact-us-1,CONTACT US,1,MA,01949,beauty_salon
Cosmic Tan,"435 Newbury St, Danvers, MA 01923",Beauty salon,Danvers,http://www.salon-oasis.com/,,,,,http://www.salon-oasis.com/contact-us/,"
>
Contact Us
",1,MA,01923,beauty_salon
Pigmenta Permanent Cosmetics at U Day Spa,"2 Central St, Middleton, MA 01949",Beauty salon,Middleton,http://www.pigmentausa.com/,,,,,https://www.pigmentausa.com/contact/,Contact,1,MA,01949,beauty_salon
Forever Young Laser & Skin Center,"225 Newbury St, Danvers, MA 01923",Medical spa,Danvers,http://www.frvryoung.com/,,,,,http://frvryoung.com/contact/,Contact Us,1,MA,01923,beauty_salon
Karen de Steuben Esthetician,"1820 Turnpike St, North Andover, MA 01845",Makeup artist,North Andover,http://deanzasalon.com/,,,,,https://deanzasalon.com/contact/,Book Now,1,MA,01845,beauty_salon
American Laser Skincare,"853 Turnpike St, North Andover, MA 01845",Hair removal service,North Andover,http://www.americanlaser.com/,,,,,http://www.americanlaser.com/contact,Contact,1,MA,01845,beauty_salon
Ishma Skin Care,"45 Browning Rd, Shrewsbury, MA 01545",Spa,Shrewsbury,http://ishmaskincare.com/,,,,,http://ishmaskincare.com/contact-us,Contact Us,1,MA,01545,beauty_salon
Advanced SkinCare Northborough,"300 W Main St Building B Suite, Northborough, MA 01532",Skin care clinic,Northborough,http://advancedskincare.solutions/,,,,,http://advancedskincare.solutions/contact-us/,Contact us,1,MA,01532,beauty_salon
Bellezza Laser Spa,"10 SW Cutoff, Northborough, MA 01532",Laser hair removal service,Northborough,http://www.bellezzalaserspa.com/,,,,,http://bellezzalaserspa.com/contact-us/,Contact Us,1,MA,01532,beauty_salon
Studio Giorgi,"126 High St, Clinton, MA 01510",Hair salon,Clinton,http://www.studiogiorgima.com/,,,,,http://www.studiogiorgima.com/contact.html,"
				Contact
			
			",1,MA,01510,beauty_salon
Nancy's Special Touch,"381 Washington St # 5A, Braintree, MA 02184",Beauty salon,Braintree,http://www.nancysspecialtouch.com/,,,,,http://www.nancysspecialtouch.com/contact.html#4,Contact,1,MA,02184,beauty_salon
Salon Botanical,"721 Granite St, Braintree, MA 02184",Beauty salon,Braintree,http://www.salonbotanical.com/,,,,,https://www.salonbotanical.com/contact/,Contact,1,MA,02184,beauty_salon
The Snippery Hair Studio,"428 Washington St, Braintree, MA 02184",Beauty salon,Braintree,http://www.thesnippery.com/,,,,,https://www.thesnippery.com,Contact,1,MA,02184,beauty_salon
Salon De Beauty,"36 Waterford Dr, Weymouth, MA 02188",Beauty salon,Weymouth,http://www.salondebeauty.com/,,,,,https://salondebeauty.com/contact-us/,APPOINTMENTS,1,MA,02188,beauty_salon
Get Glam by Dawna,"22 River St, Braintree, MA 02184",Beauty salon,Braintree,http://www.getglambydawna.com/,,,,,https://www.getglambydawna.com/contact,contact,1,MA,02184,beauty_salon
Eclipse Hair Design,"155 Washington St, Weymouth, MA 02188",Beauty salon,Weymouth,http://www.beautyseeker.com/,,,,,https://www.beautyseeker.com/ContactBeautySeeker.aspx,Contact BeautySeeker,1,MA,02188,beauty_salon
Arona Salon,"1721A Washington St #37, Braintree, MA 02184",Beauty salon,Braintree,https://www.aronasalon.com/,,,,,https://www.aronasalon.com/contact," Contact

",1,MA,02184,beauty_salon
Hair Place One,"85 Quincy Ave #4, Quincy, MA 02169",Beauty salon,Quincy,http://www.hairplaceone.com/,,,,,http://www.hairplaceone.com/hair-salon-quincy-ave-ma-contact-us.html,Contact Us,1,MA,02169,beauty_salon
Artisan Skin Care & Artisan Organics,"195 MA-6A, Orleans, MA 02653",Facial spa,Orleans,https://artisanskincarespa.com/,,,,,https://artisanskincarespa.com/contact,Contact,1,MA,02653,beauty_salon
Heather's Hair Port,"585 MA-28, Harwich Port, MA 02646",Nail salon,Harwich Port,http://www.heatherssalonandspa.com/,,,,,http://www.heatherssalonandspa.com/##,Contact Us,1,MA,02646,beauty_salon
Salon 17,"17 Telegraph Rd, Dennis Port, MA 02639",Beauty salon,Dennis Port,http://salon17cc.com/,,,,,http://salon17cc.com/index.php/contact,Contact/Directions,1,MA,02639,beauty_salon
Oasis Salon & Day Spa,"1671 Main St, West Chatham, MA 02669",Beauty salon,West Chatham,http://oasissalonchatham.com/,,,,,https://oasissalonchatham.com/contact-oasis/,Contact Oasis,1,MA,02669,beauty_salon
Salon Justine,"35 MA-134 #10, South Dennis, MA 02660",Beauty salon,South Dennis,http://salonjustine.com/,,,,,http://salonjustine.com/contactus.htm,Contact Us,1,MA,02660,beauty_salon
East Coast Salon,"923 MA-6A UNIT R, Yarmouth Port, MA 02675",Beauty salon,Yarmouth Port,https://www.eastcoastsalon.com/,,,,,https://www.eastcoastsalon.com/contact-us,Contact Us,1,MA,02675,beauty_salon
About Face Skin Care Salon,"17 Post Office Square, Chatham, MA 02633",Beauty salon,Chatham,http://www.aboutfacechatham.com/,,,,,https://www.aboutfacechatham.com/contact,CONTACT,1,MA,02633,beauty_salon
KBeauty Studio,"2350 Main St, South Chatham, MA 02659",Beauty salon,South Chatham,http://kbeautycapecod.com/,,,,,https://kbeautycapecod.com/contact/,Contact,1,MA,02659,beauty_salon
Dragon Nails Spa of Raynham,"300 New State Hwy, Raynham, MA 02767",Nail salon,Raynham,https://www.dragonnailspa.com/,,,,,https://www.dragonnailspa.com/contact-us-1,CONTACT US,1,MA,02767,beauty_salon
David Alan Salon,"151 Center St, Middleborough, MA 02346",Beauty salon,Middleborough,http://david-alan-salon.com/,,,,,http://david-alan-salon.com/contact-us/,Contact Us,1,MA,02346,beauty_salon
Mariel's Laser & Electrology,"488 W Center St, West Bridgewater, MA 02379",Hair removal service,West Bridgewater,http://marielslaser.com/,,,,,http://marielslaser.com/contact," Contact

",1,MA,02379,beauty_salon
AprilEvans Beauty Lounge,"12 W Grove St, Middleborough, MA 02346",Beauty salon,Middleborough,http://www.aprilevansbeautylounge.com/,,,,,https://www.aprilevansbeautylounge.com/contact_us,BOOK NOW,1,MA,02346,beauty_salon
Sarah LMT,"Coming Soon, South Easton, MA 02375",Beauty salon,South Easton,https://sarah-lmt.ueniweb.com/,,,,,https://sarah-lmt.ueniweb.com/#contact_us,Contact Us,1,MA,02375,beauty_salon
Salon Luka,"646 Washington St STE 5, South Easton, MA 02375",Beauty salon,South Easton,http://salonluka.com/,,,,,https://salonluka.com/contact/,Contact,1,MA,02375,beauty_salon
Fancy Nails And Spa Middleboro,"10 Merchant's Way, Middleborough, MA 02346",Nail salon,Middleborough,http://fancynailsmiddleboro.com/,,,,,http://fancynailsmiddleboro.com/contact,Contact,1,MA,02346,beauty_salon
The Threading PlaceRaynham,"325 New State Hwy, Raynham, MA 02767",Beauty salon,Raynham,http://www.thethreadingplace.com/,,,,,http://www.thethreadingplace.com/contact,Contact us,1,MA,02767,beauty_salon
Nerua's Beauty Shop,"77B Broadway, Taunton, MA 02780",Beauty salon,Taunton,http://www.neruasbeautyshop.com/,,,,,http://www.neruasbeautyshop.com/contact,Contact,1,MA,02780,beauty_salon
D Hair Couture Salon,"283 New State Hwy, Raynham, MA 02767",Hair salon,Raynham,http://www.dhaircouture.com/,,,,,http://www.dhaircouture.com/contact/,联系我们,1,MA,02767,beauty_salon
Sunsational Tans,"180 Winter St # D, Bridgewater, MA 02324",Tanning salon,Bridgewater,http://suntansboutique.com/,,,,,http://suntansboutique.com/contact.html,"
				Contact
			",1,MA,02324,beauty_salon
The Cuttery Hair Salon,"1050 Pearl St STE 3, Brockton, MA 02301",Beauty salon,Brockton,http://thecutteryhairsalon.com/,,,,,http://thecutteryhairsalon.com/#contact,CONTACT,1,MA,02301,beauty_salon
Braids & Glam,"81 Court St, Brockton, MA 02301",Beauty salon,Brockton,http://www.braidsnglam.com/,,,,,https://www.braidsnglam.com,CONTACT,1,MA,02301,beauty_salon
Fahrenheit Tanning Centers,"16 N Main St, West Bridgewater, MA 02379",Tanning salon,West Bridgewater,http://fahrenheittanningcenters.com/,,,,,http://fahrenheittanningcenters.com/contacts/,Contact Us,1,MA,02379,beauty_salon
Salon 2000,"80 E Washington St, North Attleborough, MA 02760",Hair salon,North Attleborough,http://www.salon2000spa.com/,,,,,http://www.salon2000spa.com/contact-us,Contact Us,1,MA,02760,beauty_salon
Melissa Goldmann Massage Therapy  Waves Salon,"516 N Bedford St, East Bridgewater, MA 02333",Massage therapist,East Bridgewater,http://www.mels-massage.com/,,,,,http://www.mels-massage.com/contact-me,Contact me,1,MA,02333,beauty_salon
Caribbean Tanning & Cruise Center,"71 Main St, Sturbridge, MA 01566",Tanning salon,Sturbridge,http://www.caribtanning.com/,,,,,http://www.caribtanning.com/contact_us,Contact Us,1,MA,01566,beauty_salon
Klever Klippers Salon,"18 Main St, Townsend, MA 01469",Beauty salon,Townsend,http://www.kleverklippers.com/,,,,,https://www.kleverklippers.com/contact-us/,Contact us,1,MA,01469,beauty_salon
Phenix Salon Suites Pleasanton,"4230 Rosewood Dr ste a, Pleasanton, CA 94588",Beauty salon,Pleasanton,http://phenixsalonsuites.com/,,,,,http://phenixsalonsuites.com/contact-2/,Contact Us,1,CA,94588,beauty_salon
Pigtails & Crewcuts Haircuts for Kids  Danville,"3408 Camino Tassajara, Danville, CA 94506",Hair salon,Danville,http://pigtailsandcrewcuts.com/,,,,,http://pigtailsandcrewcuts.com/contact-salon/,Contact the Salon,1,CA,94506,beauty_salon
Brookline Natural Nail,"1372 Beacon St, Brookline, MA 02446",Nail salon,Brookline,http://www.brooklinenaturalnail.com/,,,,,http://www.brooklinenaturalnail.com/Contact.htm,"
",1,MA,02446,beauty_salon
Brookline Hair & Nails,"692 Washington St, Brookline, MA 02446",Nail salon,Brookline,http://brooklinehairandnails.com/,,,,,http://brooklinehairandnails.com/contact-us,Contact Us,1,MA,02446,beauty_salon
Salon Monte Carlo,"55 Pond Ave # 1, Brookline, MA 02445",Beauty salon,Brookline,http://www.salonmontecarlo.com/,,,,,http://www.salonmontecarlo.com/site/?page_id=15,Contact & Location,1,MA,02445,beauty_salon
Hands&Heels Boutique,"444 Harvard St, Brookline, MA 02446",Nail salon,Brookline,http://www.handsandheelsboutique.com/,,,,,http://www.handsandheelsboutique.com/contact-us.html,Contact Us,1,MA,02446,beauty_salon
Skin and Body Solutions by Moema,"1309 Beacon St, Brookline, MA 02446",Beauty salon,Brookline,http://www.bostonendermologie.com/,,,,,https://www.bostonendermologie.com/contact,CONTACT,1,MA,02446,beauty_salon
PURITY NAIL BAR,"372 Chestnut Hill Ave, Boston, MA 02135",Nail salon,Boston,https://puritynailbar.com/,,,,,https://puritynailbar.com/contact-us/,Contact Us,1,MA,02135,beauty_salon
Zena Salon,"202 Harvard Ave Unit 202, Allston, MA 02134",Beauty salon,Allston,https://www.zenasalonallston.com/,,,,,https://www.zenasalonallston.com/contact,Contact,1,MA,02134,beauty_salon
Nailosophy,"481 Harvard St, Brookline, MA 02446",Nail salon,Brookline,https://nailosophybrookline.com/,,,,,https://nailosophybrookline.com/contact,Contact Us,1,MA,02446,beauty_salon
Nana's Hair Braiding,"901 Huntington Ave, Boston, MA 02115",Beauty salon,Boston,http://www.nanashairbraiding.com/,,,,,http://www.nanashairbraiding.com/contact.htm,,1,MA,02115,beauty_salon
365 Organic Skin Care & ExperTEAs  Natural Waxing Salon,"2912 318 Harvard St #9, Brookline, MA 02446",Day spa,Brookline,http://www.brooklinespaservices.com/,,,,,http://www.brooklinespaservices.com/contact,"

                                Contact Us
                            
",1,MA,02446,beauty_salon
Ultra Beauty Salon,"401 Centre St, Jamaica Plain, MA 02130",Beauty salon,Jamaica Plain,http://www.ultrabeautysalon.com/,,,,,http://www.ultrabeautysalon.com/contact,Contact Us,1,MA,02130,beauty_salon
Hairdressing by Ron Hodges,"248 Cypress St, Brookline, MA 02445",Hair salon,Brookline,http://www.ronhodges.net/,,,,,http://www.ronhodges.net/view/ronhodges/contact,contact,1,MA,02445,beauty_salon
Beautiful Skin Boston,"77 Pond Ave #104c, Brookline, MA 02445",Medical spa,Brookline,https://www.richardabartlettmd.com/,,,,,https://www.richardabartlettmd.com/contact-boston-plastic-surgeon/,Contact Us,1,MA,02445,beauty_salon
Boston Skin Solutions,"1318 Beacon St, Brookline, MA 02446",Hair removal service,Brookline,http://www.bostonskin.com/,,,,,http://www.bostonskin.com/contact/,Contact,1,MA,02446,beauty_salon
Electrolysis & Skin Care Clinic,"1170 Beacon St, Garden Level, Brookline, MA 02446",Skin care clinic,Brookline,http://www.hairremovalskincareclinic.com/,,,,,http://www.hairremovalskincareclinic.com/Contact_Us.php,Contact Us,1,MA,02446,beauty_salon
Razelles Skin Care Salon,"345 Boylston St, Newton, MA 02459",Beauty salon,Newton,http://razellesskincare.com/,,,,,http://razellesskincare.com/contact,CONTACT US,1,MA,02459,beauty_salon
Total Skin Care,"623 Commonwealth Avenue, Boston, MA 02215",Beauty salon,Boston,http://tscboston.com/,,,,,http://tscboston.com/#contact,Contact,1,MA,02215,beauty_salon
Karen Golden Skin Care,"308 Harvard St, Brookline, MA 02446",Skin care clinic,Brookline,http://karengoldenskincare.com/,,,,,http://karengoldenskincare.com/contact-us/,CONTACT US,1,MA,02446,beauty_salon
Allure Lash and Beauty,"Redstone Plaza. Inside Salon by JC, 117 Main St Ste 42, Stoneham, MA 02180",Beauty salon,Stoneham,https://allurelashandbeauty.net/,,,,,https://allurelashandbeauty.net/tel:7818883279,781.888.3279,1,MA,02180,beauty_salon
True Balance Day Spa,"15 Cambridge St, Burlington, MA 01803",Day spa,Burlington,http://www.truebalancedayspa.com/,,,,,http://www.truebalancedayspa.com/contact.html,Contact,1,MA,01803,beauty_salon
Nova Aesthetic Center,"83 Cambridge St #3E, Burlington, MA 01803",Medical spa,Burlington,http://www.novaaesthetic.com/,,,,,http://www.novaaesthetic.com/contact.php,Contact Us,1,MA,01803,beauty_salon
Posh Lash and Beauty,"7 Kimball Ln D, Lynnfield, MA 01940",Beauty salon,Lynnfield,http://www.poshlash.net/,,,,,http://www.poshlash.net/contact/,Contact,1,MA,01940,beauty_salon
Neem Medical Spa,"40 Church St, Winchester, MA 01890",Medical spa,Winchester,https://www.neemmedicalspa.com/,,,,,https://www.neemmedicalspa.com/contact-us,Schedule Online,1,MA,01890,beauty_salon
Downey Jillian L,"165 Cambridge St UNIT 401, Boston, MA 02114",Beauty salon,Boston,http://www.massgeneral.org/,,,,,http://www.massgeneral.org/research/about/contact-information,Contact Us,1,MA,02114,beauty_salon
All Bright Nails & Spa,"514 Cambridge St, Allston, MA 02134",Nail salon,Allston,http://www.allbrightnailsandspa.com/,,,,,http://www.allbrightnailsandspa.com/contact.php,Contact & Hours,1,MA,02134,beauty_salon
Fadil African Hair Braiding,"8 Broadway, Somerville, MA 02145",Beauty salon,Somerville,http://www.fadilafricanhairbraiding.com/,,,,,http://www.fadilafricanhairbraiding.com/tel:6174971350,(617) 497-1350,1,MA,02145,beauty_salon
Extology,"98 Beverly St, Boston, MA 02114",Beauty salon,Boston,https://www.extology.com/,,,,,https://www.extology.com/contact/,"98 Beverly Street Boston, MA 02114",1,MA,02114,beauty_salon
Enzo & Co for Hairo,"161 Newbury St, Boston, MA 02116",Beauty salon,Boston,http://www.myhairo.com/,,,,,http://www.myhairo.com/contact,Contact,1,MA,02116,beauty_salon
Meraki Hair Studio Suite 150,"95 Washington St, Canton, MA 02021",Hair salon,Canton,http://annathompson16.wixsite.com/,,,,,https://www.merakihairstudiocantonmass.com/contact,contact,1,MA,02021,beauty_salon
Felicita,"95 Washington Street, Gallery Salons, Canton, MA 02021",Hair salon,Canton,http://ninafelicita.com/,,,,,http://ninafelicita.com/wp-content/uploads/2015/03/DSC006611-1000x768.jpg,"
",1,MA,02021,beauty_salon
Jeni Olivier,"95 Washington St, Canton, MA 02021",Hair salon,Canton,http://www.jeniteran.com/,,,,,http://www.jeniteran.com/contact.html,contact,1,MA,02021,beauty_salon
Couture Beauty Lounge,"14 Wyman St, Stoughton, MA 02072",Beauty salon,Stoughton,http://www.couturebeautylounge.com/,,,,,https://www.couturebeautylounge.com,CONTACT,1,MA,02072,beauty_salon
Canton Medical Aesthetics,"575 Washington St, Canton, MA 02021",Medical spa,Canton,https://www.cantonmedicalaesthetics.com/,,,,,https://www.cantonmedicalaesthetics.com/contact,,1,MA,02021,beauty_salon
Rejuvenation Skin and Laser Center,"635 Washington St, Canton, MA 02021",Skin care clinic,Canton,http://www.rskincare.com/,,,,,http://www.rskincare.com/contact,Contact Us,1,MA,02021,beauty_salon
Jennie's Hair Salon,"1073 East St, Dedham, MA 02026",Beauty salon,Dedham,http://www.jennieshairsalon.com/,,,,,http://www.jennieshairsalon.com/#contact,Contact,1,MA,02026,beauty_salon
Diamond Nails And Spa Stoughton,"740 Washington St, Stoughton, MA 02072",Nail salon,Stoughton,http://diamondnailsstoughton.com/,,,,,http://diamondnailsstoughton.com/contact,Contact Us,1,MA,02072,beauty_salon
The Hair Circuit,"1 Cabot Pl #8, Stoughton, MA 02072",Hair replacement service,Stoughton,http://www.revivemedical-spa.com/,,,,,http://revivemedical-spa.com/info/contact/,Contact,1,MA,02072,beauty_salon
philosophe,"65 Cedar St, Dedham, MA 02026",Beauty salon,Dedham,http://www.philosophehair.com/,,,,,http://www.philosophehair.com/contact-3,"
            Contact
          ",1,MA,02026,beauty_salon
Canton Electrolysis and Laser,"345 Neponset St Suite 1, Canton, MA 02021",Electrolysis hair removal service,Canton,http://www.cantoneandl.com/,,,,,http://www.cantoneandl.com/contact.html,,1,MA,02021,beauty_salon
Angeline McGrath of Sculpt Hair Studio,"Gallery Salons, 95 Washington St bldg 568 suite 120, Canton, MA 02021",Hair salon,Canton,https://sculpthairangeline.org/,,,,,https://sculpthairangeline.org/tel:7742591598,774-259-1598,1,MA,02021,beauty_salon
Eflow Hair Salon,"95 N Main St, Randolph, MA 02368",Beauty salon,Randolph,http://www.eflowsalon.com/,,,,,https://www.eflowsalon.com/contact-us/,"
Contact Us
",1,MA,02368,beauty_salon
Escape Hair Salon,"38 Spring St, West Roxbury, MA 02132",Beauty salon,West Roxbury,http://escapesalonboston.com/,,,,,http://escapesalonboston.com/book-now/,BOOK NOWContact Us,1,MA,02132,beauty_salon
Precious Nails & Spa,"500 Boston-Providence Turnpike, Norwood, MA 02062",Nail salon,Norwood,http://www.preciousnailsspa.com/,,,,,http://www.preciousnailsspa.com/contact-us,Contact Us,1,MA,02062,beauty_salon
The HairWorld,"424 N Franklin St # 3, Holbrook, MA 02343",Beauty salon,Holbrook,http://www.hairworldholbrook.com/,,,,,https://www.facebook.com/TheHairWorldHolbrook,,1,MA,02343,beauty_salon
Images Limited,"1872 Centre St, Boston, MA 02132",Beauty salon,Boston,https://images-hair-studio-inc.ueniweb.com/,,,,,https://images-hair-studio-inc.ueniweb.com/#contact_us,Contact Us,1,MA,02132,beauty_salon
American Nails Spa,"1200 Boston-Providence Turnpike #120, Norwood, MA 02062",Nail salon,Norwood,http://americannailspanorwood.com/,,,,,http://americannailspanorwood.com/contact,Contact Us,1,MA,02062,beauty_salon
Brazils Waxing Center,"262 Providence Hwy Unit 9, Westwood, MA 02090",Waxing hair removal service,Westwood,https://www.brazilswaxingcenter.com/,,,,,https://www.brazilswaxingcenter.com/contact-us/,Contact,1,MA,02090,beauty_salon
Vera SkinCare Solutions,"15 Cottage St 2nd floor, Norwood, MA 02062",Facial spa,Norwood,http://veraskincare.net/,,,,,http://veraskincare.net/contactpolicies,Contact/Policies,1,MA,02062,beauty_salon
Aria Skin Care,"632 Washington St B, Canton, MA 02021",Skin care clinic,Canton,http://www.aria-skincare.com/,,,,,http://www.aria-skincare.com/contact.html,Contact,1,MA,02021,beauty_salon
Studio 4 Skin Care,"575 Washington St, Canton, MA 02021",Skin care clinic,Canton,https://studio4skincare.com/,,,,,https://studio4skincare.com/contact/,Contact,1,MA,02021,beauty_salon
TINAS DAY SPA,"2 Millbury Blvd, Oxford, MA 01540",Facial spa,Oxford,https://www.tinasdayspa.com/,,,,,https://www.tinasdayspa.com/contact,CONTACT,1,MA,01540,beauty_salon
Galleria Day Spa,"345 North Rd, North Chelmsford, MA 01863",Spa,North Chelmsford,http://www.thegalleriadayspa.com/,,,,,https://www.salonbuilder.com/website/160524/contact.asp,Contact,1,MA,01863,beauty_salon
Elite Creations,"115 Hampson St A, Dracut, MA 01826",Beauty salon,Dracut,http://elitecreationsdrac.wix.com/,,,,,https://elitecreationsdrac.wixsite.com/elitecreations1,CONTACT,1,MA,01826,beauty_salon
Radiance Skin Care Salon,"106 Tyngsboro Rd, North Chelmsford, MA 01863",Day spa,North Chelmsford,http://radiancechelmsford.com/,,,,,https://www.radiancechelmsford.com/contact,Contact,1,MA,01863,beauty_salon
CharleRose,"69 Broadway St, Westford, MA 01886",Beauty salon,Westford,http://www.charlerose.com/,,,,,https://www.charlerose.com,CONTACT,1,MA,01886,beauty_salon
Executive Tan,"26 Alpine Ln, Chelmsford, MA 01824",Tanning salon,Chelmsford,http://www.tanexecutive.com/,,,,,https://tanexecutive.com/contact-us/,Contact Us,1,MA,01824,beauty_salon
La Bella Electrology Clinic In Everett MA,"493A Broadway, Everett, MA 02149",Electrolysis hair removal service,Everett,http://labellahairremoval.com/,,,,,https://labellahairremoval.com/contact/,Contact,1,MA,02149,beauty_salon
Philip Edward Salon,"227 Bunker Hill St, Boston, MA 02129",Hair salon,Boston,http://www.philipedwardsalon.com/,,,,,http://www.philipedwardsalon.com/contact.html,Contact,1,MA,02129,beauty_salon
Skin Care by Ana Merino,"310A Main St, Everett, MA 02149",Facial spa,Everett,http://skincarebyanamerino.com/,,,,,http://skincarebyanamerino.com/contact-us,Contact Us,1,MA,02149,beauty_salon
Salon De Cinzia,"1146 Beacon St, Newton, MA 02461",Beauty salon,Newton,http://www.salondecinzia.com/,,,,,http://www.salondecinzia.com/contact,Contact,1,MA,02461,beauty_salon
Extensiones Massachusetts,"111 Everett Ave, Chelsea, MA 02150",Hair extensions supplier,Chelsea,http://www.dalexhair.com/,,,,,https://www.dalexhair.com/contactanos,CONTACTO,1,MA,02150,beauty_salon
Jeffrey Lyle Salon,"135 Newbury St, Boston, MA 02116",Hair salon,Boston,http://www.jeffreylylesalon.com/,,,,,http://www.jeffreylylesalon.com/contact,CONTACT,1,MA,02116,beauty_salon
Mirage Hair Design,"251 W Central St, Natick, MA 01760",Beauty salon,Natick,http://www.miragenatick.com/,,,,,http://www.miragenatick.com/contact/index.php,contact,1,MA,01760,beauty_salon
Deidre Ventura Salon & Spa,"1 Central St, Middleton, MA 01949",Beauty salon,Middleton,http://www.deidreventurasalon.com/,,,,,http://www.deidreventurasalon.com/contact-middleton-ma," Contact Us

",1,MA,01949,beauty_salon
CappolaBrokaw Art of Hair,"98 Elm St, Cheshire, CT 06410",Hair salon,Cheshire,http://www.cbartofhair.com/,,,,,https://www.salonbuilder.com/website/180032/contact.asp,Contact,1,CT,06410,beauty_salon
Salon Bellamar,"1105 Massachusetts Ave # B, Cambridge, MA 02138",Beauty salon,Cambridge,http://www.salonbellamar.net/,,,,,http://www.salonbellamar.net/Contact-Us.html,Contact Us   ,1,MA,02138,beauty_salon
Janine's Beauty Works,"Front Unit, 133 Main St 2nd Floor, North Andover, MA 01845",Beauty salon,North Andover,http://www.janinesbeautyworks.com/,,,,,http://www.janinesbeautyworks.com/contact-us,Contact Us,1,MA,01845,beauty_salon
Bloom Beauty Salon,"145 Cabot St, Beverly, MA 01915",Beauty salon,Beverly,http://bloombeauty.biz/,,,,,http://bloombeauty.biz/form.html,          Contact & Directions      ,1,MA,01915,beauty_salon
Beauty Lounge by Lex,"163 Eastern Ave, Malden, MA 02148",Beauty salon,Malden,https://www.beautyloungebylex.com/,,,,,https://www.beautyloungebylex.com,CONTACT,1,MA,02148,beauty_salon
Trephin,"25 Temple Pl, Boston, MA 02111",Beauty salon,Boston,http://www.trephin.com/,,,,,https://trephin.com/contact/,Contact,1,MA,02111,beauty_salon
Main Street Styles,"1170 Main St, Worcester, MA 01603",Beauty salon,Worcester,http://www.amazingstylehairsalon.net/,,,,,http://www.amazingstylehairsalon.net/contacts.html,Contacts,1,MA,01603,beauty_salon
Rasheedah's Exquisite Hair Design,"804 Welsh St # A, Chester, PA 19013",Beauty salon,Chester,http://www.rasheedahsexquisite.com/,,,,,http://www.rasheedahsexquisite.com/form.html," 
               
                     
                   
                   
                   
                     Contact Us 
                      
               
             ",1,PA,19013,beauty_salon
Ilevis Hair & Nail Salon,"171 High St, Holyoke, MA 01040",Beauty salon,Holyoke,https://ilevishnsalon.wixsite.com/,,,,,https://ilevishnsalon.wixsite.com/ilevishns,CONTACT,1,MA,01040,beauty_salon
Da Vi Nails,"591 Memorial Dr # 2, Chicopee, MA 01020",Nail salon,Chicopee,http://davinails.com/,,,,,http://davinails.com/contact-us/,Contact Us,1,MA,01020,beauty_salon
Beauty Gate Hair Salon and Spa,"1646 Riverdale St, West Springfield, MA 01089",Hair salon,West Springfield,http://beautygatesalonspa.com/,,,,,https://www.beautygatesalonspa.com/contact,Contact,1,MA,01089,beauty_salon
The Finishing touch salon & spa,"502 Granby Rd, South Hadley, MA 01075",Beauty salon,South Hadley,http://www.thefinishingtouchsouthhadley.com/,,,,,https://www.thefinishingtouchsouthhadley.com/contact-us,CONTACT US,1,MA,01075,beauty_salon
Cosmetic Wellness Center,"2085 Riverdale St, West Springfield, MA 01089",Medical spa,West Springfield,http://cosmeticwellnesscenter.com/,,,,,https://www.cosmeticwellnesscenter.com/contact,Contact,1,MA,01089,beauty_salon
Euro Coiffure Salon & Day Spa,"1912 Wilbraham Rd, Springfield, MA 01129",Beauty salon,Springfield,http://www.eurocoiffuresalon.com/,,,,,https://www.eurocoiffuresalon.com/contact-us,CONTACT US,1,MA,01129,beauty_salon
La Belle Salon,"933 Boston Rd, Springfield, MA 01119",Hair salon,Springfield,https://labellesalon.mysalononline.com/,,,,,https://labellesalon.mysalononline.com/Contact,Contact,1,MA,01119,beauty_salon
Innovations Hair Salon,"629 Massachusetts Ave # 6, Boxborough, MA 01719",Beauty salon,Boxborough,http://innovationshair.homestead.com/,,,,,http://innovationshair.homestead.com/contact.html,MAKE AN APPOINTMENT,1,MA,01719,beauty_salon
The Clip Shop  Pittsfield,"60 Elm St, Pittsfield, MA 01201",Beauty salon,Pittsfield,http://theclipshop.com/,,,,,http://theclipshop.com/contact.html,CONTACT,1,MA,01201,beauty_salon
Giovann Hair Salon,"247 Washington St #247, Stoughton, MA 02072",Beauty salon,Stoughton,http://www.giovannsalon.com/,,,,,http://www.giovannsalon.com/contact.html#a,Contact,1,MA,02072,beauty_salon
Saisons Holistic Skin Care Salon,"98 South St, Hingham, MA 02043",Skin care clinic,Hingham,http://www.saisonshingham.com/,,,,,https://visitor.r20.constantcontact.com/d.jsp?llr=5gkqigwab&p=oi&m=1123344197854&sit=ndwgzgikb&f=cb40e031-8522-4792-8820-a4a131caaac9,Sign Up For Saisons Emails,1,MA,02043,beauty_salon
Salon Tres Chic,"340 Washington St #3, Norwell, MA 02061",Beauty salon,Norwell,http://www.salontreschicnorwell.com/,,,,,http://www.salontreschicnorwell.com/contact-us.html,Contact Us,1,MA,02061,beauty_salon
Salon Seven Hair Studio  Hairstyle Salon I Hair Styling I Hair Salon in Weymouth MA,"777 Broad St, Weymouth, MA 02188",Beauty salon,Weymouth,http://salonsevenhair.com/,,,,,http://salonsevenhair.com/contact-us/,Contact us,1,MA,02188,beauty_salon
Scituate Nails & Spa,"28 New Driftway UNIT 3, Scituate, MA 02066",Nail salon,Scituate,http://scituatenails.com/,,,,,http://scituatenails.com/#contact,Contact,1,MA,02066,beauty_salon
Eye Candy Beauty Bar,"131 W Main St #324, Orange, MA 01364",Skin care clinic,Orange,https://www.ecbeautybar.com/,,,,,https://www.ecbeautybar.com,CONTACT,1,MA,01364,beauty_salon
East Street Salon,"938 East St, Walpole, MA 02081",Beauty salon,Walpole,http://eaststreetsalonwalpole.com/,,,,,https://www.eaststreetsalonwalpole.com/contact,Contact,1,MA,02081,beauty_salon
Zen Nail Spa,"2076 White Mountain Hwy, North Conway, NH 03860",Nail salon,North Conway,http://zen-nails.com/,,,,,http://zen-nails.com/index.php?option=com_content&view=article&id=82&Itemid=125,Contact,1,NH,03860,beauty_salon
The Salon At 10 Newbury,"10 Newbury St, Boston, MA 02116",Beauty salon,Boston,http://www.salonat10newbury.com/,,,,,http://www.salonat10newbury.com/#,Contact Us ,1,MA,02116,beauty_salon
Great Wall Foot Spa,"5 Newell St, Pittsfield, MA 01201",Spa,Pittsfield,https://www.greatwallfootspa.com/,,,,,https://www.greatwallfootspa.com/contact,Contact,1,MA,01201,beauty_salon
Cheveux Hair Clinic,"100 North St, Pittsfield, MA 01201",Hair replacement service,Pittsfield,http://www.cheveuxhairclinic.com/,,,,,http://www.cheveuxhairclinic.com/contact-cheveux/,Contact,1,MA,01201,beauty_salon
New England Beauty Supply,"110 Newbury St, Danvers, MA 01923",Beauty supply store,Danvers,http://newenglandsalonsolutions.com/,,,,,http://newenglandsalonsolutions.com/pages/contact,"
              Contact 
            ",1,MA,01923,beauty_salon
Hair Enhancement By Ilona,"85, Suite 300B2, Constitution Ln, Danvers, MA 01923",Hair salon,Danvers,http://www.ilonashairenhancement.com/,,,,,http://www.ilonashairenhancement.com/contact," CONTACT US
",1,MA,01923,beauty_salon
Hair Envee Salon,"56 General Way Studio 27, Reading, MA 01867",Beauty salon,Reading,http://www.hairenveesalon.com/,,,,,http://www.hairenveesalon.com/contact-us,Contact Us,1,MA,01867,beauty_salon
Revere Tanning Salon,"180 Endicott St, Danvers, MA 01923",Tanning salon,Danvers,http://reveretanning.com/,,,,,http://reveretanning.com/locations/revere-ma-tanning-salon,Contact Us,1,MA,01923,beauty_salon
Premier Cuts,"21 Maple St, Danvers, MA 01923",Barber shop,Danvers,http://premiercutsdanvers.com/,,,,,http://premiercutsdanvers.com/contact-us/1413482,CONTACT US,1,MA,01923,beauty_salon
Sensations Salon,"1809 Acushnet Ave, New Bedford, MA 02746",Beauty salon,New Bedford,http://www.sensations1809.com/,,,,,http://www.sensations1809.com/Contact,Contact,1,MA,02746,beauty_salon
Studio Vogue,"598 Brayton Ave, Fall River, MA 02721",Beauty salon,Fall River,http://www.studiovoguesalon.com/,,,,,http://www.studiovoguesalon.com/contact-us.html,"
				Contact Us
			",1,MA,02721,beauty_salon
Salon 812,"812 Pleasant St, Fall River, MA 02723",Beauty salon,Fall River,http://www.salon812.com/,,,,,https://www.salon812.com/contact,CONTACT,1,MA,02723,beauty_salon
ledoux & co salon and spa,"250 President Ave, Fall River, MA 02720",Beauty salon,Fall River,http://ledouxsalon.com/,,,,,http://ledouxsalon.com/contact/,Hours & Contact,1,MA,02720,beauty_salon
Dermaculture Skin Spa,"192 S Main St suite b, Acushnet, MA 02743",Facial spa,Acushnet,https://www.dermacultureskinspa.com/,,,,,https://www.dermacultureskinspa.com/#contact,Contact,1,MA,02743,beauty_salon
La'i Spa,"237 State Rd, Dartmouth, MA 02747",Medical spa,Dartmouth,http://www.laimedspa.com/,,,,,https://www.laimedspa.com/contactus/,Contact,1,MA,02747,beauty_salon
Total Image Day Spa,"485 High St, Dedham, MA 02026",Day spa,Dedham,http://www.totalimagededham.com/,,,,,https://www.totalimagededham.com/contact-us,CONTACT US,1,MA,02026,beauty_salon
Nail Maxx Co,"1780 Centre St, West Roxbury, MA 02132",Nail salon,West Roxbury,https://www.nailsmaxx.space/,,,,,https://www.nailsmaxx.space/contact,"
Contact
",1,MA,02132,beauty_salon
Deepa's Beauty Salon ,"914 Washington Street​, Norwood, MA 02062",Beauty salon,Norwood,http://deepabeautysalon.com/,,,,,https://www.deepabeautysalon.com/contact,Contact Us,1,MA,02062,beauty_salon
Salon Divoe,"884 Washington St, Norwood, MA 02062",Beauty salon,Norwood,http://www.salondivoe.com/,,,,,http://salondivoe.com/contact-us/,Contact Us,1,MA,02062,beauty_salon
Perfect 10 Unisex Salon,"1896 Centre St, West Roxbury, MA 02132",Hair salon,West Roxbury,http://www.perfect10hairsalon.com/,,,,,https://www.perfect10hairsalon.com/contact-us,CONTACT US,1,MA,02132,beauty_salon
Beauty Nails,"1408 Centre St B, Roslindale, MA 02131",Nail salon,Roslindale,https://beautynailsnskincareroslindale.com/,,,,,https://beautynailsnskincareroslindale.com/contact,Contact Us,1,MA,02131,beauty_salon
JLS Hair Design LLC,"1264 Douglas Ave, North Providence, RI 02904",Beauty salon,North Providence,http://www.jlshairdesign.com/,,,,,https://www.jlshairdesign.com/contact/,ContactMake an Appointment,1,RI,02904,beauty_salon
J'adore Salon,"423 Chandler St, Worcester, MA 01602",Facial spa,Worcester,http://www.jadore-salon.com/,,,,,http://www.jadore-salon.com/contact-us/,Contact Us,1,MA,01602,beauty_salon
True Salon & Color Cafe,"290 Turnpike Rd, Westborough, MA 01581",Beauty salon,Westborough,http://www.truesalon.com/,,,,,http://www.truesalon.com/contact,Contact,1,MA,01581,beauty_salon
RI Wedding Hair Stylist Cassandra Broccoli,"11 N Main St 2nd Floor, Slatersville, RI 02876",Hairdresser,Slatersville,http://www.riweddinghair.com/,,,,,https://www.riweddinghair.com/contact,C O N T A C T,1,RI,02876,beauty_salon
Wellesley Nails and Spa,"139 Linden St, Wellesley, MA 02482",Nail salon,Wellesley,http://wellesleynailsandspa.com/,,,,,http://wellesleynailsandspa.com/about%7Ccontact,About|Contact,1,MA,02482,beauty_salon
Kim's Nails,"471 Washington St, Wellesley, MA 02482",Nail salon,Wellesley,http://www.kimsnailsdayspa.com/,,,,,http://www.kimsnailsdayspa.com/../contact, ,1,MA,02482,beauty_salon
Shear Magic Family Haircare,"2 Mill St, Natick, MA 01760",Beauty salon,Natick,http://www.shearmagicnatick.com/,,,,,http://www.shearmagicnatick.com/#,Contact SHEAR MAGIC Natick on Messenger,1,MA,01760,beauty_salon
Strands Hair Studio,"8a Wethersfield Rd, Natick, MA 01760",Beauty salon,Natick,http://www.strandshairstudio.net/,,,,,https://www.strandshairstudio.net/contact-and-directions,Contact and Directions,1,MA,01760,beauty_salon
Eugenio Hair Salon,"139 Linden St, Wellesley, MA 02482",Beauty salon,Wellesley,http://eugeniosalon.com/,,,,,http://eugeniosalon.com/#contact,Contact,1,MA,02482,beauty_salon
Hair Dimensions Salon & Spa,"55 Old Rochester Rd, Dover, NH 03820",Beauty salon,Dover,http://www.hairdimensionsspa.com/,,,,,http://www.hairdimensionsspa.com/contact.html,Contact,1,NH,03820,beauty_salon
Santtee Beauty Salon,"232 Pond St, Natick, MA 01760",Beauty salon,Natick,http://www.santteebeauty.com/,,,,,https://santteebeauty.com/contact-us-2/,Contact Us,1,MA,01760,beauty_salon
Perfect Solution,"112 Daniel Webster Hwy # 8, Nashua, NH 03060",Hair salon,Nashua,http://perfectsolutionhairsalon.com/,,,,,https://www.perfectsolutionhairsalon.com/contact,CONTACT,1,NH,03060,beauty_salon
SLAY SALON,"157 Main Dunstable Rd, Nashua, NH 03060",Beauty salon,Nashua,http://slaysalon.com/,,,,,http://slaysalon.com/contact-us,CONTACT US,1,NH,03060,beauty_salon
Sean Michaels Salon,"31 Schoosett St # 500, Pembroke, MA 02359",Beauty salon,Pembroke,http://www.seanmichaelssalon.com/,,,,,http://www.seanmichaelssalon.com/contact-us,Contact us,1,MA,02359,beauty_salon
Corinne's Hair Affair,"46 Columbia Rd # 2A, Pembroke, MA 02359",Beauty salon,Pembroke,http://corinneshairaffair.com/,,,,,http://corinneshairaffair.com/contact-us.html,Contact Us,1,MA,02359,beauty_salon
Q spa,"6 c Court St, Plymouth, MA 02360",Nail salon,Plymouth,http://www.qspaplymouth.com/,,,,,http://www.qspaplymouth.com/#contact,Contact Us,1,MA,02360,beauty_salon
Simply Divine Hair Salon,"12 Snow Rd, Marshfield, MA 02050",Hair salon,Marshfield,http://www.simplydivinemarshfield.com/,,,,,http://www.simplydivinemarshfield.com/contact-us/,Visit Our Salon,1,MA,02050,beauty_salon
Hot Locks Salon Plymouth,"20 Home Depot Dr, Plymouth, MA 02360",Beauty salon,Plymouth,http://www.hotlockssalon.com/,,,,,http://www.hotlockssalon.com/contactdirections," Contact/Directions

",1,MA,02360,beauty_salon
Eden Salon,"460 Washington St #4, Pembroke, MA 02359",Hair salon,Pembroke,https://eden-salon.com/,,,,,https://eden-salon.com/contact,CONTACT,1,MA,02359,beauty_salon
V Star Nails,"61 Commerce Way #4, Plymouth, MA 02360",Nail salon,Plymouth,https://vstarnailsplymouth.com/,,,,,https://vstarnailsplymouth.com/contact,Contact Us,1,MA,02360,beauty_salon
Salon Omorfi,"306 1/2 Court St, Plymouth, MA 02360",Hair salon,Plymouth,http://www.salonomorfi.com/,,,,,http://salonomorfi.com/contact-and-location-information/,Contact & Location Information,1,MA,02360,beauty_salon
LV Nails & Spa,"96 Long Pond Rd, Plymouth, MA 02360",Nail salon,Plymouth,http://lvnailsspaplymouth.com/,,,,,http://lvnailsspaplymouth.com/contact,Contact Us,1,MA,02360,beauty_salon
Clean Slate Hair Removal,"2 Allen St, Hampden, MA 01036",Hair removal service,Hampden,http://cleanslatehairremoval.com/,,,,,http://cleanslatehairremoval.com/#contact,Contact,1,MA,01036,beauty_salon
Lek's Spa,"13 Gerrard Ave, East Longmeadow, MA 01028",Spa,East Longmeadow,https://www.leksspa.com/,,,,,https://www.leksspa.com/contact,Contact,1,MA,01028,beauty_salon
Island Tanning,"491 N Main St, East Longmeadow, MA 01028",Tanning salon,East Longmeadow,https://centuryfit.com/,,,,,https://centuryfit.com/contact-us/,Contact,1,MA,01028,beauty_salon
Pioneer Valley Electrolysis,"1188 Parker St #9, Springfield, MA 01129",Electrolysis hair removal service,Springfield,https://www.pioneervalleyelectrolysis.com/,,,,,https://www.pioneervalleyelectrolysis.com/Location-and-Contact-info.html,,1,MA,01129,beauty_salon
Ascent Laser Aesthetics,"250 N Main St suite c, East Longmeadow, MA 01028",Medical spa,East Longmeadow,https://ascentlaseraesthetics.com/,,,,,https://ascentlaseraesthetics.com/#contact,CONTACT,1,MA,01028,beauty_salon
Tanorama of Brockton,"1285 Belmont St, Brockton, MA 02301",Tanning salon,Brockton,http://tanoramatanning.com/,,,,,http://tanoramatanning.com/contact.html,Contact,1,MA,02301,beauty_salon
Madusalon,"300 Divisadero St, San Francisco, CA 94117",Beauty salon,San Francisco,http://madusalon.com/,,,,,http://madusalon.com/contact-us-2/,Contact Us,1,CA,94117,beauty_salon
Diemand Cutter Hair Shop,"12 E Prospect St, Erving, MA 01344",Beauty salon,Erving,http://www.erving-ma.gov/,,,,,http://www.erving-ma.gov/contacts-directory,Staff Directory,1,MA,01344,beauty_salon
SKA Beauty Cafe,"36 Essex St, Boston, MA 02111",Hair salon,Boston,http://www.skabos.com/,,,,,http://www.skabos.com/new-page-1,"
            Contact 
          ",1,MA,02111,beauty_salon
Jon Val Hair Salon,"10 Elm Park, Groveland, MA 01834",Beauty salon,Groveland,https://www.jonvalhairsalon.com/,,,,,https://www.jonvalhairsalon.com/contact-us,Contact Us,1,MA,01834,beauty_salon
KBeauty,"Inside of Le Gala Salon, 78 Essex St, Boston, MA 02111",Beauty salon,Boston,http://kbeautyboston.com/,,,,,http://kbeautyboston.com/contact," Contact

",1,MA,02111,beauty_salon
North Shore Laser Center,"6 Essex Center Dr STE 206, Peabody, MA 01960",Hair removal service,Peabody,http://www.thenorthshorelasercenter.com/,,,,,https://www.thenorthshorelasercenter.com/contact-us,Contact,1,MA,01960,beauty_salon
Ward's Hair Co,"44 Railroad Ave, Hamilton, MA 01982",Hair salon,Hamilton,http://wardshairco.mysalononline.com/,,,,,http://wardshairco.mysalononline.com/Contact,Contact,1,MA,01982,beauty_salon
Vecina Beauty,"4 Hampshire St, Lawrence, MA 01840",Beauty salon,Lawrence,http://www.athenabeauty.com/,,,,,http://www.athenabeauty.com/contact.html,Contact Us,1,MA,01840,beauty_salon
Madison Ave Electrology,"282 Main St, Groveland, MA 01834",Hair removal service,Groveland,http://haverhillelectrolysis.com/,,,,,http://haverhillelectrolysis.com/contact-us.html,"Haverhill, MA Office",1,MA,01834,beauty_salon
BB Beauty Salon,"60A Summer St, Malden, MA 02148",Nail salon,Malden,https://www.bbbeautysalon.com/,,,,,https://www.bbbeautysalon.com/contact.html,Contact Us,1,MA,02148,beauty_salon
Hidden Beauty,"54 Summer St, Malden, MA 02148",Beauty salon,Malden,http://www.hiddenbeautymalden.com/,,,,,http://www.hiddenbeautymalden.com/tel:7818130085,(781) 813-0085,1,MA,02148,beauty_salon
Always Hair For You,"16 Essex St, Melrose, MA 02176",Beauty salon,Melrose,http://lfielding87.wix.com/,,,,,https://lfielding87.wixsite.com/alwayshairforyou/contact-us,CONTACT US,1,MA,02176,beauty_salon
New England Hair Academy,"110 Florence St #203, Malden, MA 02148",Beauty salon,Malden,http://www.newenglandhairacademy.com/,,,,,http://www.newenglandhairacademy.com/contact.php,Contact us,1,MA,02148,beauty_salon
Main Facility,"5 Middlesex Ave #306, Somerville, MA 02145",Medical spa,Somerville,https://neemmedicalspa.com/,,,,,https://neemmedicalspa.com/contact-us,Schedule Online,1,MA,02145,beauty_salon
La Bella Hair,"466A Salem St, Medford, MA 02155",Hair salon,Medford,http://www.labellahair.biz/,,,,,http://www.labellahair.biz/#Contact,Contact,1,MA,02155,beauty_salon
Martie & Associates Hairstylists,"Inside Sebouh's Hair Salon, 92 June St, Worcester, MA 01602",Hair salon,Worcester,http://martieandassociates.com/,,,,,http://martieandassociates.com/contact,Contact,1,MA,01602,beauty_salon
Hawaiian Island Tanning,"194 Rockdale Ave, New Bedford, MA 02740",Tanning salon,New Bedford,http://hawaiianislandtanning.mysalononline.com/,,,,,http://hawaiianislandtanning.mysalononline.com/Contact,Contact,1,MA,02740,beauty_salon
Ultra Tan Salon & Spa,"428 S Main St, Fall River, MA 02721",Beauty salon,Fall River,http://ultratantoday.com/,,,,,https://ultratantoday.com/contact/,Contact,1,MA,02721,beauty_salon
Celestial Houtman,"161 S Main St, Fall River, MA 02721",Beauty salon,Fall River,https://www.celestialhoutman.com/,,,,,https://www.celestialhoutman.com/contact,Contact & Inquires,1,MA,02721,beauty_salon
Nails and Beauty,"73 Columbia St, Fall River, MA 02721",Beauty salon,Fall River,http://www.nailsandbeautyatsalonm.com/,,,,,http://www.nailsandbeautyatsalonm.com/contact-us,Contact Us,1,MA,02721,beauty_salon
The Hair Studio,"27 Stafford Rd, Tiverton, RI 02878",Beauty salon,Tiverton,http://www.tivertonhairstudio.com/,,,,,http://www.tivertonhairstudio.com/contact-us,Contact Us,1,RI,02878,beauty_salon
SalonLuxe,"1118 County St, Somerset, MA 02726",Nail salon,Somerset,http://www.salonluxe.net/,,,,,http://www.salonluxe.net/contact-us/,Contact Us,1,MA,02726,beauty_salon
Shear Pleasure Hair Styling,"1692 Grand Army of the Republic Hwy, Somerset, MA 02726",Beauty salon,Somerset,http://shearpleasurehairsalon.com/,,,,,http://shearpleasurehairsalon.com/contact-shear-pleasure-hair-design-new-rochelle-ny.htm?dm_device=desktop,Contact,1,MA,02726,beauty_salon
J A Esthetic Inc,"101 Morgan St 2 F, Fall River, MA 02721",Facial spa,Fall River,https://j-a-esthetic-inc.ueniweb.com/,,,,,https://j-a-esthetic-inc.ueniweb.com/#contact_us,Contact Me,1,MA,02721,beauty_salon
Hair's 2 You Salon,"173 Market St, Warren, RI 02885",Hair salon,Warren,http://hairs2yousalon.com/,,,,,http://hairs2yousalon.com/contact-us/4705450,CONTACT US,1,RI,02885,beauty_salon
Club Tan,"1359 Plymouth Ave # 1, Fall River, MA 02721",Tanning salon,Fall River,http://www.clubtanfallriver.com/,,,,,http://www.clubtanfallriver.com/contact-us.php,Contact Us,1,MA,02721,beauty_salon
June Rose Unisex Hair Styling,"443 Main St, Warren, RI 02885",Beauty salon,Warren,http://www.junerosehairsalonri.com/,,,,,http://www.junerosehairsalonri.com/contact-us," Contact Us

",1,RI,02885,beauty_salon
Wellness Circle,"651 Main Rd, Tiverton, RI 02878",Massage therapist,Tiverton,https://wellnesscircle.org/,,,,,https://wellnesscircle.org/tel:4016243949,(401) 624-3949,1,RI,02878,beauty_salon
Ananda Hair Lounge,"49 Water St, Warren, RI 02885",Beauty salon,Warren,http://www.anandahairlounge.com/,,,,,http://www.anandahairlounge.com/contact-us.html,"
				Contact Us
			",1,RI,02885,beauty_salon
K L Hair Designers,"10 Anoka Ave, Barrington, RI 02806",Beauty salon,Barrington,http://bloomri.com/,,,,,http://bloomri.com/contact,"
            Visit
          ",1,RI,02806,beauty_salon
Spa Yadira,"182 High St, Bristol, RI 02809",Spa,Bristol,http://www.spayadira.com/,,,,,https://www.spayadira.com,Contact / Hours / Book Online,1,RI,02809,beauty_salon
Sun In the City Tanning Salon,"36 Central St, Leominster, MA 01453",Beauty salon,Leominster,http://www.suninthecityinc.com/,,,,,http://www.suninthecityinc.com/contact.html,"





CONTACT


",1,MA,01453,beauty_salon
Forever Summer Solstice Tanning Salon,"a, 5316, 499 Electric Ave, Fitchburg, MA 01420",Tanning salon,Fitchburg,http://foreversummersolsticetanning.weebly.com/,,,,,http://foreversummersolsticetanning.weebly.com/contact.html,"
				Contact
			
			",1,MA,01420,beauty_salon
Electrology and Laser by June Allen,"22 Lakeview Dr, Shirley, MA 01464",Electrolysis hair removal service,Shirley,http://www.electrologybyjuneallen.guru/,,,,,https://www.electrologybyjuneallen.guru/contact,CONTACT,1,MA,01464,beauty_salon
Salon Speakeasy,"17 Central St, Leominster, MA 01453",Hair salon,Leominster,http://salonspeakeasy.com/,,,,,http://salonspeakeasy.com/contact.html,Contact Us,1,MA,01453,beauty_salon
Rainbow Massage Therapy,"4 Ashby State Rd, Fitchburg, MA 01420",Massage spa,Fitchburg,http://www.rainbowmassagefitchburg.com/,,,,,https://www.rainbowmassagefitchburg.com/contact,Contact,1,MA,01420,beauty_salon
The Claw Shop,"1123 Central St, Leominster, MA 01453",Beauty salon,Leominster,http://www.clawshopleominsterma.com/,,,,,https://www.salonbuilder.com/website/184079/contact.asp,Contact,1,MA,01453,beauty_salon
Luxe Nail Bar,"18 Main St, Townsend, MA 01469",Nail salon,Townsend,http://www.luxesnailbar.com/,,,,,http://www.luxesnailbar.com/Contact,Contact,1,MA,01469,beauty_salon
Global Fitness 24,"37 Horseshoe Park Dr, Fitchburg, MA 01420",Tanning salon,Fitchburg,https://globalfitness24.com/,,,,,https://globalfitness24.com/contact-us/,Contact Us,1,MA,01420,beauty_salon
Euphoria Salon and Day Spa,"1309 Massachusetts Ave, Arlington, MA 02476",Hair salon,Arlington,http://www.horizonssalon.com/,,,,,http://horizonssalon.com/contact/,Contact,1,MA,02476,beauty_salon
Camila's Salon & Spa,"1546 SW 27th Ave, Miami, FL 33145",Beauty salon,Miami,http://www.camilassalon.com/,,,,,http://camilassalon.com/contact-us/,Contact Us,1,FL,33145,beauty_salon
Beauty By Dianna  Salon Lofts Largo,"Loft 8, 10500 Ulmerton Rd Unit 816, Largo, FL 33770",Beauty salon,Largo,http://www.beautybydiannaspa.com/,,,,,https://policies.google.com/privacy,Privacy Policy,1,FL,33770,beauty_salon
KMac Beauty,"420 Boston Rd, Billerica, MA 01821",Beauty salon,Billerica,https://www.kmacbeauty.com/,,,,,https://www.kmacbeauty.com/directions,DIRECTIONS |  CONTACT,1,MA,01821,beauty_salon
Magnolias Salon & Spa,"917 W Fairbanks Ave, Winter Park, FL 32789",Beauty salon,Winter Park,http://www.magnoliassalonandspa.com/,,,,,https://www.magnoliassalonandspa.com/contact/,Contact,1,FL,32789,beauty_salon
H2T Skin & Laser Center,"17 Cocasset St, Foxborough, MA 02035",Medical spa,Foxborough,http://www.h2tskin.com/,,,,,https://www.h2tskin.com/contact,Contact,1,MA,02035,beauty_salon
Relaxzen Massage Therapy,"17 Cocasset St, Foxborough, MA 02035",Massage therapist,Foxborough,http://relaxzenmassage.net/,,,,,http://relaxzenmassage.net/contact-me,Contact Me,1,MA,02035,beauty_salon
GA Barbershop By Georges Atieh,"211 North St, Foxborough, MA 02035",Barber shop,Foxborough,http://gabarbershop.com/,,,,,http://gabarbershop.com/tel:7742150210,(774) 215-0210,1,MA,02035,beauty_salon
Glam Salon and Day Spa,"79 Main St, Ashland, MA 01721",Beauty salon,Ashland,http://glamashland.com/,,,,,http://glamashland.com/contact/,Contact Us,1,MA,01721,beauty_salon
Dasha Hanson,"1 Watson Pl, Framingham, MA 01701",Hairdresser,Framingham,http://dashahanson.com/,,,,,http://dashahanson.com/contact.html,Contact,1,MA,01701,beauty_salon
M & Co Hair Studio,"179 W Central St #10, Natick, MA 01760",Beauty salon,Natick,http://mandcohair.com/,,,,,http://mandcohair.com/contact,Contact,1,MA,01760,beauty_salon
Taglio Salon,"148 E Central St, Natick, MA 01760",Beauty salon,Natick,http://tagliosalonma.com/,,,,,http://tagliosalonma.com/contact.php,Contact,1,MA,01760,beauty_salon
Lauren Ashley Skincare,"185 Commonwealth Rd 2nd floor, Wayland, MA 01778",Facial spa,Wayland,https://www.laurenashleyskincare.com/,,,,,https://www.laurenashleyskincare.com,CONTACT,1,MA,01778,beauty_salon
Pandolfinos Hair Studio,"117 W Central St, Natick, MA 01760",Hair salon,Natick,http://pandolfinoshairstudio.com/,,,,,https://www.pandolfinoshairstudio.com/c-o-n-t-a-c-t,LEARN MORE,1,MA,01760,beauty_salon
Laser Gentle Medical Spa,"117 W Central St # B, Natick, MA 01760",Medical spa,Natick,http://www.lasergentle.com/,,,,,http://www.lasergentle.com/contact-laser-md-med-spa-boston/#boston,Boston Clinic,1,MA,01760,beauty_salon
Dream Team Barber Shop,"54 Franklin St, Framingham, MA 01702",Barber shop,Framingham,http://dreamteambarber.com/,,,,,http://dreamteambarber.com/contact/,Contact,1,MA,01702,beauty_salon
Ultimate Tanning,"194 West St STE 6, Milford, MA 01757",Tanning salon,Milford,https://ultimate-tanning.com/,,,,,https://ultimate-tanning.com/#contact-us,Contact Us,1,MA,01757,beauty_salon
Body Image Spa,"14 Hastings St, Mendon, MA 01756",Massage spa,Mendon,http://www.bodyimagemendonmass.com/,,,,,http://www.bodyimagemendonmass.com/contact-us.php,Contact Us,1,MA,01756,beauty_salon
Claudia Frustaci Ciao Bella Day Spa,"17 Nancy Rd, Milford, MA 01757",Spa,Milford,http://www.claudiafrustaci.com/,,,,,http://www.claudiafrustaci.com/pages/contact,Contact,1,MA,01757,beauty_salon
Tanorama,"415 Franklin Village Drive, Franklin, MA 02038",Tanning salon,Franklin,http://www.tanoramatanning.com/,,,,,http://www.tanoramatanning.com/contact.html,Contact,1,MA,02038,beauty_salon
Cesar's Barber Shop,"16 Cottage St, Franklin, MA 02038",Barber shop,Franklin,http://cesarsbarbershop.com/,,,,,http://cesarsbarbershop.com/contact.php,"
",1,MA,02038,beauty_salon
Embrace Beauty Studio,"13 Main St Unit 8A, Franklin, MA 02038",Spa,Franklin,http://embracebeautystudio.com/,,,,,http://embracebeautystudio.com/contact,"
            Contact
          ",1,MA,02038,beauty_salon
Georgetown Hair Studio,"42 Central St, Georgetown, MA 01833",Beauty salon,Georgetown,http://www.northernrootssalonandskincare.com/,,,,,http://www.northernrootssalonandskincare.com/tel:9783523308,978-352-3308,1,MA,01833,beauty_salon
winkwinkDC,"3701 Massachusetts Ave NW #507a, Washington, DC 20016",Beauty salon,Washington,http://winkwinkdc.com/,,,,,http://winkwinkdc.com/#contact,Contact,1,DC,20016,beauty_salon
Le Nail,"319 Newburyport Turnpike # 102, Rowley, MA 01969",Nail salon,Rowley,http://lenailrowley.com/,,,,,http://lenailrowley.com/contact,Contact Us,1,MA,01969,beauty_salon
Fringe Hair Studio,"4 Main St, Rowley, MA 01969",Hair salon,Rowley,http://www.fringehairstudiorowley.com/,,,,,http://www.fringehairstudiorowley.com/contact.html,"
				Contact
			",1,MA,01969,beauty_salon
Danny K Salon,"928 Grafton St, Worcester, MA 01604",Hair salon,Worcester,http://dannyksalon.com/,,,,,http://dannyksalon.com/index-4.html,Contacts,1,MA,01604,beauty_salon
Optimal Nails by Kelly,"1393 Grafton St, Worcester, MA 01604",Nail salon,Worcester,https://www.optimalnailsbykelly.info/,,,,,https://www.optimalnailsbykelly.info/contact,CONTACT,1,MA,01604,beauty_salon
The Experience Hair Salon,"898 Grafton St, Worcester, MA 01604",Hair salon,Worcester,http://theexperiencehairsalon.com/,,,,,http://theexperiencehairsalon.com/#,Contact Us,1,MA,01604,beauty_salon
Sandi's City Styles,"16 Harrington Ave, Shrewsbury, MA 01545",Beauty salon,Shrewsbury,https://www.sandiscitystyles.com/,,,,,https://www.sandiscitystyles.com/contact-us,CONTACT US,1,MA,01545,beauty_salon
Avenue Fifty Salon & Spa,"50 Lake Ave, Worcester, MA 01604",Beauty salon,Worcester,http://www.avenuefifty.com/,,,,,http://www.avenuefifty.com/contact/,About Us,1,MA,01604,beauty_salon
Coastline Enterprise,"908 Boston Turnpike, Shrewsbury, MA 01545",Beauty salon,Shrewsbury,https://www.coastlineedu.com/,,,,,https://coastlineedu.com/contact-coastline-enterprises/,CONTACT,1,MA,01545,beauty_salon
Hair We Are,"57 E Main St #135, Westborough, MA 01581",Beauty salon,Westborough,https://www.hairweare.net/,,,,,https://www.hairweare.net/contact,Contact,1,MA,01581,beauty_salon
The Essence of Harmony,"50 Lake Ave, Worcester, MA 01604",Beauty salon,Worcester,http://www.theessenceofharmony.com/,,,,,http://www.theessenceofharmony.com/contact,Contact,1,MA,01604,beauty_salon
BJ Eyebrow Threading,"176 Boston Turnpike A, Shrewsbury, MA 01545",Beauty salon,Shrewsbury,http://www.bjthreading.com/,,,,,http://www.bjthreading.com/contact.php,Contact,1,MA,01545,beauty_salon
Lux Nails,"10010-J, Shops Way, Northborough, MA 01532",Nail salon,Northborough,http://luxnailsnorthborough.com/,,,,,http://luxnailsnorthborough.com/contact.php,Contact Us,1,MA,01532,beauty_salon
Posh Nails and Spa,"18 Lyman St, Westborough, MA 01581",Nail salon,Westborough,http://poshnailspawestborough.com/,,,,,http://poshnailspawestborough.com/p/contact,CONTACT US,1,MA,01581,beauty_salon
Piel Skin Boutique,"307 Grafton St Ste 102, Shrewsbury, MA 01545",Beauty salon,Shrewsbury,http://www.pielskinboutique.com/,,,,,http://www.pielskinboutique.com/location-n-contact," Location & Contact

",1,MA,01545,beauty_salon
Ntrigue Salon,"277 Shrewsbury St, Worcester, MA 01604",Beauty salon,Worcester,http://www.ntriguesalononline.com/,,,,,http://www.ntriguesalononline.com/contact-us,Contact Us,1,MA,01604,beauty_salon
D'Iorio's,"335 Plantation St, Worcester, MA 01604",Beauty salon,Worcester,http://dioriossalon.com/,,,,,http://dioriossalon.com/contact.html,,1,MA,01604,beauty_salon
Total Body Yoga & Pilates Fitness Studio,"185 W State St, Granby, MA 01033",Yoga studio,Granby,http://www.tbypfitness.com/,,,,,https://tbypfitness.com/contact-us/,Contact Us,1,MA,01033,beauty_salon
Bar Beauty  Alta Moda,"906 Shaker Rd, Longmeadow, MA 01106",Hair salon,Longmeadow,http://www.barbeautyataltamoda.com/,,,,,http://www.barbeautyataltamoda.com/home/contact/,Contact,1,MA,01106,beauty_salon
Bentley's Barbershop,"1142 Berkshire Ave, Springfield, MA 01151",Barber shop,Springfield,http://bentleysbarbershop.weebly.com/,,,,,http://bentleysbarbershop.weebly.com/contact.html,"
				CONTACT
			",1,MA,01151,beauty_salon
Salon CU,"698 Broadway, Somerville, MA 02144",Beauty salon,Somerville,http://saloncu.com/,,,,,http://saloncu.com/contact,CONTACT ,1,MA,02144,beauty_salon
Light Health Center,"2571 N 1st St, San Jose, CA 95131",Medical spa,San Jose,http://www.lighthealthcenter.com/,,,,,http://www.lighthealthcenter.com/contact-us,Contact Us,1,CA,95131,beauty_salon
Planet Beach Spray & Spa  Milpitas,"527 E Calaveras Blvd, Milpitas, CA 95035",Spa,Milpitas,https://planetbeach.com/,,,,,https://planetbeach.com/contact-us/,Contact Us,1,CA,95035,beauty_salon
Noreen's Finally Hair,"178 Middle St, Weymouth, MA 02189",Beauty salon,Weymouth,http://noreensfinallyhair.com/,,,,,http://noreensfinallyhair.com/contact/contact.html,,1,MA,02189,beauty_salon
Crystal Nail & Spa,"220 Winter St E, Bridgewater, MA 02324",Nail salon,Bridgewater,http://crystalnailnspabridgewater.com/,,,,,http://crystalnailnspabridgewater.com/contact,Contact Us,1,MA,02324,beauty_salon
Pixie Lashes Extensions,"79 Pleasant Ave, East Bridgewater, MA 02333",Beauty salon,East Bridgewater,https://pixielashextensions.wixsite.com/,,,,,https://www.facebook.com/PixieLashExtensions/,Contact,1,MA,02333,beauty_salon
Skin Nail Delight Plymouth,"91 Carver Rd, Plymouth, MA 02360",Nail salon,Plymouth,http://skinnaildelight.com/,,,,,http://skinnaildelight.com/contact,Contact,1,MA,02360,beauty_salon
Nails & Spa Club,"15 Central Square, Bridgewater, MA 02324",Nail salon,Bridgewater,http://www.nailsspaclub.com/,,,,,http://nailsspaclub.com/contact-2/,Contact,1,MA,02324,beauty_salon
Enlighten Med Spa,"5232 Forest Ln #170, Dallas, TX 75244",Beauty salon,Dallas,http://www.enlightenmd.com/,,,,,https://www.enlightenmd.com/contact-enlighten/,Contact,1,TX,75244,beauty_salon
Dolo barbershop,"833 Hancock St, Quincy, MA 02170",Barber shop,Quincy,http://doloclothing.com/,,,,,https://www.doloclothing.com/contact/,Mail,1,MA,02170,beauty_salon
Tanning Plus,"333 Columbia Rd, Hanover, MA 02339",Tanning salon,Hanover,https://www.tanningplusma.com/,,,,,https://www.tanningplusma.com/contact.html,"
				Contact
			",1,MA,02339,beauty_salon
Waxed,"454 Washington St, Norwell, MA 02061",Skin care clinic,Norwell,http://waxedbysarahlong.mysalononline.com/,,,,,http://waxedbysarahlong.mysalononline.com/Contact,Contact,1,MA,02061,beauty_salon
Aura Lash  Beauty,"1375 Main St #2, Hanson, MA 02341",Beauty salon,Hanson,http://aurabeautyma.com/,,,,,http://aurabeautyma.com/contact-us,"
Contact Us
",1,MA,02341,beauty_salon
Blush Day Spa,"152 Broadway, Hanover, MA 02339",Day spa,Hanover,https://www.blushofhanover.com/,,,,,http://www.blushofhanover.com/contact.htm,"CONTACT 
                      US",1,MA,02339,beauty_salon
PK Aesthetics,"800 Hingham St, Rockland, MA 02370",Skin care clinic,Rockland,http://www.pkaskincenter.com/,,,,,https://pkaskincenter.com/contact/,Locations,1,MA,02370,beauty_salon
Skin Radiance,"57 Water St, Hingham, MA 02043",Beauty salon,Hingham,http://www.skinradianceofhingham.com/,,,,,http://www.skinradianceofhingham.com/contactus.aspx, Contact Us,1,MA,02043,beauty_salon
Vip Cuts,"12 White St, Haverhill, MA 01830",Barber shop,Haverhill,http://www.vipcuts.net/,,,,,https://www.vipcuts.net/contact,CONTACT,1,MA,01830,beauty_salon
GLOW Threading & Waxing,"1359 Hancock St suite 3 floor 2, Quincy, MA 02169",Facial spa,Quincy,https://www.glowthreadingwaxing.com/,,,,,https://www.glowthreadingwaxing.com,CONTACT,1,MA,02169,beauty_salon
Eros nails & spa,"128 Medway Rd, Milford St, Milford, MA 01757",Spa,Milford,http://erosnailsspa.com/,,,,,http://erosnailsspa.com/#contact,CONTACT,1,MA,01757,beauty_salon
Athena's Nail & Beauty Bar,"635 Waverly St #2, Framingham, MA 01702",Beauty salon,Framingham,http://athenasnailandbeautybar.com/,,,,,http://athenasnailandbeautybar.com/contact," Contact

",1,MA,01702,beauty_salon
Amalia's Hair Studio,"187 Main St, Marlborough, MA 01752",Beauty salon,Marlborough,http://amaliashairstudio.com/,,,,,https://www.amaliashairstudio.com,CONTACT,1,MA,01752,beauty_salon
Beauty Center Deluxe,"245 E Main St, Marlborough, MA 01752",Beauty salon,Marlborough,http://beautycenterdeluxe.com/,,,,,http://beautycenterdeluxe.com/contact-us-1,"
            CONTACTO
          ",1,MA,01752,beauty_salon
Diva Nails & Spa,"29 Hudson Rd, Sudbury, MA 01776",Nail salon,Sudbury,http://divanailsudbury.com/,,,,,http://divanailsudbury.com/contact.html,Contact,1,MA,01776,beauty_salon
Sydney's Hair Studio,"339 Boston Post Rd, Sudbury, MA 01776",Beauty salon,Sudbury,http://sydneysofsudbury.com/,,,,,http://sydneysofsudbury.com/contact/,Contact,1,MA,01776,beauty_salon
The Art of Hair,"187 Main St, Marlborough, MA 01752",Hair salon,Marlborough,http://www.theartofhairusa.com/,,,,,https://www.theartofhairusa.com/contact,CONTACT,1,MA,01752,beauty_salon
Prettyology,"18 Newbury St, Boston, MA 02116",Beauty salon,Boston,http://prettyology.com/,,,,,http://prettyology.com/contact-us/request-appointment.php,Request Appointment,1,MA,02116,beauty_salon
Glow MedSpa,"7153 Colleyville Blvd Ste 102, Colleyville, TX 76034",Medical spa,Colleyville,https://www.glowmedspa.com/,,,,,https://www.glowmedspa.com/contact-us/,Contact us,1,TX,76034,beauty_salon
MJJM Salons,"MJJM Salons, 37 Walker Rd, North Andover, MA 01845",Hair salon,North Andover,http://mjjmsalons.com/,,,,,https://www.mjjmsalons.com/contactus/,Contact,1,MA,01845,beauty_salon
Skin Esteem Med Spa,"431 Country Club Way, Kingston, MA 02364",Medical spa,Kingston,https://www.skinesteemmedspa.com/,,,,,https://www.skinesteemmedspa.com/contact,Contact,1,MA,02364,beauty_salon
Birch Salon,"3034 Parkwood Ave, Richmond, VA 23221",Hair salon,Richmond,http://www.birchsalon.com/,,,,,http://www.birchsalon.com/contact,"
              Contact
            ",1,VA,23221,beauty_salon
Soothing Touch To Go LLC,"84 Summer St, Kingston, MA 02364",Massage therapist,Kingston,http://www.soothingtouchtogo.com/,,,,,http://www.soothingtouchtogo.com/tel:7815887522,(781) 588-7522,1,MA,02364,beauty_salon
Bella Tu Salon,"160 Lincoln Rd, Lincoln, MA 01773",Beauty salon,Lincoln,http://www.bellatusalon.com/,,,,,http://www.bellatusalon.com/contact-us.html,Contact Us,1,MA,01773,beauty_salon
Rosemary Park Hair Salon,"518 Lincoln Ave, Saugus, MA 01906",Beauty salon,Saugus,http://www.rmphairsalon.com/,,,,,http://www.rmphairsalon.com/contactus.htm,Contact Us,1,MA,01906,beauty_salon
Eve A Salon and Spa,"3907 S 48th St, Lincoln, NE 68506",Beauty salon,Lincoln,http://www.eveasalonandspa.com/,,,,,http://www.eveasalonandspa.com/contact-us,"
Contact Us
",1,NE,68506,beauty_salon
Allure Nails & Spa,"508 Lincoln Ave b, Saugus, MA 01906",Beauty salon,Saugus,http://www.allurenailspa.net/,,,,,http://www.allurenailspa.net/contact/index.html,èç³»æä»¬,1,MA,01906,beauty_salon
Sizzle Salon,"302 Lincoln Ave, Saugus, MA 01906",Beauty salon,Saugus,http://www.getsizzled.com/,,,,,http://salonatsizzle.com/contactus/,Contact Us,1,MA,01906,beauty_salon
Beyond Beaute Skin Care,"200 Lincoln St # 102, Boston, MA 02111",Beauty salon,Boston,http://www.beyondbeauteboston.com/,,,,,http://www.beyondbeauteboston.com/contact.html,"
Contact

",1,MA,02111,beauty_salon
Vogue Beauty Salon,"76 High St, Medford, MA 02155",Beauty salon,Medford,http://voguehairsalon.net/,,,,,http://voguehairsalon.net/#ContactUs-1ContactUs,,1,MA,02155,beauty_salon
Glitz Beauty Bar,"163 Lincoln Ave, Saugus, MA 01906",Beauty salon,Saugus,http://www.gbbboston.com/,,,,,http://www.gbbboston.com/contact,"
        
        Contact
      ",1,MA,01906,beauty_salon
Haircutters,"11 Lincoln St, Wakefield, MA 01880",Beauty salon,Wakefield,http://www.thehaircutters.com/,,,,,http://www.thehaircutters.com/contact.php,contact,1,MA,01880,beauty_salon
Juliana's Salon,"606 North Ave, Wakefield, MA 01880",Beauty salon,Wakefield,http://www.julianassalon.com/,,,,,http://www.julianassalon.com/contact%20julianna's%20salon.html,Contact us,1,MA,01880,beauty_salon
TreNoi Salon,"146 Lowell St, Wakefield, MA 01880",Hair salon,Wakefield,https://trenoisalon.com/,,,,,https://trenoisalon.com/contact/,CONTACT,1,MA,01880,beauty_salon
Couture Hair Design,"187 Water St, Wakefield, MA 01880",Beauty salon,Wakefield,http://www.couturehairdesign.net/,,,,,http://www.couturehairdesign.net/contact/,Contact,1,MA,01880,beauty_salon
Finishing Touchnail & Spa,"139 Lynnfield St, Peabody, MA 01960",Nail salon,Peabody,http://finshingtouchnailspa.com/,,,,,http://finshingtouchnailspa.com/contact,Contact Us,1,MA,01960,beauty_salon
A Unique Salon & Spa,"87 Albion St, Wakefield, MA 01880",Beauty salon,Wakefield,http://www.auniquesalonandspa.com/,,,,,http://www.auniquesalonandspa.com/contact-us.html,Contact,1,MA,01880,beauty_salon
Vanity Hair Salon,"979 Main St, Wakefield, MA 01880",Beauty salon,Wakefield,http://vanityhairwakefield.com/,,,,,http://vanityhairwakefield.com/contact/,Contact,1,MA,01880,beauty_salon
Serendipity Beautique,"56 General Way Studio 32, Reading, MA 01867",Beauty salon,Reading,https://www.solasalonstudios.com/,,,,,https://www.solasalonstudios.com/contact-us,Contact Us,1,MA,01867,beauty_salon
Flawless Makeup & Beauty Lounge,"452 Main St, Wakefield, MA 01880",Beauty salon,Wakefield,http://www.flawlessmakeuplounge.com/,,,,,https://www.flawlessmakeuplounge.com,CONTACT,1,MA,01880,beauty_salon
Studio One Thirteen,"113 Albion St, Wakefield, MA 01880",Beauty salon,Wakefield,http://www.studioonethirteen.com/,,,,,http://www.studioonethirteen.com/contact-us,Contact Us,1,MA,01880,beauty_salon
MarketStreet Lynnfield,"600 Market St, Lynnfield, MA 01940",Hair salon,Lynnfield,http://www.marketstreetlynnfield.com/,,"Polished, outdoor retail center with 80+ stores, supermarket & eateries, plus a seasonal ice rink.",,,https://marketstreetlynnfield.com/contact/,Contact,1,MA,01940,beauty_salon
Tc Nails,"105 Essex St, Lynn, MA 01902",Nail salon,Lynn,http://tcnailslynn.com/,,,,,http://tcnailslynn.com/contact-us/2638527,Contact Us,1,MA,01902,beauty_salon
Silver Shears Barber Salon,"4 Bessom St, Marblehead, MA 01945",Barber shop,Marblehead,https://www.marbleheadtownguide.com/,,,,,http://www.marbleheadtownguide.com/contact-us.html,contact page.,1,MA,01945,beauty_salon
Electrolysis,"18 Hawthorne Blvd, Salem, MA 01970",Hair removal service,Salem,http://www.bostonschoolofelectrolysis.com/,,,,,https://bostonschoolofelectrolysis.com/contact-electrologist.php,Contact the Electrologist,1,MA,01970,beauty_salon
Studio Five Hair Salon,"140 Main St, Peabody, MA 01960",Hair salon,Peabody,https://studiofivehairsalon.com/,,,,,https://studiofivehairsalon.com/contact-us.php,Contact Us,1,MA,01960,beauty_salon
Erik's Barber Shop,"27 C, Atlantic Ave, Marblehead, MA 01945",Barber shop,Marblehead,http://eriksbarbershop.com/,,,,,https://www.eriksbarbershop.com/contact,CONTACT,1,MA,01945,beauty_salon
uGlow Med Spa,"214 B Humphrey St, Marblehead, MA 01945",Medical spa,Marblehead,https://uglowmedspa.com/,,,,,https://uglowmedspa.com/contact,"
            Contact
          ",1,MA,01945,beauty_salon
Muscular & Sports Therapy Center,"14 Bessom St, Marblehead, MA 01945",Massage therapist,Marblehead,http://marbleheadfitness.com/,,,,,https://www.marbleheadfitness.com/contact_us,Contact Us,1,MA,01945,beauty_salon
VIP Nails & Spa,"216 Hemlock Ave, South Windsor, CT 06074",Nail salon,South Windsor,http://www.vipnailsct.com/,,,,,http://www.vipnailsct.com/#contact,"
Contact
",1,CT,06074,beauty_salon
Mario Russo Salon 3 and 4,"9 Newbury St, Boston, MA 02116",Hair salon,Boston,http://mariorusso.com/,,,,,https://mariorusso.com/contact-us/,CONTACT US,1,MA,02116,beauty_salon
Nadomi Medspa,"40 Church Ave Suite 102, Wareham, MA 02571",Medical spa,Wareham,https://nadomimedspa.com/,,,,,https://nadomimedspa.com/contact-us,Get Directions,1,MA,02571,beauty_salon
Norwood Beauty Bar,"631 Washington St, Norwood, MA 02062",Beauty salon,Norwood,http://norwoodbeautybar.com/,,,,,http://norwoodbeautybar.com/contact-us/,Contact,1,MA,02062,beauty_salon
Medfield Barber Shop,"454 Main St A, Medfield, MA 02052",Barber shop,Medfield,http://www.medfieldbarber.com/,,,,,http://www.medfieldbarber.com/contact.html,Contact,1,MA,02052,beauty_salon
Zen Nail Spa LLC,"1 Lumber St #106, Hopkinton, MA 01748",Nail salon,Hopkinton,http://www.zennailspallc.com/,,,,,https://www.zennailspallc.com/contact,CONTACT,1,MA,01748,beauty_salon
Make Up Creations,"2390 Mendon Rd, Cumberland, RI 02864",Beauty salon,Cumberland,http://www.makeupcreationsri.com/,,,,,http://www.makeupcreationsri.com/contact-us,Contact Us,1,RI,02864,beauty_salon
Wakefield Nails & Spa,"949 Main St, Wakefield, MA 01880",Nail salon,Wakefield,http://www.wakefieldnailspa.com/,,,,,http://wakefieldnailspa.com/contact-us/,Contact Us,1,MA,01880,beauty_salon
A Step Above Unisex Salon,"449 Lincoln Ave, Saugus, MA 01906",Beauty salon,Saugus,http://www.astepabovesaugus.com/,,,,,http://www.astepabovesaugus.com/contact," CONTACT
",1,MA,01906,beauty_salon
Indulgence Nails and Spa,"200 Walnut St STE 4, Saugus, MA 01906",Nail salon,Saugus,https://indulgencenailsandspa.com/,,,,,https://indulgencenailsandspa.com/contact/,Contact,1,MA,01906,beauty_salon
A Touch of the Sun,"319 Merrimack St, Methuen, MA 01844",Tanning salon,Methuen,http://www.atouchofthesun.com/,,,,,https://www.atouchofthesun.com/about-us/,CONTACT US,1,MA,01844,beauty_salon
Chinese Massage,"3 Osgood St, Methuen, MA 01844",Massage therapist,Methuen,http://www.chinesemassagemethuen.com/,,,,,http://www.chinesemassagemethuen.com/tel:9786839566,(978) 683-9566,1,MA,01844,beauty_salon
Sandler Albert J DDS,"386 Merrimack St, Methuen, MA 01844",Cosmetic dentist,Methuen,http://www.methuencosmeticdentist.com/,,,,,http://www.methuencosmeticdentist.com/contact-albert-j-sandler.html,"

",1,MA,01844,beauty_salon
Diamond Nails Spa,"11 Granite Ave, Boston, MA 02124",Nail salon,Boston,https://www.diamondnailssalon.com/,,,,,https://www.diamondnailssalon.com/contact-us,Contact Us,1,MA,02124,beauty_salon
Electrology By Lisa,"519 Poplar St, Roslindale, MA 02131",Electrolysis hair removal service,Roslindale,http://www.electrologybylisa.vpweb.com/,,,,,http://www.electrologybylisa.vpweb.com/contact-us,Contact Us,1,MA,02131,beauty_salon
Mackie's Barber Shop,"20 Central Ave, Milton, MA 02186",Hair salon,Milton,http://www.mackiesbarbershop.com/,,,,,http://www.mackiesbarbershop.com/contact,"
                Contact us
              ",1,MA,02186,beauty_salon
Esthetica Salon,"126 Franklin St, Quincy, MA 02169",Beauty salon,Quincy,http://www.estheticahairsalon.com/,,,,,https://www.estheticahairsalon.com/contact,Contact Us,1,MA,02169,beauty_salon
Fwresh Barber Shop & Beauty Salon,"252 Bowdoin St, Dorchester, MA 02122",Beauty salon,Dorchester,http://fwreshbarbershop.com/,,,,,http://fwreshbarbershop.com/contact/,Contact,1,MA,02122,beauty_salon
Milu Hair Salon,"19 Ramsey St, Boston, MA 02125",Beauty salon,Boston,http://www.miluhairsalon.com/,,,,,http://www.miluhairsalon.com/contact.html,CONTACT US,1,MA,02125,beauty_salon
Aria Salon & Spa,"538 Victory Rd suite c, Quincy, MA 02171",Hair salon,Quincy,http://aria-salonspa.com/,,,,,https://www.aria-salonspa.com/contact-us,CONTACT US,1,MA,02171,beauty_salon
Laser and Skincare Co,"140 Wood Rd #407, Braintree, MA 02184",Facial spa,Braintree,http://www.laserandskincareco.com/,,,,,http://www.laserandskincareco.com/contact,"
    Contact Us
",1,MA,02184,beauty_salon
Mosaic Salons,"9215 Monroe Rd #100, Charlotte, NC 28270",Beauty salon,Charlotte,http://mosaicsalons.com/,,,,,http://mosaicsalons.com/contactUs.html,"Contact
  Us ",1,NC,28270,beauty_salon
Sport Clips Haircuts of San Diego  Pt Loma,"4007 W Point Loma Blvd, San Diego, CA 92110",Hair salon,San Diego,https://haircutmenpointlomasandiegoca.com/,,,,,https://www.sportclips.com/about-us/contact-us,Contact Us,1,CA,92110,beauty_salon
Lawrence of London,"271 Main St, Great Barrington, MA 01230",Hair salon,Great Barrington,https://lawrenceoflondon.com/,,,,,https://lawrenceoflondon.com/tel:4136453046,(413) 645-3046,1,MA,01230,beauty_salon
J B's Salon,"3786 N Buffalo St, Orchard Park, NY 14127",Beauty salon,Orchard Park,http://www.jbsalonanddayspa.com/,,,,,https://mybloomsalon.com/contact-us/,Contact Us,1,NY,14127,beauty_salon
Mt Washington Skin Care & Spa,"1612 Kelly Ave, Baltimore, MD 21209",Beauty salon,Baltimore,https://mwspa.com/,,,,,https://mwspa.com/contact-us,"Baltimore MD 21209, USA",1,MD,21209,beauty_salon
Allure Aveda Concept Salon,"47 E Market St #1, Rhinebeck, NY 12572",Beauty salon,Rhinebeck,http://allurerhinebeck.com/,,,,,http://allurerhinebeck.com/contact-us,Contact Us,1,NY,12572,beauty_salon
Skinscapes,"31 Central St, Wellesley, MA 02482",Laser hair removal service,Wellesley,http://www.skinscapes.com/,,,,,http://www.skinscapes.com/contact-us,Contact,1,MA,02482,beauty_salon
Chrisso Studio,"19 Pleasant St, Newton Centre, MA 02459",Beauty salon,Newton Centre,http://www.chrissostudio.com/,,,,,http://www.chrissostudio.com/contact-us,"  

Leave Feedback
",1,MA,02459,beauty_salon
Kendile Electrolysis,"471 Washington St, Wellesley, MA 02482",Electrolysis hair removal service,Wellesley,http://www.kendileelectrolysis.com/,,,,,http://www.kendileelectrolysis.com/contact.aspx,"
CONTACT",1,MA,02482,beauty_salon
Le Belle Day Spa,"24 S Main St, Natick, MA 01760",Day spa,Natick,http://lebellenatick.com/,,,,,http://lebellenatick.com/contact/4505902,CONTACT,1,MA,01760,beauty_salon
Atelier,"39 Grove St, Wellesley, MA 02482",Hair salon,Wellesley,https://www.atelierwellesley.com/,,,,,https://www.atelierwellesley.com/contact-us,CONTACT US,1,MA,02482,beauty_salon
Lucinda Ellery Hair Consultancy,"Studio 34, Sola Salons, 1400 Worcester Rd, Natick, MA 01760",Hair replacement service,Natick,https://www.lucindaellery-hairloss.com/,,,,,https://www.lucindaellery-hairloss.com/#,"Contact 
          Us",1,MA,01760,beauty_salon
Advanced Skincare Studio,"1197 Chestnut St, Newton, MA 02464",Facial spa,Newton,http://www.advancedskincarestudio.com/,,,,,https://advancedskincarestudio.com/contact-us/,CONTACT US,1,MA,02464,beauty_salon
Elza Rosa,"33 4th Ave #8, Needham Heights, MA 02494",Hair salon,Needham Heights,http://lzarosa.glossgenius.com/,,,,,http://lzarosa.glossgenius.com/contact,Contact,1,MA,02494,beauty_salon
Fulgenzio Coppola Salon,"731 Washington St, Newton, MA 02458",Beauty salon,Newton,https://www.fulgenziosalon.com/,,,,,https://www.fulgenziosalon.com/contact,"
                Contact
              ",1,MA,02458,beauty_salon
Advanced Hair Design,"536 Columbian St, Weymouth, MA 02190",Beauty salon,Weymouth,http://advancedhairdesign536.com/,,,,,https://maps.google.com/maps?q=United States,Find us on the map,1,MA,02190,beauty_salon
Hair Adventure Hair Salon,"32 Boylston St, Boston, MA 02116",Hair salon,Boston,http://www.hairadventure.com/,,,,,http://www.hairadventure.com/contact.html,"
",1,MA,02116,beauty_salon
Boncaldo's Gentlemen's Barbershop and Spa,"76 Beale St, Quincy, MA 02170",Barber shop,Quincy,http://www.boncaldos.com/,,,,,http://www.boncaldos.com/contact/,Contact,1,MA,02170,beauty_salon
Brightbar Boston Spray Tanning Boutique,"145 Hanover St 4th floor, Boston, MA 02108",Beauty salon,Boston,https://brightbarboston.com/,,,,,https://brightbarboston.com/contact-1,"
              Contact
            ",1,MA,02108,beauty_salon
Leonard Hair Transplant Associates,"340 Wood Rd, Braintree, MA 02184",Hair replacement service,Braintree,https://www.hairdr.com/,,,,,https://www.hairdr.com/contact-us/,Contact,1,MA,02184,beauty_salon
Jason B William Salon,"576 South St, Waltham, MA 02453",Beauty salon,Waltham,https://www.jasonbwilliamsaloninc.com/,,,,,https://www.jasonbwilliamsaloninc.com/contact,Contact,1,MA,02453,beauty_salon
BeautyBase The Thread & Wax Bar,"11 Spring St, Watertown, MA 02472",Hair removal service,Watertown,http://beautybasethreadnwax.com/,,,,,https://www.beautybasethreadnwax.com/contact-us,Contact Us,1,MA,02472,beauty_salon
Tintelations,"1280 Centre St, Newton Centre, MA 02459",Hair salon,Newton Centre,http://tintelation.com/,,,,,http://tintelation.com/contact,Contact,1,MA,02459,beauty_salon
Beauty lux nails & spa,"845 Beacon St STE A, Newton Centre, MA 02459",Nail salon,Newton Centre,http://beautyluxnailsandspanewtoncentre.com/,,,,,http://beautyluxnailsandspanewtoncentre.com/contact,Contact Us,1,MA,02459,beauty_salon
Eye Lush,"119A Galen St, Watertown, MA 02472",Beauty salon,Watertown,https://eyelushsalon.com/,,,,,https://eyelushsalon.com/index.php/contact-us/,Contact Us,1,MA,02472,beauty_salon
Charming Spa,"565 Washington St, Brighton, MA 02135",Nail salon,Brighton,http://charmingspabrighton.com/,,,,,http://charmingspabrighton.com/contact.php, Contact Us,1,MA,02135,beauty_salon
Dana's Nail Salon,"480 Washington St # 101, Brighton, MA 02135",Nail salon,Brighton,http://www.danasnailsalon.com/,,,,,http://www.danasnailsalon.com/contact.html,Contact,1,MA,02135,beauty_salon
Femi Nails Waltham,"375 Moody St, Waltham, MA 02453",Nail salon,Waltham,https://feminailswaltham.com/,,,,,https://feminailswaltham.com/#contact,Contact,1,MA,02453,beauty_salon
Fulham Salon Newton,"847 Beacon St, Newton Centre, MA 02459",Hair salon,Newton Centre,http://www.fulhamsalon.com/,,,,,//fulhamsalon.com/contact-us,Contact Us,1,MA,02459,beauty_salon
Amy & Co Boston,"429 Watertown St Suite 201, Newton, MA 02458",Spa,Newton,http://amyandcoboston.com/,,,,,https://amyandcoboston.com/contact/,Contact Us,1,MA,02458,beauty_salon
Muse Medspa,"5524 Bee Caves Rd B1, Austin, TX 78746",Medical spa,Austin,https://www.musemedspaaustin.com/,,,,,https://www.musemedspaaustin.com/rsvp/,Contact,1,TX,78746,beauty_salon
Double Take Hair Studio,"10 Grove St, Lincoln, RI 02865",Nail salon,Lincoln,http://doubletake-hairstudio.com/,,,,,http://doubletake-hairstudio.com/#contact,Contact,1,RI,02865,beauty_salon
The Glow Bar Tanning Salon,"588 Kelley Blvd Unit 4, North Attleborough, MA 02760",Tanning salon,North Attleborough,http://theglowbartanningsalon.com/,,,,,http://theglowbartanningsalon.com/tel:5086432006,(508) 643-2006,1,MA,02760,beauty_salon
Senza Sole' Professional Spray Tanning ,"28 Greenwood Ave, Weymouth, MA 02189",Tanning salon,Weymouth,http://www.senzasole.com/,,,,,https://www.senzasole.com/contact,Contact,1,MA,02189,beauty_salon
Sobella Airbrush Tanning,"323 Dorchester Ave, Boston, MA 02127",Tanning salon,Boston,http://www.sobellaairbrush.com/,,,,,https://www.sobellaairbrush.com/contact-us,Contact Us,1,MA,02127,beauty_salon
Wilde Hair,"Wilde Hair,LLC, Christian Science Center- Belvidere/ Dalton, International Pl suite 1400, Boston, MA 02110",Hair salon,Boston,https://www.wildehair.com/,,,,,https://www.wildehair.com/contact-us,Contact Us,1,MA,02110,beauty_salon
Renew MediSpa,"23 B Crystal Ave, Derry, NH 03038",Medical spa,Derry,https://renewmedispa.com/,,,,,https://www.renewmedispa.com/contact-us/,Contact Us,1,NH,03038,beauty_salon
The Classy Edge Barbershop,"122 Bridge St, Pelham, NH 03076",Barber shop,Pelham,http://classyedge.com/,,,,,http://www.classyedge.com/#contact-us,CONTACT,1,NH,03076,beauty_salon
Suite15 Hair Salon,"114 E Hendricks Blvd, South Plainfield, NJ 07080",Beauty salon,South Plainfield,https://suite15hairnj.com/,,,,,https://suite15hairnj.com/#contact,CONTACT,1,NJ,07080,beauty_salon
Magic Nails & Spa,"1071 W Pleasant Valley Rd, Parma, OH 44134",Nail salon,Parma,https://magicnailspaparma.com/,,,,,https://magicnailspaparma.com/contact,Contact Us,1,OH,44134,beauty_salon
Off with your hair,"239 Main St, Greenfield, MA 01301",Hair salon,Greenfield,http://thehairstudiomass.com/,,,,,https://www.thehairstudiomass.com/contact-home-greenfield-ma,Contact Us,1,MA,01301,beauty_salon
Heavenly Massage & Spa,"1221 N State Pkwy, Chicago, IL 60610",Spa,Chicago,http://www.heavenlymassage.com/,,,,,https://heavenlymassage.com/contact-us/,get in touchContact,1,IL,60610,beauty_salon
Princess Nails,"263 Main St unit b, Stoneham, MA 02180",Nail salon,Stoneham,http://princessnailsspastoneham.com/,,,,,http://princessnailsspastoneham.com/contact,Contact Us,1,MA,02180,beauty_salon
Bel Viso Day Spa at Elle Salon,"328 Main St, Reading, MA 01867",Day spa,Reading,http://belviso.biz/,,,,,https://belviso.biz/contact/,Contact,1,MA,01867,beauty_salon
Meraki Hair Design,"56 General Way Suite 29, Reading, MA 01867",Hair salon,Reading,https://merakihairdesign.glossgenius.com/,,,,,https://merakihairdesign.glossgenius.com/contact,Contact,1,MA,01867,beauty_salon
Estrela Skin Care Inc,"214 Main St, Stoneham, MA 02180",Beauty salon,Stoneham,http://www.estrelaskincare.com/,,,,,http://www.estrelaskincare.com/contact,CONTACT,1,MA,02180,beauty_salon
Floyd's 99 Barbershop,"300 Mishawum Rd, Woburn, MA 01801",Hair salon,Woburn,http://floydsbarbershop.com/,,,,,http://floydsbarbershop.com/service/contact/,CONTACT,1,MA,01801,beauty_salon
Queen NailsSpa,"290 Newport Ave, Rumford, RI 02916",Nail salon,Rumford,http://queennailsri.com/,,,,,http://queennailsri.com/contact," Contact

",1,RI,02916,beauty_salon
Blend Hair Studio,"124 Central Ave #4143, Seekonk, MA 02771",Hair salon,Seekonk,http://www.blendhairstudio.com/,,,,,https://www.blendhairstudio.com/contact-us,CONTACT US,1,MA,02771,beauty_salon
Salon Theory,"158 Copeland Dr, Mansfield, MA 02048",Beauty salon,Mansfield,http://www.theoryofmansfield.com/,,,,,http://www.theoryofmansfield.com/contact,CONTACT,1,MA,02048,beauty_salon
Simply Silk Laser Hair Removal,"2728 Pawtucket Ave, East Providence, RI 02914",Laser hair removal service,East Providence,http://www.simplysilklaserhairremoval.com/,,,,,https://www.simplysilklaserhairremoval.com/contact-us/,Contact Us,1,RI,02914,beauty_salon
Primary Laser Skincare,"684 Warren Ave, East Providence, RI 02914",Laser hair removal service,East Providence,http://primarywalkinmedical.com/,,,,,http://primarywalkinmedical.com/home/contact/,CONTACT,1,RI,02914,beauty_salon
Eastern Healthy Therapy,"285 Winthrop St unite F1, 1835, Rehoboth, MA 02769",Massage spa,Rehoboth,http://www.easternhealthytherapy.com/,,,,,https://www.easternhealthytherapy.com/contact,Contact,1,MA,02769,beauty_salon
Tiny Textures Mobile Braiding & Hair Salon for Kids,"253 Stonebridge Plaza Ave, Richmond, VA 23225",Hair salon,Richmond,http://www.tinytexturessalon.com/,,,,,https://www.tinytexturessalon.com/contact/,Contact,1,VA,23225,beauty_salon
Universal Studio Salon,"9219 Midlothian Turnpike, Richmond, VA 23235",Hair salon,Richmond,http://universalstudiosalon.com/,,,,,http://universalstudiosalon.com/tel:8042527659,(804) 252-7659,1,VA,23235,beauty_salon
FLIP Hair Salon,"36 Central Ave, Milton, MA 02186",Hair salon,Milton,http://www.fliphairsalon.com/,,,,,http://www.fliphairsalon.com/tel:6176983547,(617) 698-3547,1,MA,02186,beauty_salon
Serendipity Hair Studio,"13813 Village Place Dr, Midlothian, VA 23114",Hair salon,Midlothian,http://www.serendipityhairstudio.net/,,"Cozy salon in a rustic-chic setting offering trendy haircuts, color services & mani-pedi.",,,http://www.serendipityhairstudio.net/contact-us.html,Contact Us,1,VA,23114,beauty_salon
Battisti's Salon & Day Spa,"2575 Chili Ave, Rochester, NY 14624",Beauty salon,Rochester,http://www.battistis.com/,,,,,http://www.battistis.com/contact-us.html,Contact Us,1,NY,14624,beauty_salon
Rock Paper Scissors LLC,"788 University Ave, Rochester, NY 14607",Beauty salon,Rochester,http://rockpaperscissorssalon.com/,,,,,http://rockpaperscissorssalon.com/contact,Contact,1,NY,14607,beauty_salon
Karezz Hair Salon,"165 Gano St # 4, Providence, RI 02906",Nail salon,Providence,http://karezzsalon.samsbiz.com/,,,,,http://karezzsalon.samsbiz.com/page/19hmh/Find_Us.html,Find Us,1,RI,02906,beauty_salon
Salon Persia,"308 Thayer St, Providence, RI 02906",Beauty salon,Providence,http://salonpersia.com/,,,,,https://www.salonpersia.com/contact,Contact,1,RI,02906,beauty_salon
Ali Lomazzo Beauty,"289 Bullocks Point Ave, Riverside, RI 02915",Beauty salon,Riverside,http://www.alilomazzobeauty.com/,,,,,https://www.alilomazzobeauty.com/contact,Contact,1,RI,02915,beauty_salon
New England Electrology,"1445 Wampanoag Trail UNIT 208, Riverside, RI 02915",Electrolysis hair removal service,Riverside,http://www.newenglandelectrology.com/,,,,,http://www.newenglandelectrology.com/contact.html,Contact,1,RI,02915,beauty_salon
Moderne Salon & Day Spa,"At the Avalon, 50 Park Row West, Center Pl Suite # 106, Providence, RI 02903",Beauty salon,Providence,http://www.modernesalonspa.com/,,,,,https://www.modernesalonspa.com/contact,Contact,1,RI,02903,beauty_salon
Impulse Hair Designs,"The Arcade, 65 Weybosset St, Providence, RI 02903",Beauty salon,Providence,http://www.impulsehairdesigns.com/,,,,,http://www.impulsehairdesigns.com/contact,Request Appointment,1,RI,02903,beauty_salon
bobby pins salon,"2208 Broad St, Cranston, RI 02905",Beauty salon,Cranston,http://bobbypinsri.com/,,,,,http://bobbypinsri.com/contact,Contact,1,RI,02905,beauty_salon
Moss Salon,"114 N Main St, Providence, RI 02903",Beauty salon,Providence,http://www.moss-hair-salon-providence.com/,,,,,http://www.moss-hair-salon-providence.com/moss-contact.html,"
      Contact Us
    ",1,RI,02903,beauty_salon
Angell Nails,"15 S Angell St, Providence, RI 02906",Nail salon,Providence,http://www.angellnails.com/,,,,,http://www.angellnails.com/contact-us.html,"
				Contact Us
			",1,RI,02906,beauty_salon
Sukhy's Threading,"85 Power Rd, Pawtucket, RI 02860",Beauty salon,Pawtucket,http://www.sukhysthreading.com/,,,,,http://www.sukhysthreading.com/pages/contact/,Contact,1,RI,02860,beauty_salon
vis a vis hair design,"377 Broadway, Providence, RI 02909",Beauty salon,Providence,http://visavishairdesign.com/,,,,,http://visavishairdesign.com/contact," CONTACT

",1,RI,02909,beauty_salon
Alpha Beauty Salon,"1565 Post Rd, Warwick, RI 02888",Beauty salon,Warwick,https://www.alphabeautysalon.com/,,,,,https://www.alphabeautysalon.com/contact-us,CONTACT US,1,RI,02888,beauty_salon
Viriditas Beautiful Skin Therapies,"1 Richmond Square #215w, Providence, RI 02906",Facial spa,Providence,http://www.viriditas.skincaretherapy.net/,,,,,http://www.viriditas.skincaretherapy.net/contact,Contact,1,RI,02906,beauty_salon
Cindy's Place of Hair Design,"20 June St, Nashua, NH 03060",Hair salon,Nashua,http://www.nashuahairsalon.com/,,,,,http://www.nashuahairsalon.com/Contact-Us.html,Contact Us,1,NH,03060,beauty_salon
Christine's Body Decor,"238 Central St floor 2, Hudson, NH 03051",Beauty salon,Hudson,http://www.christinesbodydecor.com/,,,,,http://www.christinesbodydecor.com/#Contact,"

Contact Us

",1,NH,03051,beauty_salon
Beyond Day Spa,"13 Alpine Ln, Chelmsford, MA 01824",Day spa,Chelmsford,http://beyonddayspa.net/,,,,,http://beyonddayspa.net/contact-us,"
        
        Contact Us
      ",1,MA,01824,beauty_salon
Skin & Laser Surgery Center of New England,"6 Courthouse Ln #7, Chelmsford, MA 01824",Skin care clinic,Chelmsford,https://www.skinlaseronline.com/,,,,,https://www.skinlaseronline.com/contact/,Contact Us Today!,1,MA,01824,beauty_salon
Everclear Electrolysis,"46 Derry Rd #3, Hudson, NH 03051",Electrolysis hair removal service,Hudson,http://everclearelectrolysisnh.com/,,,,,http://everclearelectrolysisnh.com/contact-us.html,Contact Us,1,NH,03051,beauty_salon
Stafford Fitness Club,"8 Middle River Dr, Stafford, CT 06076",Tanning salon,Stafford,http://www.staffordfitnessclub.com/,,,,,http://www.staffordfitnessclub.com/mailto:contact@staffordfitnessclub.com,contact@staffordfitnessclub.com,1,CT,06076,beauty_salon
Salon Fabio,"37 Kenneth St, Newton, MA 02461",Beauty salon,Newton,https://www.salonfabionewtonma.com/,,,,,https://www.salonfabionewtonma.com,CONTACT,1,MA,02461,beauty_salon
Perfect Skin Spa,"719 Washington St, Newton, MA 02458",Hair removal service,Newton,https://www.perfectskinspa-newton.com/,,,,,https://www.perfectskinspa-newton.com,CONTACT,1,MA,02458,beauty_salon
Laser Hair Removal Studio,"10 Trapelo Rd #4, Belmont, MA 02478",Laser hair removal service,Belmont,http://laserhairremoval.studio/,,,,,https://laserhairremoval.studio/contact-us/,Contact Us,1,MA,02478,beauty_salon
Glow Tanning Centers Waltham,"411 Waverley Oaks Rd #132, Waltham, MA 02452",Tanning salon,Waltham,http://www.glowwaltham.com/,,,,,https://www.glowwaltham.com,Contact Us,1,MA,02452,beauty_salon
The Wax Pot,"422 Main St, Warren, RI 02885",Hair removal service,Warren,http://www.thewaxpot.com/,,,,,http://www.thewaxpot.com/tel:4012892550,(401) 289-2550,1,RI,02885,beauty_salon
Le Spa of Barrington,"334 County Rd ste c, Barrington, RI 02806",Massage spa,Barrington,https://www.lespari.com/,,,,,http://www.lespari.com,C O N T A C T,1,RI,02806,beauty_salon
The Centered Place,"286 Bridge St, Warren, MA 01083",Yoga studio,Warren,http://www.thecenteredplace.com/,,,,,http://thecenteredplace.com/contact-us/,Contact,1,MA,01083,beauty_salon
Kate's Hair Salon,"372 Washington St, Westwood, MA 02090",Hair salon,Westwood,http://kateshairsalon.com/,,,,,http://kateshairsalon.com/contact-us,Contact Us,1,MA,02090,beauty_salon
Shamso Hair Studio & Spa,"1807 Washington St, Boston, MA 02118",Hairdresser,Boston,http://www.shamsohairstudioandspa.com/,,,,,https://shamsohairstudioandspa.com/beauty-salon-contact-us,Contact Us,1,MA,02118,beauty_salon
Pelo Salon,"269 Manhattan Ave, Brooklyn, NY 11211",Hair salon,Brooklyn,http://pelobrooklyn.com/,,,,,http://pelobrooklyn.com/contact,Contact,1,NY,11211,beauty_salon
Ciao Bello Salon for Men and Boys,"Green Leaf Unit 106B, 4345 New Town Ave, Williamsburg, VA 23188",Hair salon,Williamsburg,https://sites.google.com/site/ciaobellosalon/about-us,,,,,https://sites.google.com/site/ciaobellosalon/contact-us,Contact Us,1,VA,23188,beauty_salon
Jean Is Hair,"268 Main St, Stoneham, MA 02180",Hairdresser,Stoneham,http://www.jeanishair.com/,,,,,http://jeanishair.com/contact-2,Contact,1,MA,02180,beauty_salon
Hair loss Center of Boston,"117 Main St Suite 48, Stoneham, MA 02180",Hair salon,Stoneham,http://www.hairlosscenterofboston.com/,,,,,http://www.hairlosscenterofboston.com/contact/,Contact,1,MA,02180,beauty_salon
The Hair Color Company Salon and Spa,"270 Farmington Ave #131, Farmington, CT 06032",Hair salon,Farmington,http://www.thehaircolorcompany.com/,,,,,https://thehaircolorcompany.com/contact/,860.404.2076,1,CT,06032,beauty_salon
Anti Aging Cream,"1244 Boylston St, Chestnut Hill, MA 02467",Skin care clinic,Chestnut Hill,http://www.skincarephysicians.net/,,,,,http://www.skincarephysicians.net/#mobilecontactmenu,,1,MA,02467,beauty_salon
