name,address,type,place,website_url,menu_url,description,gift_card_txt,gift_card_website,contact_website,contact_txt,searched,state,zipcode,store_type
Hand and Stone Massage and Facial Spa,"The Pleasant Shops, 35 Pleasant St, Weymouth, MA 02190",Massage therapist,Weymouth,https://www.handandstoneweymouth.com/,,,Instant Gift Cards,https://handstone.boomtime.com/lgift,https://www.handandstoneweymouth.com/#,Contact Us,1,MA,02190,beauty_salon
Ambrosia Salon and Day Spa,"2053 Washington St, Hanover, MA 02339",Beauty salon,Hanover,http://www.ambrosiasalonnorwell.com/,,,Purchase an EGift Card,https://na0.meevo.com/EgiftApp/home?tenantId=101186,http://www.ambrosiasalonnorwell.com/contact,Contact,1,MA,02339,beauty_salon
Excel Laser Skin Clinic,"435 Columbian St #5, South Weymouth, MA 02190",Skin care clinic,South Weymouth,http://www.excellaserskinclinic.com/,,,,http://www.excellaserskinclinic.com/gift-cards.html,http://www.excellaserskinclinic.com/contact-us.html,Contact Us,1,MA,02190,beauty_salon
Hidden Gem Spa,"300 Baker Ave Suite 300, Concord, MA 01742",Beauty salon,Concord,http://www.hiddengemspaconcord.com/,,,Buy Gift Card,https://go.booker.com/location/hiddengemspa/buy/gift-certificate,https://go.booker.com/location/hiddengemspa/contact,Book an Appointment,1,MA,01742,beauty_salon
Reflections Hair Studio,"438 King St, Littleton, MA 01460",Beauty salon,Littleton,https://reflectionshair.studio/,,,Gift Certificates,https://reflectionshair.studio/#giftcertificates,https://reflectionshair.studio/#contact,Contact,1,MA,01460,beauty_salon
The Beauty Lounge,"97 Great Rd, Acton, MA 01720",Hair salon,Acton,http://thebeautyloungeacton.com/,,,Gift Card,http://thebeautyloungeacton.com/gift-card,,,1,MA,01720,beauty_salon
Hair Studio,"10 Bank Row, Park Square, Pittsfield, MA 01201",Hair salon,Pittsfield,http://www.frankshairstudio.com/,,,gift card,http://www.frankshairstudio.com/gift-certificates,http://www.frankshairstudio.com/contact-us,Contact Us,1,MA,01201,beauty_salon
Orange Salon,"70 Worcester-Providence Turnpike, Millbury, MA 01527",Beauty salon,Millbury,http://www.orangesalon.com/,,,Purchase Gift Card,https://orange.salonultimate.com/clientWeb/login?z=1528307838,https://orangesalon.com/contact-us/,Contact Us,1,MA,01527,beauty_salon
Sereni Salon & Spa,"8 Market St, Hudson, MA 01749",Beauty salon,Hudson,http://www.serenisalon.com/,,,Gift Cards,http://serenisalon.com/gift-cards/,http://serenisalon.com/contact/,Contact,1,MA,01749,beauty_salon
Face To Nails Etc Day Spa,"600 Springfield St, Chicopee, MA 01013",Beauty salon,Chicopee,https://www.facetonails.com/,,,,https://www.facetonails.com/catalog/gift-certificates,https://www.facetonails.com/contact,Contact,1,MA,01013,beauty_salon
SkinCatering Spa,"1500 Main St #220, Springfield, MA 01115",Beauty salon,Springfield,http://www.skincatering.com/,,,GIFTS,https://www.secure-booker.com/skincatering2/ShopOnline/GiftCertificate.aspx,http://skincatering.com/our-team/contact-info/,HOURS/DIRECTIONS,1,MA,01115,beauty_salon
The Perfect Look,"284 N Maple St # A, Enfield, CT 06082",Beauty salon,Enfield,https://www.perfectlooksalons.com/,,,Gift Cards,https://www.perfectlooksalons.com/gift-cards/,https://www.perfectlooksalons.com/contact/,Contact,1,CT,06082,beauty_salon
Visual Changes Inc,"100 Shaker Rd, East Longmeadow, MA 01028",Beauty salon,East Longmeadow,http://www.visualchangesinc.com/,,,"

",http://www.visualchangesinc.com/gift_cards.html,http://www.visualchangesinc.com/contact.html,Contact,1,MA,01028,beauty_salon
Puffer's Salon & Day Spa,"56 Southwick Rd, Westfield, MA 01085",Day spa,Westfield,http://www.pufferdayspa.com/,,,Gift Certificates,http://pufferdayspa.millenniumegift.com/,http://www.pufferdayspa.com/contact-about.html,Contact,1,MA,01085,beauty_salon
Salon Exquisite,"395 Chandler St, Worcester, MA 01602",Beauty salon,Worcester,http://www.salonexquisite.net/,,,Purchase a Gift Card>>,https://salonexquisite.salontarget.com/egift/?guestonly,https://www.salonexquisite.net/contact-us,Contact Us,1,MA,01602,beauty_salon
Essencials Day Spa Inc,"75 North St, Pittsfield, MA 01201",Hair salon,Pittsfield,http://berkshirespas.com/,,,PURCHASE GIFTCARDS &  PRODUCTS HERE,https://mycloud.prosoinc.com/psgconline/gcmain.asp?cl=13672,https://www.berkshirespas.com/contact,CONTACT,1,MA,01201,beauty_salon
Vie En Rose Beauty,"72A Haverhill Rd, Amesbury, MA 01913",Nail salon,Amesbury,http://www.vieenroseamesbury.com/,,,Gift Cards,https://www.vieenroseamesbury.com/about,https://www.vieenroseamesbury.com/blank-page,Contact,1,MA,01913,beauty_salon
INTERLOCKS Salon  Spa,"58 Merrimac St, Newburyport, MA 01950",Beauty salon,Newburyport,http://www.interlockssalon.com/,,,Gift Cards,https://interlockssalon.com/product/interlocks-salon-gift-card/,https://interlockssalon.com/contact-us/,Contact Us,1,MA,01950,beauty_salon
Shanti,"50 Water St #303, Newburyport, MA 01950",Beauty salon,Newburyport,https://shantisalon.com/,,,Gift Cards,https://shantisalon.com/gift-cards/,https://shantisalon.com/contact/,Staff Bios,1,MA,01950,beauty_salon
Polished Salon & Boutique,"40 Pleasant St, Newburyport, MA 01950",Beauty salon,Newburyport,https://www.polishednewburyport.com/,,,Gift Cards,https://www.polishednewburyport.com/gift-cards,https://www.polishednewburyport.com/contact,Contact - Hours - Cancellations,1,MA,01950,beauty_salon
Shear Bliss Organic Salon,"102 Russell St, Hadley, MA 01035",Beauty salon,Hadley,http://www.shearblissamherst.com/,,,GIFT CERTIFICATES,http://www.shearblissamherst.com/gift.htm,,,1,MA,01035,beauty_salon
Salon 241,"30 Market St, Northampton, MA 01060",Beauty salon,Northampton,http://www.salon241.com/,,,Booker.com,https://go.booker.com/location/Salon241/buy/gift-certificate,https://plus.google.com/112079059255401366532,Find us on Google+,1,MA,01060,beauty_salon
The Village on Main,"213 Main St, Northampton, MA 01060",Beauty salon,Northampton,http://www.thevillageonmain.com/,,,BUY GIFT CERTIFICATES,https://dayspawomen.boomtime.com/lgift,http://www.thevillageonmain.com/information.html,GET IN TOUCH,1,MA,01060,beauty_salon
Bliss Spa & Salon,"419 Andover St #5001, North Andover, MA 01845",Hair salon,North Andover,http://www.blissspaandsalon.com/,,,Gift Card ,http://blissspa.boomtime.com/lgift,https://www.blissspaandsalon.com,Contact,1,MA,01845,beauty_salon
Rinnovo Salon LLC,"733 Turnpike St, North Andover, MA 01845",Hair salon,North Andover,http://rinnovosalon.com/,,,Click Here to Buy a Gift Certificate,https://go.booker.com/location/RinnovoSalon/buy/gift-certificate,https://rinnovosalon.com/contact/,Contact,1,MA,01845,beauty_salon
Bia's Beauty & Brow Bar,"89 N Main St Suite 201, Andover, MA 01810",Waxing hair removal service,Andover,https://square.site/,,,"
Buy now
",https://squareup.com/gift/5Y1AHCTKF4MF0/order,,,1,MA,01810,beauty_salon
Revive by Sarka,"11 Beach St, Vineyard Haven, MA 02568",Spa,Vineyard Haven,http://revivebysarka.com/,,,Gift Cards,http://revivebysarka.com/?page_id=1559,http://revivebysarka.com/?page_id=2799,Contact us,1,MA,02568,beauty_salon
Illusions,"24 Steeple St, Mashpee, MA 02649",Hair salon,Mashpee,http://www.illusionshairsalonmashpee.com/,,,Gift Certificates,http://www.illusionshairsalonmashpee.com/gift-certificates/,http://www.illusionshairsalonmashpee.com/contact/,CONTACT/APPOINTMENTS,1,MA,02649,beauty_salon
Razzmatazz,"70 Industry Rd # B, Marstons Mills, MA 02648",Beauty salon,Marstons Mills,http://razzmatazzhairstudio.com/,,,purchasing a gift card,https://giftup.app/place-order/d8a69472-c1a3-493e-89c2-4c362a139a48?platform=Squarespace,http://razzmatazzhairstudio.com/contact,Contact,1,MA,02648,beauty_salon
Nickelle Beauty Salon & Boutique,"160 Summer St k2, Kingston, MA 02364",Beauty salon,Kingston,http://www.nickellebeauty.com/,,,Buy a gift card,https://nickellebeauty.salontarget.com/egift/?guestonly=guestonly,http://www.nickellebeauty.com/contact,"
            Contact
          ",1,MA,02364,beauty_salon
Shear Madness the Hair Salon,"466 High St, Medford, MA 02155",Beauty salon,Medford,http://www.shearmadnessmedford.com/,,,E-Gift cards,https://shearmadness.salontarget.com/egift/?guestonly=guestonly,http://www.shearmadnessmedford.com/hair-salon-medford-ma-contact-us.html,Contact Us,1,MA,02155,beauty_salon
Marilyn James Health and Beauty,"34 College Ave, Somerville, MA 02144",Beauty salon,Somerville,http://www.marilynjameshb.com/,,,Buy Gift Certificates Here,https://squareup.com/gift/05DYEACR95NQ6/order,https://marilynjameshb.com/contact-us/,Contact,1,MA,02144,beauty_salon
Philip Ciampa Salon,"831 Main St, Winchester, MA 01890",Beauty salon,Winchester,http://www.philipciampa.com/,,,"


ORDER A GIFT CARD


",http://www.philipciampa.com/shop,https://visitor.r20.constantcontact.com/d.jsp?llr=g9uq6geab&p=oi&m=1104038875974&sit=46dokgtfb&f=eeeb6229-a009-470f-bc2a-59c56085dde6,,1,MA,01890,beauty_salon
Owen Jacobs Salon and Day Spa,"49 Main St, Ayer, MA 01432",Hair salon,Ayer,http://owenjacobs.com/,,,Gift Card,https://squareup.com/gift/B35H25CJYJB4N/order,https://owenjacobs.com/contact/,Contact,1,MA,01432,beauty_salon
Mia Bella Spa,"12 Main St, Leominster, MA 01453",Beauty salon,Leominster,http://www.miabellaspa.com/,,,Buy Instant Gift Certificate Now!,https://miabellaspa.boomtime.com/lgift,,,1,MA,01453,beauty_salon
Serene Scape Day Spa & Salon,"376 Maple St, Marlborough, MA 01752",Beauty salon,Marlborough,http://serene-scape.com/,,,Gift Certificates,https://www.serene-scape.com/gift-certificates/,https://www.serene-scape.com/contact/,Contact,1,MA,01752,beauty_salon
The Lift Salon North Amherst,"68 Cowls Rd, Amherst, MA 01002",Hair salon,Amherst,http://www.theliftsalon.com/,,,Easthampton Salon Gift Cards,https://go.booker.com/location/Thelift/buy/gift-certificate,https://theliftsalon.com/locations-contact/,Contact,1,MA,01002,beauty_salon
PARLR,"14 River Way Suite 201, Framingham, MA 01701",Beauty salon,Framingham,http://www.theparlr.com/,,,Gift Cards,https://clients.mindbodyonline.com/ASP/main_shop.asp?studioid=152446&tg=&vt=&lvl=&stype=42&view=&trn=0&page=&catid=&prodid=&date=3%2f24%2f2020&classid=0&prodGroupId=&sSU=&optForwardingLink=&qParam=&justloggedin=&nLgIn=&pMode=2&loc=1,https://www.theparlr.com/contact,Book Services,1,MA,01701,beauty_salon
Haven Beauty,"14 Church St, Hopkinton, MA 01748",Beauty salon,Hopkinton,http://www.havenbeautyma.com/,,,"

",https://www.instagram.com/p/B_KggVlHLeL/,,,1,MA,01748,beauty_salon
LandaMedSpa,"85 Lincoln St, Framingham, MA 01702",Medical spa,Framingham,http://landamedspa.com/,,,Gift Cards,https://squareup.com/gift/7PMWV4M73ZKH8/order,https://landamedspa.com/contact/,Contact,1,MA,01702,beauty_salon
Jesamondo Salon & Spa,"154 E Central St, Natick, MA 01760",Beauty salon,Natick,http://www.jesamondo.com/,,,Gift Cards,https://jesamondo.com/giftcards,https://jesamondo.com/contact_jesamono_salon_spa,Contact,1,MA,01760,beauty_salon
Jennifer M Viveiros  Makeup Artist,"21 Park St, Attleboro, MA 02703",Beauty salon,Attleboro,http://www.jennifermviveiros.com/,,,Gift Cards,https://squareup.com/gift/E5V6PKVXM0QTP/order,http://www.jennifermviveiros.com/contact,Contact ,1,MA,02703,beauty_salon
Marisa's Skin Care,"652 E Washington St #11, North Attleborough, MA 02760",Skin care clinic,North Attleborough,http://www.marisasskincare.com/,,,"
        Support Small Business
      ",http://s.thegiftcardcafe.com/XfKwYc,http://www.marisasskincare.com/contact,"
            Contact
          ",1,MA,02760,beauty_salon
Euphoria Day Spa,"305 Oxford St N, Auburn, MA 01501",Day spa,Auburn,http://euphoriadayspa.net/,,,GIFT CARDS,https://www.euphoriadayspa.net/shop,https://www.euphoriadayspa.net/contact,CONTACT,1,MA,01501,beauty_salon
Brow Envy Microblading & Permanent MakeUp,"91 Stafford Street, Ste# 3 Crown Castle Plaza ( Across From Shaw’s Plaza, Worcester, MA 01603",Beauty salon,Worcester,http://www.browenvybylindsey.com/,,,Gift Card,https://www.browenvybylindsey.com/gift-card,https://www.browenvybylindsey.com/contact,Contact,1,MA,01603,beauty_salon
Paul Conzo Day Spa and Hair Salon,"490 Shrewsbury St, Worcester, MA 01604",Day spa,Worcester,http://www.paulconzo.com/,,,Gift Cards,http://www.paulconzo.com/hair-salon-shrewsbury-street-ma-gift-cards.html,http://www.paulconzo.com/hair-salon-shrewsbury-street-ma-contact.html,Contact,1,MA,01604,beauty_salon
Anointed Hands Massage & Spa Essentials,"950 N Main St Suite 202, Randolph, MA 02368",Massage therapist,Randolph,https://www.massagebook.com/,,,"
                                                Gift Certificates
                                            ",https://www.massagebook.com/#gift-certificates,https://www.massagebook.com/#contact,"
                                            Contact
                                        ",1,MA,02368,beauty_salon
Indigo Salon & Day Spa,"7 Summer St, Chelmsford, MA 01824",Beauty salon,Chelmsford,http://www.indigosalon-dayspa.com/,,,  Gift Card,http://www.indigosalon-dayspa.com/index.php/giftcards.html/,http://www.indigosalon-dayspa.com/index.php/contacts/,  PRODUCTS,1,MA,01824,beauty_salon
Deep Blue Hair Studio,"397 Washington St, Brookline, MA 02445",Hair salon,Brookline,http://www.deepbluehairstudio.com/,,,"
GIFT CARDS
",http://www.deepbluehairstudio.com/giftcards,http://www.deepbluehairstudio.com/contact,CONTACT,1,MA,02445,beauty_salon
Birch Tree Esthetics,"525 Massachusetts Ave, Acton, MA 01720",Skin care clinic,Acton,http://www.birchtreeskincare.com/,,,Purchase a Gift Card or Promotion,https://birchtreeskincare.com/purchase-a-gift-card/,,,1,MA,01720,beauty_salon
Moderno Salon & Organic Loft,"406 Main St, Melrose, MA 02176",Beauty salon,Melrose,http://modernosalon.com/,,,SHOP NOW,https://modernosalon.salontarget.com/egift/?guestonly=guestonly,http://modernosalon.com/contact-us-2/,Contact Us,1,MA,02176,beauty_salon
Arte Salon and SPA,"16 Boston Post Rd, Wayland, MA 01778",Beauty salon,Wayland,http://www.artesalonandspa.com/,,,"
            Gift Cards New
",https://salonarte.salonultimate.com/checkout/giftCard?store_id=1,http://www.artesalonandspa.com/#contact,CONTACT,1,MA,01778,beauty_salon
Bella Sante Day Spa Med Spa,"190 Linden St, Wellesley, MA 02482",Beauty salon,Wellesley,http://www.bellasante.com/,,,GO NOW,http://www.bellasante.com/collections/specials/products/mothers-day-special-gift-card-purchase,http://www.bellasante.com/pages/contact-bella-sante,Contact,1,MA,02482,beauty_salon
La Beautique,"329 Watertown St, Newton, MA 02458",Beauty salon,Newton,http://www.labeautiquesalon.com/,,,Online Booking & Gift Cards,https://phorest.com/book/salons/labeautiquesalon,http://labeautiquesalon.com/contact/,Contact,1,MA,02458,beauty_salon
De Paris Nails,"1600 Falmouth Rd # 31, Centerville, MA 02632",Beauty salon,Centerville,https://deparisnails.com/,,,,https://deparisnails.com/Gift Certificates.htm,,,1,MA,02632,beauty_salon
Solstice Day Spa,"408 Main St, Hyannis, MA 02601",Day spa,Hyannis,http://www.solsticedayspa.com/,,,"
				Gift Cards
			",http://www.solsticedayspa.com/gift-cards.html,http://www.solsticedayspa.com/contact.html,"
				Contact
			",1,MA,02601,beauty_salon
Tape In Hair Extensions on Cape Cod,"700 Main St, Hyannis, MA 02601",Beauty salon,Hyannis,http://www.salon700.com/,,,Gift Certificates,http://salon700.salonultimate.com/clientWeb/login?z=1503406847,http://www.salon700.com/contact/,Contact,1,MA,02601,beauty_salon
Body Sense Day Spa,"179 Barnstable Rd, Hyannis, MA 02601",Spa,Hyannis,https://www.bodysensebeautyclinic.com/,,,Gift Cards,https://www.thegiftcardcafe.com/shop/all.php?shop=18093,https://www.bodysensebeautyclinic.com/contact,Contact,1,MA,02601,beauty_salon
Make Me Fabulous,"At Pavilion Grand Hotel, 30 Lake Ave, Saratoga Springs, NY 12866",Spa,Saratoga Springs,http://makemefabulous.com/,,,Gift Certificates,https://na0.meevo.com/EgiftApp/home?tenantId=101427,https://www.makemefabulous.com/contact-us/,Contact Us,1,NY,12866,beauty_salon
Nicholas Michaels Spa,"422 W Main St, Northborough, MA 01532",Massage spa,Northborough,http://nmspa.com/,,,Gift Cards,http://nmspa.com/gift-cards,http://nmspa.com/contact,Contact,1,MA,01532,beauty_salon
Indulgence Day Spa,"189 Bedford St, Lexington, MA 02420",Day spa,Lexington,http://www.indulgencedayspa.com/,,,Gift Certificates,http://indulgencedayspa.com/gift-certificates/,,,1,MA,02420,beauty_salon
Meraki Hair Studio,"13 Main St #6a, Franklin, MA 02038",Beauty salon,Franklin,https://beautyatmeraki.com/,,,GIFT CARDS,https://squareup.com/gift/ZFJD9BD8Y79YS/order,https://beautyatmeraki.com/tel:5085280702,(508) 528-0702,1,MA,02038,beauty_salon
Bellezza Day Spa Inc,"72 Grove St, Franklin, MA 02038",Day spa,Franklin,http://bellezzaspafranklin.com/,,,Gift Certificates,http://bellezzaspafranklin.com/Online_Gift_Certificates.html,http://bellezzaspafranklin.com/Contact_Us.html,Contact Us,1,MA,02038,beauty_salon
Corbu Spa & Salon,"5 Bennett St, Cambridge, MA 02138",Spa,Cambridge,https://corbuspa.com/,,,"
        Gift Cards
      ",https://corbu.salonultimate.com/checkout/giftCard?store_id=8,https://corbuspa.com/contact-us,"
            Contact Us
          ",1,MA,02138,beauty_salon
La Moon Thai Spa,"220 Concord Ave f1, Cambridge, MA 02138",Day spa,Cambridge,http://www.lamoonthaicambridge.com/,,"Contemporary office offering massage therapy, skincare treatments & waxing in a peaceful atmosphere.",Gift,https://squareup.com/store/la-moon-thai-spa-cambridge/item/gift-certificates,https://www.lamoonthaicambridge.com,Contact,1,MA,02138,beauty_salon
Barber's Den,"115 Trapelo Rd, Belmont, MA 02478",Barber shop,Belmont,http://thebarbersden.com/,,,"

",https://www.instagram.com/p/B-7cahwhC_4/,http://thebarbersden.com/contact,"
            Contact
          ",1,MA,02478,beauty_salon
Mandy's Beauty Skincare Center,"31 Salem St, Medford, MA 02155",Facial spa,Medford,https://www.mandysbeauty.com/,,,GIFT CARDS,https://www.mandysbeauty.com/GiftCards.php,https://www.mandysbeauty.com/#contact,CONTACT,1,MA,02155,beauty_salon
Sally's Skin Care,"138 Dodge St, Beverly, MA 01915",Beauty salon,Beverly,https://www.sallybeauty.com/,,,Gift Cards,https://www.sallybeauty.com/hair/gift-cards/,https://www.sallybeauty.com/customer-service/email-sally/,Contact Us,1,MA,01915,beauty_salon
New England Electrology Center,"100 Cummings Center Suite 114G, Beverly, MA 01915",Beauty salon,Beverly,http://www.neelectrology.com/,,,Email or Printable Gift Certificates,http://www.secure-booker.com/neelectrology/InstantGiftCertificate.aspx,https://www.neelectrology.com/contact,Contact,1,MA,01915,beauty_salon
Allure Hair And Beauty,"243 Andover St, Peabody, MA 01960",Beauty salon,Peabody,http://www.allurehairandbeautypeabody.com/,,,GIFT CARDS,https://squareup.com/gift/1WQRW8DZRWQMF/order,https://www.allurehairandbeautypeabody.com/contact-us,CONTACT US,1,MA,01960,beauty_salon
Axle Color Studio  Hair Salon & Makeup Studio,"203 Main St, North Reading, MA 01864",Beauty salon,North Reading,http://www.axlecolorstudio.com/,,,Gift Cards,https://axlecolorstudio.com/shop/,https://axlecolorstudio.com/contact-us/,Contact Us,1,MA,01864,beauty_salon
Mint Rose Day Spa,"331 Boston Rd, Billerica, MA 01821",Day spa,Billerica,http://mintrosedayspa.com/,,,"
              eGift Cards
            ",http://mintrosedayspa.com/egift-cards,,,1,MA,01821,beauty_salon
Elements Massage  Palo Alto,"2190 W Bayshore Rd #160, Palo Alto, CA 94303",Massage therapist,Palo Alto,http://www.elementsmassage.com/,,,"
Gift Cards
",https://elementsmassage.com/palo-alto/gift-cards,https://elementsmassage.com/palo-alto/contact-info,Contact Us,1,CA,94303,beauty_salon
Essential Therapies Day Spa,"1094 Main St, Bolton, MA 01740",Day spa,Bolton,http://www.etdayspa.com/,,,  Gift Certificates ,http://www.etdayspa.com/essential-therapies/gift-certificates,http://www.etdayspa.com/essential-therapies/contact-us,"
 
Contact 
",1,MA,01740,beauty_salon
Escape Salon Aveda,"Prudential Tower, 800 Boylston St, Boston, MA 02199",Beauty salon,Boston,http://escapesalonaveda.com/,,,Buy Gift Cards,https://squareup.com/gift/TGP18ASAXDPJP/order,https://www.escapesalonaveda.com/appointments,Contact,1,MA,02199,beauty_salon
Salon Marc Harris,"115 Newbury St #201, Boston, MA 02116",Beauty salon,Boston,http://www.salonmarcharris.com/,,,Gift Cards,https://online-booking.salonbiz.com/olb/web_booking.home?%20wbid=c253t201408081139ptu485mzThB583M45A5e8&theme=779,,,1,MA,02116,beauty_salon
Salon De Cheveux,"661 E Broadway, Boston, MA 02127",Beauty salon,Boston,http://www.salondecheveuxboston.com/,,,"
              E-GIFT CARDS
            ",https://salondecheveux.salontarget.com/egift/?guestonly=guestonly,http://www.salondecheveuxboston.com/contact,"
Contact
",1,MA,02127,beauty_salon
Roffi Salon & Day Spa Boston,"134 Newbury St, Boston, MA 02116",Beauty salon,Boston,https://www.roffisalon.com/,,,,https://roffisalon.com/roffi-salon-gift-cards/,https://roffisalon.com/contact/,CONTACT,1,MA,02116,beauty_salon
The Body Mechanist,"45 Main St STE C1, Wareham, MA 02571",Sports massage therapist,Wareham,http://www.thebodymechanist.com/,,,,https://squareup.com/gift/A2B4S2B55JBJQ/order,http://www.thebodymechanist.com/contact.html,Contact Me,1,MA,02571,beauty_salon
Sea Salt Luxury Spa Studio,"4 North Street, Mashpee, MA 02635",Hairdresser,Mashpee,http://seasaltsalonspa.com/,,,GIFT CERTIIFCATES,http://s.thegiftcardcafe.com/RuJ2oA,https://www.seasaltsalonspa.com/contact,CONTACT,1,MA,02635,beauty_salon
Sisters Hair and Skin Care,"67 County Rd, Mattapoisett, MA 02739",Beauty salon,Mattapoisett,http://www.sistershairsalon.com/,,,Gift cards,http://www.sistershairsalon.com/hair-salon-mattapoisett-ma-sisters-gift-cards.html,http://www.sistershairsalon.com/hair-salon-mattapoisett-ma-sisters-contact-us.html,Contact us,1,MA,02739,beauty_salon
Georgetown Massage LLC,"939 Salem St, Groveland, MA 01834",Massage therapist,Groveland,http://www.georgetownmassage.com/,,,Gift Cards,https://www.massagebook.com/Groveland~Massage~GeorgetownMassage?src=external#gift-certificates,http://www.georgetownmassage.com/contact/,Contact,1,MA,01834,beauty_salon
Salon Metta,"70 Main St Suite 103, North Andover, MA 01845",Hair salon,North Andover,http://www.salonmetta.com/,,,Gift Cards,https://www.salonmetta.com/gift-cards/,https://www.salonmetta.com/contact-us/,Contact ,1,MA,01845,beauty_salon
Danielly Borges Esthetics,"940 Forest St, North Andover, MA 01845",Waxing hair removal service,North Andover,https://squareup.com/,,,"
                        Buy now
                      ",https://squareup.com/gift/4DERBQB8C6MZZ/order,,,1,MA,01845,beauty_salon
Backstage Salon & Spa,"225 Newburyport Turnpike, Rowley, MA 01969",Beauty salon,Rowley,http://backstagerowley.com/,,,GIFT CARDS,http://backstagerowley.com/gift-cards/,http://backstagerowley.com/contact/,CONTACT,1,MA,01969,beauty_salon
Kiki Skin & Body Spa LLC,"38 Florence St, Andover, MA 01810",Skin care clinic,Andover,http://kikiskinspa.com/,,,Gift Certificates,https://kikiskinspa.com/gift-certificates/,https://kikiskinspa.com/contact/,Contact,1,MA,01810,beauty_salon
RenovoMD  Medical Aesthetics  Jean Casello MD,"96 W Main St, Northborough, MA 01532",Medical spa,Northborough,https://renovomd.com/,,,Gift Cards,https://renovomd.millenniumegift.com,https://renovomd.com/contact-us/,Contact Us,1,MA,01532,beauty_salon
Inde Hair Salon and Skin Care,"46 Independence Ave, Quincy, MA 02169",Beauty salon,Quincy,http://indesalon.com/,,,"
        E-Gift Cards
      ",https://indesalon.salontarget.com/egift/?guestonly=guestonly,http://indesalon.com/contact-us,"
            Inde
          ",1,MA,02169,beauty_salon
Leonardo's Salon & Spa,"1604 Hancock St, Quincy, MA 02169",Hair salon,Quincy,https://leonardossalon.net/,,,Gift Cards,https://leonardossalon.net/gift-cards/,https://leonardossalon.net/contact/,Contact,1,MA,02169,beauty_salon
Le Petite Day Spa Chatham,"35 Cross St, Chatham, MA 02633",Day spa,Chatham,http://www.thelepetitedayspa.com/,,,GIFT CERTIFICATES,https://www.thelepetitedayspa.com/gift-certificates,https://www.thelepetitedayspa.com/contact,CONTACT,1,MA,02633,beauty_salon
The Beach House Spa at Ocean Edge,"2740 Main St, Brewster, MA 02631",Spa,Brewster,http://thebeachhousespaoceanedge.com/,,,Gift Cards,http://thebeachhousespaoceanedge.com/give,http://www.oceanedge.com/contact-form/join-our-mailing-list.shtml,Join our mailing list,1,MA,02631,beauty_salon
Trend Setters,"380 Washington St, Taunton, MA 02780",Beauty salon,Taunton,http://www.trendsettershairsalon.com/,,,,http://www.trendsettershairsalon.com/hair-salon-taunton-ma-gift-cards.html,http://www.trendsettershairsalon.com/hair-salon-taunton-ma-contact-us.html,Contact Us,1,MA,02780,beauty_salon
Relaxation Works Spa,"1253 Broadway, Raynham, MA 02767",Massage spa,Raynham,http://relaxation-works.com/,,,Buy Gift Certificate,https://relaxation-works.com/buy-a-gift-certificate/,https://relaxation-works.com/contact/,Contact,1,MA,02767,beauty_salon
Eyebrow Threading & Henna Tattoo,"174 Dean Street second Floor, Taunton, MA 02780",Hair removal service,Taunton,http://www.threadingnheena.webs.com/,,Cozy day spa offering ornate henna tattoos & custom-threaded eyebrows (available for parties).,"


Order Gift Certificates





",http://www.threadingnheena.webs.com/cdn-cgi/l/email-protection#2b7f43594e4a4f42454c064506434e4e454a6b43445f464a424705484446,https://threadingnheena.webs.com/contact-us,Contact Us,1,MA,02780,beauty_salon
Aura Salon1155,"1155 Hancock St, Quincy, MA 02169",Beauty salon,Quincy,http://www.aurasalon1155.com/,,,Purchase Gift Certificate,https://aurasalon1155.salontarget.com/egift/?guestonly+guestonly,https://www.aurasalon1155.com,Contact,1,MA,02169,beauty_salon
Renew Skincare Centre & Spa,"1032 Turnpike St STE 302, Canton, MA 02021",Medical spa,Canton,http://renewskincarecentre.com/,,,Gift Cards,https://renewskincarecentre.com/gift-cards/,https://renewskincarecentre.com/contact-renew-skincare-centre-spa/,Contact,1,MA,02021,beauty_salon
LunchboxWax Dublin,"5270 Dublin Blvd, Dublin, CA 94568",Waxing hair removal service,Dublin,http://www.lunchboxwax.com/,,,Gift Certificates,http://www.secure-booker.com/lunchboxholdings/ShopOnline/GiftCertificate.aspx,http://www.lunchboxwax.com/dublin/contact-us/,Contact Us,1,CA,94568,beauty_salon
LunchboxWax Alameda,"2650 5th St f, Alameda, CA 94501",Waxing hair removal service,Alameda,https://www.lunchboxwax.com/,,,Gift Certificates,http://www.secure-booker.com/lunchboxholdings/ShopOnline/GiftCertificate.aspx,https://www.lunchboxwax.com/alameda/contact-us/,Contact Us,1,CA,94501,beauty_salon
Skin Care By Stavroula Award Winning Facial,"322 Harvard St, Brookline, MA 02446",Skin care clinic,Brookline,http://www.skincarebystavroula.com/,,,,https://www.salonbuilder.com/website/158089/giftcert.asp,https://www.salonbuilder.com/website/158089/contact.asp,Contact,1,MA,02446,beauty_salon
Lavinia Borcau Skin Care,"29 Harvard St, Brookline, MA 02445",Beauty salon,Brookline,http://www.laviniaborcau.com/,,"Skin-care clinic for various European treatment methods, including massage, body polish & waxing.","
        $ Gift Card
      ",http://www.laviniaborcau.com/shop/gift-card,http://www.laviniaborcau.com/contact,"
            Contact
          ",1,MA,02445,beauty_salon
Zaza Nails & Spa,"62 Montvale Ave Unit B, Stoneham, MA 02180",Nail salon,Stoneham,http://zazanailsspa.com/,,,E-Gift,http://zazanailsspa.com/gift-card,http://zazanailsspa.com/contactus,Contact Us,1,MA,02180,beauty_salon
Shan Hair,"169 Amory St, Brookline, MA 02446",Beauty salon,Brookline,http://www.shanhair.com/,,,BUY E-GIFT CARD,https://squareup.com/gift/DYJ2693H4DWJK/order,https://shanhair.com/contact/,Where?,1,MA,02446,beauty_salon
Clementine Hair Studio,"358 Somerville Ave A, Somerville, MA 02143",Hair salon,Somerville,http://clementinehairstudio.com/,,,Gift Cards,http://clementinehairstudio.com/gift-cards,http://clementinehairstudio.com/contact,Contact,1,MA,02143,beauty_salon
Everbare,"137 Newbury St 6th floor, Boston, MA 02116",Waxing hair removal service,Boston,http://www.everbare.com/,,,Purchase Gift Certificates,https://www.thegiftcardcafe.com/cart/index.php?storeID=12649,,,1,MA,02116,beauty_salon
Lindsay Griffin  Co,"106 Bristol Rd, Somerville, MA 02144",Hair salon,Somerville,http://www.lindsaygriffin.com/,,,ORDER YOUR GIFT CERTIFICATE ONLINE!,https://gift-cards.phorest.com/salons/lindsaygriffinco,https://lindsaygriffin.com/contact/,Contact,1,MA,02144,beauty_salon
Dream Spa Medical,"2184 Washington St #4, Canton, MA 02021",Skin care clinic,Canton,http://www.dreamspamedical.com/,,,Gift Cards,http://www.dreamspamedical.com/shop/gift-card,http://www.dreamspamedical.com/contact.htm,CONTACT US,1,MA,02021,beauty_salon
Voguecare Electrolysis & Skin Care,"39 Elm St #101, Southbridge, MA 01550",Skin care clinic,Southbridge,http://www.voguecare.com/,,,GIFT CERTIFICATES,https://www.voguecare.com/gift-certificates,,,1,MA,01550,beauty_salon
Begin With Skin Med Spa,"20 Chelmsford St 2nd floor, Chelmsford, MA 01824",Medical spa,Chelmsford,https://www.beginwithskinmedspa.com/,,,"
Gift Certificates 
",http://s.thegiftcardcafe.com/T3Q3Qh,https://www.beginwithskinmedspa.com/contactus,"
Contact
",1,MA,01824,beauty_salon
CutSplice,"197 8th St #700, Boston, MA 02129",Hair salon,Boston,http://www.cut-splice.com/,,,"

",https://images.squarespace-cdn.com/content/v1/5372c7fae4b05ff1a0844592/1585710779669-M2XNLO7ED4KDFA64IIVC/ke17ZwdGBToddI8pDm48kMoKWkdr-TcIQRF6J0wkTxxZw-zPPgdn4jUwVcJE1ZvWQUxwkmyExglNqGp0IvTJZUJFbgE-7XRK3dMEBRBhUpxT2F2HAFAhBprvYBrVwU20cKSY4s7ZysfyZio4z0LnFqUXxcHoBc25v3yEOvKjMgc/image-asset.jpeg,http://www.cut-splice.com/contact-us,"
            Contact Us
          ",1,MA,02129,beauty_salon
Venus Spa & Salon,"55 Chelsea St, Boston, MA 02128",Medical spa,Boston,http://www.venusspaandsalon.com/,,,Buy Gift Cards Here!,https://www.vagaro.com/venusspaandsalon/gift-certificates,http://venusspaandsalon.com/1483169.html,Contact Us,1,MA,02128,beauty_salon
Spa Gloss,"955 Main St, Melrose, MA 02176",Nail salon,Melrose,https://www.spagloss.com/,,,GIFT CERTIFICATES,https://www.spagloss.com/gift-certificates/,https://www.spagloss.com/contact/,CONTACT US,1,MA,02176,beauty_salon
Nails On Jami,"3233 Coronado Pl, Santa Clara, CA 95054",Nail salon,Santa Clara,http://www.charismasalonsantaclara.com/,,,Gift Cards,http://www.charismasalonsantaclara.com/giftcards,http://www.charismasalonsantaclara.com/contact,Contact Us,1,CA,95054,beauty_salon
Elephant Salon and Spa,"141 Summit St suite a, Peabody, MA 01960",Beauty salon,Peabody,http://elephantsalonandspa.com/,,,"

",https://www.instagram.com/p/B-pP3w5AmLB/,,,1,MA,01960,beauty_salon
Evolution Hair Design & Day Spa,"1075 Westford St, Lowell, MA 01851",Beauty salon,Lowell,http://www.comeevolvewithus.com/,,," 
Purchase Gifts",https://www.salonbuilder.com/website/170718/giftcert.asp?func=R,https://www.salonbuilder.com/website/170718/contact.asp,Contact,1,MA,01851,beauty_salon
Salon Fabiano Ltd,"159 Ash St, Reading, MA 01867",Beauty salon,Reading,http://www.salonfabianoltd.com/,,,Purchase an e-Gift Card,https://www.salonfabianoltd.com,https://www.salonfabianoltd.com,Contact,1,MA,01867,beauty_salon
Glow Hair Skin & Harmony,"1153 Wilbur Ave, Somerset, MA 02725",Hair salon,Somerset,http://www.glowhairskinandharmony.com/,,,BUY A GIFT CARD,https://go.booker.com/location/glowhairskinandharmony/buy/gift-certificate,,,1,MA,02725,beauty_salon
Frank Anthony Salon,"154 US-206, Chester Township, NJ 07930",Beauty salon,Chester Township,http://www.frankanthony.com/,,,gift card,https://saloncloudsplus.com/wsnewgiftcard/giftcard_form/715998315/,http://frankanthony.com/contact-us/,contact us,1,NJ,07930,beauty_salon
La Difference Salon & Day Spa,"830 Paoli Pike, West Chester, PA 19380",Beauty salon,West Chester,http://ladifferencesalon.com/,,,Gift Certificates,http://www.ladifferencesalon.com/wp/shop/,http://ladifferencesalon.com/contact-us/,CONTACT US,1,PA,19380,beauty_salon
Calista Salon & Spa,"1211 Wilmington Pike, West Chester, PA 19382",Beauty salon,West Chester,http://calistasalonandspa.com/,,,Gift Certificates,https://www.calistasalonandspa.com/gift-certificates,https://www.instagram.com/invites/contact/?i=1pkam9of5p7yg&utm_content=vjspbe,,1,PA,19382,beauty_salon
Blaze Salon,"225 S Church St, West Chester, PA 19382",Beauty salon,West Chester,http://www.blazesalon.com/,,,"
Open
",https://scontent-lga3-1.xx.fbcdn.net/v/t51.2885-15/90418297_212578799830479_5273954849273423675_n.jpg?_nc_cat=110&_nc_sid=8ae9d6&_nc_oc=AQlZsIKlJJFmTA7mphzyHFGboma4Dro6nKTPCpaDTYrEpkJ7wl4PzwMsjclcIEQTGu9BhzBB0NVVBdySpWUp9Psx&_nc_ht=scontent-lga3-1.xx&oh=e978da84f637a910984ec52e962d340f&oe=5ECFD766,https://blazesalon.com/contact/,Contact & Employment Opportunities,1,PA,19382,beauty_salon
Dominic Michael Salon,"17057 Baxter Rd, Chesterfield, MO 63005",Beauty salon,Chesterfield,http://dmsalon.com/,,,Gift Cards,https://dmsalon.com/gift-cards/,https://dmsalon.com/about/contact/,Contact,1,MO,63005,beauty_salon
Alicia's Salon & Day Spa Inc,"6421 Centralia Rd, Chesterfield, VA 23832",Beauty salon,Chesterfield,http://www.aliciasalon.com/,,,GIFT CERTIFICATES,http://www.aliciasalon.com/gifts,http://www.aliciasalon.com/contact,CONTACT,1,VA,23832,beauty_salon
Beauty Batlles Lounge,"661 Front St suite b, Chicopee, MA 01013",Beauty salon,Chicopee,http://beautybatlles.com/,,,Gift Cards,https://squareup.com/gift/K95P49T5A36YR/order,http://beautybatlles.com/contact.html,"
				Contact
			",1,MA,01013,beauty_salon
GBS Brows Threading,"50 Holyoke St, Holyoke, MA 01040",Beauty salon,Holyoke,http://www.gbsbrows.com/,,,Gift Card,https://www.gbsbrows.com/gift-card/,https://www.gbsbrows.com/contact/,contact,1,MA,01040,beauty_salon
Salt the spa on Elm,"344 Elm St, Dartmouth, MA 02748",Spa,Dartmouth,http://www.saltonelm.com/,,,GIFT CARD,https://www.saltonelm.com/gift-card,https://www.saltonelm.com/contact,CONTACT,1,MA,02748,beauty_salon
Summerfield Spa,"800 Falmouth Rd STE 104A, Mashpee, MA 02649",Day spa,Mashpee,http://summerfieldspa.com/,,,Gift Cards,https://summerfieldspa.com/product/spa-gift-cards/,https://summerfieldspa.com/contact/,Contact,1,MA,02649,beauty_salon
InTouch Massage & Day Spa,"84 Water St, Williamstown, MA 01267",Day spa,Williamstown,http://www.intouchdayspa.com/,,,Gift Certificates,http://www.intouchdayspa.com/gift-certificates.html,,,1,MA,01267,beauty_salon
Tuscan Sun Spa & Salon,"1013 Fairmont Ave, Fairmont, WV 26554",Beauty salon,Fairmont,http://www.tuscanspaandsalon.com/,,,Buy Gift Cards,https://tuscansunspa.millenniumegift.com,https://tuscanspaandsalon.com/contact-us/,,1,WV,26554,beauty_salon
Salon 360 & Med Spa,"31452 Ford Rd, Garden City, MI 48135",Beauty salon,Garden City,http://salon-360.com/,,,Gift Certificates,https://salon360.boomtime.com/lgift,http://salon-360.com/contact/,Contact,1,MI,48135,beauty_salon
Krase Hair Salon,"400 Washington St # 2, Norwell, MA 02061",Beauty salon,Norwell,http://www.krasehairsalon.com/,,,Click Here to purchase e-gift certificates,https://krasehairsalon.salontarget.com/egift/?guestonly=guestonly,http://www.krasehairsalon.com/contact.html,CONTACT US,1,MA,02061,beauty_salon
Studio 123,"707 Main St, Norwell, MA 02061",Beauty salon,Norwell,https://www.studio123norwell.com/,,,Gift Certificate,https://www.studio123norwell.com/#gift-certificate,https://www.studio123norwell.com/#contact,Contact,1,MA,02061,beauty_salon
Club Casa Tanning Salon,"135 King St, Cohasset, MA 02025",Tanning salon,Cohasset,http://www.clubcasatanning.com/,,,Gift Cards,http://www.clubcasatanning.com/gift-cards.html,http://www.clubcasatanning.com/contact.html,Contact,1,MA,02025,beauty_salon
1604 Salon,"671 Washington St, Braintree, MA 02184",Beauty salon,Braintree,http://1604salonandspa.com/,,,"

PURCHASE A GIFT CERTIFICATE
",https://1604salonandspa.com/gift-certificates,https://1604salonandspa.com/contact,Contact,1,MA,02184,beauty_salon
Cala Renee Salon,"309 Rantoul St, Beverly, MA 01915",Beauty salon,Beverly,http://www.calareneesalon.net/,,,Purchase Gift Certificates Online,https://calarenee.salontarget.com/egift/?guestonly=guestonly,,,1,MA,01915,beauty_salon
Beauty Bungalow,"33 High St, Danvers, MA 01923",Day spa,Danvers,http://www.beautybungalowdanvers.com/,,,"

        
        	Buy A Gift Card

            ",http://bit.ly/BB-gift-card,,,1,MA,01923,beauty_salon
Spalenza,"75 Newbury St, Danvers, MA 01923",Day spa,Danvers,http://www.spalenzaspa.com/,,,Gift Cards,https://spalenzaspa.com/product/gift-card/,https://spalenzaspa.com/about-us/contact/,Contact Us,1,MA,01923,beauty_salon
Insideout Health & Wellness,"162 Main St #9, Wenham, MA 01984",Day spa,Wenham,http://www.insideouthw.com/,,,Gift Certificates,https://www.secure-booker.com/insideouthw/ShopOnline/GiftCertificate.aspx,https://www.insideouthw.com/contact-us/,Contact,1,MA,01984,beauty_salon
Botanical Brow Bar,"187 Lake St, Peabody, MA 01960",Waxing hair removal service,Peabody,http://www.botanicalbrowbar.com/,,,GET YOUR GIFT CARD NOW!,http://www.botanicalbrowbar.com/mailto:BOTANICALBROWBAR@GMAIL.COM,https://www.botanicalbrowbar.com,Contact,1,MA,01960,beauty_salon
Green Tangerine Spa & Salon,"210 Andover St, Peabody, MA 01960",Spa,Peabody,http://www.greentangerinespa.com/,,,"
        Gift Cards
      ",https://gt.salonultimate.com/checkout/giftCard?brand=1,http://www.greentangerinespa.com/contact,Contact,1,MA,01960,beauty_salon
LiVi Laser Center,"13 Russells Mills Rd, South Dartmouth, MA 02748",Hair removal service,South Dartmouth,http://livilasercenter.com/,,,PROMOTIONS/GIFT CARDS,https://www.giftfly.com/shop/livi-laser-center,https://www.livilasercenter.com/contact,CONTACT,1,MA,02748,beauty_salon
Karyne & Company Day Spa,"368 Elm St, South Dartmouth, MA 02748",Massage spa,South Dartmouth,http://www.karyneandcompany.com/,,,Gift Card Purchase & Online Booking,http://www.karyneandcompany.com/Booking,http://www.karyneandcompany.com/Contact,Contact,1,MA,02748,beauty_salon
Drift Day Spa,"77 State Rd, North Dartmouth, MA 02747",Spa,North Dartmouth,http://www.driftdartmouth.com/,,,"
				eGiftCards
			",https://squareup.com/gift/DYR5F9J8AC7AB/order,,,1,MA,02747,beauty_salon
Winnie's Skin Care Salon,"386 Lagrange St, Roslindale, MA 02131",Beauty salon,Roslindale,http://winniesskincaresalon.com/,,,GIFT CERTIFICATES,https://www.winniesskincaresalon.com/gift-certificates,https://www.winniesskincaresalon.com/contact-us,CONTACT US,1,MA,02131,beauty_salon
Fire and Ice Spa,"Papa Gino’s Plaza 115 Eastern Avenue, Dedham, MA 02026",Spa and health club,Dedham,http://bostoncryospa.com/,,,Gift Certificates,https://squareup.com/gift/DKFH83V5FNAQ1/order,http://bostoncryospa.com/en/contacts,Contact Us,1,MA,02026,beauty_salon
Willow Salon & Day Spa,"1275 Main St, Millis, MA 02054",Beauty salon,Millis,https://willow-spa.com/,,,Gift Certificates,https://willow-spa.com/gift-certificates-2/,https://willow-spa.com/contact/,Contact,1,MA,02054,beauty_salon
Smudge Nail Bar,"1036 Great Plain Ave, Needham, MA 02492",Nail salon,Needham,http://www.smudgenailbar.com/,,,GIFT CARDS,https://www.smudgenailbar.com/gift-card,https://www.smudgenailbar.com/contact-us-1,CONTACT US,1,MA,02492,beauty_salon
Luxotic Nail Bar,"200 Linden St, Wellesley, MA 02482",Nail salon,Wellesley,http://www.luxoticnailbar.com/,,"Intimate outpost providing manicures, pedicures & waxing services in a sophisticated setting.",gift-card,http://www.luxoticnailbar.com/gift-cards/gift-card,,,1,MA,02482,beauty_salon
Pelham Med Spa,"49 Atwood Rd, Pelham, NH 03076",Medical spa,Pelham,https://www.pelhammedspa.com/,,,"  

Get Gift Certificate
",https://www.pelhammedspa.com/,https://www.pelhammedspa.com/contact," Contact
",1,NH,03076,beauty_salon
The Hair Company by The Skin & Body Spa,"383 E Dunstable Rd, Nashua, NH 03062",Hair salon,Nashua,http://www.thehaircompany.com/,,,Gift Cards,https://www.thehaircompany.com/gift-cards/,https://www.thehaircompany.com/contact/,Contact,1,NH,03062,beauty_salon
The Medical Skin Clinic,"387 E Dunstable Rd, Nashua, NH 03062",Medical spa,Nashua,https://www.themedicalskinclinic.com/,,,Gift Cards,https://www.themedicalskinclinic.com/medical-spa-gift-cards-nashua/,https://www.themedicalskinclinic.com/contact-skin-care-clinic-nashua/,Contact Us,1,NH,03062,beauty_salon
Kara's Nails & Spa,"225 Groton Rd, Westford, MA 01886",Nail salon,Westford,http://www.karanails.com/,,,Gift Certificates,http://www.karanails.com/GiftCert.aspx,http://www.karanails.com/Contact.aspx,Contact Us,1,MA,01886,beauty_salon
Spatique Day Spa,"2000 Ocean St 2nd floor, Marshfield, MA 02050",Day spa,Marshfield,http://www.spatique.biz/,,," Gift Certificates

",http://www.spatique.biz/gift-certificates,http://www.spatique.biz/contact," Contact / Hours

",1,MA,02050,beauty_salon
Charles David Salon in Plymouth,"61 Long Pond Rd, Plymouth, MA 02360",Beauty salon,Plymouth,http://www.charlesdavidsalon.com/,,,gift certificates,http://www.charlesdavidsalon.com/gift_certificates.html,http://www.facebook.com/pages/Hanover-MA/Charles-David-Salon-Spa/167636481650,,1,MA,02360,beauty_salon
Skin By Sarah,"345 Court St Ste. 302, Plymouth, MA 02360",Skin care clinic,Plymouth,http://skinbysarah.info/,,,Gift Cards,http://skinbysarah.info/gift-cards,,,1,MA,02360,beauty_salon
Susan Perry Skin Care Day Spa,"98 Court St, Plymouth, MA 02360",Day spa,Plymouth,http://www.susanperryskincare.com/,,,,http://www.susanperrybeauty.com/servlet/Categories?category=Gift+Cards,https://www.susanperrybeauty.com/category-s/1822.htm,,1,MA,02360,beauty_salon
Easton Medical Aesthetics,"244 Washington St Building #1, North Easton, MA 02356",Medical spa,North Easton,http://www.eastonmedicalaesthetics.com/,,,BOOK | GIFT CARDS,https://www.eastonmedicalaesthetics.com/book-giftcards,https://www.eastonmedicalaesthetics.com,CONTACT,1,MA,02356,beauty_salon
Beautique,"26 Parker St, Newburyport, MA 01950",Hair salon,Newburyport,http://beautiquenbpt.com/,,,Gift Cards,https://beautique.salontarget.com/egift/?guestonly=guestonly,http://beautiquenbpt.com/contact.html,Contact,1,MA,01950,beauty_salon
Salon 345,"345 Central St, Saugus, MA 01906",Beauty salon,Saugus,http://www.bestsaugussalon.com/,,,Gift Cards,http://www.bestsaugussalon.com/salon-central-street-saugus-ma-gift-cards.html,,,1,MA,01906,beauty_salon
The Spa at Briar Barn Inn,"101 Main St, Rowley, MA 01969",Spa,Rowley,https://www.briarbarninn.com/,,, Open ,https://scontent-ort2-1.xx.fbcdn.net/v/t51.2885-15/82739932_182787973036801_1443862406832675108_n.jpg?_nc_cat=104&_nc_sid=8ae9d6&_nc_ohc=ZBmwILp1whkAX8zgJRs&_nc_ht=scontent-ort2-1.xx&oh=a1f816ce172cc5e6539ee819a94d33cb&oe=5ECF3CA9,https://www.briarbarninn.com/contact/,Contact,1,MA,01969,beauty_salon
Salon Hairapy,"902 Salem St, Malden, MA 02148",Hair salon,Malden,http://www.salonhairapymalden.com/,,,PURCHASE GIFT CARD!,https://squareup.com/gift/6B3KQJN1024K7/order,http://www.salonhairapymalden.com/contact,CONTACT & INFO,1,MA,02148,beauty_salon
Blue Lotus Spa,"3770 N Main St, Fall River, MA 02721",Beauty salon,Fall River,http://bluelotusskinstudio.skincaretherapy.net/,,,Gift Certificates,http://bluelotusskinstudio.skincaretherapy.net/gift-certificates,http://bluelotusskinstudio.skincaretherapy.net/contact-information,Contact Information,1,MA,02721,beauty_salon
Lynne's Place Laser*SkinCare*Beauty,"863 County St, Somerset, MA 02726",Laser hair removal service,Somerset,http://lynnesplacespa.com/,,,Gift Cards,http://lynnesplacespa.com/gift-cards.html,,,1,MA,02726,beauty_salon
Spa NoorMedical Spa & Laser Center,"373 New Boston Rd # 3, Fall River, MA 02720",Medical spa,Fall River,http://www.spanoor.com/,,,Gift Cards,https://noor.boomtime.com/lgift,https://spanoor.com/contact/,Contact Us,1,MA,02720,beauty_salon
Renewing Touch Massage & Spa,"315 Hope St, Bristol, RI 02809",Massage therapist,Bristol,http://www.renewingtouchmassage.net/,,,Gift Certificates,https://www.renewingtouchmassage.net/gift-certificates/,https://www.renewingtouchmassage.net/contact-us/,Contact Us,1,RI,02809,beauty_salon
all about you,"23 Village Inn Rd, Westminster, MA 01473",Massage therapist,Westminster,http://www.allaboutyousolutions.com/,,,Purchase a Gift Card,https://www.allaboutyousolutions.com/shop,,,1,MA,01473,beauty_salon
Spa Sophia,"12 Salem St, Lynnfield, MA 01940",Spa,Lynnfield,http://sofiaedayspa.com/,,,GIFT CARDS,https://www.sofiaedayspa.com/gift-card,https://www.sofiaedayspa.com/contact,CONTACT,1,MA,01940,beauty_salon
Serenity Centre For Massage,"94 Central St, Foxborough, MA 02035",Massage therapist,Foxborough,http://www.serenitycentreformassage.com/,,,Gift Certificate,http://firstrugs.homestead.com/attributes.html?_=1460566820344,http://www.serenitycentreformassage.com/Contact.html,Contact,1,MA,02035,beauty_salon
Bosse Spa and Style,"141 Boston Post Rd, Sudbury, MA 01776",Day spa,Sudbury,http://www.bossespaandstyle.com/,,,Gift Certificates,http://www.bossespaandstyle.com/gift-certificates/,http://www.bossespaandstyle.com/contact-us/,Contact Us,1,MA,01776,beauty_salon
The Littlest Spa,"45 S Main St, Natick, MA 01760",Day spa,Natick,http://www.thelittlestspa.com/,,,Instant Gift Certificate,https://thelittlestspa.boomtime.com/lgift,http://www.thelittlestspa.com/tel:5086532922,(508) 653-2922,1,MA,01760,beauty_salon
Mac Med Spa,"242 Union Ave, Framingham, MA 01702",Spa,Framingham,https://macmedspa.com/,,,Gift Cards,https://macmedspa.com/gift-cards/,,,1,MA,01702,beauty_salon
Loyalty Barber Shop VII,"650 Waverly St, Framingham, MA 01702",Barber shop,Framingham,http://www.loyaltybarbershop7.com/,,,,https://squareup.com/gift/ABER9R4RM6Y4B/order,https://www.loyaltybarbershop7.com/contact,CONTACT,1,MA,01702,beauty_salon
Stella Dieci Spa & Salon,"158 Main St, Milford, MA 01757",Beauty salon,Milford,http://www.stelladieci.com/,,,Insta Gift Cards,https://stelladieci.boomtime.com/lgift,http://www.stelladieci.com/contact.html,Contact,1,MA,01757,beauty_salon
Georgetown Aveda Salon & Spa,"1325 Wisconsin Ave NW, Washington, DC 20007",Beauty salon,Washington,http://www.avedageorgetown.com/,,,,https://avedageorgetown.giftcardsotb.com/shop/gift-card/giftcard/,http://www.avedageorgetown.com/contact.html,Contact,1,DC,20007,beauty_salon
Luxe Inc,"17 S Main St, Topsfield, MA 01983",Beauty salon,Topsfield,https://www.liveluxe.me/,,,GIFT CARDS,https://www.liveluxe.me/gift-card,https://www.liveluxe.me/contact,CONTACT,1,MA,01983,beauty_salon
The Studio,"106 East St, Hutto, TX 78634",Beauty salon,Hutto,http://www.thestudiohtx.com/,,"Haircuts & highlights, plus facials, pedicures & waxing, offered in a relaxed environment.",,http://stylenet.com/TheStudio2/gift-certificates,https://www.thestudiohtx.com/contact/,Contact,1,TX,78634,beauty_salon
Spa Thayer,"5 Pier Market Pl, Narragansett, RI 02882",Day spa,Narragansett,http://www.spathayer.com/,,,Purchase Gift Certificates,https://clients.mindbodyonline.com/ASP/main_shop.asp?studioid=21409&tg=&vt=&lvl=&stype=42&view=&trn=0&page=&catid=&prodid=&date=12%2f29%2f2016&classid=0&prodGroupId=&sSU=&optForwardingLink=&qParam=&justloggedin=&nLgIn=&pMode=2&loc=1,"http://maps.google.com/?q=5 Pier Marketplace, Narragansett, RI 02882",,1,RI,02882,beauty_salon
Creative Nails & Spa Shrewsbury,"50 Boston Turnpike #3540, Shrewsbury, MA 01545",Nail salon,Shrewsbury,http://creativenailsnspa.com/,,,Gift Cards,https://creativenails.localgiftcards.com/,https://www.creativenailsnspa.com/contact,Contact,1,MA,01545,beauty_salon
Inspiration Hair Studio and Day Spa,"278 N Main St, Uxbridge, MA 01569",Hair salon,Uxbridge,http://www.inspirationhairstudio-dayspa.com/,,,Gift Certificates,http://www.inspirationhairstudio-dayspa.com/gift-certificates,,,1,MA,01569,beauty_salon
Wonderful Day Spa,"196 Boston Turnpike, Shrewsbury, MA 01545",Day spa,Shrewsbury,http://www.wonderfuldayspa.com/,,,,http://www.wonderfuldayspa.com/GIFT-CERTIFICATES.html,http://www.wonderfuldayspa.com/CONTACT-US.html,,1,MA,01545,beauty_salon
Julia's Skin Care & Spa,"21 South St, Westborough, MA 01581",Beauty salon,Westborough,http://www.skincarebyjulia.com/,,,Gift cards,http://www.skincarebyjulia.com/spa-deals/gift-cards,http://www.skincarebyjulia.com/contact-us,Contact Us,1,MA,01581,beauty_salon
Scruples Boutique and Day Spa,"325 Hazard Ave, Enfield, CT 06082",Beauty salon,Enfield,http://www.scruplesdayspa.com/,,,E-Gift Certificates,https://swipeit.com/product/637/scruples-salon-and-day-spa,http://www.scruplesdayspa.com/contact-us,Contact Us,1,CT,06082,beauty_salon
Deka Lash,"15 Bloomfield Ave, Montclair, NJ 07042",Beauty salon,Montclair,https://dekalash.com/,,,"
Buy Gift Cards
",http://www.secure-booker.com/DekaLashEcommerce/ShopOnline/GiftCertificate.aspx,https://dekalash.com/contact/,"
									Contact us
								",1,NJ,07042,beauty_salon
Makeovers Salon  Spa,"594 Washington St, South Easton, MA 02375",Day spa,South Easton,http://www.makeoverssalon.com/,,,Gift Card,http://makeoverssalon.com/gift-card/,http://makeoverssalon.com/contact/,Contact,1,MA,02375,beauty_salon
Alda Aesthetics,"20 East St, Hanover, MA 02339",Medical spa,Hanover,http://aldaaesthetics.com/,,,Gift Cards,https://aldaaesthetics.com/product/purchase-gift-card/,https://aldaaesthetics.com/contact-us/,Contact,1,MA,02339,beauty_salon
The Black Tie Spa,"62 Accord Park Dr, Norwell, MA 02061",Spa,Norwell,http://www.blacktiespa.com/,,,"
              GIFT CARDS
            ",http://www.blacktiespa.com/gift,http://www.blacktiespa.com/contact,"
              Contact
            ",1,MA,02061,beauty_salon
Green Street Massage,"420 Centre St, Jamaica Plain, MA 02130",Massage therapist,Jamaica Plain,http://www.greenstreetmassage.com/,,,Gift Certificates,http://www.secure-booker.com/greenstreetmassage/ShopOnline/GiftCertificate.aspx,http://www.greenstreetmassage.com/#contact-section,"
                        Location
                      ",1,MA,02130,beauty_salon
Hand & Stone,"14210 Market Square Dr, Huntersville, NC 28078",Massage spa,Huntersville,https://www.handandstonehuntersville.com/,,,Instant Gift Cards,https://handstone.boomtime.com/lgift,https://www.handandstonehuntersville.com/#,Contact Us,1,NC,28078,beauty_salon
Invidia Salon and Spa for Kids,"736 Boston Post Rd, Sudbury, MA 01776",Beauty salon,Sudbury,https://www.invidiasalon.com/,,,On-line Gift Card,https://invidia.formstack.com/forms/giftcard,https://www.invidiasalon.com/contact,Contact Details,1,MA,01776,beauty_salon
Roc's Unisex Salon,"221 Main St, Marlborough, MA 01752",Hair salon,Marlborough,http://www.rocsunisexsalon.com/,,,Gift Certificates,https://rocsunisexsalon.com/gift-certificates/,https://rocsunisexsalon.com/contact/,Contact,1,MA,01752,beauty_salon
Healing Hands Massage and Esthetics  Sudbury MA,"75 Union Ave UNIT 201, Sudbury, MA 01776",Facial spa,Sudbury,http://bestmassagesudbury.com/,,"Various massages, plus waxing, facials & spray tanning, offered in simple, charming surrounds.",GIFT CARD,https://www.bestmassagesudbury.com/gift-card,https://www.bestmassagesudbury.com,CONTACT,1,MA,01776,beauty_salon
A Beautiful Face,"22 Wapping Rd, Kingston, MA 02364",Skin care clinic,Kingston,http://www.abeautifulfacedayspa.com/,,,Order Online,https://www.abeautifulfacedayspa.com/gift-card,https://www.abeautifulfacedayspa.com/contact,Contact &  About,1,MA,02364,beauty_salon
Nordstrom San Francisco Centre,"865 Market St, San Francisco, CA 94103",Cosmetics store,San Francisco,http://www.westfield.com/,,"9-story mall featuring over 170 shops & restaurants, a multiplex & a dome-covered atrium.",Gift Cards,http://www.westfield.com/sanfrancisco/stores/Gift%20Cards,,,1,CA,94103,beauty_salon
Davis Hairdressing,"26 Lincoln St, Newton Highlands, MA 02461",Beauty salon,Newton Highlands,http://www.davishairdressing.com/,,,Gift Cards,https://davishairdressing.com/dh-gifts/,https://davishairdressing.com/contact/,Contact,1,MA,02461,beauty_salon
Zak's Hair Salon,"145 Lincoln Rd, Lincoln, MA 01773",Beauty salon,Lincoln,https://www.skysalonlincoln.com/,,,"
Buy an E-gift card
",https://squareup.com/gift/A6XB3GWKMV748/order?external_source=postoffice-egift-widget&external_token=0IzvhDWw5RdBVlet%20,https://www.skysalonlincoln.com/book-now,Contact/Book,1,MA,01773,beauty_salon
Mane Escape Salon & Spa,"37 Thoreau St, Concord, MA 01742",Beauty salon,Concord,http://themaneescape.com/,,,Gift Cards,http://themaneescape.com/hair-salon-thoreau-ma-gift-cards.html,,,1,MA,01742,beauty_salon
Daydreams Hair Studio,"264 Main St #6, Lincoln, NH 03251",Beauty salon,Lincoln,https://daydreamshairandnailstudio.com/,,,Shop,https://daydreamshairandnailstudio.com/product/gift-certificate/,https://daydreamshairandnailstudio.com/mailto:daydreamshairandnail@yahoo.com,Contact Us,1,NH,03251,beauty_salon
Philip Ciampa Salon & Day Spa,"395 Main St, Wakefield, MA 01880",Beauty salon,Wakefield,https://www.philipciampa.com/,,,"


ORDER A GIFT CARD


",https://www.philipciampa.com/shop,https://visitor.r20.constantcontact.com/d.jsp?llr=g9uq6geab&p=oi&m=1104038875974&sit=46dokgtfb&f=eeeb6229-a009-470f-bc2a-59c56085dde6,,1,MA,01880,beauty_salon
Carl Michael Salon Wakefield,"407 Lowell St, Wakefield, MA 01880",Hair salon,Wakefield,http://www.carlmichaelsalon.com/,,,Gift Cards,https://carlmichaelsalon.com/gift-cards/,http://www.carlmichaelsalon.com/#,Contact Us,1,MA,01880,beauty_salon
Salon Indulgence By Kimberly,"525 Franklin St, Melrose, MA 02176",Beauty salon,Melrose,http://www.salonindulgencebykimberly.com/,,,Gift CertificatesGift Certificates make a great gift for any loved one. Click here to purchase one online right now.,https://www.salonbuilder.com/website/168256/giftcert.asp,https://www.salonbuilder.com/website/168256/contact.asp,Appointments,1,MA,02176,beauty_salon
RN Esthetics Salem,"331 Lafayette St, Salem, MA 01970",Medical spa,Salem,https://rnestheticsandlaser.com/,,,Shop Instant Gift Cards,https://rnesthetics1.boomtime.com/lgift,https://rnestheticsandlaser.com/contact/,CONTACT,1,MA,01970,beauty_salon
Living Well Therapeutic Massage,"63 1/2 Jefferson Ave, Salem, MA 01970",Massage therapist,Salem,https://livingwellsalem.com/,,,"
            Gift Cards
          ",https://livingwellsalem.com/gift-cards,https://livingwellsalem.com/contact-us,"
            Contact Us
          ",1,MA,01970,beauty_salon
Hand In Hand Massage,"10 Jefferson St, Marblehead, MA 01945",Massage therapist,Marblehead,http://handinhandmassage.com/,,,Gift Certificates,https://squareup.com/gift/Z426JWP0MQS1V/order#new_tab,https://handinhandmassage.com/contact-us/,Contact us,1,MA,01945,beauty_salon
SALON D'TALIA,"1852 Smith St, North Providence, RI 02911",Beauty salon,North Providence,http://www.salondtalia.com/,,,GIFTCARDS,https://www.salondtalia.com/shop,http://www.salondtalia.com/mailto:info@salondtalia.com?subject=Salon D'Talia Website Inquiry,Contact Us,1,RI,02911,beauty_salon
Simply Massage,"34 Barstow St, Mattapoisett, MA 02739",Massage therapist,Mattapoisett,http://www.simplymassage.me/,,,Gift Certificates,http://www.simplymassage.me/gift-certificates,,,1,MA,02739,beauty_salon
Phillip DePalma Salon of Massachusetts,"1154 Worcester Rd, Framingham, MA 01702",Beauty salon,Framingham,http://depalmasalon.com/,,,Gift Cards,http://depalmasalon.com/framingham/gift-cards/,http://depalmasalon.com/framingham/contact-us/,Contact Us,1,MA,01702,beauty_salon
The Chop Shop,"32 Park St, Medfield, MA 02052",Barber shop,Medfield,http://www.thechopshop508.com/,,,"
        Gift Cards
      ",https://squareup.com/gift/ARHCFTX0PPYGZ/order,,,1,MA,02052,beauty_salon
Amore Hair Design,"1 Fowler St, Mansfield, MA 02048",Hair salon,Mansfield,http://amorehairdesign.com/,,,"
				GIFT CARDS & PRODUCTS
			",http://amorehairdesign.com/gift-cards--products.html,http://amorehairdesign.com/contact.html,"
				Contact
			",1,MA,02048,beauty_salon
Superior Image Barbershop,"536 Franklin St, Melrose, MA 02176",Barber shop,Melrose,http://www.superiorimagebarbershop.com/,,,"
We would like to express our gratitude to all of y

",https://www.instagram.com/p/B_iI-DaBYPe/,http://superiorimagebarbershop.com/contact-us/,Contact Us,1,MA,02176,beauty_salon
A Time For You,"4 Foster St, Wakefield, MA 01880",Beauty salon,Wakefield,http://www.atimeforyouskinandspirit.com/,,,Customized Gift Certificates,http://www.atimeforyouskinandspirit.com/our-services.html,http://www.atimeforyouskinandspirit.com/contact-us-1.html,Contact Us,1,MA,01880,beauty_salon
To Make Beautiful Skin Lashes Makeup,"468 Main St, Stoneham, MA 02180",Beauty salon,Stoneham,http://www.tomakebeautiful.com/,,,Retail Products – Gift Certificates,https://blog.tomakebeautiful.com/online-shopping/,https://blog.tomakebeautiful.com/contact-us-book-now-blog/,Contact Us /Book Now,1,MA,02180,beauty_salon
Happy Nails,"149 Washington St, Dorchester, MA 02121",Nail salon,Dorchester,http://www.happynails.com/,,,Gift Cards,https://www.happynails.com/giftcards/,https://www.happynails.com/contact-us/,Contact Us,1,MA,02121,beauty_salon
Monroe's Salon and Spa,"185 W Columbus St, Pickerington, OH 43147",Beauty salon,Pickerington,http://www.monroesbeautyspa.com/,,,Gift Cards,http://www.monroesbeautyspa.com/gcsale,http://www.monroesbeautyspa.com/contactus,Email,1,OH,43147,beauty_salon
The Parlor House,"1851 Ave of America A&B, Monroe, LA 71201",Hair salon,Monroe,http://www.parlorhousemonroe.com/,,,"
GIFT CERTIFICATE HERE
",http://www.parlorhousemonroe.com/mailto:kateanzalone@gmail.com,http://www.parlorhousemonroe.com/contact-us/4591500136,CONTACT US,1,LA,71201,beauty_salon
Lenneth Miller Hair Studio,"337 Applegarth Rd, Monroe Township, NJ 08831",Hair salon,Monroe Township,http://lennethmillerhairstudio.com/,,,Gift Cards,http://stylenet.com/LennethMillerHairStudio/gift-certificates/,http://stylenet.com/LennethMillerHairStudio/contact-us/,Contact,1,NJ,08831,beauty_salon
Julie's Pure Bliss,"647 N Main St, Sheffield, MA 01257",Waxing hair removal service,Sheffield,https://www.jpurebliss.com/,,,"#mask-comp-jwjwmqa0img-svg * {fill: #fff; stroke: #fff; stroke-width: 0;}








",https://www.jpurebliss.com/shop,https://www.jpurebliss.com/contact,Contact,1,MA,01257,beauty_salon
Julie's Pure Bliss Facials Skin Care and More,"647 N Main St, Sheffield, MA 01257",Day spa,Sheffield,http://www.jpurebliss.com/,,,"#mask-comp-jwjwmqa0img-svg * {fill: #fff; stroke: #fff; stroke-width: 0;}








",https://www.jpurebliss.com/shop,https://www.jpurebliss.com/contact,Contact,1,MA,01257,beauty_salon
The Seaside Spa and Salon,"5 Front St NW, Coupeville, WA 98239",Spa,Coupeville,http://www.seasidespaandsalon.com/,,,GIFT CERTIFICATE,https://na1.meevo.com/EgiftApp/home?tenantId=200236,http://www.seasidespaandsalon.com/contact-us.html,CONTACT,1,WA,98239,beauty_salon
Salt Salon & Spa,"327 Eastbrooke Pointe Dr Suite 300, Mt Washington, KY 40047",Beauty salon,Mt Washington,http://www.saltmtw.com/,,,Gift Cards,https://www.saltmtw.com/product/salt-salon-spa-gift-card/,,,1,KY,40047,beauty_salon
Studio & Co,"1501 Sulgrave Ave, Baltimore, MD 21209",Beauty salon,Baltimore,https://www.studioandcosalon.com/,,,Gift Cards,https://www.studioandcosalon.com/giftcardstosalon,https://www.studioandcosalon.com/contact,Contact,1,MD,21209,beauty_salon
Title City Barbers,"1245 Worcester St #1214, Natick, MA 01760",Barber shop,Natick,http://titlecitybarbers.com/,,,Buy Gift Card,https://online.getsquire.com/brands/title-city,http://titlecitybarbers.com/contact/,Contact,1,MA,01760,beauty_salon
BlushTan Wellesley,"562 Washington St, Wellesley, MA 02482",Beauty salon,Wellesley,http://www.blushtan.com/,,,here,https://blvd.me/blushtan-hq/gift-cards,,,1,MA,02482,beauty_salon
Rina's Studio,"277 Linden St, Wellesley, MA 02482",Waxing hair removal service,Wellesley,http://www.rina-studio.com/,,,,http://www.rina-studio.com/gift_certificate.html,http://www.rina-studio.com/contact.html,,1,MA,02482,beauty_salon
Hair_by_Yesenia at Sola Salon,"400 Highland Ave Suite 13, Salem, MA 01970",Hair salon,Salem,http://www.hairbyyesenia.com/,,,"
                        Buy now
                      ",https://squareup.com/gift/CR8WXT5Y16695/order,,,1,MA,01970,beauty_salon
ChicMed Laser & Esthetic Center,"251 Moody St, Waltham, MA 02453",Medical spa,Waltham,https://chicmed.com/,,,Gift Cards,https://www.chicmed.com/membership/gift-cards/,https://www.chicmed.com/contact-us/,Contact Us,1,MA,02453,beauty_salon
SkinHealth Centers Wellesley Med Spa,"251 Washington St, Wellesley, MA 02481",Medical spa,Wellesley,http://www.skinhealthcenters.com/,,,Purchase Instant Gift Certificates,https://skinhealth.boomtime.com/lgift,https://www.skinhealthcenters.com/contact-us,Contact,1,MA,02481,beauty_salon
Glo Medical Aesthetics,"1251 Centre St, Newton, MA 02459",Medical spa,Newton,https://www.glomedicalaesthetics.com/,,,"

Specials/Gift Cards

 ",https://www.glomedicalaesthetics.com/package-deals/,,,1,MA,02459,beauty_salon
Tri Zen Wellness & Reflexology Center,"899 Washington St, Newtonville, MA 02460",Massage therapist,Newtonville,https://trizenserenity.com/,,,Gift Cards,https://trizenserenity.com/index.php/gift-cards/,,,1,MA,02460,beauty_salon
AOC Salon,"1628 Laskin Rd #710, Virginia Beach, VA 23451",Beauty salon,Virginia Beach,http://www.aocsalon.com/,,,GET YOUR AOC SALON  GIFT CARD ONLINE                                 CLICK HERE,https://giftup.app/place-order/a71324e6-2b83-4961-849e-09ead00ecdb5?platform=Hosted,https://www.aocsalon.com/about-us/contact-us/,Contact Us,1,VA,23451,beauty_salon
True Weave Spa,"7525 Tidewater Dr, Norfolk, VA 23505",Hair salon,Norfolk,http://www.trueweavespa.com/,,,,http://www.trueweavespa.com/book-an-appointment/,https://trueweavespa.com/contact-us/,Contact Us,1,VA,23505,beauty_salon
Plane Jane Salon,"8005 Norfolk Ave #2503, Bethesda, MD 20814",Hair salon,Bethesda,http://www.planejanesalon.com/,,,"BUY A GIFT CARD




",https://www.vagaro.com/planejanesalon/gift-certificates,https://www.planejanesalon.com/contact-us,CONTACT US,1,MD,20814,beauty_salon
Morgan Massage,"173 Mt Auburn St, Watertown, MA 02472",Massage therapist,Watertown,http://www.morganmassage.com/,,,eGift Card,http://morganmassage.com/egift-card/,http://morganmassage.com/contact/,Contact,1,MA,02472,beauty_salon
Modern Glow Studio,"103 Water St, Wakefield, MA 01880",Tanning salon,Wakefield,https://www.modernglowstudio.com/,,,Purchase Gift Cards,https://squareup.com/gift/14MJ247GVHXR4/order,https://www.modernglowstudio.com/contact,Contact,1,MA,01880,beauty_salon
More Than Hair Day Spa,"1381 Bridge St, Dracut, MA 01826",Spa,Dracut,http://www.morethanhair.com/,,"Day spa offering hair styling, coloring & treatments, plus waxing, massages, facials & mani-pedis.","
Click here to send an Instant Gift Certificate
",https://morethan.boomtime.com/lgift,,,1,MA,01826,beauty_salon
Aveda Fredric's Institute,"6020 82nd St, Indianapolis, IN 46250",Beauty salon,Indianapolis,https://www.avedafi.edu/,,,Gift Cards,https://www.avedafi.edu/gift-cards/,,,1,IN,46250,beauty_salon
Vamped Beauty Skincare,"18 Cummings Park Dr, Woburn, MA 01801",Beauty salon,Woburn,http://www.vampedbeautyskincare.com/,,,Gift Cards,https://www.vampedbeautyskincare.com/gift-cards,https://www.vampedbeautyskincare.com,Contact,1,MA,01801,beauty_salon
My Nail Lady,"320 Main St, Stoneham, MA 02180",Nail salon,Stoneham,http://www.mynailslady.com/,,,E-Gift,http://www.mynailslady.com/gift-card,http://www.mynailslady.com/contactus,Contact Us,1,MA,02180,beauty_salon
Salon Eleven,"16 Albion St, Wakefield, MA 01880",Hair salon,Wakefield,http://www.saloneleven.co/,,,"

",http://www.saloneleven.co/shop,http://www.saloneleven.co/contact,"
            Contact
          ",1,MA,01880,beauty_salon
Pamper Me Skin Care,"82 Albion St, Wakefield, MA 01880",Spa,Wakefield,https://pampermeskincare.com/,,,"
				Gift Certificates
			
			",https://pamperme.boomtime.com/lgift,https://pampermeskincare.com/contact.html,"
				Contact
			
			",1,MA,01880,beauty_salon
Deb's Shear Perfection,"560 US-20, New Lebanon, NY 12125",Beauty salon,New Lebanon,http://debsshearperfection.com/,,,Gift Certificates,http://debsshearperfection.com/gift-certificates/,,,1,NY,12125,beauty_salon
MELT,"560 Rte 20, New Lebanon, NY 12125",Waxing hair removal service,New Lebanon,http://meltbodyandskin.com/,,,"
            Gift Cards
          ",http://meltbodyandskin.com/gift-cards,http://meltbodyandskin.com/contact-1,"
            Contact
          ",1,NY,12125,beauty_salon
Rituals Salon & Spa,"11400 W Huguenot Rd, Midlothian, VA 23113",Hair salon,Midlothian,http://www.ritualssalon.net/,,,Gift Cards,https://ritualssalon.millenniumegift.com/,https://www.ritualssalon.net/contact-us/,Contact Us,1,VA,23113,beauty_salon
Avenue 42 Salon,"16 E Main St, Richmond, VA 23219",Hair salon,Richmond,http://www.ave42.com/,,,Gift Cards,https://clients.mindbodyonline.com/classic/ws?studioid=141358&stype=42&sLoc=0&giftCardID=54,https://www.ave42.com/contact,Contact,1,VA,23219,beauty_salon
Black Tie Mobile Spray Tanning,"2080 Curtner Ave, San Jose, CA 95124",Spa,San Jose,https://www.spraytanbykathryn.com/,,,Buy Gift Cards,http://www.giftfly.com/shop/spray-tan-by-kathryn,https://www.spraytanbykathryn.com/contact/,Contact Us(408) 478-9912,1,CA,95124,beauty_salon
Spitale Laser Spa Salon,"59 Celebration Dr, Rochester, NY 14620",Beauty salon,Rochester,http://spitalelaserspasalon.com/,,,Gift Cards,https://na0.meevo.com/EgiftApp/order?tenantId=101048,http://spitalelaserspasalon.com/contact,More Info,1,NY,14620,beauty_salon
jr's for hair & more,"6025 Rochester Rd, Troy, MI 48085",Beauty salon,Troy,http://jrsforhair.com/,,,Gift Certificates,http://stylenet.com/JRsforHairMore/gift-certificates/,http://stylenet.com/JRsforHairMore/contact-us/,Contact,1,MI,48085,beauty_salon
Shear Ego Salon & Spa,"3349 Monroe Ave, Rochester, NY 14618",Beauty salon,Rochester,http://www.shearego.com/,,,Gift Cards,http://www.shearego.com/gift-cards.html,,,1,NY,14618,beauty_salon
Park Avenue Salon & Day Spa,"735 Park Ave, Rochester, NY 14607",Beauty salon,Rochester,http://www.parkavedayspa.com/,,"Serene destination for spa services, including massage & body treatment packages.",PURCHASE A GIFT CARD,https://na0.meevo.com/EgiftApp/home?tenantId=100145,https://www.parkavedayspa.com/contact,CONTACT,1,NY,14607,beauty_salon
Simply Glamorous Salon And Spa,"1780 East Ridge Road, Rochester, NY 14622",Beauty salon,Rochester,http://www.simplyglamoroussalonandspa.com/,,,Gift Cards,https://www.simplyglamoroussalonandspa.com/gift-certificates,https://www.simplyglamoroussalonandspa.com/contact,Contact Us,1,NY,14622,beauty_salon
Solutions Studio & Spa,"1353 Long Pond Rd, Rochester, NY 14626",Beauty salon,Rochester,http://www.solutionsstudioandspa.com/,,,Gift Certificates,http://www.solutionsstudioandspa.com/gift-certificates,http://www.solutionsstudioandspa.com/contact,Contact,1,NY,14626,beauty_salon
La La Luxe Salon,"139 Elmgrove Ave, Providence, RI 02906",Beauty salon,Providence,http://lalaluxesalon.com/,,,Purchase Now!,https://www.thegiftcardcafe.com/cart/index.php?storeID=6964,https://lalaluxesalon.com/home/contact-2/,Contact,1,RI,02906,beauty_salon
Coiffurium East Side,"800 Hope St, Providence, RI 02906",Beauty salon,Providence,http://www.coiffurium.com/,,,,http://www.coiffurium.com/giftcards.html,http://www.coiffurium.com/contact.html,,1,RI,02906,beauty_salon
Ello Pretty,"60 Valley St #108, Providence, RI 02909",Beauty salon,Providence,http://www.ellopretty.com/,,,"shop.




",https://clients.mindbodyonline.com/classic/ws?studioid=144815&stype=42&sLoc=0&giftCardID=54,https://www.ellopretty.com/contact,contact.,1,RI,02909,beauty_salon
Christiaan Salon,"4 Benefit St, Providence, RI 02904",Beauty salon,Providence,http://www.christiaansalon.com/,,,Buy a Gift Card,https://www.christiaansalon.com/gifts,https://www.christiaansalon.com/about,Contact,1,RI,02904,beauty_salon
Shimmer Salon and Day Spa,"500 Main St, East Greenwich, RI 02818",Beauty salon,East Greenwich,http://www.shimmersalonanddayspa.com/,,,Gift CertificatesGift Certificates make a great gift for any loved one. Click here to purchase one online right now.,https://www.salonbuilder.com/website/188405/giftcert.asp,https://www.salonbuilder.com/website/188405/contact.asp,About,1,RI,02818,beauty_salon
Anika Skin Care & Makeup Studio,"238 Central St Unit #1, Hudson, NH 03051",Skin care clinic,Hudson,http://www.anikabeauty.com/,,,Gift Certificates,http://www.anikabeauty.com/products/anika-gift-certificates-for-services,http://www.anikabeauty.com/pages/contact-us,"
                                Learn more!
                              ",1,NH,03051,beauty_salon
chez Renee Esthetique,"46 Derry Rd #3, Hudson, NH 03051",Skin care clinic,Hudson,http://chezrenee.skincaretherapy.net/,,,Gift Certificates,http://chezrenee.skincaretherapy.net/gift-certificates,http://chezrenee.skincaretherapy.net/contact-information,Contact Information,1,NH,03051,beauty_salon
Nine Stones Spa,"185 Fore St, Portland, ME 04101",Day spa,Portland,https://www.ninestonesspa.com/,,,"
            Gift Certificates
          ",https://www.ninestonesspa.com/gifts,https://www.ninestonesspa.com/connect,"
            Find Us
          ",1,ME,04101,beauty_salon
Jordyn Warren Esthetics,"148 Washington St, Norwell, MA 02061",Spa,Norwell,http://www.jordynwarrenesthetics.skincaretherapy.net/,,,JW Esthetics Gift Cards,https://squareup.com/gift/CWZJP4F5KN076/order,,,1,MA,02061,beauty_salon
Trentanove MedSpa,"39 Thompson St, Winchester, MA 01890",Spa,Winchester,http://www.trentanoveskinstudio.com/,,,Gift Cards,http://trentanoveskinstudio.com/gift-card/,http://trentanoveskinstudio.com/contact/,Request an Appointment,1,MA,01890,beauty_salon
