name,address,type,place,website_url,menu_url,description,gift_card_txt,gift_card_website,contact_website,contact_txt,searched,state,zipcode,store_type
Rouvalis Flowers,"40 W Cedar St, Boston, MA 02108",Florist,Boston,http://rouvalisflowers.com/,,"Charming, petite florist offering flower delivery & home-landscaping design services.",,http://rouvalisflowers.com/designers-choice/egift-card,,,1,MA,02108,florist
Evans Flowers & Greenhouse,"49 Warren St, Peabody, MA 01960",Florist,Peabody,https://evansflowers.com/,,,"






                                    Evans Flowers Gift Card                                

                                    Evans Flowers Gift Card                                




                                                $25.00                                            










Same Day Delivery


ADD TO FAVORITES





",https://evansflowers.com/peabody-evans-flowers/evans-flowers-gift-card.html,,,1,MA,01960,florist
Affairs to Remember,"547 Main St, Melrose, MA 02176",Florist,Melrose,https://affairstorememberflorist.com/,,"Flower shop featuring everyday & special-occasion bouquets & plants, plus fruit & gift baskets.",View details,https://affairstorememberflorist.com/gift-certificate-1.html,https://affairstorememberflorist.com/contacts,"
Contact Us
",1,MA,02176,florist
Salvy The Florist of East Boston,"8 Chelsea St, Boston, MA 02128",florists,Boston,http://www.salvytheflorist.com/,,Veteran florist with 50 years of service offering gift baskets & arrangements for all occasions.,Â  Gift Certificates,http://www.salvytheflorist.com/giftcertificates.php,,,1,MA,02128,florist
